station,valid,lon,lat,tmpf,dwpf,relh,drct,sknt,p01i,alti,mslp,vsby,gust,skyc1,skyc2,skyc3,skyc4,skyl1,skyl2,skyl3,skyl4,wxcodes,ice_accretion_1hr,ice_accretion_3hr,ice_accretion_6hr,peak_wind_gust,peak_wind_drct,peak_wind_time,feel,metar,snowdepth
VVTS,1/1/2012 0:00,106.6667,10.8167,75.2,71.6,88.59,80,3,M,29.91,M,6.21,M,FEW,BKN,   ,   ,1700,4000,M,M,M,M,M,M,M,M,M,76.58,VVTS 010000Z 08003KT 9999 FEW017 BKN040 24/22 Q1013 NOSIG,M
VVTS,1/1/2012 0:30,106.6667,10.8167,75.2,71.6,88.59,M,3,M,29.91,M,6.21,M,FEW,BKN,   ,   ,1700,4000,M,M,M,M,M,M,M,M,M,76.58,VVTS 010030Z VRB03KT 9999 FEW017 BKN040 24/22 Q1013 NOSIG,M
VVTS,1/1/2012 1:00,106.6667,10.8167,77,71.6,83.44,100,3,M,29.94,M,6.21,M,FEW,BKN,   ,   ,1700,4000,M,M,M,M,M,M,M,M,M,78.32,VVTS 010100Z 10003KT 9999 FEW017 BKN040 25/22 Q1014 NOSIG,M
VVTS,1/1/2012 1:30,106.6667,10.8167,78.8,71.6,78.62,90,4,M,29.94,M,6.21,M,FEW,BKN,   ,   ,1700,4000,M,M,M,M,M,M,M,M,M,81.7,VVTS 010130Z 09004KT 050V120 9999 FEW017 BKN040 26/22 Q1014 NOSIG,M
VVTS,1/1/2012 2:00,106.6667,10.8167,78.8,71.6,78.62,M,3,M,29.94,M,6.21,M,FEW,BKN,   ,   ,1700,4000,M,M,M,M,M,M,M,M,M,81.7,VVTS 010200Z VRB03KT 9999 FEW017 BKN040 26/22 Q1014 NOSIG,M
VVTS,1/1/2012 2:30,106.6667,10.8167,80.6,71.6,74.11,M,2,M,29.91,M,6.21,M,FEW,BKN,   ,   ,1700,4000,M,M,M,M,M,M,M,M,M,84.57,VVTS 010230Z VRB02KT 9999 FEW017 BKN040 27/22 Q1013 NOSIG,M
VVTS,1/1/2012 3:00,106.6667,10.8167,82.4,71.6,69.9,M,3,M,29.91,M,6.21,M,FEW,BKN,   ,   ,1700,4000,M,M,M,M,M,M,M,M,M,87.18,VVTS 010300Z VRB03KT 9999 FEW017 BKN040 28/22 Q1013 NOSIG,M
VVTS,1/1/2012 3:30,106.6667,10.8167,84.2,69.8,62.03,40,4,M,29.91,M,6.21,M,FEW,BKN,   ,   ,1700,4000,M,M,M,M,M,M,M,M,M,88.43,VVTS 010330Z 04004KT 350V090 9999 FEW017 BKN040 29/21 Q1013 NOSIG,M
VVTS,1/1/2012 4:00,106.6667,10.8167,86,69.8,58.55,90,4,M,29.91,M,6.21,M,FEW,BKN,   ,   ,1700,4000,M,M,M,M,M,M,M,M,M,90.58,VVTS 010400Z 09004KT 030V130 9999 FEW017 BKN040 30/21 Q1013 NOSIG,M
VVTS,1/1/2012 4:30,106.6667,10.8167,86,69.8,58.55,M,2,M,29.88,M,6.21,M,FEW,BKN,   ,   ,1700,4000,M,M,M,M,M,M,M,M,M,90.58,VVTS 010430Z VRB02KT 9999 FEW017 BKN040 30/21 Q1012 NOSIG,M
VVTS,1/1/2012 5:00,106.6667,10.8167,87.8,68,51.98,70,4,M,29.88,M,6.21,M,FEW,BKN,   ,   ,1700,4000,M,M,M,M,M,M,M,M,M,91.43,VVTS 010500Z 07004KT 010V140 9999 FEW017 BKN040 31/20 Q1012 NOSIG,M
VVTS,1/1/2012 5:30,106.6667,10.8167,87.8,68,51.98,M,2,0,29.85,M,6.21,M,SCT,BKN,M,M,1700,4000,M,M,M,M,M,M,M,M,M,91.43,VVTS 010530Z VRB02KT 9999 SCT017 BKN040 31/20 Q1011 NOSIG,M
VVTS,1/1/2012 6:00,106.6667,10.8167,87.8,69.8,55.29,M,2,M,29.85,M,6.21,M,FEW,BKN,   ,   ,1700,4000,M,M,M,M,M,M,M,M,M,92.71,VVTS 010600Z VRB02KT 9999 FEW017 BKN040 31/21 Q1011 NOSIG,M
VVTS,1/1/2012 6:30,106.6667,10.8167,87.8,68,51.98,30,5,M,29.83,M,6.21,M,FEW,BKN,   ,   ,1700,4000,M,M,M,M,M,M,M,M,M,91.43,VVTS 010630Z 03005KT 360V080 9999 FEW017 BKN040 31/20 Q1010 NOSIG,M
VVTS,1/1/2012 7:00,106.6667,10.8167,87.8,69.8,55.29,M,3,M,29.83,M,6.21,M,FEW,BKN,   ,   ,1700,4000,M,M,M,M,M,M,M,M,M,92.71,VVTS 010700Z VRB03KT 9999 FEW017 BKN040 31/21 Q1010 NOSIG,M
VVTS,1/1/2012 7:30,106.6667,10.8167,87.8,69.8,55.29,M,2,M,29.83,M,6.21,M,FEW,BKN,   ,   ,1700,4000,M,M,M,M,M,M,M,M,M,92.71,VVTS 010730Z VRB02KT 9999 FEW017 BKN040 31/21 Q1010 NOSIG,M
VVTS,1/1/2012 8:00,106.6667,10.8167,87.8,69.8,55.29,M,2,M,29.83,M,6.21,M,SCT,BKN,   ,   ,1700,4000,M,M,M,M,M,M,M,M,M,92.71,VVTS 010800Z VRB02KT 9999 SCT017 BKN040 31/21 Q1010 NOSIG,M
VVTS,1/1/2012 8:30,106.6667,10.8167,86,69.8,58.55,160,6,M,29.83,M,6.21,M,SCT,BKN,   ,   ,1700,4000,M,M,M,M,M,M,M,M,M,90.58,VVTS 010830Z 16006KT 140V210 9999 SCT017 BKN040 30/21 Q1010 NOSIG,M
VVTS,1/1/2012 9:00,106.6667,10.8167,M,M,M,M,M,M,M,M,M,M,   ,   ,   ,   ,M,M,M,M,M,M,M,M,M,M,M,M,VVTS 010900Z NIL,M
VVTS,1/1/2012 9:30,106.6667,10.8167,84.2,73.4,70.08,180,6,M,29.83,M,6.21,M,FEW,SCT,BKN,   ,1500,1700,4000,M,M,M,M,M,M,M,M,90.94,VVTS 010930Z 18006KT 140V210 9999 FEW015TCU SCT017 BKN040 29/23 Q1010 NOSIG,M
VVTS,1/1/2012 10:00,106.6667,10.8167,82.4,73.4,74.28,180,7,M,29.83,M,6.21,M,SCT,BKN,   ,   ,1700,4000,M,M,M,M,M,M,M,M,M,88.26,VVTS 011000Z 18007KT 9999 SCT017 BKN040 28/23 Q1010 NOSIG,M
VVTS,1/1/2012 10:30,106.6667,10.8167,82.4,73.4,74.28,160,7,M,29.83,M,6.21,M,FEW,BKN,   ,   ,1700,4000,M,M,M,M,M,M,M,M,M,88.26,VVTS 011030Z 16007KT 9999 FEW017 BKN040 28/23 Q1010 NOSIG,M
VVTS,1/1/2012 11:00,106.6667,10.8167,82.4,71.6,69.9,150,4,M,29.85,M,6.21,M,FEW,BKN,   ,   ,1700,4000,M,M,M,M,M,M,M,M,M,87.18,VVTS 011100Z 15004KT 130V200 9999 FEW017 BKN040 28/22 Q1011 NOSIG,M
VVTS,1/1/2012 11:30,106.6667,10.8167,82.4,71.6,69.9,130,5,M,29.85,M,6.21,M,FEW,BKN,   ,   ,1700,4000,M,M,M,M,M,M,M,M,M,87.18,VVTS 011130Z 13005KT 9999 FEW017 BKN040 28/22 Q1011 NOSIG,M
VVTS,1/1/2012 12:00,106.6667,10.8167,80.6,71.6,74.11,120,5,M,29.85,M,6.21,M,FEW,SCT,   ,   ,1700,4000,M,M,M,M,M,M,M,M,M,84.57,VVTS 011200Z 12005KT 9999 FEW017 SCT040 27/22 Q1011 NOSIG,M
VVTS,1/1/2012 12:30,106.6667,10.8167,80.6,71.6,74.11,120,4,M,29.88,M,6.21,M,FEW,SCT,   ,   ,1700,4000,M,M,M,M,M,M,M,M,M,84.57,VVTS 011230Z 12004KT 100V190 9999 FEW017 SCT040 27/22 Q1012 NOSIG,M
VVTS,1/1/2012 13:00,106.6667,10.8167,80.6,71.6,74.11,120,5,M,29.88,M,6.21,M,FEW,SCT,   ,   ,1700,4000,M,M,M,M,M,M,M,M,M,84.57,VVTS 011300Z 12005KT 100V180 9999 FEW017 SCT040 27/22 Q1012 NOSIG,M
VVTS,1/1/2012 13:30,106.6667,10.8167,78.8,71.6,78.62,M,3,M,29.88,M,6.21,M,FEW,SCT,   ,   ,1700,4000,M,M,M,M,M,M,M,M,M,81.7,VVTS 011330Z VRB03KT 9999 FEW017 SCT040 26/22 Q1012 NOSIG,M
VVTS,1/1/2012 14:00,106.6667,10.8167,78.8,71.6,78.62,M,2,M,29.88,M,6.21,M,FEW,SCT,   ,   ,1700,4000,M,M,M,M,M,M,M,M,M,81.7,VVTS 011400Z VRB02KT 9999 FEW017 SCT040 26/22 Q1012 NOSIG,M
VVTS,1/1/2012 14:30,106.6667,10.8167,78.8,71.6,78.62,100,4,M,29.88,M,6.21,M,FEW,SCT,   ,   ,1700,4000,M,M,M,M,M,M,M,M,M,81.7,VVTS 011430Z 10004KT 9999 FEW017 SCT040 26/22 Q1012 NOSIG,M
VVTS,1/1/2012 15:00,106.6667,10.8167,78.8,71.6,78.62,100,6,M,29.88,M,6.21,M,FEW,SCT,   ,   ,1700,4000,M,M,M,M,M,M,M,M,M,81.7,VVTS 011500Z 10006KT 9999 FEW017 SCT040 26/22 Q1012 NOSIG,M
VVTS,1/1/2012 15:30,106.6667,10.8167,78.8,71.6,78.62,90,6,M,29.88,M,6.21,M,FEW,SCT,   ,   ,1700,4000,M,M,M,M,M,M,M,M,M,81.7,VVTS 011530Z 09006KT 9999 FEW017 SCT040 26/22 Q1012 NOSIG,M
VVTS,1/1/2012 16:00,106.6667,10.8167,77,71.6,83.44,100,5,M,29.88,M,6.21,M,FEW,SCT,   ,   ,1700,4000,M,M,M,M,M,M,M,M,M,78.32,VVTS 011600Z 10005KT 9999 FEW017 SCT040 25/22 Q1012 NOSIG,M
VVTS,1/1/2012 16:30,106.6667,10.8167,77,71.6,83.44,100,5,M,29.85,M,6.21,M,FEW,SCT,   ,   ,1700,4000,M,M,M,M,M,M,M,M,M,78.32,VVTS 011630Z 10005KT 9999 FEW017 SCT040 25/22 Q1011 NOSIG,M
VVTS,1/1/2012 17:00,106.6667,10.8167,77,71.6,83.44,100,6,M,29.85,M,6.21,M,FEW,SCT,   ,   ,1700,4000,M,M,M,M,M,M,M,M,M,78.32,VVTS 011700Z 10006KT 080V170 9999 FEW017 SCT040 25/22 Q1011 NOSIG,M
VVTS,1/1/2012 17:30,106.6667,10.8167,75.2,71.6,88.59,80,5,M,29.85,M,6.21,M,FEW,SCT,   ,   ,1700,4000,M,M,M,M,M,M,M,M,M,76.58,VVTS 011730Z 08005KT 9999 FEW017 SCT040 24/22 Q1011 NOSIG,M
VVTS,1/1/2012 18:00,106.6667,10.8167,75.2,71.6,88.59,110,6,M,29.85,M,6.21,M,FEW,SCT,   ,   ,1700,4000,M,M,M,M,M,M,M,M,M,76.58,VVTS 011800Z 11006KT 9999 FEW017 SCT040 24/22 Q1011 NOSIG,M
VVTS,1/1/2012 18:30,106.6667,10.8167,75.2,71.6,88.59,100,5,M,29.85,M,6.21,M,FEW,SCT,   ,   ,1700,4000,M,M,M,M,M,M,M,M,M,76.58,VVTS 011830Z 10005KT 9999 FEW017 SCT040 24/22 Q1011 NOSIG,M
VVTS,1/1/2012 19:00,106.6667,10.8167,75.2,71.6,88.59,130,5,M,29.85,M,6.21,M,FEW,SCT,   ,   ,1700,4000,M,M,M,M,M,M,M,M,M,76.58,VVTS 011900Z 13005KT 9999 FEW017 SCT040 24/22 Q1011 NOSIG,M
VVTS,1/1/2012 19:30,106.6667,10.8167,75.2,69.8,83.32,120,3,M,29.85,M,6.21,M,FEW,SCT,   ,   ,1700,4000,M,M,M,M,M,M,M,M,M,76.34,VVTS 011930Z 12003KT 9999 FEW017 SCT040 24/21 Q1011 NOSIG,M
VVTS,1/1/2012 20:00,106.6667,10.8167,75.2,69.8,83.32,110,4,M,29.85,M,6.21,M,FEW,SCT,   ,   ,1700,4000,M,M,M,M,M,M,M,M,M,76.34,VVTS 012000Z 11004KT 9999 FEW017 SCT040 24/21 Q1011 NOSIG,M
VVTS,1/1/2012 20:30,106.6667,10.8167,75.2,69.8,83.32,130,5,M,29.85,M,6.21,M,FEW,SCT,   ,   ,1700,4000,M,M,M,M,M,M,M,M,M,76.34,VVTS 012030Z 13005KT 080V160 9999 FEW017 SCT040 24/21 Q1011 NOSIG,M
VVTS,1/1/2012 21:00,106.6667,10.8167,75.2,69.8,83.32,110,4,M,29.85,M,6.21,M,FEW,SCT,   ,   ,1700,4000,M,M,M,M,M,M,M,M,M,76.34,VVTS 012100Z 11004KT 9999 FEW017 SCT040 24/21 Q1011 NOSIG,M
VVTS,1/1/2012 21:30,106.6667,10.8167,75.2,71.6,88.59,130,3,M,29.85,M,6.21,M,FEW,SCT,   ,   ,1700,4000,M,M,M,M,M,M,M,M,M,76.58,VVTS 012130Z 13003KT 9999 FEW017 SCT040 24/22 Q1011 NOSIG,M
VVTS,1/1/2012 22:00,106.6667,10.8167,75.2,69.8,83.32,130,4,M,29.85,M,6.21,M,FEW,SCT,   ,   ,1700,4000,M,M,M,M,M,M,M,M,M,76.34,VVTS 012200Z 13004KT 9999 FEW017 SCT040 24/21 Q1011 NOSIG,M
VVTS,1/1/2012 22:30,106.6667,10.8167,75.2,69.8,83.32,100,4,M,29.88,M,6.21,M,FEW,SCT,   ,   ,1700,4000,M,M,M,M,M,M,M,M,M,76.34,VVTS 012230Z 10004KT 9999 FEW017 SCT040 24/21 Q1012 NOSIG,M
VVTS,1/1/2012 23:00,106.6667,10.8167,73.4,69.8,88.51,100,2,M,29.88,M,6.21,M,FEW,SCT,   ,   ,1700,4000,M,M,M,M,M,M,M,M,M,74.6,VVTS 012300Z 10002KT 9999 FEW017 SCT040 23/21 Q1012 NOSIG,M
VVTS,1/1/2012 23:30,106.6667,10.8167,75.2,69.8,83.32,M,2,M,29.88,M,6.21,M,FEW,BKN,   ,   ,1700,4000,M,M,M,M,M,M,M,M,M,76.34,VVTS 012330Z VRB02KT 9999 FEW017 BKN040 24/21 Q1012 NOSIG,M
VVTS,1/2/2012 0:00,106.6667,10.8167,75.2,71.6,88.59,80,4,M,29.91,M,6.21,M,FEW,SCT,   ,   ,1700,4000,M,M,M,M,M,M,M,M,M,76.58,VVTS 020000Z 08004KT 9999 FEW017 SCT040 24/22 Q1013 NOSIG,M
VVTS,1/2/2012 0:30,106.6667,10.8167,75.2,71.6,88.59,M,3,M,29.91,M,6.21,M,SCT,SCT,   ,   ,1700,4000,M,M,M,M,M,M,M,M,M,76.58,VVTS 020030Z VRB03KT 9999 SCT017 SCT040 24/22 Q1013 NOSIG,M
VVTS,1/2/2012 1:00,106.6667,10.8167,75.2,71.6,88.59,70,4,M,29.94,M,6.21,M,SCT,SCT,   ,   ,1700,4000,M,M,M,M,M,M,M,M,M,76.58,VVTS 020100Z 07004KT 9999 SCT017 SCT040 24/22 Q1014 NOSIG,M
VVTS,1/2/2012 1:30,106.6667,10.8167,77,71.6,83.44,50,5,M,29.94,M,6.21,M,SCT,SCT,   ,   ,1700,4000,M,M,M,M,M,M,M,M,M,78.32,VVTS 020130Z 05005KT 020V090 9999 SCT017 SCT040 25/22 Q1014 NOSIG,M
VVTS,1/2/2012 2:00,106.6667,10.8167,80.6,71.6,74.11,60,5,M,29.94,M,6.21,M,FEW,BKN,   ,   ,1700,4000,M,M,M,M,M,M,M,M,M,84.57,VVTS 020200Z 06005KT 9999 FEW017 BKN040 27/22 Q1014 NOSIG,M
VVTS,1/2/2012 2:30,106.6667,10.8167,82.4,71.6,69.9,60,5,M,29.91,M,6.21,M,FEW,SCT,   ,   ,1700,4000,M,M,M,M,M,M,M,M,M,87.18,VVTS 020230Z 06005KT 020V100 9999 FEW017 SCT040 28/22 Q1013 NOSIG,M
VVTS,1/2/2012 3:00,106.6667,10.8167,82.4,71.6,69.9,50,4,M,29.91,M,6.21,M,FEW,BKN,   ,   ,1700,4000,M,M,M,M,M,M,M,M,M,87.18,VVTS 020300Z 05004KT 340V110 9999 FEW017 BKN040 28/22 Q1013 NOSIG,M
VVTS,1/2/2012 3:30,106.6667,10.8167,82.4,71.6,69.9,M,3,M,29.91,M,6.21,M,FEW,BKN,   ,   ,1700,4000,M,M,M,M,M,M,M,M,M,87.18,VVTS 020330Z VRB03KT 9999 FEW017 BKN040 28/22 Q1013 NOSIG,M
VVTS,1/2/2012 4:00,106.6667,10.8167,84.2,71.6,65.95,M,3,M,29.91,M,4.35,M,FEW,BKN,   ,   ,1700,4000,M,M,M,M,M,M,M,M,M,89.6,VVTS 020400Z VRB03KT 7000 FEW017 BKN040 29/22 Q1013 NOSIG,M
VVTS,1/2/2012 4:30,106.6667,10.8167,84.2,71.6,65.95,M,3,M,29.88,M,6.21,M,SCT,   ,   ,   ,1700,M,M,M,M,M,M,M,M,M,M,89.6,VVTS 020430Z VRB03KT 9999 SCT017 29/22 Q1012 NOSIG,M
VVTS,1/2/2012 5:00,106.6667,10.8167,84.2,71.6,65.95,M,3,M,29.88,M,6.21,M,SCT,   ,   ,   ,1700,M,M,M,M,M,M,M,M,M,M,89.6,VVTS 020500Z VRB03KT 9999 SCT017 29/22 Q1012 NOSIG,M
VVTS,1/2/2012 5:30,106.6667,10.8167,87.8,71.6,58.78,M,2,M,29.85,M,6.21,M,SCT,   ,   ,   ,1700,M,M,M,M,M,M,M,M,M,M,94.18,VVTS 020530Z VRB02KT 9999 SCT017 31/22 Q1011 NOSIG,M
VVTS,1/2/2012 6:00,106.6667,10.8167,87.8,71.6,58.78,310,5,M,29.83,M,6.21,M,SCT,   ,   ,   ,1700,M,M,M,M,M,M,M,M,M,M,94.18,VVTS 020600Z 31005KT 250V010 9999 SCT017 31/22 Q1010 NOSIG,M
VVTS,1/2/2012 6:30,106.6667,10.8167,86,71.6,62.25,M,2,M,29.83,M,6.21,M,SCT,   ,   ,   ,1700,M,M,M,M,M,M,M,M,M,M,91.92,VVTS 020630Z VRB02KT 9999 SCT017 30/22 Q1010 NOSIG,M
VVTS,1/2/2012 7:00,106.6667,10.8167,86,71.6,62.25,M,2,M,29.8,M,6.21,M,SCT,   ,   ,   ,1700,M,M,M,M,M,M,M,M,M,M,91.92,VVTS 020700Z VRB02KT 9999 SCT017 30/22 Q1009 NOSIG,M
VVTS,1/2/2012 7:30,106.6667,10.8167,87.8,71.6,58.78,170,4,M,29.8,M,6.21,M,SCT,   ,   ,   ,1700,M,M,M,M,M,M,M,M,M,M,94.18,VVTS 020730Z 17004KT 140V210 9999 SCT017 31/22 Q1009 NOSIG,M
VVTS,1/2/2012 8:00,106.6667,10.8167,87.8,71.6,58.78,220,4,M,29.8,M,6.21,M,SCT,   ,   ,   ,1700,M,M,M,M,M,M,M,M,M,M,94.18,VVTS 020800Z 22004KT 180V270 9999 SCT017 31/22 Q1009 NOSIG,M
VVTS,1/2/2012 8:30,106.6667,10.8167,87.8,71.6,58.78,220,4,M,29.77,M,6.21,M,SCT,   ,   ,   ,1700,M,M,M,M,M,M,M,M,M,M,94.18,VVTS 020830Z 22004KT 060V030 9999 SCT017 31/22 Q1008 NOSIG,M
VVTS,1/2/2012 9:00,106.6667,10.8167,86,69.8,58.55,220,4,M,29.8,M,6.21,M,SCT,   ,   ,   ,1700,M,M,M,M,M,M,M,M,M,M,90.58,VVTS 020900Z 22004KT 9999 SCT017 30/21 Q1009 NOSIG,M
VVTS,1/2/2012 9:30,106.6667,10.8167,84.2,71.6,65.95,170,9,M,29.8,M,6.21,M,SCT,   ,   ,   ,1700,M,M,M,M,M,M,M,M,M,M,89.6,VVTS 020930Z 17009KT 9999 SCT017 29/22 Q1009 NOSIG,M
VVTS,1/2/2012 10:00,106.6667,10.8167,82.4,71.6,69.9,170,10,M,29.8,M,6.21,M,SCT,   ,   ,   ,1700,M,M,M,M,M,M,M,M,M,M,87.18,VVTS 021000Z 17010KT 9999 SCT017 28/22 Q1009 NOSIG,M
VVTS,1/2/2012 10:30,106.6667,10.8167,80.6,71.6,74.11,160,9,M,29.83,M,6.21,M,SCT,   ,   ,   ,1700,M,M,M,M,M,M,M,M,M,M,84.57,VVTS 021030Z 16009KT 9999 SCT017 27/22 Q1010 NOSIG,M
VVTS,1/2/2012 11:00,106.6667,10.8167,80.6,69.8,69.71,150,7,M,29.83,M,6.21,M,FEW,SCT,BKN,   ,1500,1700,4000,M,M,M,M,M,M,M,M,83.9,VVTS 021100Z 15007KT 130V200 9999 FEW015TCU SCT017 BKN040 27/21 Q1010 NOSIG,M
VVTS,1/2/2012 11:30,106.6667,10.8167,78.8,69.8,73.95,150,9,M,29.85,M,6.21,M,FEW,SCT,BKN,   ,1500,1700,4000,M,M,M,M,M,M,M,M,81.39,VVTS 021130Z 15009KT 9999 FEW015TCU SCT017 BKN040 26/21 Q1011 NOSIG,M
VVTS,1/2/2012 12:00,106.6667,10.8167,78.8,69.8,73.95,130,7,M,29.85,M,6.21,M,FEW,SCT,   ,   ,1500,1700,M,M,M,M,M,M,M,M,M,81.39,VVTS 021200Z 13007KT 9999 FEW015TCU SCT017 26/21 Q1011 NOSIG,M
VVTS,1/2/2012 12:30,106.6667,10.8167,78.8,69.8,73.95,140,7,M,29.85,M,6.21,M,FEW,SCT,   ,   ,1700,4000,M,M,M,M,M,M,M,M,M,81.39,VVTS 021230Z 14007KT 090V200 9999 FEW017 SCT040 26/21 Q1011 NOSIG,M
VVTS,1/2/2012 13:00,106.6667,10.8167,78.8,69.8,73.95,120,8,M,29.88,M,6.21,M,FEW,SCT,   ,   ,1700,4000,M,M,M,M,M,M,M,M,M,81.39,VVTS 021300Z 12008KT 9999 FEW017 SCT040 26/21 Q1012 NOSIG,M
VVTS,1/2/2012 13:30,106.6667,10.8167,77,69.8,78.48,140,7,M,29.88,M,6.21,M,FEW,SCT,   ,   ,1700,4000,M,M,M,M,M,M,M,M,M,78.09,VVTS 021330Z 14007KT 9999 FEW017 SCT040 25/21 Q1012 NOSIG,M
VVTS,1/2/2012 14:00,106.6667,10.8167,75.2,69.8,83.32,130,6,M,29.88,M,6.21,M,FEW,SCT,   ,   ,1700,4000,M,M,M,M,M,M,M,M,M,76.34,VVTS 021400Z 13006KT 100V180 9999 FEW017 SCT040 24/21 Q1012 NOSIG,M
VVTS,1/2/2012 14:30,106.6667,10.8167,75.2,69.8,83.32,120,5,M,29.88,M,6.21,M,FEW,SCT,   ,   ,1700,4000,M,M,M,M,M,M,M,M,M,76.34,VVTS 021430Z 12005KT 090V160 9999 FEW017 SCT040 24/21 Q1012 NOSIG,M
VVTS,1/2/2012 15:00,106.6667,10.8167,75.2,69.8,83.32,130,7,M,29.88,M,6.21,M,FEW,SCT,   ,   ,1700,4000,M,M,M,M,M,M,M,M,M,76.34,VVTS 021500Z 13007KT 9999 FEW017 SCT040 24/21 Q1012 NOSIG,M
VVTS,1/2/2012 15:30,106.6667,10.8167,75.2,69.8,83.32,110,8,M,29.88,M,6.21,M,FEW,SCT,   ,   ,1700,4000,M,M,M,M,M,M,M,M,M,76.34,VVTS 021530Z 11008KT 9999 FEW017 SCT040 24/21 Q1012 NOSIG,M
VVTS,1/2/2012 16:00,106.6667,10.8167,75.2,69.8,83.32,110,4,M,29.88,M,6.21,M,FEW,SCT,   ,   ,1700,4000,M,M,M,M,M,M,M,M,M,76.34,VVTS 021600Z 11004KT 9999 FEW017 SCT040 24/21 Q1012 NOSIG,M
VVTS,1/2/2012 16:30,106.6667,10.8167,73.4,69.8,88.51,110,4,M,29.88,M,6.21,M,FEW,SCT,   ,   ,1700,4000,M,M,M,M,M,M,M,M,M,74.6,VVTS 021630Z 11004KT 9999 FEW017 SCT040 23/21 Q1012 NOSIG,M
VVTS,1/2/2012 17:00,106.6667,10.8167,75.2,69.8,83.32,M,3,M,29.88,M,6.21,M,FEW,SCT,   ,   ,1700,4000,M,M,M,M,M,M,M,M,M,76.34,VVTS 021700Z VRB03KT 9999 FEW017 SCT040 24/21 Q1012 NOSIG,M
VVTS,1/2/2012 17:30,106.6667,10.8167,75.2,71.6,88.59,100,1,M,29.85,M,6.21,M,FEW,SCT,   ,   ,1700,4000,M,M,M,M,M,M,M,M,M,76.58,VVTS 021730Z 10001KT 9999 FEW017 SCT040 24/22 Q1011 NOSIG,M
VVTS,1/2/2012 18:00,106.6667,10.8167,73.4,71.6,94.1,0,0,M,29.85,M,6.21,M,FEW,BKN,   ,   ,1700,4000,M,M,M,M,M,M,M,M,M,74.86,VVTS 021800Z 00000KT 9999 FEW017 BKN040 23/22 Q1011 NOSIG,M
VVTS,1/2/2012 18:30,106.6667,10.8167,73.4,71.6,94.1,M,1,M,29.85,M,6.21,M,FEW,BKN,   ,   ,1700,4000,M,M,M,M,M,M,M,M,M,74.86,VVTS 021830Z VRB01KT 9999 FEW017 BKN040 23/22 Q1011 NOSIG,M
VVTS,1/2/2012 19:00,106.6667,10.8167,73.4,71.6,94.1,M,1,M,29.83,M,6.21,M,FEW,BKN,   ,   ,1700,4000,M,M,M,M,M,M,M,M,M,74.86,VVTS 021900Z VRB01KT 9999 FEW017 BKN040 23/22 Q1010 NOSIG,M
VVTS,1/2/2012 19:30,106.6667,10.8167,73.4,71.6,94.1,70,1,M,29.83,M,6.21,M,FEW,BKN,   ,   ,1700,4000,M,M,M,M,M,M,M,M,M,74.86,VVTS 021930Z 07001KT 9999 FEW017 BKN040 23/22 Q1010 NOSIG,M
VVTS,1/2/2012 20:00,106.6667,10.8167,73.4,71.6,94.1,70,1,M,29.83,M,6.21,M,FEW,BKN,   ,   ,1700,4000,M,M,M,M,M,M,M,M,M,74.86,VVTS 022000Z 07001KT 9999 FEW017 BKN040 23/22 Q1010 NOSIG,M
VVTS,1/2/2012 20:30,106.6667,10.8167,73.4,71.6,94.1,0,0,M,29.83,M,6.21,M,FEW,BKN,   ,   ,1700,4000,M,M,M,M,M,M,M,M,M,74.86,VVTS 022030Z 00000KT 9999 FEW017 BKN040 23/22 Q1010 NOSIG,M
VVTS,1/2/2012 21:00,106.6667,10.8167,73.4,71.6,94.1,70,3,M,29.85,M,6.21,M,FEW,BKN,   ,   ,1700,4000,M,M,M,M,M,M,M,M,M,74.86,VVTS 022100Z 07003KT 9999 FEW017 BKN040 23/22 Q1011 NOSIG,M
VVTS,1/2/2012 21:30,106.6667,10.8167,73.4,69.8,88.51,80,4,M,29.85,M,6.21,M,FEW,BKN,   ,   ,1700,4000,M,M,M,M,M,M,M,M,M,74.6,VVTS 022130Z 08004KT 9999 FEW017 BKN040 23/21 Q1011 NOSIG,M
VVTS,1/2/2012 22:00,106.6667,10.8167,M,M,M,M,M,M,M,M,M,M,   ,   ,   ,   ,M,M,M,M,M,M,M,M,M,M,M,M,VVTS 022200Z NIL,M
VVTS,1/2/2012 22:30,106.6667,10.8167,71.6,69.8,94.06,60,3,M,29.85,M,6.21,M,FEW,SCT,   ,   ,1700,4000,M,M,M,M,M,M,M,M,M,72.88,VVTS 022230Z 06003KT 9999 FEW017 SCT040 22/21 Q1011 NOSIG,M
VVTS,1/2/2012 23:00,106.6667,10.8167,71.6,71.6,100,70,4,M,29.85,M,6.21,M,FEW,SCT,   ,   ,1700,4000,M,M,M,M,M,M,M,M,M,73.16,VVTS 022300Z 07004KT 9999 FEW017 SCT040 22/22 Q1011 NOSIG,M
VVTS,1/2/2012 23:30,106.6667,10.8167,71.6,71.6,100,80,4,M,29.88,M,6.21,M,FEW,SCT,   ,   ,1700,4000,M,M,M,M,M,M,M,M,M,73.16,VVTS 022330Z 08004KT 9999 FEW017 SCT040 22/22 Q1012 NOSIG,M
VVTS,1/3/2012 0:00,106.6667,10.8167,M,M,M,M,M,M,M,M,M,M,   ,   ,   ,   ,M,M,M,M,M,M,M,M,M,M,M,M,VVTS 030000Z NIL,M
VVTS,1/3/2012 0:30,106.6667,10.8167,73.4,71.6,94.1,70,2,M,29.88,M,5.59,M,FEW,SCT,   ,   ,1700,4000,M,M,M,M,M,M,M,M,M,74.86,VVTS 030030Z 07002KT 9000 FEW017 SCT040 23/22 Q1012 NOSIG,M
VVTS,1/3/2012 1:00,106.6667,10.8167,M,M,M,M,M,M,M,M,M,M,   ,   ,   ,   ,M,M,M,M,M,M,M,M,M,M,M,M,VVTS 030100Z NIL,M
VVTS,1/3/2012 1:30,106.6667,10.8167,77,71.6,83.44,M,2,M,29.91,M,4.97,M,FEW,BKN,   ,   ,1700,4000,M,M,M,M,M,M,M,M,M,78.32,VVTS 030130Z VRB02KT 8000 FEW017 BKN040 25/22 Q1013 NOSIG,M
VVTS,1/3/2012 2:00,106.6667,10.8167,78.8,69.8,73.95,M,3,M,29.91,M,6.21,M,FEW,BKN,   ,   ,1700,4000,M,M,M,M,M,M,M,M,M,81.39,VVTS 030200Z VRB03KT 9999 FEW017 BKN040 26/21 Q1013 NOSIG,M
VVTS,1/3/2012 2:30,106.6667,10.8167,80.6,69.8,69.71,M,3,M,29.91,M,6.21,M,FEW,SCT,   ,   ,1700,4000,M,M,M,M,M,M,M,M,M,83.9,VVTS 030230Z VRB03KT 9999 FEW017 SCT040 27/21 Q1013 NOSIG,M
VVTS,1/3/2012 3:00,106.6667,10.8167,84.2,71.6,65.95,M,3,M,29.91,M,6.21,M,FEW,SCT,   ,   ,1700,4000,M,M,M,M,M,M,M,M,M,89.6,VVTS 030300Z VRB03KT 9999 FEW017 SCT040 29/22 Q1013 NOSIG,M
VVTS,1/3/2012 3:30,106.6667,10.8167,84.2,69.8,62.03,M,2,M,29.88,M,6.21,M,FEW,   ,   ,   ,1700,M,M,M,M,M,M,M,M,M,M,88.43,VVTS 030330Z VRB02KT 9999 FEW017 29/21 Q1012 NOSIG,M
VVTS,1/3/2012 4:00,106.6667,10.8167,86,69.8,58.55,M,2,M,29.88,M,6.21,M,SCT,   ,   ,   ,1700,M,M,M,M,M,M,M,M,M,M,90.58,VVTS 030400Z VRB02KT 9999 SCT017 30/21 Q1012 NOSIG,M
VVTS,1/3/2012 4:30,106.6667,10.8167,84.2,69.8,62.03,M,2,M,29.85,M,6.21,M,SCT,   ,   ,   ,1700,M,M,M,M,M,M,M,M,M,M,88.43,VVTS 030430Z VRB02KT 9999 SCT017 29/21 Q1011 NOSIG,M
VVTS,1/3/2012 5:00,106.6667,10.8167,87.8,69.8,55.29,M,1,M,29.85,M,6.21,M,SCT,   ,   ,   ,1700,M,M,M,M,M,M,M,M,M,M,92.71,VVTS 030500Z VRB01KT 9999 SCT017 31/21 Q1011 NOSIG,M
VVTS,1/3/2012 5:30,106.6667,10.8167,89.6,69.8,52.23,M,2,M,29.83,M,6.21,M,SCT,   ,   ,   ,1700,M,M,M,M,M,M,M,M,M,M,94.85,VVTS 030530Z VRB02KT 9999 SCT017 32/21 Q1010 NOSIG,M
VVTS,1/3/2012 6:00,106.6667,10.8167,87.8,69.8,55.29,250,4,M,29.83,M,5.59,M,BKN,   ,   ,   ,1700,M,M,M,M,M,M,M,M,M,M,92.71,VVTS 030600Z 25004KT 210V310 9000 BKN017 31/21 Q1010 NOSIG,M
VVTS,1/3/2012 6:30,106.6667,10.8167,89.6,71.6,55.53,230,6,M,29.8,M,6.21,M,BKN,   ,   ,   ,1700,M,M,M,M,M,M,M,M,M,M,96.41,VVTS 030630Z 23006KT 190V270 9999 BKN017 32/22 Q1009 NOSIG,M
VVTS,1/3/2012 7:00,106.6667,10.8167,87.8,69.8,55.29,190,7,M,29.8,M,6.21,M,BKN,   ,   ,   ,1700,M,M,M,M,M,M,M,M,M,M,92.71,VVTS 030700Z 19007KT 9999 BKN017 31/21 Q1009 NOSIG,M
VVTS,1/3/2012 7:30,106.6667,10.8167,84.2,69.8,62.03,180,6,M,29.8,M,6.21,M,BKN,   ,   ,   ,1700,M,M,M,M,M,M,M,M,M,M,88.43,VVTS 030730Z 18006KT 9999 BKN017 29/21 Q1009 NOSIG,M
VVTS,1/3/2012 8:00,106.6667,10.8167,84.2,69.8,62.03,170,8,M,29.8,M,6.21,M,BKN,   ,   ,   ,1700,M,M,M,M,M,M,M,M,M,M,88.43,VVTS 030800Z 17008KT 9999 BKN017 29/21 Q1009 NOSIG,M
VVTS,1/3/2012 8:30,106.6667,10.8167,84.2,69.8,62.03,180,8,M,29.8,M,6.21,M,BKN,   ,   ,   ,1700,M,M,M,M,M,M,M,M,M,M,88.43,VVTS 030830Z 18008KT 140V220 9999 BKN017 29/21 Q1009 NOSIG,M
VVTS,1/3/2012 9:00,106.6667,10.8167,84.2,71.6,65.95,200,9,M,29.8,M,6.21,M,BKN,   ,   ,   ,1700,M,M,M,M,M,M,M,M,M,M,89.6,VVTS 030900Z 20009KT 9999 BKN017 29/22 Q1009 NOSIG,M
VVTS,1/3/2012 9:30,106.6667,10.8167,82.4,69.8,65.74,180,7,M,29.8,M,6.21,M,BKN,   ,   ,   ,1700,M,M,M,M,M,M,M,M,M,M,86.22,VVTS 030930Z 18007KT 9999 BKN017 28/21 Q1009 NOSIG,M
VVTS,1/3/2012 10:00,106.6667,10.8167,82.4,69.8,65.74,170,8,M,29.83,M,6.21,M,FEW,   ,   ,   ,1700,M,M,M,M,M,M,M,M,M,M,86.22,VVTS 031000Z 17008KT 150V210 9999 FEW017 28/21 Q1010 NOSIG,M
VVTS,1/3/2012 10:30,106.6667,10.8167,80.6,69.8,69.71,170,9,M,29.83,M,6.21,M,FEW,   ,   ,   ,1700,M,M,M,M,M,M,M,M,M,M,83.9,VVTS 031030Z 17009KT 9999 FEW017 27/21 Q1010 NOSIG,M
VVTS,1/3/2012 11:00,106.6667,10.8167,78.8,69.8,73.95,180,7,M,29.85,M,6.21,M,FEW,   ,   ,   ,1700,M,M,M,M,M,M,M,M,M,M,81.39,VVTS 031100Z 18007KT 9999 FEW017 26/21 Q1011 NOSIG,M
VVTS,1/3/2012 11:30,106.6667,10.8167,78.8,69.8,73.95,170,7,M,29.85,M,6.21,M,FEW,   ,   ,   ,1700,M,M,M,M,M,M,M,M,M,M,81.39,VVTS 031130Z 17007KT 9999 FEW017 26/21 Q1011 NOSIG,M
VVTS,1/3/2012 12:00,106.6667,10.8167,78.8,68,69.52,150,7,M,29.85,M,6.21,M,FEW,   ,   ,   ,1700,M,M,M,M,M,M,M,M,M,M,81.1,VVTS 031200Z 15007KT 130V200 9999 FEW017 26/20 Q1011 NOSIG,M
VVTS,1/3/2012 12:30,106.6667,10.8167,78.8,68,69.52,150,5,M,29.88,M,6.21,M,FEW,   ,   ,   ,1700,M,M,M,M,M,M,M,M,M,M,81.1,VVTS 031230Z 15005KT 120V200 9999 FEW017 26/20 Q1012 NOSIG,M
VVTS,1/3/2012 13:00,106.6667,10.8167,78.8,68,69.52,140,7,M,29.88,M,6.21,M,FEW,   ,   ,   ,1700,M,M,M,M,M,M,M,M,M,M,81.1,VVTS 031300Z 14007KT 9999 FEW017 26/20 Q1012 NOSIG,M
VVTS,1/3/2012 13:30,106.6667,10.8167,77,68,73.78,130,7,M,29.88,M,6.21,M,FEW,   ,   ,   ,1700,M,M,M,M,M,M,M,M,M,M,77,VVTS 031330Z 13007KT 100V160 9999 FEW017 25/20 Q1012 NOSIG,M
VVTS,1/3/2012 14:00,106.6667,10.8167,75.2,69.8,83.32,120,5,M,29.88,M,6.21,M,FEW,   ,   ,   ,1700,M,M,M,M,M,M,M,M,M,M,76.34,VVTS 031400Z 12005KT 090V170 9999 FEW017 24/21 Q1012 NOSIG,M
VVTS,1/3/2012 14:30,106.6667,10.8167,75.2,68,78.34,120,5,M,29.91,M,6.21,M,FEW,   ,   ,   ,1700,M,M,M,M,M,M,M,M,M,M,75.2,VVTS 031430Z 12005KT 9999 FEW017 24/20 Q1013 NOSIG,M
VVTS,1/3/2012 15:00,106.6667,10.8167,75.2,68,78.34,130,5,M,29.91,M,6.21,M,FEW,   ,   ,   ,1700,M,M,M,M,M,M,M,M,M,M,75.2,VVTS 031500Z 13005KT 9999 FEW017 24/20 Q1013 NOSIG,M
VVTS,1/3/2012 15:30,106.6667,10.8167,73.4,68,83.21,110,4,M,29.91,M,6.21,M,FEW,   ,   ,   ,1700,M,M,M,M,M,M,M,M,M,M,73.4,VVTS 031530Z 11004KT 090V150 9999 FEW017 23/20 Q1013 NOSIG,M
VVTS,1/3/2012 16:00,106.6667,10.8167,M,M,M,M,M,M,M,M,M,M,   ,   ,   ,   ,M,M,M,M,M,M,M,M,M,M,M,M,VVTS 031600Z NIL,M
VVTS,1/3/2012 16:30,106.6667,10.8167,73.4,68,83.21,110,5,M,29.88,M,6.21,M,FEW,   ,   ,   ,1700,M,M,M,M,M,M,M,M,M,M,73.4,VVTS 031630Z 11005KT 9999 FEW017 23/20 Q1012 NOSIG,M
VVTS,1/3/2012 17:00,106.6667,10.8167,73.4,68,83.21,130,2,M,29.88,M,6.21,M,FEW,   ,   ,   ,1700,M,M,M,M,M,M,M,M,M,M,73.4,VVTS 031700Z 13002KT 9999 FEW017 23/20 Q1012 NOSIG,M
VVTS,1/3/2012 17:30,106.6667,10.8167,73.4,68,83.21,M,1,M,29.88,M,6.21,M,FEW,   ,   ,   ,1700,M,M,M,M,M,M,M,M,M,M,73.4,VVTS 031730Z VRB01KT 9999 FEW017 23/20 Q1012 NOSIG,M
VVTS,1/3/2012 18:00,106.6667,10.8167,73.4,68,83.21,110,5,M,29.88,M,6.21,M,FEW,   ,   ,   ,1700,M,M,M,M,M,M,M,M,M,M,73.4,VVTS 031800Z 11005KT 9999 FEW017 23/20 Q1012 NOSIG,M
VVTS,1/3/2012 18:30,106.6667,10.8167,73.4,68,83.21,120,2,M,29.88,M,6.21,M,FEW,   ,   ,   ,1700,M,M,M,M,M,M,M,M,M,M,73.4,VVTS 031830Z 12002KT 9999 FEW017 23/20 Q1012 NOSIG,M
VVTS,1/3/2012 19:00,106.6667,10.8167,73.4,68,83.21,110,5,M,29.85,M,6.21,M,FEW,   ,   ,   ,1700,M,M,M,M,M,M,M,M,M,M,73.4,VVTS 031900Z 11005KT 9999 FEW017 23/20 Q1011 NOSIG,M
VVTS,1/3/2012 19:30,106.6667,10.8167,73.4,68,83.21,90,4,M,29.85,M,6.21,M,FEW,   ,   ,   ,1700,M,M,M,M,M,M,M,M,M,M,73.4,VVTS 031930Z 09004KT 9999 FEW017 23/20 Q1011 NOSIG,M
VVTS,1/3/2012 20:00,106.6667,10.8167,71.6,68,88.43,90,1,M,29.85,M,6.21,M,FEW,   ,   ,   ,1700,M,M,M,M,M,M,M,M,M,M,72.62,VVTS 032000Z 09001KT 9999 FEW017 22/20 Q1011 NOSIG,M
VVTS,1/3/2012 20:30,106.6667,10.8167,71.6,69.8,94.06,100,1,M,29.85,M,6.21,M,FEW,   ,   ,   ,1700,M,M,M,M,M,M,M,M,M,M,72.88,VVTS 032030Z 10001KT 9999 FEW017 22/21 Q1011 NOSIG,M
VVTS,1/3/2012 21:00,106.6667,10.8167,71.6,69.8,94.06,M,2,M,29.85,M,6.21,M,FEW,SCT,   ,   ,1700,4000,M,M,M,M,M,M,M,M,M,72.88,VVTS 032100Z VRB02KT 9999 FEW017 SCT040 22/21 Q1011 NOSIG,M
VVTS,1/3/2012 21:30,106.6667,10.8167,71.6,69.8,94.06,110,4,M,29.88,M,6.21,M,FEW,BKN,   ,   ,1700,4000,M,M,M,M,M,M,M,M,M,72.88,VVTS 032130Z 11004KT 9999 FEW017 BKN040 22/21 Q1012 NOSIG,M
VVTS,1/3/2012 22:00,106.6667,10.8167,71.6,69.8,94.06,110,3,M,29.88,M,6.21,M,FEW,BKN,   ,   ,1700,4000,M,M,M,M,M,M,M,M,M,72.88,VVTS 032200Z 11003KT 9999 FEW017 BKN040 22/21 Q1012 NOSIG,M
VVTS,1/3/2012 22:30,106.6667,10.8167,71.6,69.8,94.06,80,3,M,29.88,M,6.21,M,FEW,SCT,   ,   ,1700,4000,M,M,M,M,M,M,M,M,M,72.88,VVTS 032230Z 08003KT 9999 FEW017 SCT040 22/21 Q1012 NOSIG,M
VVTS,1/3/2012 23:00,106.6667,10.8167,69.8,69.8,100,80,4,M,29.88,M,6.21,M,FEW,SCT,   ,   ,1700,4000,M,M,M,M,M,M,M,M,M,69.8,VVTS 032300Z 08004KT 9999 FEW017 SCT040 21/21 Q1012 NOSIG,M
VVTS,1/3/2012 23:30,106.6667,10.8167,69.8,69.8,100,30,2,M,29.91,M,5.59,M,FEW,SCT,   ,   ,1700,4000,M,M,M,M,M,M,M,M,M,69.8,VVTS 032330Z 03002KT 9000 FEW017 SCT040 21/21 Q1013 NOSIG,M
VVTS,1/4/2012 0:00,106.6667,10.8167,M,M,M,M,M,M,M,M,M,M,   ,   ,   ,   ,M,M,M,M,M,M,M,M,M,M,M,M,VVTS 040000Z NIL,M
VVTS,1/4/2012 0:30,106.6667,10.8167,75.2,71.6,88.59,M,3,M,29.91,M,4.97,M,FEW,SCT,   ,   ,1700,4000,M,M,M,M,M,M,M,M,M,76.58,VVTS 040030Z VRB03KT 8000 FEW017 SCT040 24/22 Q1013 NOSIG,M
VVTS,1/4/2012 1:00,106.6667,10.8167,77,69.8,78.48,60,4,M,29.94,M,4.97,M,FEW,   ,   ,   ,1700,M,M,M,M,M,M,M,M,M,M,78.09,VVTS 040100Z 06004KT 020V080 8000 FEW017 25/21 Q1014 NOSIG,M
VVTS,1/4/2012 1:30,106.6667,10.8167,78.8,69.8,73.95,40,4,M,29.94,M,4.35,M,FEW,   ,   ,   ,1700,M,M,M,M,M,M,M,M,M,M,81.39,VVTS 040130Z 04004KT 010V080 7000 FEW017 26/21 Q1014 NOSIG,M
VVTS,1/4/2012 2:00,106.6667,10.8167,80.6,69.8,69.71,80,4,M,29.94,M,4.35,M,FEW,   ,   ,   ,1700,M,M,M,M,M,M,M,M,M,M,83.9,VVTS 040200Z 08004KT 050V110 7000 FEW017 27/21 Q1014 NOSIG,M
VVTS,1/4/2012 2:30,106.6667,10.8167,80.6,69.8,69.71,M,3,M,29.94,M,4.35,M,FEW,   ,   ,   ,1700,M,M,M,M,M,M,M,M,M,M,83.9,VVTS 040230Z VRB03KT 7000 FEW017 27/21 Q1014 NOSIG,M
VVTS,1/4/2012 3:00,106.6667,10.8167,82.4,69.8,65.74,M,3,M,29.94,M,4.35,M,FEW,   ,   ,   ,1700,M,M,M,M,M,M,M,M,M,M,86.22,VVTS 040300Z VRB03KT 7000 FEW017 28/21 Q1014 NOSIG,M
VVTS,1/4/2012 3:30,106.6667,10.8167,82.4,68,61.81,M,2,M,29.91,M,4.97,M,FEW,   ,   ,   ,1700,M,M,M,M,M,M,M,M,M,M,85.38,VVTS 040330Z VRB02KT 8000 FEW017 28/20 Q1013 NOSIG,M
VVTS,1/4/2012 4:00,106.6667,10.8167,84.2,69.8,62.03,M,3,M,29.91,M,6.21,M,SCT,   ,   ,   ,1700,M,M,M,M,M,M,M,M,M,M,88.43,VVTS 040400Z VRB03KT 9999 SCT017 29/21 Q1013 NOSIG,M
VVTS,1/4/2012 4:30,106.6667,10.8167,84.2,69.8,62.03,M,2,M,29.91,M,4.97,M,BKN,   ,   ,   ,1700,M,M,M,M,M,M,M,M,M,M,88.43,VVTS 040430Z VRB02KT 8000 BKN017 29/21 Q1013 NOSIG,M
VVTS,1/4/2012 5:00,106.6667,10.8167,82.4,69.8,65.74,M,3,M,29.88,M,4.35,M,BKN,BKN,   ,   ,1500,4000,M,M,M,M,M,M,M,M,M,86.22,VVTS 040500Z VRB03KT 7000 BKN015 BKN040 28/21 Q1012 NOSIG,M
VVTS,1/4/2012 5:30,106.6667,10.8167,84.2,68,58.32,M,1,M,29.88,M,4.35,M,BKN,BKN,   ,   ,1500,4000,M,M,M,M,M,M,M,M,M,87.4,VVTS 040530Z VRB01KT 7000 BKN015 BKN040 29/20 Q1012 NOSIG,M
VVTS,1/4/2012 6:00,106.6667,10.8167,84.2,68,58.32,M,1,M,29.85,M,5.59,M,BKN,BKN,   ,   ,1500,4000,M,M,M,M,M,M,M,M,M,87.4,VVTS 040600Z VRB01KT 9000 BKN015 BKN040 29/20 Q1011 NOSIG,M
VVTS,1/4/2012 6:30,106.6667,10.8167,84.2,69.8,62.03,200,4,M,29.85,M,5.59,M,BKN,BKN,   ,   ,1500,4000,M,M,M,M,M,M,M,M,M,88.43,VVTS 040630Z 20004KT 160V270 9000 BKN015 BKN040 29/21 Q1011 NOSIG,M
VVTS,1/4/2012 7:00,106.6667,10.8167,86,69.8,58.55,210,5,M,29.83,M,6.21,M,BKN,BKN,   ,   ,1500,4000,M,M,M,M,M,M,M,M,M,90.58,VVTS 040700Z 21005KT 170V250 9999 BKN015 BKN040 30/21 Q1010 NOSIG,M
VVTS,1/4/2012 7:30,106.6667,10.8167,87.8,69.8,55.29,M,2,M,29.83,M,6.21,M,SCT,SCT,   ,   ,1500,4000,M,M,M,M,M,M,M,M,M,92.71,VVTS 040730Z VRB02KT 9999 SCT015 SCT040 31/21 Q1010 NOSIG,M
VVTS,1/4/2012 8:00,106.6667,10.8167,87.8,69.8,55.29,M,3,M,29.83,M,6.21,M,SCT,SCT,   ,   ,1500,4000,M,M,M,M,M,M,M,M,M,92.71,VVTS 040800Z VRB03KT 9999 SCT015 SCT040 31/21 Q1010 NOSIG,M
VVTS,1/4/2012 8:30,106.6667,10.8167,86,69.8,58.55,210,4,M,29.83,M,5.59,M,SCT,SCT,   ,   ,1500,4000,M,M,M,M,M,M,M,M,M,90.58,VVTS 040830Z 21004KT 180V240 9000 SCT015 SCT040 30/21 Q1010 NOSIG,M
VVTS,1/4/2012 9:00,106.6667,10.8167,86,69.8,58.55,M,2,M,29.83,M,6.21,M,SCT,SCT,   ,   ,1500,4000,M,M,M,M,M,M,M,M,M,90.58,VVTS 040900Z VRB02KT 9999 SCT015 SCT040 30/21 Q1010 NOSIG,M
VVTS,1/4/2012 9:30,106.6667,10.8167,84.2,68,58.32,160,4,M,29.83,M,6.21,M,SCT,SCT,   ,   ,1500,4000,M,M,M,M,M,M,M,M,M,87.4,VVTS 040930Z 16004KT 120V200 9999 SCT015 SCT040 29/20 Q1010 NOSIG,M
VVTS,1/4/2012 10:00,106.6667,10.8167,84.2,68,58.32,190,6,M,29.83,M,6.21,M,SCT,SCT,   ,   ,1500,4000,M,M,M,M,M,M,M,M,M,87.4,VVTS 041000Z 19006KT 160V220 9999 SCT015 SCT040 29/20 Q1010 NOSIG,M
VVTS,1/4/2012 10:30,106.6667,10.8167,82.4,69.8,65.74,180,6,M,29.85,M,6.21,M,SCT,SCT,   ,   ,1500,4000,M,M,M,M,M,M,M,M,M,86.22,VVTS 041030Z 18006KT 140V210 9999 SCT015 SCT040 28/21 Q1011 NOSIG,M
VVTS,1/4/2012 11:00,106.6667,10.8167,80.6,69.8,69.71,190,5,M,29.85,M,6.21,M,SCT,SCT,   ,   ,1500,4000,M,M,M,M,M,M,M,M,M,83.9,VVTS 041100Z 19005KT 150V220 9999 SCT015 SCT040 27/21 Q1011 NOSIG,M
VVTS,1/4/2012 11:30,106.6667,10.8167,80.6,69.8,69.71,200,7,M,29.85,M,6.21,M,FEW,SCT,   ,   ,1500,4000,M,M,M,M,M,M,M,M,M,83.9,VVTS 041130Z 20007KT 9999 FEW015 SCT040 27/21 Q1011 NOSIG,M
VVTS,1/4/2012 12:00,106.6667,10.8167,78.8,69.8,73.95,200,4,M,29.88,M,6.21,M,FEW,SCT,   ,   ,1500,4000,M,M,M,M,M,M,M,M,M,81.39,VVTS 041200Z 20004KT 9999 FEW015 SCT040 26/21 Q1012 NOSIG,M
VVTS,1/4/2012 12:30,106.6667,10.8167,78.8,69.8,73.95,190,4,M,29.88,M,6.21,M,FEW,SCT,   ,   ,1500,4000,M,M,M,M,M,M,M,M,M,81.39,VVTS 041230Z 19004KT 9999 FEW015 SCT040 26/21 Q1012 NOSIG,M
VVTS,1/4/2012 13:00,106.6667,10.8167,78.8,69.8,73.95,170,4,M,29.88,M,6.21,M,FEW,SCT,   ,   ,1500,4000,M,M,M,M,M,M,M,M,M,81.39,VVTS 041300Z 17004KT 140V210 9999 FEW015 SCT040 26/21 Q1012 NOSIG,M
VVTS,1/4/2012 13:30,106.6667,10.8167,78.8,71.6,78.62,160,4,M,29.91,M,6.21,M,FEW,SCT,   ,   ,1500,4000,M,M,M,M,M,M,M,M,M,81.7,VVTS 041330Z 16004KT 140V200 9999 FEW015 SCT040 26/22 Q1013 NOSIG,M
VVTS,1/4/2012 14:00,106.6667,10.8167,78.8,71.6,78.62,M,3,M,29.91,M,6.21,M,FEW,SCT,   ,   ,1500,4000,M,M,M,M,M,M,M,M,M,81.7,VVTS 041400Z VRB03KT 9999 FEW015 SCT040 26/22 Q1013 NOSIG,M
VVTS,1/4/2012 14:30,106.6667,10.8167,78.8,71.6,78.62,M,3,M,29.88,M,6.21,M,FEW,SCT,   ,   ,1500,4000,M,M,M,M,M,M,M,M,M,81.7,VVTS 041430Z VRB03KT 9999 FEW015 SCT040 26/22 Q1012 NOSIG,M
VVTS,1/4/2012 15:00,106.6667,10.8167,77,71.6,83.44,140,3,M,29.88,M,6.21,M,FEW,SCT,   ,   ,1500,4000,M,M,M,M,M,M,M,M,M,78.32,VVTS 041500Z 14003KT 9999 FEW015 SCT040 25/22 Q1012 NOSIG,M
VVTS,1/4/2012 15:30,106.6667,10.8167,75.2,71.6,88.59,M,3,M,29.88,M,6.21,M,FEW,SCT,   ,   ,1500,4000,M,M,M,M,M,M,M,M,M,76.58,VVTS 041530Z VRB03KT 9999 FEW015 SCT040 24/22 Q1012 NOSIG,M
VVTS,1/4/2012 16:00,106.6667,10.8167,75.2,71.6,88.59,100,2,M,29.88,M,6.21,M,FEW,SCT,   ,   ,1500,4000,M,M,M,M,M,M,M,M,M,76.58,VVTS 041600Z 10002KT 9999 FEW015 SCT040 24/22 Q1012 NOSIG,M
VVTS,1/4/2012 16:30,106.6667,10.8167,73.4,69.8,88.51,120,3,M,29.88,M,6.21,M,FEW,SCT,   ,   ,1500,4000,M,M,M,M,M,M,M,M,M,74.6,VVTS 041630Z 12003KT 9999 FEW015 SCT040 23/21 Q1012 NOSIG,M
VVTS,1/4/2012 17:00,106.6667,10.8167,73.4,69.8,88.51,M,3,M,29.91,M,6.21,M,FEW,SCT,   ,   ,1500,4000,M,M,M,M,M,M,M,M,M,74.6,VVTS 041700Z VRB03KT 9999 FEW015 SCT040 23/21 Q1013 NOSIG,M
VVTS,1/4/2012 17:30,106.6667,10.8167,73.4,69.8,88.51,110,2,M,29.88,M,6.21,M,FEW,SCT,   ,   ,1500,4000,M,M,M,M,M,M,M,M,M,74.6,VVTS 041730Z 11002KT 9999 FEW015 SCT040 23/21 Q1012 NOSIG,M
VVTS,1/4/2012 18:00,106.6667,10.8167,73.4,71.6,94.1,40,2,M,29.88,M,6.21,M,FEW,SCT,   ,   ,1500,4000,M,M,M,M,M,M,M,M,M,74.86,VVTS 041800Z 04002KT 9999 FEW015 SCT040 23/22 Q1012 NOSIG,M
VVTS,1/4/2012 18:30,106.6667,10.8167,73.4,71.6,94.1,M,1,M,29.88,M,6.21,M,FEW,SCT,   ,   ,1500,4000,M,M,M,M,M,M,M,M,M,74.86,VVTS 041830Z VRB01KT 9999 FEW015 SCT040 23/22 Q1012 NOSIG,M
VVTS,1/4/2012 19:00,106.6667,10.8167,M,M,M,M,M,M,M,M,M,M,   ,   ,   ,   ,M,M,M,M,M,M,M,M,M,M,M,M,VVTS 041900Z NIL,M
VVTS,1/4/2012 19:30,106.6667,10.8167,71.6,71.6,100,20,2,M,29.85,M,3.11,M,FEW,SCT,   ,   ,1500,4000,M,M,BR,M,M,M,M,M,M,73.16,VVTS 041930Z 02002KT 5000 BR FEW015 SCT040 22/22 Q1011 NOSIG,M
VVTS,1/4/2012 20:00,106.6667,10.8167,71.6,71.6,100,20,1,M,29.85,M,2.86,M,FEW,SCT,   ,   ,1500,4000,M,M,BR,M,M,M,M,M,M,73.16,VVTS 042000Z 02001KT 4600 BR FEW015 SCT040 22/22 Q1011 NOSIG,M
VVTS,1/4/2012 20:30,106.6667,10.8167,71.6,71.6,100,30,2,M,29.85,M,2.42,M,FEW,SCT,   ,   ,1500,4000,M,M,BR,M,M,M,M,M,M,73.16,VVTS 042030Z 03002KT 3900 BR FEW015 SCT040 22/22 Q1011 NOSIG,M
VVTS,1/4/2012 21:00,106.6667,10.8167,69.8,69.8,100,0,0,M,29.85,M,2.05,M,FEW,SCT,   ,   ,1500,4000,M,M,BR,M,M,M,M,M,M,69.8,VVTS 042100Z 00000KT 3300 BR FEW015 SCT040 21/21 Q1011 TEMPO 1500 BR,M
VVTS,1/4/2012 21:30,106.6667,10.8167,M,M,M,M,M,M,M,M,M,M,   ,   ,   ,   ,M,M,M,M,M,M,M,M,M,M,M,M,VVTS 042130Z NIL,M
VVTS,1/4/2012 22:00,106.6667,10.8167,69.8,69.8,100,300,1,M,29.88,M,1.68,M,FEW,SCT,   ,   ,1500,4000,M,M,BR,M,M,M,M,M,M,69.8,VVTS 042200Z 30001KT 2700 BR FEW015 SCT040 21/21 Q1012 TEMPO 1500 BR,M
VVTS,1/4/2012 22:30,106.6667,10.8167,69.8,69.8,100,300,2,M,29.88,M,1.93,M,FEW,SCT,   ,   ,1500,4000,M,M,BR,M,M,M,M,M,M,69.8,VVTS 042230Z 30002KT 3100 BR FEW015 SCT040 21/21 Q1012 TEMPO 1500 BR,M
VVTS,1/4/2012 23:00,106.6667,10.8167,71.6,71.6,100,300,2,M,29.88,M,1.93,M,FEW,SCT,   ,   ,1500,4000,M,M,BR,M,M,M,M,M,M,73.16,VVTS 042300Z 30002KT 3100 BR FEW015 SCT040 22/22 Q1012 TEMPO 1500 BR,M
VVTS,1/4/2012 23:30,106.6667,10.8167,69.8,69.8,100,M,1,M,29.91,M,1.24,M,FEW,SCT,   ,   ,1500,4000,M,M,BR,M,M,M,M,M,M,69.8,VVTS 042330Z VRB01KT 2000 BR FEW015 SCT040 21/21 Q1013 TEMPO TL0020 1500 BR,M
VVTS,1/5/2012 0:00,106.6667,10.8167,M,M,M,M,M,M,M,M,M,M,   ,   ,   ,   ,M,M,M,M,M,M,M,M,M,M,M,M,VVTS 050000Z NIL,M
VVTS,1/5/2012 0:30,106.6667,10.8167,73.4,73.4,100,300,2,M,29.94,M,1.37,M,FEW,SCT,   ,   ,1500,4000,M,M,BR,M,M,M,M,M,M,75.14,VVTS 050030Z 30002KT 2200 BR FEW015 SCT040 23/23 Q1014 BECMG TL0050 5000,M
VVTS,1/5/2012 1:00,106.6667,10.8167,75.2,75.2,100,M,1,M,29.94,M,1.68,M,FEW,SCT,   ,   ,1500,4000,M,M,BR,M,M,M,M,M,M,77.12,VVTS 050100Z VRB01KT 2700 BR FEW015 SCT040 24/24 Q1014 BECMG TL0130 5000 BR,M
VVTS,1/5/2012 1:30,106.6667,10.8167,77,73.4,88.67,0,0,M,29.94,M,1.62,M,FEW,SCT,   ,   ,1500,4000,M,M,BR,M,M,M,M,M,M,78.57,VVTS 050130Z 00000KT 2600 BR FEW015 SCT040 25/23 Q1014 NOSIG,M
VVTS,1/5/2012 2:00,106.6667,10.8167,77,73.4,88.67,M,2,M,29.94,M,1.3,M,FEW,SCT,   ,   ,1500,4000,M,M,BR,M,M,M,M,M,M,78.57,VVTS 050200Z VRB02KT 2100 BR FEW015 SCT040 25/23 Q1014 NOSIG,M
VVTS,1/5/2012 2:30,106.6667,10.8167,M,M,M,M,M,M,M,M,M,M,   ,   ,   ,   ,M,M,M,M,M,M,M,M,M,M,M,M,VVTS 050230Z NIL,M
VVTS,1/5/2012 3:00,106.6667,10.8167,80.6,73.4,78.76,M,1,M,29.94,M,1.55,M,FEW,SCT,   ,   ,1500,4000,M,M,HZ,M,M,M,M,M,M,85.32,VVTS 050300Z VRB01KT 2500 HZ FEW015 SCT040 27/23 Q1014 NOSIG,M
VVTS,1/5/2012 3:30,106.6667,10.8167,82.4,71.6,69.9,M,2,M,29.94,M,1.62,M,SCT,SCT,   ,   ,1500,4000,M,M,HZ,M,M,M,M,M,M,87.18,VVTS 050330Z VRB02KT 2600 HZ SCT015 SCT040 28/22 Q1014 NOSIG,M
VVTS,1/5/2012 4:00,106.6667,10.8167,84.2,71.6,65.95,220,4,M,29.91,M,1.8,M,SCT,SCT,   ,   ,1500,4000,M,M,HZ,M,M,M,M,M,M,89.6,VVTS 050400Z 22004KT 180V280 2900 HZ SCT015 SCT040 29/22 Q1013 NOSIG,M
VVTS,1/5/2012 4:30,106.6667,10.8167,84.2,71.6,65.95,M,3,M,29.91,M,2.3,M,SCT,SCT,   ,   ,1500,4000,M,M,HZ,M,M,M,M,M,M,89.6,VVTS 050430Z VRB03KT 3700 HZ SCT015 SCT040 29/22 Q1013 BECMG TL0520 5000,M
VVTS,1/5/2012 5:00,106.6667,10.8167,86,71.6,62.25,M,3,M,29.88,M,3.73,M,SCT,SCT,   ,   ,1500,4000,M,M,M,M,M,M,M,M,M,91.92,VVTS 050500Z VRB03KT 6000 SCT015 SCT040 30/22 Q1012 NOSIG,M
VVTS,1/5/2012 5:30,106.6667,10.8167,87.8,69.8,55.29,230,5,M,29.85,M,3.73,M,SCT,SCT,   ,   ,1500,4000,M,M,M,M,M,M,M,M,M,92.71,VVTS 050530Z 23005KT 180V320 6000 SCT015 SCT040 31/21 Q1011 NOSIG,M
VVTS,1/5/2012 6:00,106.6667,10.8167,87.8,69.8,55.29,M,3,M,29.85,M,4.97,M,BKN,   ,   ,   ,1500,M,M,M,M,M,M,M,M,M,M,92.71,VVTS 050600Z VRB03KT 8000 BKN015 31/21 Q1011 NOSIG,M
VVTS,1/5/2012 6:30,106.6667,10.8167,89.6,69.8,52.23,M,2,M,29.83,M,4.97,M,SCT,   ,   ,   ,1700,M,M,M,M,M,M,M,M,M,M,94.85,VVTS 050630Z VRB02KT 8000 SCT017 32/21 Q1010 NOSIG,M
VVTS,1/5/2012 7:00,106.6667,10.8167,89.6,69.8,52.23,M,3,M,29.83,M,6.21,M,SCT,   ,   ,   ,1700,M,M,M,M,M,M,M,M,M,M,94.85,VVTS 050700Z VRB03KT 9999 SCT017 32/21 Q1010 NOSIG,M
VVTS,1/5/2012 7:30,106.6667,10.8167,87.8,69.8,55.29,M,2,M,29.83,M,6.21,M,SCT,   ,   ,   ,1700,M,M,M,M,M,M,M,M,M,M,92.71,VVTS 050730Z VRB02KT 9999 SCT017 31/21 Q1010 NOSIG,M
VVTS,1/5/2012 8:00,106.6667,10.8167,87.8,69.8,55.29,240,4,M,29.83,M,6.21,M,SCT,   ,   ,   ,1700,M,M,M,M,M,M,M,M,M,M,92.71,VVTS 050800Z 24004KT 200V270 9999 SCT017 31/21 Q1010 NOSIG,M
VVTS,1/5/2012 8:30,106.6667,10.8167,87.8,69.8,55.29,220,4,M,29.8,M,6.21,M,SCT,   ,   ,   ,1700,M,M,M,M,M,M,M,M,M,M,92.71,VVTS 050830Z 22004KT 150V280 9999 SCT017 31/21 Q1009 NOSIG,M
VVTS,1/5/2012 9:00,106.6667,10.8167,86,71.6,62.25,190,5,M,29.83,M,6.21,M,BKN,   ,   ,   ,1700,M,M,M,M,M,M,M,M,M,M,91.92,VVTS 050900Z 19005KT 130V230 9999 BKN017 30/22 Q1010 NOSIG,M
VVTS,1/5/2012 9:30,106.6667,10.8167,84.2,71.6,65.95,170,8,M,29.83,M,6.21,M,SCT,   ,   ,   ,1700,M,M,M,M,M,M,M,M,M,M,89.6,VVTS 050930Z 17008KT 150V210 9999 SCT017 29/22 Q1010 NOSIG,M
VVTS,1/5/2012 10:00,106.6667,10.8167,M,M,M,M,M,M,M,M,M,M,   ,   ,   ,   ,M,M,M,M,M,M,M,M,M,M,M,M,VVTS 051000Z NIL,M
VVTS,1/5/2012 10:30,106.6667,10.8167,82.4,69.8,65.74,160,7,M,29.85,M,6.21,M,FEW,   ,   ,   ,1700,M,M,M,M,M,M,M,M,M,M,86.22,VVTS 051030Z 16007KT 140V200 9999 FEW017 28/21 Q1011 NOSIG,M
VVTS,1/5/2012 11:00,106.6667,10.8167,80.6,71.6,74.11,170,7,M,29.85,M,6.21,M,FEW,SCT,   ,   ,1700,4000,M,M,M,M,M,M,M,M,M,84.57,VVTS 051100Z 17007KT 140V210 9999 FEW017 SCT040 27/22 Q1011 NOSIG,M
VVTS,1/5/2012 11:30,106.6667,10.8167,78.8,71.6,78.62,170,6,M,29.88,M,6.21,M,FEW,   ,   ,   ,1700,M,M,M,M,M,M,M,M,M,M,81.7,VVTS 051130Z 17006KT 140V200 9999 FEW017 26/22 Q1012 NOSIG,M
VVTS,1/5/2012 12:00,106.6667,10.8167,78.8,69.8,73.95,190,7,M,29.88,M,6.21,M,FEW,   ,   ,   ,1700,M,M,M,M,M,M,M,M,M,M,81.39,VVTS 051200Z 19007KT 9999 FEW017 26/21 Q1012 NOSIG,M
VVTS,1/5/2012 12:30,106.6667,10.8167,78.8,69.8,73.95,180,4,M,29.88,M,6.21,M,FEW,   ,   ,   ,1700,M,M,M,M,M,M,M,M,M,M,81.39,VVTS 051230Z 18004KT 160V220 9999 FEW017 26/21 Q1012 NOSIG,M
VVTS,1/5/2012 13:00,106.6667,10.8167,78.8,68,69.52,190,6,M,29.88,M,6.21,M,FEW,   ,   ,   ,1700,M,M,M,M,M,M,M,M,M,M,81.1,VVTS 051300Z 19006KT 9999 FEW017 26/20 Q1012 NOSIG,M
VVTS,1/5/2012 13:30,106.6667,10.8167,77,69.8,78.48,180,5,M,29.91,M,6.21,M,FEW,   ,   ,   ,1700,M,M,M,M,M,M,M,M,M,M,78.09,VVTS 051330Z 18005KT 9999 FEW017 25/21 Q1013 NOSIG,M
VVTS,1/5/2012 14:00,106.6667,10.8167,77,73.4,88.67,190,6,M,29.91,M,6.21,M,FEW,   ,   ,   ,1700,M,M,M,M,M,M,M,M,M,M,78.57,VVTS 051400Z 19006KT 9999 FEW017 25/23 Q1013 NOSIG,M
VVTS,1/5/2012 14:30,106.6667,10.8167,77,73.4,88.67,170,6,M,29.91,M,6.21,M,FEW,   ,   ,   ,1700,M,M,M,M,M,M,M,M,M,M,78.57,VVTS 051430Z 17006KT 9999 FEW017 25/23 Q1013 NOSIG,M
VVTS,1/5/2012 15:00,106.6667,10.8167,75.2,73.4,94.14,160,6,M,29.91,M,6.21,M,FEW,   ,   ,   ,1700,M,M,M,M,M,M,M,M,M,M,76.84,VVTS 051500Z 16006KT 9999 FEW017 24/23 Q1013 NOSIG,M
VVTS,1/5/2012 15:30,106.6667,10.8167,75.2,73.4,94.14,160,4,M,29.91,M,6.21,M,FEW,   ,   ,   ,1700,M,M,M,M,M,M,M,M,M,M,76.84,VVTS 051530Z 16004KT 9999 FEW017 24/23 Q1013 NOSIG,M
VVTS,1/5/2012 16:00,106.6667,10.8167,75.2,73.4,94.14,M,3,M,29.91,M,6.21,M,FEW,   ,   ,   ,1700,M,M,M,M,M,M,M,M,M,M,76.84,VVTS 051600Z VRB03KT 9999 FEW017 24/23 Q1013 NOSIG,M
VVTS,1/5/2012 16:30,106.6667,10.8167,75.2,71.6,88.59,180,4,M,29.91,M,6.21,M,FEW,   ,   ,   ,1700,M,M,M,M,M,M,M,M,M,M,76.58,VVTS 051630Z 18004KT 9999 FEW017 24/22 Q1013 NOSIG,M
VVTS,1/5/2012 17:00,106.6667,10.8167,75.2,73.4,94.14,M,1,M,29.91,M,6.21,M,FEW,   ,   ,   ,1700,M,M,M,M,M,M,M,M,M,M,76.84,VVTS 051700Z VRB01KT 9999 FEW017 24/23 Q1013 NOSIG,M
VVTS,1/5/2012 17:30,106.6667,10.8167,75.2,73.4,94.14,M,1,M,29.91,M,6.21,M,FEW,   ,   ,   ,1700,M,M,M,M,M,M,M,M,M,M,76.84,VVTS 051730Z VRB01KT 9999 FEW017 24/23 Q1013 NOSIG,M
VVTS,1/5/2012 18:00,106.6667,10.8167,73.4,73.4,100,0,0,M,29.91,M,6.21,M,FEW,   ,   ,   ,1700,M,M,M,M,M,M,M,M,M,M,75.14,VVTS 051800Z 00000KT 9999 FEW017 23/23 Q1013 NOSIG,M
VVTS,1/5/2012 18:30,106.6667,10.8167,73.4,73.4,100,M,2,M,29.88,M,3.73,M,FEW,   ,   ,   ,1700,M,M,M,M,M,M,M,M,M,M,75.14,VVTS 051830Z VRB02KT 6000 FEW017 23/23 Q1012 NOSIG,M
VVTS,1/5/2012 19:00,106.6667,10.8167,73.4,71.6,94.1,290,1,M,29.88,M,2.92,M,FEW,   ,   ,   ,1700,M,M,M,BR,M,M,M,M,M,M,74.86,VVTS 051900Z 29001KT 4700 BR FEW017 23/22 Q1012 NOSIG,M
VVTS,1/5/2012 19:30,106.6667,10.8167,71.6,71.6,100,M,1,M,29.88,M,3.11,M,FEW,   ,   ,   ,1700,M,M,M,BR,M,M,M,M,M,M,73.16,VVTS 051930Z VRB01KT 5000 BR FEW017 22/22 Q1012 NOSIG,M
VVTS,1/5/2012 20:00,106.6667,10.8167,71.6,71.6,100,300,1,M,29.88,M,3.11,M,FEW,   ,   ,   ,1700,M,M,M,BR,M,M,M,M,M,M,73.16,VVTS 052000Z 30001KT 5000 BR FEW017 22/22 Q1012 NOSIG,M
VVTS,1/5/2012 20:30,106.6667,10.8167,71.6,71.6,100,0,0,M,29.88,M,3.11,M,FEW,   ,   ,   ,1700,M,M,M,BR,M,M,M,M,M,M,73.16,VVTS 052030Z 00000KT 5000 BR FEW017 22/22 Q1012 NOSIG,M
VVTS,1/5/2012 21:00,106.6667,10.8167,71.6,71.6,100,360,1,M,29.88,M,3.73,M,FEW,SCT,   ,   ,1700,4000,M,M,M,M,M,M,M,M,M,73.16,VVTS 052100Z 36001KT 6000 FEW017 SCT040 22/22 Q1012 NOSIG,M
VVTS,1/5/2012 21:30,106.6667,10.8167,71.6,71.6,100,30,2,M,29.88,M,2.67,M,FEW,SCT,   ,   ,1700,4000,M,M,BR,M,M,M,M,M,M,73.16,VVTS 052130Z 03002KT 4300 BR FEW017 SCT040 22/22 Q1012 NOSIG,M
VVTS,1/5/2012 22:00,106.6667,10.8167,71.6,71.6,100,360,3,M,29.91,M,2.11,M,FEW,SCT,   ,   ,1700,4000,M,M,BR,M,M,M,M,M,M,73.16,VVTS 052200Z 36003KT 3400 BR FEW017 SCT040 22/22 Q1013 NOSIG,M
VVTS,1/5/2012 22:30,106.6667,10.8167,71.6,71.6,100,330,3,M,29.91,M,1.55,M,FEW,SCT,   ,   ,1700,4000,M,M,BR,M,M,M,M,M,M,73.16,VVTS 052230Z 33003KT 2500 BR FEW017 SCT040 22/22 Q1013 NOSIG,M
VVTS,1/5/2012 23:00,106.6667,10.8167,71.6,71.6,100,350,3,M,29.91,M,1.18,M,FEW,SCT,   ,   ,1700,4000,M,M,BR,M,M,M,M,M,M,73.16,VVTS 052300Z 35003KT 1900 BR FEW017 SCT040 22/22 Q1013 TEMPO TL2330 2000,M
VVTS,1/5/2012 23:30,106.6667,10.8167,71.6,71.6,100,340,3,M,29.94,M,0.62,M,FEW,SCT,   ,   ,1700,4000,M,M,BR,M,M,M,M,M,M,73.16,VVTS 052330Z 34003KT 1000 R25R/1400U BR FEW017 SCT040 22/22 Q1014 BECMG TL0015 1500 BR,M
VVTS,1/6/2012 0:00,106.6667,10.8167,71.6,71.6,100,360,4,M,29.94,M,0.87,M,FEW,SCT,   ,   ,1500,4000,M,M,BR,M,M,M,M,M,M,73.16,VVTS 060000Z 36004KT 340V070 1400 R25R/1500N BR FEW015 SCT040 22/22 Q1014 BECMG TL0015 1500 BR,M
VVTS,1/6/2012 0:30,106.6667,10.8167,73.4,73.4,100,10,5,M,29.94,M,0.87,M,FEW,SCT,   ,   ,1500,4000,M,M,BR,M,M,M,M,M,M,75.14,VVTS 060030Z 01005KT 1400 R25R/1500N BR FEW015 SCT040 23/23 Q1014 BECMG TL0200 2000 BR,M
VVTS,1/6/2012 1:00,106.6667,10.8167,73.4,73.4,100,330,4,M,29.94,M,0.81,M,SCT,SCT,   ,   ,1500,4000,M,M,BR,M,M,M,M,M,M,75.14,VVTS 060100Z 33004KT 1300 R25R/1400N BR SCT015 SCT040 23/23 Q1014 BECMG TL0200 2000 BR,M
VVTS,1/6/2012 1:30,106.6667,10.8167,73.4,73.4,100,M,2,M,29.94,M,1.24,M,SCT,SCT,   ,   ,1500,4000,M,M,BR,M,M,M,M,M,M,75.14,VVTS 060130Z VRB02KT 2000 BR SCT015 SCT040 23/23 Q1014 BECMG TL0230 3000 BR,M
VVTS,1/6/2012 2:00,106.6667,10.8167,75.2,75.2,100,M,2,M,29.94,M,1.37,M,SCT,   ,   ,   ,1500,M,M,M,BR,M,M,M,M,M,M,77.12,VVTS 060200Z VRB02KT 2200 BR SCT015 24/24 Q1014 BECMG TL0230 3000 BR,M
VVTS,1/6/2012 2:30,106.6667,10.8167,78.8,73.4,83.55,M,1,M,29.97,M,2.3,M,SCT,   ,   ,   ,1500,M,M,M,HZ,M,M,M,M,M,M,82.03,VVTS 060230Z VRB01KT 3700 HZ SCT015 26/23 Q1015 BECMG TL0300 3000 BR,M
VVTS,1/6/2012 3:00,106.6667,10.8167,78.8,73.4,83.55,M,3,M,29.97,M,3.11,M,BKN,   ,   ,   ,1500,M,M,M,HZ,M,M,M,M,M,M,82.03,VVTS 060300Z VRB03KT 5000 HZ BKN015 26/23 Q1015 NOSIG,M
VVTS,1/6/2012 3:30,106.6667,10.8167,80.6,73.4,78.76,M,2,M,29.94,M,4.97,M,BKN,   ,   ,   ,1500,M,M,M,M,M,M,M,M,M,M,85.32,VVTS 060330Z VRB02KT 8000 BKN015 27/23 Q1014 NOSIG,M
VVTS,1/6/2012 4:00,106.6667,10.8167,82.4,73.4,74.28,M,3,M,29.94,M,5.59,M,BKN,   ,   ,   ,1500,M,M,M,M,M,M,M,M,M,M,88.26,VVTS 060400Z VRB03KT 9000 BKN015 28/23 Q1014 NOSIG,M
VVTS,1/6/2012 4:30,106.6667,10.8167,86,71.6,62.25,M,3,M,29.91,M,4.97,M,SCT,   ,   ,   ,1500,M,M,M,M,M,M,M,M,M,M,91.92,VVTS 060430Z VRB03KT 8000 SCT015 30/22 Q1013 NOSIG,M
VVTS,1/6/2012 5:00,106.6667,10.8167,87.8,71.6,58.78,80,4,M,29.91,M,6.21,M,SCT,   ,   ,   ,1700,M,M,M,M,M,M,M,M,M,M,94.18,VVTS 060500Z 08004KT 010V140 9999 SCT017 31/22 Q1013 NOSIG,M
VVTS,1/6/2012 5:30,106.6667,10.8167,87.8,69.8,55.29,M,3,M,29.88,M,6.21,M,SCT,   ,   ,   ,1700,M,M,M,M,M,M,M,M,M,M,92.71,VVTS 060530Z VRB03KT 9999 SCT017 31/21 Q1012 NOSIG,M
VVTS,1/6/2012 6:00,106.6667,10.8167,87.8,69.8,55.29,M,3,M,29.85,M,6.21,M,SCT,   ,   ,   ,1700,M,M,M,M,M,M,M,M,M,M,92.71,VVTS 060600Z VRB03KT 9999 SCT017 31/21 Q1011 NOSIG,M
VVTS,1/6/2012 6:30,106.6667,10.8167,89.6,69.8,52.23,20,4,M,29.85,M,6.21,M,SCT,   ,   ,   ,1700,M,M,M,M,M,M,M,M,M,M,94.85,VVTS 060630Z 02004KT 250V110 9999 SCT017 32/21 Q1011 NOSIG,M
VVTS,1/6/2012 7:00,106.6667,10.8167,89.6,68,49.1,M,3,M,29.85,M,6.21,M,SCT,   ,   ,   ,1700,M,M,M,M,M,M,M,M,M,M,93.47,VVTS 060700Z VRB03KT 9999 SCT017 32/20 Q1011 NOSIG,M
VVTS,1/6/2012 7:30,106.6667,10.8167,87.8,66.2,48.84,120,5,M,29.85,M,6.21,M,SCT,   ,   ,   ,1700,M,M,M,M,M,M,M,M,M,M,90.31,VVTS 060730Z 12005KT 070V180 9999 SCT017 31/19 Q1011 NOSIG,M
VVTS,1/6/2012 8:00,106.6667,10.8167,89.6,66.2,46.14,M,2,M,29.83,M,6.21,M,SCT,   ,   ,   ,1700,M,M,M,M,M,M,M,M,M,M,92.27,VVTS 060800Z VRB02KT 9999 SCT017 32/19 Q1010 NOSIG,M
VVTS,1/6/2012 8:30,106.6667,10.8167,89.6,66.2,46.14,70,4,M,29.85,M,6.21,M,SCT,   ,   ,   ,1700,M,M,M,M,M,M,M,M,M,M,92.27,VVTS 060830Z 07004KT 010V140 9999 SCT017 32/19 Q1011 NOSIG,M
VVTS,1/6/2012 9:00,106.6667,10.8167,M,M,M,30,4,M,M,M,6.21,M,   ,   ,   ,   ,M,M,M,M,M,M,M,M,M,M,M,M,VVTS 060900Z 03004KT 300V110 9999 SCT0IG,M
VVTS,1/6/2012 9:30,106.6667,10.8167,89.6,66.2,46.14,100,7,M,29.85,M,6.21,M,SCT,   ,   ,   ,2000,M,M,M,M,M,M,M,M,M,M,92.27,VVTS 060930Z 10007KT 040V170 9999 SCT020 32/19 Q1011 NOSIG,M
VVTS,1/6/2012 10:00,106.6667,10.8167,84.2,71.6,65.95,150,7,M,29.85,M,5.59,M,SCT,   ,   ,   ,2000,M,M,M,M,M,M,M,M,M,M,89.6,VVTS 061000Z 15007KT 120V200 9000 SCT020 29/22 Q1011 NOSIG,M
VVTS,1/6/2012 10:30,106.6667,10.8167,82.4,73.4,74.28,160,9,M,29.88,M,6.21,M,FEW,   ,   ,   ,2000,M,M,M,M,M,M,M,M,M,M,88.26,VVTS 061030Z 16009KT 9999 FEW020 28/23 Q1012 NOSIG,M
VVTS,1/6/2012 11:00,106.6667,10.8167,80.6,73.4,78.76,150,8,M,29.88,M,6.21,M,SCT,BKN,   ,   ,1700,4000,M,M,M,M,M,M,M,M,M,85.32,VVTS 061100Z 15008KT 120V200 9999 SCT017 BKN040 27/23 Q1012 NOSIG,M
VVTS,1/6/2012 11:30,106.6667,10.8167,78.8,73.4,83.55,160,9,M,29.91,M,6.21,M,SCT,BKN,   ,   ,1700,4000,M,M,M,M,M,M,M,M,M,82.03,VVTS 061130Z 16009KT 120V190 9999 SCT017 BKN040 26/23 Q1013 NOSIG,M
VVTS,1/6/2012 12:00,106.6667,10.8167,78.8,71.6,78.62,140,7,M,29.91,M,6.21,M,FEW,SCT,   ,   ,1700,4000,M,M,M,M,M,M,M,M,M,81.7,VVTS 061200Z 14007KT 9999 FEW017 SCT040 26/22 Q1013 NOSIG,M
VVTS,1/6/2012 12:30,106.6667,10.8167,78.8,71.6,78.62,150,8,M,29.91,M,6.21,M,FEW,SCT,   ,   ,1700,4000,M,M,M,M,M,M,M,M,M,81.7,VVTS 061230Z 15008KT 120V190 9999 FEW017 SCT040 26/22 Q1013 NOSIG,M
VVTS,1/6/2012 13:00,106.6667,10.8167,78.8,69.8,73.95,150,7,M,29.91,M,6.21,M,FEW,SCT,   ,   ,1700,4000,M,M,M,M,M,M,M,M,M,81.39,VVTS 061300Z 15007KT 100V190 9999 FEW017 SCT040 26/21 Q1013 NOSIG,M
VVTS,1/6/2012 13:30,106.6667,10.8167,78.8,69.8,73.95,160,6,M,29.91,M,6.21,M,FEW,SCT,   ,   ,1700,4000,M,M,M,M,M,M,M,M,M,81.39,VVTS 061330Z 16006KT 9999 FEW017 SCT040 26/21 Q1013 NOSIG,M
VVTS,1/6/2012 14:00,106.6667,10.8167,78.8,68,69.52,170,7,M,29.94,M,6.21,M,FEW,SCT,   ,   ,1700,4000,M,M,M,M,M,M,M,M,M,81.1,VVTS 061400Z 17007KT 140V200 9999 FEW017 SCT040 26/20 Q1014 NOSIG,M
VVTS,1/6/2012 14:30,106.6667,10.8167,78.8,69.8,73.95,170,4,M,29.91,M,6.21,M,FEW,SCT,   ,   ,1700,4000,M,M,M,M,M,M,M,M,M,81.39,VVTS 061430Z 17004KT 130V210 9999 FEW017 SCT040 26/21 Q1013 NOSIG,M
VVTS,1/6/2012 15:00,106.6667,10.8167,78.8,68,69.52,M,2,M,29.94,M,6.21,M,FEW,BKN,   ,   ,1700,4000,M,M,M,M,M,M,M,M,M,81.1,VVTS 061500Z VRB02KT 9999 FEW017 BKN040 26/20 Q1014 NOSIG,M
VVTS,1/6/2012 15:30,106.6667,10.8167,77,69.8,78.48,150,3,M,29.94,M,6.21,M,FEW,BKN,   ,   ,1700,4000,M,M,M,M,M,M,M,M,M,78.09,VVTS 061530Z 15003KT 9999 FEW017 BKN040 25/21 Q1014 NOSIG,M
VVTS,1/6/2012 16:00,106.6667,10.8167,77,71.6,83.44,160,4,M,29.94,M,6.21,M,FEW,BKN,   ,   ,1700,4000,M,M,M,M,M,M,M,M,M,78.32,VVTS 061600Z 16004KT 050V200 9999 FEW017 BKN040 25/22 Q1014 NOSIG,M
VVTS,1/6/2012 16:30,106.6667,10.8167,77,71.6,83.44,M,1,M,29.94,M,6.21,M,FEW,BKN,   ,   ,1700,4000,M,M,M,M,M,M,M,M,M,78.32,VVTS 061630Z VRB01KT 9999 FEW017 BKN040 25/22 Q1014 NOSIG,M
VVTS,1/6/2012 17:00,106.6667,10.8167,75.2,71.6,88.59,290,1,M,29.94,M,6.21,M,FEW,BKN,   ,   ,1700,4000,M,M,M,M,M,M,M,M,M,76.58,VVTS 061700Z 29001KT 9999 FEW017 BKN040 24/22 Q1014 NOSIG,M
VVTS,1/6/2012 17:30,106.6667,10.8167,75.2,71.6,88.59,310,4,M,29.94,M,6.21,M,FEW,BKN,   ,   ,1700,4000,M,M,M,M,M,M,M,M,M,76.58,VVTS 061730Z 31004KT 9999 FEW017 BKN040 24/22 Q1014 NOSIG,M
VVTS,1/6/2012 18:00,106.6667,10.8167,75.2,71.6,88.59,340,4,M,29.94,M,5.59,M,FEW,BKN,   ,   ,1700,4000,M,M,M,M,M,M,M,M,M,76.58,VVTS 061800Z 34004KT 9000 FEW017 BKN040 24/22 Q1014 NOSIG,M
VVTS,1/6/2012 18:30,106.6667,10.8167,M,M,M,M,M,M,M,M,M,M,   ,   ,   ,   ,M,M,M,M,M,M,M,M,M,M,M,M,VVTS 061830Z NIL,M
VVTS,1/6/2012 19:00,106.6667,10.8167,73.4,73.4,100,310,4,M,29.91,M,4.35,M,FEW,BKN,   ,   ,1700,4000,M,M,M,M,M,M,M,M,M,75.14,VVTS 061900Z 31004KT 7000 FEW017 BKN040 23/23 Q1013 NOSIG,M
VVTS,1/6/2012 19:30,106.6667,10.8167,M,M,M,M,M,M,M,M,M,M,   ,   ,   ,   ,M,M,M,M,M,M,M,M,M,M,M,M,VVTS 061930Z NIL,M
VVTS,1/6/2012 20:00,106.6667,10.8167,73.4,71.6,94.1,310,5,M,29.91,M,5.59,M,FEW,BKN,   ,   ,1700,4000,M,M,M,M,M,M,M,M,M,74.86,VVTS 062000Z 31005KT 9000 FEW017 BKN040 23/22 Q1013 NOSIG,M
VVTS,1/6/2012 20:30,106.6667,10.8167,73.4,69.8,88.51,330,6,M,29.88,M,6.21,M,FEW,BKN,   ,   ,1700,4000,M,M,M,M,M,M,M,M,M,74.6,VVTS 062030Z 33006KT 9999 FEW017 BKN040 23/21 Q1012 NOSIG,M
VVTS,1/6/2012 21:00,106.6667,10.8167,71.6,69.8,94.06,340,5,M,29.91,M,6.21,M,FEW,SCT,   ,   ,1700,4000,M,M,M,M,M,M,M,M,M,72.88,VVTS 062100Z 34005KT 9999 FEW017 SCT040 22/21 Q1013 NOSIG,M
VVTS,1/6/2012 21:30,106.6667,10.8167,M,M,M,M,M,M,M,M,M,M,   ,   ,   ,   ,M,M,M,M,M,M,M,M,M,M,M,M,VVTS 062130Z NIL,M
VVTS,1/6/2012 22:00,106.6667,10.8167,71.6,66.2,83.09,360,5,M,29.91,M,6.21,M,FEW,SCT,   ,   ,1700,4000,M,M,M,M,M,M,M,M,M,71.6,VVTS 062200Z 36005KT 9999 FEW017 SCT040 22/19 Q1013 NOSIG,M
VVTS,1/6/2012 22:30,106.6667,10.8167,71.6,66.2,83.09,M,3,M,29.91,M,6.21,M,FEW,SCT,   ,   ,1700,4000,M,M,M,M,M,M,M,M,M,71.6,VVTS 062230Z VRB03KT 9999 FEW017 SCT040 22/19 Q1013 NOSIG,M
VVTS,1/6/2012 23:00,106.6667,10.8167,69.8,66.2,88.34,340,3,M,29.91,M,6.21,M,FEW,SCT,   ,   ,1700,4000,M,M,M,M,M,M,M,M,M,69.8,VVTS 062300Z 34003KT 9999 FEW017 SCT040 21/19 Q1013 NOSIG,M
VVTS,1/6/2012 23:30,106.6667,10.8167,69.8,66.2,88.34,340,4,M,29.91,M,6.21,M,FEW,SCT,   ,   ,1700,4000,M,M,M,M,M,M,M,M,M,69.8,VVTS 062330Z 34004KT 9999 FEW017 SCT040 21/19 Q1013 NOSIG,M
VVTS,1/7/2012 0:00,106.6667,10.8167,71.6,66.2,83.09,350,5,M,29.94,M,6.21,M,FEW,SCT,   ,   ,1700,4000,M,M,M,M,M,M,M,M,M,71.6,VVTS 070000Z 35005KT 9999 FEW017 SCT040 22/19 Q1014 NOSIG,M
VVTS,1/7/2012 0:30,106.6667,10.8167,73.4,66.2,78.19,350,5,M,29.94,M,6.21,M,FEW,SCT,   ,   ,1700,4000,M,M,M,M,M,M,M,M,M,73.4,VVTS 070030Z 35005KT 9999 FEW017 SCT040 23/19 Q1014 NOSIG,M
VVTS,1/7/2012 1:00,106.6667,10.8167,75.2,66.2,73.61,360,7,M,29.97,M,6.21,M,FEW,SCT,   ,   ,1700,4000,M,M,M,M,M,M,M,M,M,75.2,VVTS 070100Z 36007KT 9999 FEW017 SCT040 24/19 Q1015 NOSIG,M
VVTS,1/7/2012 1:30,106.6667,10.8167,78.8,66.2,65.33,30,6,M,29.97,M,6.21,M,FEW,SCT,   ,   ,1700,4000,M,M,M,M,M,M,M,M,M,80.82,VVTS 070130Z 03006KT 350V070 9999 FEW017 SCT040 26/19 Q1015 NOSIG,M
VVTS,1/7/2012 2:00,106.6667,10.8167,78.8,64.4,61.36,20,6,M,29.97,M,6.21,M,FEW,SCT,   ,   ,1700,4000,M,M,M,M,M,M,M,M,M,80.56,VVTS 070200Z 02006KT 340V060 9999 FEW017 SCT040 26/18 Q1015 NOSIG,M
VVTS,1/7/2012 2:30,106.6667,10.8167,80.6,66.2,61.58,30,6,M,29.97,M,6.21,M,FEW,SCT,   ,   ,1700,4000,M,M,M,M,M,M,M,M,M,82.75,VVTS 070230Z 03006KT 350V060 9999 FEW017 SCT040 27/19 Q1015 NOSIG,M
VVTS,1/7/2012 3:00,106.6667,10.8167,84.2,66.2,54.8,30,7,M,29.94,M,6.21,M,FEW,SCT,   ,   ,1700,4000,M,M,M,M,M,M,M,M,M,86.5,VVTS 070300Z 03007KT 360V070 9999 FEW017 SCT040 29/19 Q1014 NOSIG,M
VVTS,1/7/2012 3:30,106.6667,10.8167,84.2,64.4,51.47,50,9,M,29.94,M,6.21,M,FEW,SCT,   ,   ,1700,4000,M,M,M,M,M,M,M,M,M,85.71,VVTS 070330Z 05009KT 9999 FEW017 SCT040 29/18 Q1014 NOSIG,M
VVTS,1/7/2012 4:00,106.6667,10.8167,86,64.4,48.58,30,6,M,29.94,M,6.21,M,FEW,SCT,   ,   ,1700,4000,M,M,M,M,M,M,M,M,M,87.49,VVTS 070400Z 03006KT 350V080 9999 FEW017 SCT040 30/18 Q1014 NOSIG,M
VVTS,1/7/2012 4:30,106.6667,10.8167,87.8,64.4,45.88,20,7,M,29.91,M,6.21,M,FEW,SCT,   ,   ,1700,4000,M,M,M,M,M,M,M,M,M,89.33,VVTS 070430Z 02007KT 9999 FEW017 SCT040 31/18 Q1013 NOSIG,M
VVTS,1/7/2012 5:00,106.6667,10.8167,87.8,64.4,45.88,60,5,M,29.91,M,6.21,M,FEW,SCT,   ,   ,1700,4000,M,M,M,M,M,M,M,M,M,89.33,VVTS 070500Z 06005KT 020V100 9999 FEW017 SCT040 31/18 Q1013 NOSIG,M
VVTS,1/7/2012 5:30,106.6667,10.8167,89.6,62.6,40.69,20,7,M,29.88,M,6.21,M,FEW,SCT,   ,   ,1700,4000,M,M,M,M,M,M,M,M,M,90.32,VVTS 070530Z 02007KT 330V070 9999 FEW017 SCT040 32/17 Q1012 NOSIG,M
VVTS,1/7/2012 6:00,106.6667,10.8167,89.6,64.4,43.34,30,6,M,29.88,M,6.21,M,FEW,SCT,   ,   ,1700,4000,M,M,M,M,M,M,M,M,M,91.23,VVTS 070600Z 03006KT 340V070 9999 FEW017 SCT040 32/18 Q1012 NOSIG,M
VVTS,1/7/2012 6:30,106.6667,10.8167,91.4,64.4,40.96,50,9,M,29.88,M,6.21,M,FEW,SCT,   ,   ,1700,4000,M,M,M,M,M,M,M,M,M,93.19,VVTS 070630Z 05009KT 360V100 9999 FEW017 SCT040 33/18 Q1012 NOSIG,M
VVTS,1/7/2012 7:00,106.6667,10.8167,91.4,62.6,38.45,30,7,M,29.88,M,6.21,M,SCT,   ,   ,   ,2000,M,M,M,M,M,M,M,M,M,M,91.4,VVTS 070700Z 03007KT 360V080 9999 SCT020 33/17 Q1012 NOSIG,M
VVTS,1/7/2012 7:30,106.6667,10.8167,91.4,62.6,38.45,50,7,M,29.85,M,6.21,M,SCT,   ,   ,   ,2000,M,M,M,M,M,M,M,M,M,M,91.4,VVTS 070730Z 05007KT 360V110 9999 SCT020 33/17 Q1011 NOSIG,M
VVTS,1/7/2012 8:00,106.6667,10.8167,89.6,62.6,40.69,60,11,M,29.85,M,6.21,M,SCT,   ,   ,   ,2000,M,M,M,M,M,M,M,M,M,M,90.32,VVTS 070800Z 06011KT 9999 SCT020 32/17 Q1011 NOSIG,M
VVTS,1/7/2012 8:30,106.6667,10.8167,89.6,62.6,40.69,60,9,M,29.85,M,6.21,M,FEW,   ,   ,   ,2000,M,M,M,M,M,M,M,M,M,M,90.32,VVTS 070830Z 06009KT 9999 FEW020 32/17 Q1011 NOSIG,M
VVTS,1/7/2012 9:00,106.6667,10.8167,89.6,62.6,40.69,80,8,M,29.85,M,6.21,M,FEW,   ,   ,   ,2000,M,M,M,M,M,M,M,M,M,M,90.32,VVTS 070900Z 08008KT 9999 FEW020 32/17 Q1011 NOSIG,M
VVTS,1/7/2012 9:30,106.6667,10.8167,89.6,62.6,40.69,80,7,M,29.88,M,6.21,M,FEW,   ,   ,   ,2000,M,M,M,M,M,M,M,M,M,M,90.32,VVTS 070930Z 08007KT 9999 FEW020 32/17 Q1012 NOSIG,M
VVTS,1/7/2012 10:00,106.6667,10.8167,87.8,64.4,45.88,80,5,M,29.88,M,6.21,M,FEW,SCT,   ,   ,2000,4000,M,M,M,M,M,M,M,M,M,89.33,VVTS 071000Z 08005KT 050V190 9999 FEW020 SCT040 31/18 Q1012 NOSIG,M
VVTS,1/7/2012 10:30,106.6667,10.8167,82.4,71.6,69.9,170,8,M,29.88,M,6.21,M,FEW,SCT,   ,   ,2000,4000,M,M,M,M,M,M,M,M,M,87.18,VVTS 071030Z 17008KT 140V210 9999 FEW020 SCT040 28/22 Q1012 NOSIG,M
VVTS,1/7/2012 11:00,106.6667,10.8167,80.6,71.6,74.11,190,7,M,29.88,M,6.21,M,FEW,SCT,   ,   ,2000,4000,M,M,M,M,M,M,M,M,M,84.57,VVTS 071100Z 19007KT 9999 FEW020 SCT040 27/22 Q1012 NOSIG,M
VVTS,1/7/2012 11:30,106.6667,10.8167,80.6,71.6,74.11,170,5,M,29.88,M,6.21,M,FEW,SCT,   ,   ,2000,4000,M,M,M,M,M,M,M,M,M,84.57,VVTS 071130Z 17005KT 9999 FEW020 SCT040 27/22 Q1012 NOSIG,M
VVTS,1/7/2012 12:00,106.6667,10.8167,78.8,69.8,73.95,160,6,M,29.91,M,6.21,M,FEW,SCT,   ,   ,2000,4000,M,M,M,M,M,M,M,M,M,81.39,VVTS 071200Z 16006KT 9999 FEW020 SCT040 26/21 Q1013 NOSIG,M
VVTS,1/7/2012 12:30,106.6667,10.8167,78.8,69.8,73.95,170,5,M,29.91,M,6.21,M,FEW,SCT,   ,   ,1700,4000,M,M,M,M,M,M,M,M,M,81.39,VVTS 071230Z 17005KT 140V200 9999 FEW017 SCT040 26/21 Q1013 NOSIG,M
VVTS,1/7/2012 13:00,106.6667,10.8167,78.8,69.8,73.95,M,3,M,29.94,M,6.21,M,FEW,SCT,   ,   ,1700,4000,M,M,M,M,M,M,M,M,M,81.39,VVTS 071300Z VRB03KT 9999 FEW017 SCT040 26/21 Q1014 NOSIG,M
VVTS,1/7/2012 13:30,106.6667,10.8167,78.8,69.8,73.95,M,2,M,29.94,M,6.21,M,FEW,SCT,   ,   ,1700,4000,M,M,M,M,M,M,M,M,M,81.39,VVTS 071330Z VRB02KT 9999 FEW017 SCT040 26/21 Q1014 NOSIG,M
VVTS,1/7/2012 14:00,106.6667,10.8167,77,69.8,78.48,M,3,M,29.94,M,6.21,M,FEW,SCT,   ,   ,1700,4000,M,M,M,M,M,M,M,M,M,78.09,VVTS 071400Z VRB03KT 9999 FEW017 SCT040 25/21 Q1014 NOSIG,M
VVTS,1/7/2012 14:30,106.6667,10.8167,77,68,73.78,350,6,M,29.94,M,6.21,M,FEW,SCT,   ,   ,1700,4000,M,M,M,M,M,M,M,M,M,77,VVTS 071430Z 35006KT 9999 FEW017 SCT040 25/20 Q1014 NOSIG,M
VVTS,1/7/2012 15:00,106.6667,10.8167,77,68,73.78,350,6,M,29.94,M,6.21,M,FEW,SCT,   ,   ,1700,4000,M,M,M,M,M,M,M,M,M,77,VVTS 071500Z 35006KT 320V030 9999 FEW017 SCT040 25/20 Q1014 NOSIG,M
VVTS,1/7/2012 15:30,106.6667,10.8167,M,M,M,M,M,M,M,M,M,M,   ,   ,   ,   ,M,M,M,M,M,M,M,M,M,M,M,M,VVTS 071530Z NIL,M
VVTS,1/7/2012 16:00,106.6667,10.8167,75.2,62.6,64.91,350,6,M,29.94,M,6.21,M,FEW,SCT,   ,   ,1700,4000,M,M,M,M,M,M,M,M,M,75.2,VVTS 071600Z 35006KT 9999 FEW017 SCT040 24/17 Q1014 NOSIG,M
VVTS,1/7/2012 16:30,106.6667,10.8167,M,M,M,M,M,M,M,M,M,M,   ,   ,   ,   ,M,M,M,M,M,M,M,M,M,M,M,M,VVTS 071630Z NIL,M
VVTS,1/7/2012 17:00,106.6667,10.8167,M,M,M,M,M,M,M,M,M,M,   ,   ,   ,   ,M,M,M,M,M,M,M,M,M,M,M,M,VVTS 071700Z NIL,M
VVTS,1/7/2012 17:30,106.6667,10.8167,75.2,62.6,64.91,10,5,M,29.91,M,6.21,M,FEW,SCT,   ,   ,1700,4000,M,M,M,M,M,M,M,M,M,75.2,VVTS 071730Z 01005KT 9999 FEW017 SCT040 24/17 Q1013 NOSIG,M
VVTS,1/7/2012 18:00,106.6667,10.8167,73.4,62.6,68.94,10,5,M,29.91,M,6.21,M,FEW,SCT,   ,   ,1700,4000,M,M,M,M,M,M,M,M,M,73.4,VVTS 071800Z 01005KT 9999 FEW017 SCT040 23/17 Q1013 NOSIG,M
VVTS,1/7/2012 18:30,106.6667,10.8167,73.4,62.6,68.94,10,4,M,29.91,M,6.21,M,FEW,SCT,   ,   ,1700,4000,M,M,M,M,M,M,M,M,M,73.4,VVTS 071830Z 01004KT 340V040 9999 FEW017 SCT040 23/17 Q1013 NOSIG,M
VVTS,1/7/2012 19:00,106.6667,10.8167,73.4,62.6,68.94,360,5,M,29.91,M,6.21,M,FEW,SCT,   ,   ,1700,4000,M,M,M,M,M,M,M,M,M,73.4,VVTS 071900Z 36005KT 9999 FEW017 SCT040 23/17 Q1013 NOSIG,M
VVTS,1/7/2012 19:30,106.6667,10.8167,73.4,62.6,68.94,360,5,M,29.88,M,6.21,M,FEW,SCT,   ,   ,1700,4000,M,M,M,M,M,M,M,M,M,73.4,VVTS 071930Z 36005KT 9999 FEW017 SCT040 23/17 Q1012 NOSIG,M
VVTS,1/7/2012 20:00,106.6667,10.8167,M,M,M,M,M,M,M,M,M,M,   ,   ,   ,   ,M,M,M,M,M,M,M,M,M,M,M,M,VVTS 072000Z NIL,M
VVTS,1/7/2012 20:30,106.6667,10.8167,71.6,62.6,73.27,360,5,M,29.88,M,6.21,M,FEW,SCT,   ,   ,1700,4000,M,M,M,M,M,M,M,M,M,71.6,VVTS 072030Z 36005KT 9999 FEW017 SCT040 22/17 Q1012 NOSIG,M
VVTS,1/7/2012 21:00,106.6667,10.8167,71.6,62.6,73.27,10,3,M,29.88,M,6.21,M,FEW,SCT,   ,   ,1700,4000,M,M,M,M,M,M,M,M,M,71.6,VVTS 072100Z 01003KT 9999 FEW017 SCT040 22/17 Q1012 NOSIG,M
VVTS,1/7/2012 21:30,106.6667,10.8167,71.6,64.4,78.04,20,4,M,29.88,M,6.21,M,FEW,SCT,   ,   ,1700,4000,M,M,M,M,M,M,M,M,M,71.6,VVTS 072130Z 02004KT 9999 FEW017 SCT040 22/18 Q1012 NOSIG,M
VVTS,1/7/2012 22:00,106.6667,10.8167,71.6,64.4,78.04,360,4,M,29.91,M,6.21,M,FEW,SCT,   ,   ,1700,4000,M,M,M,M,M,M,M,M,M,71.6,VVTS 072200Z 36004KT 9999 FEW017 SCT040 22/18 Q1013 NOSIG,M
VVTS,1/7/2012 22:30,106.6667,10.8167,69.8,64.4,82.98,360,3,M,29.91,M,6.21,M,FEW,SCT,   ,   ,1700,4000,M,M,M,M,M,M,M,M,M,69.8,VVTS 072230Z 36003KT 9999 FEW017 SCT040 21/18 Q1013 NOSIG,M
VVTS,1/7/2012 23:00,106.6667,10.8167,71.6,64.4,78.04,10,2,M,29.91,M,6.21,M,FEW,SCT,   ,   ,1700,4000,M,M,M,M,M,M,M,M,M,71.6,VVTS 072300Z 01002KT 9999 FEW017 SCT040 22/18 Q1013 NOSIG,M
VVTS,1/7/2012 23:30,106.6667,10.8167,71.6,64.4,78.04,360,2,M,29.94,M,6.21,M,FEW,SCT,   ,   ,1700,4000,M,M,M,M,M,M,M,M,M,71.6,VVTS 072330Z 36002KT 9999 FEW017 SCT040 22/18 Q1014 NOSIG,M
VVTS,1/8/2012 0:00,106.6667,10.8167,71.6,64.4,78.04,330,4,M,29.94,M,6.21,M,FEW,SCT,   ,   ,1700,4000,M,M,M,M,M,M,M,M,M,71.6,VVTS 080000Z 33004KT 9999 FEW017 SCT040 22/18 Q1014 NOSIG,M
VVTS,1/8/2012 0:30,106.6667,10.8167,73.4,64.4,73.44,340,4,M,29.94,M,6.21,M,FEW,BKN,   ,   ,1700,4000,M,M,M,M,M,M,M,M,M,73.4,VVTS 080030Z 34004KT 9999 FEW017 BKN040 23/18 Q1014 NOSIG,M
VVTS,1/8/2012 1:00,106.6667,10.8167,75.2,64.4,69.14,M,3,M,29.97,M,6.21,M,FEW,BKN,   ,   ,1700,4000,M,M,M,M,M,M,M,M,M,75.2,VVTS 080100Z VRB03KT 9999 FEW017 BKN040 24/18 Q1015 NOSIG,M
VVTS,1/8/2012 1:30,106.6667,10.8167,78.8,64.4,61.36,M,3,M,29.97,M,6.21,M,FEW,SCT,   ,   ,1700,4000,M,M,M,M,M,M,M,M,M,80.56,VVTS 080130Z VRB03KT 9999 FEW017 SCT040 26/18 Q1015 NOSIG,M
VVTS,1/8/2012 2:00,106.6667,10.8167,78.8,64.4,61.36,M,3,M,29.97,M,6.21,M,FEW,SCT,   ,   ,1700,4000,M,M,M,M,M,M,M,M,M,80.56,VVTS 080200Z VRB03KT 9999 FEW017 SCT040 26/18 Q1015 NOSIG,M
VVTS,1/8/2012 2:30,106.6667,10.8167,80.6,64.4,57.84,30,5,M,29.97,M,6.21,M,FEW,SCT,   ,   ,1700,4000,M,M,M,M,M,M,M,M,M,82.27,VVTS 080230Z 03005KT 340V070 9999 FEW017 SCT040 27/18 Q1015 NOSIG,M
VVTS,1/8/2012 3:00,106.6667,10.8167,82.4,64.4,54.55,40,5,M,29.97,M,6.21,M,FEW,SCT,   ,   ,1700,4000,M,M,M,M,M,M,M,M,M,83.98,VVTS 080300Z 04005KT 350V140 9999 FEW017 SCT040 28/18 Q1015 NOSIG,M
VVTS,1/8/2012 3:30,106.6667,10.8167,84.2,64.4,51.47,M,3,M,29.97,M,6.21,M,FEW,SCT,   ,   ,1700,4000,M,M,M,M,M,M,M,M,M,85.71,VVTS 080330Z VRB03KT 9999 FEW017 SCT040 29/18 Q1015 NOSIG,M
VVTS,1/8/2012 4:00,106.6667,10.8167,82.4,64.4,54.55,30,6,M,29.94,M,6.21,M,FEW,   ,   ,   ,1700,M,M,M,M,M,M,M,M,M,M,83.98,VVTS 080400Z 03006KT 330V090 9999 FEW017 28/18 Q1014 NOSIG,M
VVTS,1/8/2012 4:30,106.6667,10.8167,86,64.4,48.58,60,5,M,29.94,M,6.21,M,FEW,   ,   ,   ,1700,M,M,M,M,M,M,M,M,M,M,87.49,VVTS 080430Z 06005KT 360V150 9999 FEW017 30/18 Q1014 NOSIG,M
VVTS,1/8/2012 5:00,106.6667,10.8167,87.8,64.4,45.88,30,4,M,29.91,M,6.21,M,FEW,   ,   ,   ,1700,M,M,M,M,M,M,M,M,M,M,89.33,VVTS 080500Z 03004KT 350V100 9999 FEW017 31/18 Q1013 NOSIG,M
VVTS,1/8/2012 5:30,106.6667,10.8167,87.8,64.4,45.88,40,5,M,29.91,M,6.21,M,FEW,   ,   ,   ,1700,M,M,M,M,M,M,M,M,M,M,89.33,VVTS 080530Z 04005KT 320V100 9999 FEW017 31/18 Q1013 NOSIG,M
VVTS,1/8/2012 6:00,106.6667,10.8167,87.8,64.4,45.88,30,5,M,29.88,M,6.21,M,FEW,   ,   ,   ,1700,M,M,M,M,M,M,M,M,M,M,89.33,VVTS 080600Z 03005KT 340V070 9999 FEW017 31/18 Q1012 NOSIG,M
VVTS,1/8/2012 6:30,106.6667,10.8167,86,64.4,48.58,60,4,M,29.88,M,6.21,M,FEW,   ,   ,   ,1700,M,M,M,M,M,M,M,M,M,M,87.49,VVTS 080630Z 06004KT 270V160 9999 FEW017 30/18 Q1012 NOSIG,M
VVTS,1/8/2012 7:00,106.6667,10.8167,86,62.6,45.61,50,4,M,29.85,M,6.21,M,FEW,BKN,   ,   ,1700,4000,M,M,M,M,M,M,M,M,M,86.72,VVTS 080700Z 05004KT 330V090 9999 FEW017 BKN040 30/17 Q1011 NOSIG,M
VVTS,1/8/2012 7:30,106.6667,10.8167,87.8,64.4,45.88,30,5,M,29.85,M,6.21,M,FEW,BKN,   ,   ,1700,4000,M,M,M,M,M,M,M,M,M,89.33,VVTS 080730Z 03005KT 360V080 9999 FEW017 BKN040 31/18 Q1011 NOSIG,M
VVTS,1/8/2012 8:00,106.6667,10.8167,86,64.4,48.58,50,4,M,29.83,M,6.21,M,FEW,BKN,   ,   ,1700,4000,M,M,M,M,M,M,M,M,M,87.49,VVTS 080800Z 05004KT 020V090 9999 FEW017 BKN040 30/18 Q1010 NOSIG,M
VVTS,1/8/2012 8:30,106.6667,10.8167,86,62.6,45.61,50,4,M,29.83,M,6.21,M,FEW,BKN,   ,   ,1700,4000,M,M,M,M,M,M,M,M,M,86.72,VVTS 080830Z 05004KT 9999 FEW017 BKN040 30/17 Q1010 NOSIG,M
VVTS,1/8/2012 9:00,106.6667,10.8167,86,64.4,48.58,30,5,M,29.83,M,6.21,M,FEW,BKN,   ,   ,1700,4000,M,M,M,M,M,M,M,M,M,87.49,VVTS 080900Z 03005KT 340V070 9999 FEW017 BKN040 30/18 Q1010 NOSIG,M
VVTS,1/8/2012 9:30,106.6667,10.8167,87.8,64.4,45.88,40,7,M,29.83,M,6.21,M,FEW,BKN,   ,   ,1700,4000,M,M,M,M,M,M,M,M,M,89.33,VVTS 080930Z 04007KT 350V070 9999 FEW017 BKN040 31/18 Q1010 NOSIG,M
VVTS,1/8/2012 10:00,106.6667,10.8167,84.2,62.6,48.32,30,8,M,29.83,M,6.21,M,FEW,BKN,   ,   ,1700,4000,M,M,M,M,M,M,M,M,M,85.03,VVTS 081000Z 03008KT 9999 FEW017 BKN040 29/17 Q1010 NOSIG,M
VVTS,1/8/2012 10:30,106.6667,10.8167,82.4,62.6,51.21,30,7,M,29.85,M,6.21,M,FEW,BKN,   ,   ,1700,4000,M,M,M,M,M,M,M,M,M,83.41,VVTS 081030Z 03007KT 9999 FEW017 BKN040 28/17 Q1011 NOSIG,M
VVTS,1/8/2012 11:00,106.6667,10.8167,80.6,62.6,54.3,40,6,M,29.85,M,6.21,M,FEW,SCT,   ,   ,1700,4000,M,M,M,M,M,M,M,M,M,81.84,VVTS 081100Z 04006KT 9999 FEW017 SCT040 27/17 Q1011 NOSIG,M
VVTS,1/8/2012 11:30,106.6667,10.8167,80.6,62.6,54.3,40,4,M,29.85,M,6.21,M,FEW,SCT,   ,   ,1700,4000,M,M,M,M,M,M,M,M,M,81.84,VVTS 081130Z 04004KT 9999 FEW017 SCT040 27/17 Q1011 NOSIG,M
VVTS,1/8/2012 12:00,106.6667,10.8167,80.6,64.4,57.84,50,5,M,29.88,M,6.21,M,FEW,SCT,   ,   ,1700,4000,M,M,M,M,M,M,M,M,M,82.27,VVTS 081200Z 05005KT 360V070 9999 FEW017 SCT040 27/18 Q1012 NOSIG,M
VVTS,1/8/2012 12:30,106.6667,10.8167,80.6,62.6,54.3,50,7,M,29.88,M,6.21,M,FEW,SCT,   ,   ,1700,4000,M,M,M,M,M,M,M,M,M,81.84,VVTS 081230Z 05007KT 9999 FEW017 SCT040 27/17 Q1012 NOSIG,M
VVTS,1/8/2012 13:00,106.6667,10.8167,78.8,62.6,57.6,60,7,M,29.88,M,6.21,M,FEW,SCT,   ,   ,1700,4000,M,M,M,M,M,M,M,M,M,80.31,VVTS 081300Z 06007KT 9999 FEW017 SCT040 26/17 Q1012 NOSIG,M
VVTS,1/8/2012 13:30,106.6667,10.8167,78.8,62.6,57.6,60,5,M,29.91,M,6.21,M,FEW,SCT,   ,   ,1700,4000,M,M,M,M,M,M,M,M,M,80.31,VVTS 081330Z 06005KT 9999 FEW017 SCT040 26/17 Q1013 NOSIG,M
VVTS,1/8/2012 14:00,106.6667,10.8167,77,64.4,65.12,40,5,M,29.91,M,6.21,M,FEW,SCT,   ,   ,1700,4000,M,M,M,M,M,M,M,M,M,77,VVTS 081400Z 04005KT 010V070 9999 FEW017 SCT040 25/18 Q1013 NOSIG,M
VVTS,1/8/2012 14:30,106.6667,10.8167,75.2,60.8,60.9,30,5,M,29.91,M,6.21,M,FEW,SCT,   ,   ,1700,4000,M,M,M,M,M,M,M,M,M,75.2,VVTS 081430Z 03005KT 9999 FEW017 SCT040 24/16 Q1013 NOSIG,M
VVTS,1/8/2012 15:00,106.6667,10.8167,75.2,60.8,60.9,40,5,M,29.91,M,6.21,M,FEW,SCT,   ,   ,1700,4000,M,M,M,M,M,M,M,M,M,75.2,VVTS 081500Z 04005KT 9999 FEW017 SCT040 24/16 Q1013 NOSIG,M
VVTS,1/8/2012 15:30,106.6667,10.8167,75.2,60.8,60.9,30,5,M,29.91,M,6.21,M,FEW,SCT,   ,   ,1700,4000,M,M,M,M,M,M,M,M,M,75.2,VVTS 081530Z 03005KT 9999 FEW017 SCT040 24/16 Q1013 NOSIG,M
VVTS,1/8/2012 16:00,106.6667,10.8167,75.2,59,57.12,30,5,M,29.91,M,6.21,M,FEW,SCT,   ,   ,1700,4000,M,M,M,M,M,M,M,M,M,75.2,VVTS 081600Z 03005KT 9999 FEW017 SCT040 24/15 Q1013 NOSIG,M
VVTS,1/8/2012 16:30,106.6667,10.8167,73.4,60.8,64.69,40,5,M,29.91,M,6.21,M,FEW,SCT,   ,   ,1700,4000,M,M,M,M,M,M,M,M,M,73.4,VVTS 081630Z 04005KT 9999 FEW017 SCT040 23/16 Q1013 NOSIG,M
VVTS,1/8/2012 17:00,106.6667,10.8167,73.4,60.8,64.69,30,3,M,29.91,M,6.21,M,FEW,SCT,   ,   ,1700,4000,M,M,M,M,M,M,M,M,M,73.4,VVTS 081700Z 03003KT 9999 FEW017 SCT040 23/16 Q1013 NOSIG,M
VVTS,1/8/2012 17:30,106.6667,10.8167,73.4,59,60.67,20,4,M,29.91,M,6.21,M,FEW,SCT,   ,   ,1700,4000,M,M,M,M,M,M,M,M,M,73.4,VVTS 081730Z 02004KT 9999 FEW017 SCT040 23/15 Q1013 NOSIG,M
VVTS,1/8/2012 18:00,106.6667,10.8167,71.6,60.8,68.75,350,4,M,29.91,M,6.21,M,FEW,SCT,   ,   ,1700,4000,M,M,M,M,M,M,M,M,M,71.6,VVTS 081800Z 35004KT 9999 FEW017 SCT040 22/16 Q1013 NOSIG,M
VVTS,1/8/2012 18:30,106.6667,10.8167,M,M,M,M,M,M,M,M,M,M,   ,   ,   ,   ,M,M,M,M,M,M,M,M,M,M,M,M,VVTS 081830Z NIL,M
VVTS,1/8/2012 19:00,106.6667,10.8167,71.6,60.8,68.75,350,4,M,29.88,M,6.21,M,FEW,SCT,   ,   ,1700,4000,M,M,M,M,M,M,M,M,M,71.6,VVTS 081900Z 35004KT 9999 FEW017 SCT040 22/16 Q1012 NOSIG,M
VVTS,1/8/2012 19:30,106.6667,10.8167,71.6,60.8,68.75,350,5,M,29.88,M,6.21,M,FEW,SCT,   ,   ,1700,4000,M,M,M,M,M,M,M,M,M,71.6,VVTS 081930Z 35005KT 9999 FEW017 SCT040 22/16 Q1012 NOSIG,M
VVTS,1/8/2012 20:00,106.6667,10.8167,71.6,60.8,68.75,10,4,M,29.85,M,6.21,M,FEW,SCT,   ,   ,1700,4000,M,M,M,M,M,M,M,M,M,71.6,VVTS 082000Z 01004KT 9999 FEW017 SCT040 22/16 Q1011 NOSIG,M
VVTS,1/8/2012 20:30,106.6667,10.8167,71.6,59,64.48,360,4,M,29.85,M,6.21,M,FEW,SCT,   ,   ,1700,4000,M,M,M,M,M,M,M,M,M,71.6,VVTS 082030Z 36004KT 9999 FEW017 SCT040 22/15 Q1011 NOSIG,M
VVTS,1/8/2012 21:00,106.6667,10.8167,71.6,59,64.48,10,4,M,29.85,M,6.21,M,FEW,SCT,   ,   ,1700,4000,M,M,M,M,M,M,M,M,M,71.6,VVTS 082100Z 01004KT 9999 FEW017 SCT040 22/15 Q1011 NOSIG,M
VVTS,1/8/2012 21:30,106.6667,10.8167,69.8,60.8,73.09,M,3,M,29.85,M,6.21,M,FEW,SCT,   ,   ,1700,4000,M,M,M,M,M,M,M,M,M,69.8,VVTS 082130Z VRB03KT 9999 FEW017 SCT040 21/16 Q1011 NOSIG,M
VVTS,1/8/2012 22:00,106.6667,10.8167,M,M,M,M,M,M,M,M,M,M,   ,   ,   ,   ,M,M,M,M,M,M,M,M,M,M,M,M,VVTS 082200Z NIL,M
VVTS,1/8/2012 22:30,106.6667,10.8167,69.8,60.8,73.09,360,4,M,29.85,M,6.21,M,FEW,SCT,   ,   ,1700,4000,M,M,M,M,M,M,M,M,M,69.8,VVTS 082230Z 36004KT 9999 FEW017 SCT040 21/16 Q1011 NOSIG,M
VVTS,1/8/2012 23:00,106.6667,10.8167,69.8,60.8,73.09,360,6,M,29.85,M,6.21,M,FEW,BKN,   ,   ,1700,4000,M,M,M,M,M,M,M,M,M,69.8,VVTS 082300Z 36006KT 9999 FEW017 BKN040 21/16 Q1011 NOSIG,M
VVTS,1/8/2012 23:30,106.6667,10.8167,69.8,60.8,73.09,10,6,M,29.88,M,6.21,M,FEW,BKN,   ,   ,1700,4000,M,M,M,M,M,M,M,M,M,69.8,VVTS 082330Z 01006KT 9999 FEW017 BKN040 21/16 Q1012 NOSIG,M
VVTS,1/9/2012 0:00,106.6667,10.8167,71.6,60.8,68.75,20,4,M,29.88,M,6.21,M,FEW,BKN,   ,   ,1700,4000,M,M,M,M,M,M,M,M,M,71.6,VVTS 090000Z 02004KT 350V050 9999 FEW017 BKN040 22/16 Q1012 NOSIG,M
VVTS,1/9/2012 0:30,106.6667,10.8167,73.4,60.8,64.69,30,8,M,29.91,M,6.21,M,FEW,SCT,   ,   ,1700,4000,M,M,M,M,M,M,M,M,M,73.4,VVTS 090030Z 03008KT 9999 FEW017 SCT040 23/16 Q1013 NOSIG,M
VVTS,1/9/2012 1:00,106.6667,10.8167,78.8,60.8,54.05,30,9,M,29.91,M,6.21,M,FEW,SCT,   ,   ,1700,4000,M,M,M,M,M,M,M,M,M,78.8,VVTS 090100Z 03009KT 9999 FEW017 SCT040 26/16 Q1013 NOSIG,M
VVTS,1/9/2012 1:30,106.6667,10.8167,75.2,60.8,60.9,20,9,M,29.91,M,6.21,M,FEW,SCT,   ,   ,1700,4000,M,M,M,M,M,M,M,M,M,75.2,VVTS 090130Z 02009KT 350V060 9999 FEW017 SCT040 24/16 Q1013 NOSIG,M
VVTS,1/9/2012 2:00,106.6667,10.8167,77,60.8,57.36,10,8,M,29.91,M,6.21,M,FEW,SCT,   ,   ,1700,4000,M,M,M,M,M,M,M,M,M,77,VVTS 090200Z 01008KT 9999 FEW017 SCT040 25/16 Q1013 NOSIG,M
VVTS,1/9/2012 2:30,106.6667,10.8167,80.6,62.6,54.3,20,10,M,29.91,M,6.21,M,FEW,SCT,   ,   ,1700,4000,M,M,M,M,M,M,M,M,M,81.84,VVTS 090230Z 02010KT 9999 FEW017 SCT040 27/17 Q1013 NOSIG,M
VVTS,1/9/2012 3:00,106.6667,10.8167,82.4,60.8,48.05,10,8,M,29.91,M,6.21,M,FEW,SCT,   ,   ,1700,4000,M,M,M,M,M,M,M,M,M,82.9,VVTS 090300Z 01008KT 350V050 9999 FEW017 SCT040 28/16 Q1013 NOSIG,M
VVTS,1/9/2012 3:30,106.6667,10.8167,82.4,62.6,51.21,20,6,M,29.91,M,6.21,M,FEW,SCT,   ,   ,1700,4000,M,M,M,M,M,M,M,M,M,83.41,VVTS 090330Z 02006KT 340V060 9999 FEW017 SCT040 28/17 Q1013 NOSIG,M
VVTS,1/9/2012 4:00,106.6667,10.8167,84.2,62.6,48.32,330,8,M,29.88,M,6.21,M,FEW,   ,   ,   ,1700,M,M,M,M,M,M,M,M,M,M,85.03,VVTS 090400Z 33008KT 300V030 9999 FEW017 29/17 Q1012 NOSIG,M
VVTS,1/9/2012 4:30,106.6667,10.8167,86,62.6,45.61,10,6,M,29.88,M,6.21,M,FEW,   ,   ,   ,1700,M,M,M,M,M,M,M,M,M,M,86.72,VVTS 090430Z 01006KT 310V060 9999 FEW017 30/17 Q1012 NOSIG,M
VVTS,1/9/2012 5:00,106.6667,10.8167,87.8,62.6,43.07,30,8,M,29.88,M,6.21,M,FEW,   ,   ,   ,1700,M,M,M,M,M,M,M,M,M,M,88.48,VVTS 090500Z 03008KT 340V090 9999 FEW017 31/17 Q1012 NOSIG,M
VVTS,1/9/2012 5:30,106.6667,10.8167,89.6,62.6,40.69,40,7,M,29.85,M,6.21,M,FEW,   ,   ,   ,1700,M,M,M,M,M,M,M,M,M,M,90.32,VVTS 090530Z 04007KT 340V120 9999 FEW017 32/17 Q1011 NOSIG,M
VVTS,1/9/2012 6:00,106.6667,10.8167,87.8,62.6,43.07,40,8,M,29.83,M,6.21,M,FEW,   ,   ,   ,1700,M,M,M,M,M,M,M,M,M,M,88.48,VVTS 090600Z 04008KT 360V080 9999 FEW017 31/17 Q1010 NOSIG,M
VVTS,1/9/2012 6:30,106.6667,10.8167,87.8,62.6,43.07,50,8,M,29.83,M,6.21,M,SCT,   ,   ,   ,2000,M,M,M,M,M,M,M,M,M,M,88.48,VVTS 090630Z 05008KT 010V080 9999 SCT020 31/17 Q1010 NOSIG,M
VVTS,1/9/2012 7:00,106.6667,10.8167,87.8,62.6,43.07,40,5,M,29.8,M,6.21,M,SCT,   ,   ,   ,2000,M,M,M,M,M,M,M,M,M,M,88.48,VVTS 090700Z 04005KT 010V090 9999 SCT020 31/17 Q1009 NOSIG,M
VVTS,1/9/2012 7:30,106.6667,10.8167,87.8,62.6,43.07,40,6,M,29.8,M,6.21,M,SCT,BKN,   ,   ,1700,4000,M,M,M,M,M,M,M,M,M,88.48,VVTS 090730Z 04006KT 9999 SCT017 BKN040 31/17 Q1009 NOSIG,M
VVTS,1/9/2012 8:00,106.6667,10.8167,87.8,62.6,43.07,20,5,M,29.8,M,6.21,M,SCT,BKN,   ,   ,1700,4000,M,M,M,M,M,M,M,M,M,88.48,VVTS 090800Z 02005KT 360V060 9999 SCT017 BKN040 31/17 Q1009 NOSIG,M
VVTS,1/9/2012 8:30,106.6667,10.8167,86,62.6,45.61,30,5,M,29.8,M,6.21,M,SCT,BKN,   ,   ,1700,4000,M,M,M,M,M,M,M,M,M,86.72,VVTS 090830Z 03005KT 9999 SCT017 BKN040 30/17 Q1009 NOSIG,M
VVTS,1/9/2012 9:00,106.6667,10.8167,86,62.6,45.61,340,5,M,29.8,M,6.21,M,SCT,BKN,   ,   ,1700,4000,M,M,M,M,M,M,M,M,M,86.72,VVTS 090900Z 34005KT 290V360 9999 SCT017 BKN040 30/17 Q1009 NOSIG,M
VVTS,1/9/2012 9:30,106.6667,10.8167,86,62.6,45.61,30,8,M,29.8,M,6.21,M,SCT,BKN,   ,   ,1700,4000,M,M,M,M,M,M,M,M,M,86.72,VVTS 090930Z 03008KT 9999 SCT017 BKN040 30/17 Q1009 NOSIG,M
VVTS,1/9/2012 10:00,106.6667,10.8167,84.2,62.6,48.32,30,7,M,29.83,M,6.21,M,SCT,BKN,   ,   ,1700,4000,M,M,M,M,M,M,M,M,M,85.03,VVTS 091000Z 03007KT 9999 SCT017 BKN040 29/17 Q1010 NOSIG,M
VVTS,1/9/2012 10:30,106.6667,10.8167,84.2,62.6,48.32,50,5,M,29.83,M,6.21,M,BKN,BKN,   ,   ,1700,4000,M,M,M,M,M,M,M,M,M,85.03,VVTS 091030Z 05005KT 9999 BKN017 BKN040 29/17 Q1010 NOSIG,M
VVTS,1/9/2012 11:00,106.6667,10.8167,84.2,62.6,48.32,10,5,M,29.83,M,6.21,M,SCT,BKN,   ,   ,1700,4000,M,M,M,M,M,M,M,M,M,85.03,VVTS 091100Z 01005KT 9999 SCT017 BKN040 29/17 Q1010 NOSIG,M
VVTS,1/9/2012 11:30,106.6667,10.8167,82.4,64.4,54.55,30,4,M,29.83,M,6.21,M,FEW,BKN,   ,   ,1700,4000,M,M,M,M,M,M,M,M,M,83.98,VVTS 091130Z 03004KT 9999 FEW017 BKN040 28/18 Q1010 NOSIG,M
VVTS,1/9/2012 12:00,106.6667,10.8167,82.4,62.6,51.21,20,8,M,29.85,M,6.21,M,SCT,SCT,   ,   ,1700,4000,M,M,M,M,M,M,M,M,M,83.41,VVTS 091200Z 02008KT 9999 SCT017 SCT040 28/17 Q1011 NOSIG,M
VVTS,1/9/2012 12:30,106.6667,10.8167,80.6,62.6,54.3,20,4,M,29.85,M,6.21,M,SCT,SCT,   ,   ,1700,4000,M,M,M,M,M,M,M,M,M,81.84,VVTS 091230Z 02004KT 340V050 9999 SCT017 SCT040 27/17 Q1011 NOSIG,M
VVTS,1/9/2012 13:00,106.6667,10.8167,80.6,62.6,54.3,30,8,M,29.88,M,6.21,M,SCT,BKN,   ,   ,1700,4000,M,M,M,M,M,M,M,M,M,81.84,VVTS 091300Z 03008KT 9999 SCT017 BKN040 27/17 Q1012 NOSIG,M
VVTS,1/9/2012 13:30,106.6667,10.8167,78.8,62.6,57.6,20,9,M,29.88,M,6.21,M,SCT,BKN,   ,   ,1700,4000,M,M,M,M,M,M,M,M,M,80.31,VVTS 091330Z 02009KT 340V050 9999 SCT017 BKN040 26/17 Q1012 NOSIG,M
VVTS,1/9/2012 14:00,106.6667,10.8167,78.8,60.8,54.05,30,10,M,29.88,M,6.21,M,SCT,BKN,   ,   ,1700,4000,M,M,M,M,M,M,M,M,M,78.8,VVTS 091400Z 03010KT 9999 SCT017 BKN040 26/16 Q1012 NOSIG,M
VVTS,1/9/2012 14:30,106.6667,10.8167,78.8,60.8,54.05,20,7,M,29.88,M,6.21,M,SCT,BKN,   ,   ,1700,4000,M,M,M,M,M,M,M,M,M,78.8,VVTS 091430Z 02007KT 330V050 9999 SCT017 BKN040 26/16 Q1012 NOSIG,M
VVTS,1/9/2012 15:00,106.6667,10.8167,77,60.8,57.36,30,6,M,29.88,M,6.21,M,SCT,BKN,   ,   ,1700,4000,M,M,M,M,M,M,M,M,M,77,VVTS 091500Z 03006KT 9999 SCT017 BKN040 25/16 Q1012 NOSIG,M
VVTS,1/9/2012 15:30,106.6667,10.8167,75.2,60.8,60.9,30,7,M,29.88,M,6.21,M,SCT,BKN,   ,   ,1700,4000,M,M,M,M,M,M,M,M,M,75.2,VVTS 091530Z 03007KT 9999 SCT017 BKN040 24/16 Q1012 NOSIG,M
VVTS,1/9/2012 16:00,106.6667,10.8167,75.2,60.8,60.9,30,8,M,29.88,M,6.21,M,SCT,BKN,   ,   ,1700,4000,M,M,M,M,M,M,M,M,M,75.2,VVTS 091600Z 03008KT 9999 SCT017 BKN040 24/16 Q1012 NOSIG,M
VVTS,1/9/2012 16:30,106.6667,10.8167,75.2,60.8,60.9,30,7,M,29.88,M,6.21,M,FEW,BKN,   ,   ,1700,4000,M,M,M,M,M,M,M,M,M,75.2,VVTS 091630Z 03007KT 9999 FEW017 BKN040 24/16 Q1012 NOSIG,M
VVTS,1/9/2012 17:00,106.6667,10.8167,75.2,60.8,60.9,30,5,M,29.88,M,6.21,M,FEW,BKN,   ,   ,1700,4000,M,M,M,M,M,M,M,M,M,75.2,VVTS 091700Z 03005KT 9999 FEW017 BKN040 24/16 Q1012 NOSIG,M
VVTS,1/9/2012 17:30,106.6667,10.8167,M,M,M,M,M,M,M,M,M,M,   ,   ,   ,   ,M,M,M,M,M,M,M,M,M,M,M,M,VVTS 091730Z NIL,M
VVTS,1/9/2012 18:00,106.6667,10.8167,73.4,60.8,64.69,40,5,M,29.88,M,6.21,M,FEW,BKN,   ,   ,1700,4000,M,M,M,M,M,M,M,M,M,73.4,VVTS 091800Z 04005KT 9999 FEW017 BKN040 23/16 Q1012 NOSIG,M
VVTS,1/9/2012 18:30,106.6667,10.8167,73.4,60.8,64.69,40,7,M,29.85,M,6.21,M,FEW,BKN,   ,   ,1700,4000,M,M,M,M,M,M,M,M,M,73.4,VVTS 091830Z 04007KT 9999 FEW017 BKN040 23/16 Q1011 NOSIG,M
VVTS,1/9/2012 19:00,106.6667,10.8167,M,M,M,M,M,M,M,M,M,M,   ,   ,   ,   ,M,M,M,M,M,M,M,M,M,M,M,M,VVTS 091900Z NIL,M
VVTS,1/9/2012 19:30,106.6667,10.8167,73.4,60.8,64.69,20,4,M,29.85,M,6.21,M,FEW,BKN,   ,   ,1700,4000,M,M,M,M,M,M,M,M,M,73.4,VVTS 091930Z 02004KT 9999 FEW017 BKN040 23/16 Q1011 NOSIG,M
VVTS,1/9/2012 20:00,106.6667,10.8167,73.4,60.8,64.69,20,5,M,29.83,M,6.21,M,FEW,BKN,   ,   ,1700,4000,M,M,M,M,M,M,M,M,M,73.4,VVTS 092000Z 02005KT 9999 FEW017 BKN040 23/16 Q1010 NOSIG,M
VVTS,1/9/2012 20:30,106.6667,10.8167,73.4,60.8,64.69,30,6,M,29.85,M,6.21,M,FEW,BKN,   ,   ,1700,4000,M,M,M,M,M,M,M,M,M,73.4,VVTS 092030Z 03006KT 9999 FEW017 BKN040 23/16 Q1011 NOSIG,M
VVTS,1/9/2012 21:00,106.6667,10.8167,73.4,62.6,68.94,30,6,M,29.85,M,6.21,M,FEW,BKN,   ,   ,1700,4000,M,M,M,M,M,M,M,M,M,73.4,VVTS 092100Z 03006KT 9999 FEW017 BKN040 23/17 Q1011 NOSIG,M
VVTS,1/9/2012 21:30,106.6667,10.8167,73.4,62.6,68.94,30,5,M,29.85,M,6.21,M,FEW,BKN,   ,   ,1700,4000,M,M,M,M,M,M,M,M,M,73.4,VVTS 092130Z 03005KT 9999 FEW017 BKN040 23/17 Q1011 NOSIG,M
VVTS,1/9/2012 22:00,106.6667,10.8167,73.4,60.8,64.69,40,5,M,29.85,M,6.21,M,FEW,BKN,   ,   ,1700,4000,M,M,M,M,M,M,M,M,M,73.4,VVTS 092200Z 04005KT 9999 FEW017 BKN040 23/16 Q1011 NOSIG,M
VVTS,1/9/2012 22:30,106.6667,10.8167,73.4,62.6,68.94,40,5,M,29.85,M,6.21,M,FEW,BKN,   ,   ,1700,4000,M,M,M,M,M,M,M,M,M,73.4,VVTS 092230Z 04005KT 9999 FEW017 BKN040 23/17 Q1011 NOSIG,M
VVTS,1/9/2012 23:00,106.6667,10.8167,73.4,62.6,68.94,360,3,M,29.88,M,6.21,M,SCT,BKN,   ,   ,1700,4000,M,M,M,M,M,M,M,M,M,73.4,VVTS 092300Z 36003KT 9999 SCT017 BKN040 23/17 Q1012 NOSIG,M
VVTS,1/9/2012 23:30,106.6667,10.8167,73.4,62.6,68.94,10,4,M,29.88,M,6.21,M,SCT,BKN,   ,   ,1700,4000,M,M,M,M,M,M,M,M,M,73.4,VVTS 092330Z 01004KT 9999 SCT017 BKN040 23/17 Q1012 NOSIG,M
VVTS,1/10/2012 0:00,106.6667,10.8167,71.6,62.6,73.27,10,5,M,29.88,M,6.21,M,SCT,BKN,   ,   ,1700,4000,M,M,M,M,M,M,M,M,M,71.6,VVTS 100000Z 01005KT 9999 SCT017 BKN040 22/17 Q1012 NOSIG,M
VVTS,1/10/2012 0:30,106.6667,10.8167,73.4,62.6,68.94,20,4,M,29.88,M,6.21,M,SCT,BKN,   ,   ,1700,4000,M,M,M,M,M,M,M,M,M,73.4,VVTS 100030Z 02004KT 9999 SCT017 BKN040 23/17 Q1012 NOSIG,M
VVTS,1/10/2012 1:00,106.6667,10.8167,75.2,62.6,64.91,20,6,M,29.91,M,6.21,M,FEW,BKN,   ,   ,1700,4000,M,M,M,M,M,M,M,M,M,75.2,VVTS 100100Z 02006KT 9999 FEW017 BKN040 24/17 Q1013 NOSIG,M
VVTS,1/10/2012 1:30,106.6667,10.8167,77,62.6,61.13,20,6,M,29.91,M,6.21,M,FEW,BKN,   ,   ,1700,4000,M,M,M,M,M,M,M,M,M,77,VVTS 100130Z 02006KT 9999 FEW017 BKN040 25/17 Q1013 NOSIG,M
VVTS,1/10/2012 2:00,106.6667,10.8167,78.8,64.4,61.36,20,7,M,29.91,M,6.21,M,FEW,BKN,   ,   ,1700,4000,M,M,M,M,M,M,M,M,M,80.56,VVTS 100200Z 02007KT 9999 FEW017 BKN040 26/18 Q1013 NOSIG,M
VVTS,1/10/2012 2:30,106.6667,10.8167,80.6,62.6,54.3,20,6,M,29.91,M,6.21,M,FEW,BKN,   ,   ,1700,4000,M,M,M,M,M,M,M,M,M,81.84,VVTS 100230Z 02006KT 9999 FEW017 BKN040 27/17 Q1013 NOSIG,M
VVTS,1/10/2012 3:00,106.6667,10.8167,80.6,64.4,57.84,20,5,M,29.91,M,6.21,M,FEW,BKN,   ,   ,1700,4000,M,M,M,M,M,M,M,M,M,82.27,VVTS 100300Z 02005KT 350V050 9999 FEW017 BKN040 27/18 Q1013 NOSIG,M
VVTS,1/10/2012 3:30,106.6667,10.8167,80.6,64.4,57.84,20,5,M,29.88,M,6.21,M,FEW,BKN,   ,   ,1700,4000,M,M,M,M,M,M,M,M,M,82.27,VVTS 100330Z 02005KT 310V050 9999 FEW017 BKN040 27/18 Q1012 NOSIG,M
VVTS,1/10/2012 4:00,106.6667,10.8167,80.6,64.4,57.84,10,5,M,29.88,M,6.21,M,FEW,BKN,   ,   ,1700,4000,M,M,M,M,M,M,M,M,M,82.27,VVTS 100400Z 01005KT 340V050 9999 FEW017 BKN040 27/18 Q1012 NOSIG,M
VVTS,1/10/2012 4:30,106.6667,10.8167,82.4,64.4,54.55,20,5,M,29.88,M,6.21,M,FEW,BKN,   ,   ,1700,4000,M,M,M,M,M,M,M,M,M,83.98,VVTS 100430Z 02005KT 350V050 9999 FEW017 BKN040 28/18 Q1012 NOSIG,M
VVTS,1/10/2012 5:00,106.6667,10.8167,82.4,64.4,54.55,40,6,M,29.85,M,6.21,M,SCT,BKN,   ,   ,1700,4000,M,M,M,M,M,M,M,M,M,83.98,VVTS 100500Z 04006KT 360V080 9999 SCT017 BKN040 28/18 Q1011 NOSIG,M
VVTS,1/10/2012 5:30,106.6667,10.8167,82.4,64.4,54.55,30,6,M,29.85,M,6.21,M,SCT,BKN,   ,   ,1700,4000,M,M,M,M,M,M,M,M,M,83.98,VVTS 100530Z 03006KT 9999 SCT017 BKN040 28/18 Q1011 NOSIG,M
VVTS,1/10/2012 6:00,106.6667,10.8167,82.4,66.2,58.08,40,6,M,29.83,M,6.21,M,SCT,BKN,   ,   ,1700,4000,M,M,M,M,M,M,M,M,M,84.63,VVTS 100600Z 04006KT 350V070 9999 SCT017 BKN040 28/19 Q1010 NOSIG,M
VVTS,1/10/2012 6:30,106.6667,10.8167,84.2,64.4,51.47,70,4,M,29.83,M,6.21,M,SCT,BKN,   ,   ,1700,4000,M,M,M,M,M,M,M,M,M,85.71,VVTS 100630Z 07004KT 010V180 9999 SCT017 BKN040 29/18 Q1010 TEMPO 05008G18KT,M
VVTS,1/10/2012 7:00,106.6667,10.8167,82.4,66.2,58.08,50,5,M,29.8,M,6.21,M,FEW,BKN,   ,   ,1700,4000,M,M,M,M,M,M,M,M,M,84.63,VVTS 100700Z 05005KT 290V220 9999 FEW017 BKN040 28/19 Q1009 TEMPO TL0800 05008G18KT,M
VVTS,1/10/2012 7:30,106.6667,10.8167,82.4,66.2,58.08,30,6,M,29.8,M,6.21,M,FEW,BKN,   ,   ,1700,4000,M,M,M,M,M,M,M,M,M,84.63,VVTS 100730Z 03006KT 360V070 9999 FEW017 BKN040 28/19 Q1009 NOSIG,M
VVTS,1/10/2012 8:00,106.6667,10.8167,82.4,66.2,58.08,10,5,M,29.77,M,6.21,M,FEW,BKN,   ,   ,1700,4000,M,M,M,M,M,M,M,M,M,84.63,VVTS 100800Z 01005KT 310V030 9999 FEW017 BKN040 28/19 Q1008 NOSIG,M
VVTS,1/10/2012 8:30,106.6667,10.8167,82.4,66.2,58.08,40,6,M,29.77,M,6.21,M,FEW,BKN,   ,   ,1700,4000,M,M,M,M,M,M,M,M,M,84.63,VVTS 100830Z 04006KT 9999 FEW017 BKN040 28/19 Q1008 NOSIG,M
VVTS,1/10/2012 9:00,106.6667,10.8167,82.4,66.2,58.08,30,5,M,29.77,M,6.21,M,FEW,BKN,   ,   ,1700,4000,M,M,M,M,M,M,M,M,M,84.63,VVTS 100900Z 03005KT 9999 FEW017 BKN040 28/19 Q1008 NOSIG,M
VVTS,1/10/2012 9:30,106.6667,10.8167,82.4,66.2,58.08,20,6,M,29.77,M,6.21,M,FEW,BKN,   ,   ,1700,4000,M,M,M,M,M,M,M,M,M,84.63,VVTS 100930Z 02006KT 9999 FEW017 BKN040 28/19 Q1008 NOSIG,M
VVTS,1/10/2012 10:00,106.6667,10.8167,82.4,66.2,58.08,30,6,M,29.8,M,6.21,M,FEW,BKN,   ,   ,1700,4000,M,M,M,M,M,M,M,M,M,84.63,VVTS 101000Z 03006KT 9999 FEW017 BKN040 28/19 Q1009 NOSIG,M
VVTS,1/10/2012 10:30,106.6667,10.8167,80.6,66.2,61.58,30,5,M,29.8,M,6.21,M,FEW,BKN,   ,   ,1700,4000,M,M,M,M,M,M,M,M,M,82.75,VVTS 101030Z 03005KT 9999 FEW017 BKN040 27/19 Q1009 NOSIG,M
VVTS,1/10/2012 11:00,106.6667,10.8167,80.6,66.2,61.58,30,6,M,29.8,M,6.21,M,FEW,BKN,   ,   ,1700,4000,M,M,M,M,M,M,M,M,M,82.75,VVTS 101100Z 03006KT 9999 FEW017 BKN040 27/19 Q1009 NOSIG,M
VVTS,1/10/2012 11:30,106.6667,10.8167,78.8,66.2,65.33,20,4,M,29.83,M,6.21,M,FEW,BKN,   ,   ,1700,4000,M,M,M,M,M,M,M,M,M,80.82,VVTS 101130Z 02004KT 9999 FEW017 BKN040 26/19 Q1010 NOSIG,M
VVTS,1/10/2012 12:00,106.6667,10.8167,78.8,66.2,65.33,30,4,M,29.83,M,6.21,M,FEW,BKN,   ,   ,1700,4000,M,M,M,M,M,M,M,M,M,80.82,VVTS 101200Z 03004KT 9999 FEW017 BKN040 26/19 Q1010 NOSIG,M
VVTS,1/10/2012 12:30,106.6667,10.8167,78.8,66.2,65.33,360,5,M,29.83,M,6.21,M,FEW,BKN,   ,   ,1700,4000,M,M,M,M,M,M,M,M,M,80.82,VVTS 101230Z 36005KT 9999 FEW017 BKN040 26/19 Q1010 NOSIG,M
VVTS,1/10/2012 13:00,106.6667,10.8167,78.8,66.2,65.33,10,6,M,29.83,M,6.21,M,FEW,BKN,   ,   ,1700,4000,M,M,M,M,M,M,M,M,M,80.82,VVTS 101300Z 01006KT 330V040 9999 FEW017 BKN040 26/19 Q1010 NOSIG,M
VVTS,1/10/2012 13:30,106.6667,10.8167,77,66.2,69.33,360,5,M,29.85,M,6.21,M,FEW,SCT,   ,   ,1700,4000,M,M,M,M,M,M,M,M,M,77,VVTS 101330Z 36005KT 9999 FEW017 SCT040 25/19 Q1011 NOSIG,M
VVTS,1/10/2012 14:00,106.6667,10.8167,77,64.4,65.12,360,5,M,29.85,M,6.21,M,FEW,SCT,   ,   ,1700,4000,M,M,M,M,M,M,M,M,M,77,VVTS 101400Z 36005KT 9999 FEW017 SCT040 25/18 Q1011 NOSIG,M
VVTS,1/10/2012 14:30,106.6667,10.8167,77,64.4,65.12,10,4,M,29.85,M,6.21,M,FEW,SCT,   ,   ,1700,4000,M,M,M,M,M,M,M,M,M,77,VVTS 101430Z 01004KT 9999 FEW017 SCT040 25/18 Q1011 NOSIG,M
VVTS,1/10/2012 15:00,106.6667,10.8167,75.2,64.4,69.14,10,5,M,29.85,M,6.21,M,FEW,SCT,   ,   ,1700,4000,M,M,M,M,M,M,M,M,M,75.2,VVTS 101500Z 01005KT 9999 FEW017 SCT040 24/18 Q1011 NOSIG,M
VVTS,1/10/2012 15:30,106.6667,10.8167,75.2,64.4,69.14,20,5,M,29.85,M,6.21,M,FEW,SCT,   ,   ,1700,4000,M,M,M,M,M,M,M,M,M,75.2,VVTS 101530Z 02005KT 350V060 9999 FEW017 SCT040 24/18 Q1011 NOSIG,M
VVTS,1/10/2012 16:00,106.6667,10.8167,75.2,64.4,69.14,20,4,M,29.85,M,6.21,M,FEW,SCT,   ,   ,1700,4000,M,M,M,M,M,M,M,M,M,75.2,VVTS 101600Z 02004KT 340V050 9999 FEW017 SCT040 24/18 Q1011 NOSIG,M
VVTS,1/10/2012 16:30,106.6667,10.8167,75.2,64.4,69.14,350,4,M,29.85,M,6.21,M,FEW,SCT,   ,   ,1700,4000,M,M,M,M,M,M,M,M,M,75.2,VVTS 101630Z 35004KT 320V030 9999 FEW017 SCT040 24/18 Q1011 NOSIG,M
VVTS,1/10/2012 17:00,106.6667,10.8167,75.2,64.4,69.14,10,3,M,29.85,M,6.21,M,FEW,SCT,   ,   ,1700,4000,M,M,M,M,M,M,M,M,M,75.2,VVTS 101700Z 01003KT 9999 FEW017 SCT040 24/18 Q1011 NOSIG,M
VVTS,1/10/2012 17:30,106.6667,10.8167,75.2,64.4,69.14,40,5,M,29.85,M,6.21,M,FEW,SCT,   ,   ,1700,4000,M,M,M,M,M,M,M,M,M,75.2,VVTS 101730Z 04005KT 9999 FEW017 SCT040 24/18 Q1011 NOSIG,M
VVTS,1/10/2012 18:00,106.6667,10.8167,75.2,64.4,69.14,50,5,M,29.85,M,6.21,M,FEW,SCT,   ,   ,1700,4000,M,M,M,M,M,M,M,M,M,75.2,VVTS 101800Z 05005KT 9999 FEW017 SCT040 24/18 Q1011 NOSIG,M
VVTS,1/10/2012 18:30,106.6667,10.8167,75.2,64.4,69.14,40,5,M,29.85,M,6.21,M,FEW,SCT,   ,   ,1700,4000,M,M,M,M,M,M,M,M,M,75.2,VVTS 101830Z 04005KT 9999 FEW017 SCT040 24/18 Q1011 NOSIG,M
VVTS,1/10/2012 19:00,106.6667,10.8167,75.2,64.4,69.14,40,5,M,29.85,M,6.21,M,FEW,SCT,   ,   ,1700,4000,M,M,M,M,M,M,M,M,M,75.2,VVTS 101900Z 04005KT 9999 FEW017 SCT040 24/18 Q1011 NOSIG,M
VVTS,1/10/2012 19:30,106.6667,10.8167,75.2,64.4,69.14,30,5,M,29.83,M,6.21,M,FEW,SCT,   ,   ,1700,4000,M,M,M,M,M,M,M,M,M,75.2,VVTS 101930Z 03005KT 9999 FEW017 SCT040 24/18 Q1010 NOSIG,M
VVTS,1/10/2012 20:00,106.6667,10.8167,73.4,64.4,73.44,40,6,M,29.83,M,6.21,M,FEW,SCT,   ,   ,1700,4000,M,M,M,M,M,M,M,M,M,73.4,VVTS 102000Z 04006KT 9999 FEW017 SCT040 23/18 Q1010 NOSIG,M
VVTS,1/10/2012 20:30,106.6667,10.8167,73.4,64.4,73.44,30,6,M,29.83,M,6.21,M,FEW,SCT,   ,   ,1700,4000,M,M,M,M,M,M,M,M,M,73.4,VVTS 102030Z 03006KT 9999 FEW017 SCT040 23/18 Q1010 NOSIG,M
VVTS,1/10/2012 21:00,106.6667,10.8167,M,M,M,M,M,M,M,M,M,M,   ,   ,   ,   ,M,M,M,M,M,M,M,M,M,M,M,M,VVTS 102100Z NIL,M
VVTS,1/10/2012 21:30,106.6667,10.8167,73.4,64.4,73.44,30,4,M,29.83,M,6.21,M,FEW,SCT,   ,   ,1700,4000,M,M,M,M,M,M,M,M,M,73.4,VVTS 102130Z 03004KT 360V060 9999 FEW017 SCT040 23/18 Q1010 NOSIG,M
VVTS,1/10/2012 22:00,106.6667,10.8167,M,M,M,M,M,M,M,M,M,M,   ,   ,   ,   ,M,M,M,M,M,M,M,M,M,M,M,M,VVTS 102200Z NIL,M
VVTS,1/10/2012 22:30,106.6667,10.8167,73.4,64.4,73.44,30,5,M,29.83,M,6.21,M,FEW,SCT,   ,   ,1700,4000,M,M,M,M,M,M,M,M,M,73.4,VVTS 102230Z 03005KT 9999 FEW017 SCT040 23/18 Q1010 NOSIG,M
VVTS,1/10/2012 23:00,106.6667,10.8167,73.4,64.4,73.44,40,4,M,29.85,M,6.21,M,FEW,SCT,   ,   ,1700,4000,M,M,M,M,M,M,M,M,M,73.4,VVTS 102300Z 04004KT 9999 FEW017 SCT040 23/18 Q1011 NOSIG,M
VVTS,1/10/2012 23:30,106.6667,10.8167,73.4,64.4,73.44,30,5,M,29.85,M,6.21,M,FEW,BKN,   ,   ,1700,4000,M,M,M,M,M,M,M,M,M,73.4,VVTS 102330Z 03005KT 9999 FEW017 BKN040 23/18 Q1011 NOSIG,M
VVTS,1/11/2012 0:00,106.6667,10.8167,75.2,64.4,69.14,40,6,M,29.85,M,6.21,M,SCT,BKN,   ,   ,1700,4000,M,M,M,M,M,M,M,M,M,75.2,VVTS 110000Z 04006KT 9999 SCT017 BKN040 24/18 Q1011 NOSIG,M
VVTS,1/11/2012 0:30,106.6667,10.8167,75.2,66.2,73.61,30,6,M,29.88,M,6.21,M,SCT,BKN,   ,   ,1700,4000,M,M,M,M,M,M,M,M,M,75.2,VVTS 110030Z 03006KT 360V060 9999 SCT017 BKN040 24/19 Q1012 NOSIG,M
VVTS,1/11/2012 1:00,106.6667,10.8167,75.2,66.2,73.61,40,6,M,29.88,M,6.21,M,SCT,BKN,   ,   ,1700,4000,M,M,M,M,M,M,M,M,M,75.2,VVTS 110100Z 04006KT 9999 SCT017 BKN040 24/19 Q1012 NOSIG,M
VVTS,1/11/2012 1:30,106.6667,10.8167,77,66.2,69.33,60,10,M,29.88,M,6.21,M,FEW,BKN,   ,   ,1700,4000,M,M,M,M,M,M,M,M,M,77,VVTS 110130Z 06010KT 9999 FEW017 BKN040 25/19 Q1012 NOSIG,M
VVTS,1/11/2012 2:00,106.6667,10.8167,78.8,66.2,65.33,40,9,M,29.88,M,6.21,M,FEW,BKN,   ,   ,1700,4000,M,M,M,M,M,M,M,M,M,80.82,VVTS 110200Z 04009KT 9999 FEW017 BKN040 26/19 Q1012 NOSIG,M
VVTS,1/11/2012 2:30,106.6667,10.8167,M,M,M,M,M,M,M,M,M,M,   ,   ,   ,   ,M,M,M,M,M,M,M,M,M,M,M,M,VVTS 110230Z NIL,M
VVTS,1/11/2012 3:00,106.6667,10.8167,80.6,66.2,61.58,40,9,M,29.88,M,6.21,M,FEW,BKN,   ,   ,1700,4000,M,M,M,M,M,M,M,M,M,82.75,VVTS 110300Z 04009KT 9999 FEW017 BKN040 27/19 Q1012 NOSIG,M
VVTS,1/11/2012 3:30,106.6667,10.8167,80.6,66.2,61.58,40,9,M,29.88,M,6.21,M,FEW,BKN,   ,   ,1700,4000,M,M,M,M,M,M,M,M,M,82.75,VVTS 110330Z 04009KT 9999 FEW017 BKN040 27/19 Q1012 NOSIG,M
VVTS,1/11/2012 4:00,106.6667,10.8167,82.4,66.2,58.08,40,10,M,29.88,M,6.21,M,FEW,BKN,   ,   ,1700,4000,M,M,M,M,M,M,M,M,M,84.63,VVTS 110400Z 04010KT 9999 FEW017 BKN040 28/19 Q1012 NOSIG,M
VVTS,1/11/2012 4:30,106.6667,10.8167,84.2,66.2,54.8,30,10,M,29.85,M,6.21,M,FEW,BKN,   ,   ,1700,4000,M,M,M,M,M,M,M,M,M,86.5,VVTS 110430Z 03010KT 9999 FEW017 BKN040 29/19 Q1011 NOSIG,M
VVTS,1/11/2012 5:00,106.6667,10.8167,M,M,M,40,10,M,M,M,6.21,M,   ,   ,   ,   ,M,M,M,M,M,M,M,M,M,M,M,M,VVTS 110500Z 04010KT 340V060 9999 FEW0Q1011 NOSIG,M
VVTS,1/11/2012 5:30,106.6667,10.8167,82.4,66.2,58.08,50,10,M,29.85,M,6.21,M,FEW,BKN,   ,   ,1700,4000,M,M,M,M,M,M,M,M,M,84.63,VVTS 110530Z 05010KT 9999 FEW017 BKN040 28/19 Q1011 NOSIG,M
VVTS,1/11/2012 6:00,106.6667,10.8167,80.6,66.2,61.58,50,13,M,29.83,M,6.21,M,SCT,BKN,   ,   ,1700,4000,M,M,M,M,M,M,M,M,M,82.75,VVTS 110600Z 05013KT 9999 SCT017 BKN040 27/19 Q1010 NOSIG,M
VVTS,1/11/2012 6:30,106.6667,10.8167,80.6,66.2,61.58,50,12,M,29.83,M,6.21,M,SCT,BKN,   ,   ,1700,4000,M,M,M,M,M,M,M,M,M,82.75,VVTS 110630Z 05012KT 9999 SCT017 BKN040 27/19 Q1010 NOSIG,M
VVTS,1/11/2012 7:00,106.6667,10.8167,80.6,66.2,61.58,40,13,M,29.83,M,6.21,M,SCT,BKN,   ,   ,1700,4000,M,M,M,M,M,M,M,M,M,82.75,VVTS 110700Z 04013KT 9999 SCT017 BKN040 27/19 Q1010 NOSIG,M
VVTS,1/11/2012 7:30,106.6667,10.8167,80.6,66.2,61.58,40,11,M,29.83,M,6.21,M,SCT,BKN,   ,   ,1700,4000,M,M,M,M,M,M,M,M,M,82.75,VVTS 110730Z 04011KT 9999 SCT017 BKN040 27/19 Q1010 NOSIG,M
VVTS,1/11/2012 8:00,106.6667,10.8167,80.6,66.2,61.58,30,8,M,29.8,M,6.21,M,SCT,BKN,   ,   ,1700,4000,M,M,#NAME?,M,M,M,M,M,M,82.75,VVTS 110800Z 03008KT 9999 -RA SCT017 BKN040 27/19 Q1009 NOSIG,M
VVTS,1/11/2012 8:30,106.6667,10.8167,80.6,66.2,61.58,20,9,M,29.8,M,6.21,M,SCT,BKN,   ,   ,1700,4000,M,M,M,M,M,M,M,M,M,82.75,VVTS 110830Z 02009KT 9999 SCT017 BKN040 27/19 Q1009 NOSIG,M
VVTS,1/11/2012 9:00,106.6667,10.8167,80.6,66.2,61.58,10,9,M,29.8,M,6.21,M,SCT,BKN,   ,   ,1700,4000,M,M,M,M,M,M,M,M,M,82.75,VVTS 110900Z 01009KT 340V040 9999 SCT017 BKN040 27/19 Q1009 NOSIG,M
VVTS,1/11/2012 9:30,106.6667,10.8167,78.8,66.2,65.33,20,8,M,29.83,M,6.21,M,SCT,BKN,   ,   ,1700,4000,M,M,M,M,M,M,M,M,M,80.82,VVTS 110930Z 02008KT 9999 SCT017 BKN040 26/19 Q1010 NOSIG,M
VVTS,1/11/2012 10:00,106.6667,10.8167,78.8,66.2,65.33,30,6,M,29.83,M,6.21,M,SCT,BKN,   ,   ,1700,4000,M,M,M,M,M,M,M,M,M,80.82,VVTS 111000Z 03006KT 9999 SCT017 BKN040 26/19 Q1010 NOSIG,M
VVTS,1/11/2012 10:30,106.6667,10.8167,78.8,66.2,65.33,30,5,M,29.83,M,6.21,M,SCT,BKN,   ,   ,1700,4000,M,M,M,M,M,M,M,M,M,80.82,VVTS 111030Z 03005KT 9999 SCT017 BKN040 26/19 Q1010 NOSIG,M
VVTS,1/11/2012 11:00,106.6667,10.8167,78.8,66.2,65.33,20,5,M,29.85,M,6.21,M,SCT,BKN,   ,   ,1700,4000,M,M,M,M,M,M,M,M,M,80.82,VVTS 111100Z 02005KT 9999 SCT017 BKN040 26/19 Q1011 NOSIG,M
VVTS,1/11/2012 11:30,106.6667,10.8167,77,66.2,69.33,20,4,M,29.85,M,6.21,M,SCT,BKN,   ,   ,1700,4000,M,M,M,M,M,M,M,M,M,77,VVTS 111130Z 02004KT 9999 SCT017 BKN040 25/19 Q1011 NOSIG,M
VVTS,1/11/2012 12:00,106.6667,10.8167,77,66.2,69.33,20,3,M,29.85,M,6.21,M,SCT,BKN,   ,   ,1700,4000,M,M,M,M,M,M,M,M,M,77,VVTS 111200Z 02003KT 9999 SCT017 BKN040 25/19 Q1011 NOSIG,M
VVTS,1/11/2012 12:30,106.6667,10.8167,75.2,66.2,73.61,20,5,M,29.85,M,6.21,M,SCT,BKN,   ,   ,1700,4000,M,M,M,M,M,M,M,M,M,75.2,VVTS 111230Z 02005KT 9999 SCT017 BKN040 24/19 Q1011 NOSIG,M
VVTS,1/11/2012 13:00,106.6667,10.8167,75.2,66.2,73.61,20,3,M,29.85,M,6.21,M,SCT,BKN,   ,   ,1700,4000,M,M,M,M,M,M,M,M,M,75.2,VVTS 111300Z 02003KT 9999 SCT017 BKN040 24/19 Q1011 NOSIG,M
VVTS,1/11/2012 13:30,106.6667,10.8167,75.2,66.2,73.61,20,3,M,29.85,M,6.21,M,SCT,BKN,   ,   ,1700,4000,M,M,M,M,M,M,M,M,M,75.2,VVTS 111330Z 02003KT 9999 SCT017 BKN040 24/19 Q1011 NOSIG,M
VVTS,1/11/2012 14:00,106.6667,10.8167,75.2,66.2,73.61,20,4,M,29.85,M,6.21,M,SCT,BKN,   ,   ,1700,4000,M,M,M,M,M,M,M,M,M,75.2,VVTS 111400Z 02004KT 340V040 9999 SCT017 BKN040 24/19 Q1011 NOSIG,M
VVTS,1/11/2012 14:30,106.6667,10.8167,75.2,66.2,73.61,M,2,M,29.85,M,6.21,M,FEW,   ,   ,   ,1700,M,M,M,M,M,M,M,M,M,M,75.2,VVTS 111430Z VRB02KT 9999 FEW017 24/19 Q1011 NOSIG,M
VVTS,1/11/2012 15:00,106.6667,10.8167,73.4,66.2,78.19,M,3,M,29.85,M,6.21,M,FEW,   ,   ,   ,1700,M,M,M,M,M,M,M,M,M,M,73.4,VVTS 111500Z VRB03KT 9999 FEW017 23/19 Q1011 NOSIG,M
VVTS,1/11/2012 15:30,106.6667,10.8167,73.4,66.2,78.19,M,3,M,29.85,M,6.21,M,FEW,   ,   ,   ,1700,M,M,M,M,M,M,M,M,M,M,73.4,VVTS 111530Z VRB03KT 9999 FEW017 23/19 Q1011 NOSIG,M
VVTS,1/11/2012 16:00,106.6667,10.8167,M,M,M,M,M,M,M,M,M,M,   ,   ,   ,   ,M,M,M,M,M,M,M,M,M,M,M,M,VVTS 111600Z NIL,M
VVTS,1/11/2012 16:30,106.6667,10.8167,73.4,66.2,78.19,M,3,M,29.85,M,6.21,M,FEW,   ,   ,   ,1700,M,M,M,M,M,M,M,M,M,M,73.4,VVTS 111630Z VRB03KT 9999 FEW017 23/19 Q1011 NOSIG,M
VVTS,1/11/2012 17:00,106.6667,10.8167,73.4,66.2,78.19,10,4,M,M,M,6.21,M,FEW,   ,   ,   ,1700,M,M,M,M,M,M,M,M,M,M,73.4,VVTS 111700Z 01004KT 9999 FEW017 23/19,M
VVTS,1/11/2012 17:30,106.6667,10.8167,73.4,66.2,78.19,20,4,M,29.85,M,6.21,M,SCT,BKN,   ,   ,1700,4000,M,M,M,M,M,M,M,M,M,73.4,VVTS 111730Z 02004KT 9999 SCT017 BKN040 23/19 Q1011 NOSIG,M
VVTS,1/11/2012 18:00,106.6667,10.8167,73.4,66.2,78.19,20,4,M,29.85,M,6.21,M,SCT,BKN,   ,   ,1700,4000,M,M,M,M,M,M,M,M,M,73.4,VVTS 111800Z 02004KT 9999 SCT017 BKN040 23/19 Q1011 NOSIG,M
VVTS,1/11/2012 18:30,106.6667,10.8167,73.4,66.2,78.19,M,3,M,29.83,M,6.21,M,SCT,BKN,   ,   ,1700,4000,M,M,M,M,M,M,M,M,M,73.4,VVTS 111830Z VRB03KT 9999 SCT017 BKN040 23/19 Q1010 NOSIG,M
VVTS,1/11/2012 19:00,106.6667,10.8167,73.4,66.2,78.19,10,4,M,29.83,M,6.21,M,SCT,BKN,   ,   ,1700,4000,M,M,M,M,M,M,M,M,M,73.4,VVTS 111900Z 01004KT 9999 SCT017 BKN040 23/19 Q1010 NOSIG,M
VVTS,1/11/2012 19:30,106.6667,10.8167,73.4,66.2,78.19,M,1,M,29.83,M,6.21,M,SCT,BKN,   ,   ,1700,4000,M,M,M,M,M,M,M,M,M,73.4,VVTS 111930Z VRB01KT 9999 SCT017 BKN040 23/19 Q1010 NOSIG,M
VVTS,1/11/2012 20:00,106.6667,10.8167,73.4,66.2,78.19,340,3,M,29.83,M,6.21,M,SCT,BKN,   ,   ,1700,4000,M,M,M,M,M,M,M,M,M,73.4,VVTS 112000Z 34003KT 9999 SCT017 BKN040 23/19 Q1010 NOSIG,M
VVTS,1/11/2012 20:30,106.6667,10.8167,73.4,66.2,78.19,20,4,M,29.83,M,6.21,M,SCT,BKN,   ,   ,1700,4000,M,M,M,M,M,M,M,M,M,73.4,VVTS 112030Z 02004KT 9999 SCT017 BKN040 23/19 Q1010 NOSIG,M
VVTS,1/11/2012 21:00,106.6667,10.8167,71.6,66.2,83.09,10,2,M,29.83,M,6.21,M,FEW,BKN,   ,   ,1700,4000,M,M,M,M,M,M,M,M,M,71.6,VVTS 112100Z 01002KT 9999 FEW017 BKN040 22/19 Q1010 NOSIG,M
VVTS,1/11/2012 21:30,106.6667,10.8167,71.6,66.2,83.09,360,3,M,29.83,M,6.21,M,FEW,BKN,   ,   ,1700,4000,M,M,M,M,M,M,M,M,M,71.6,VVTS 112130Z 36003KT 9999 FEW017 BKN040 22/19 Q1010 NOSIG,M
VVTS,1/11/2012 22:00,106.6667,10.8167,71.6,66.2,83.09,350,4,M,29.83,M,6.21,M,FEW,BKN,   ,   ,1700,4000,M,M,M,M,M,M,M,M,M,71.6,VVTS 112200Z 35004KT 9999 FEW017 BKN040 22/19 Q1010 NOSIG,M
VVTS,1/11/2012 22:30,106.6667,10.8167,71.6,66.2,83.09,20,3,M,29.83,M,6.21,M,FEW,BKN,   ,   ,1700,4000,M,M,M,M,M,M,M,M,M,71.6,VVTS 112230Z 02003KT 9999 FEW017 BKN040 22/19 Q1010 NOSIG,M
VVTS,1/11/2012 23:00,106.6667,10.8167,71.6,66.2,83.09,M,1,M,29.83,M,6.21,M,FEW,BKN,   ,   ,1700,4000,M,M,M,M,M,M,M,M,M,71.6,VVTS 112300Z VRB01KT 9999 FEW017 BKN040 22/19 Q1010 NOSIG,M
VVTS,1/11/2012 23:30,106.6667,10.8167,71.6,66.2,83.09,320,1,M,29.85,M,6.21,M,FEW,BKN,   ,   ,1700,4000,M,M,M,M,M,M,M,M,M,71.6,VVTS 112330Z 32001KT 9999 FEW017 BKN040 22/19 Q1011 NOSIG,M
VVTS,1/12/2012 0:00,106.6667,10.8167,73.4,66.2,78.19,350,3,M,29.85,M,6.21,M,FEW,BKN,   ,   ,1700,4000,M,M,M,M,M,M,M,M,M,73.4,VVTS 120000Z 35003KT 9999 FEW017 BKN040 23/19 Q1011 NOSIG,M
VVTS,1/12/2012 0:30,106.6667,10.8167,73.4,66.2,78.19,360,3,M,29.85,M,6.21,M,FEW,BKN,   ,   ,1700,4000,M,M,M,M,M,M,M,M,M,73.4,VVTS 120030Z 36003KT 9999 FEW017 BKN040 23/19 Q1011 NOSIG,M
VVTS,1/12/2012 1:00,106.6667,10.8167,77,66.2,69.33,360,4,M,29.88,M,6.21,M,FEW,SCT,   ,   ,1700,4000,M,M,M,M,M,M,M,M,M,77,VVTS 120100Z 36004KT 320V030 9999 FEW017 SCT040 25/19 Q1012 NOSIG,M
VVTS,1/12/2012 1:30,106.6667,10.8167,78.8,68,69.52,350,5,M,29.88,M,6.21,M,FEW,SCT,   ,   ,1700,4000,M,M,M,M,M,M,M,M,M,81.1,VVTS 120130Z 35005KT 300V040 9999 FEW017 SCT040 26/20 Q1012 NOSIG,M
VVTS,1/12/2012 2:00,106.6667,10.8167,80.6,68,65.54,20,5,M,29.88,M,6.21,M,FEW,SCT,   ,   ,1700,4000,M,M,M,M,M,M,M,M,M,83.29,VVTS 120200Z 02005KT 360V080 9999 FEW017 SCT040 27/20 Q1012 NOSIG,M
VVTS,1/12/2012 2:30,106.6667,10.8167,82.4,68,61.81,20,4,M,29.88,M,6.21,M,FEW,   ,   ,   ,1700,M,M,M,M,M,M,M,M,M,M,85.38,VVTS 120230Z 02004KT 350V060 9999 FEW017 28/20 Q1012 NOSIG,M
VVTS,1/12/2012 3:00,106.6667,10.8167,84.2,66.2,54.8,M,3,M,29.88,M,6.21,M,FEW,   ,   ,   ,1700,M,M,M,M,M,M,M,M,M,M,86.5,VVTS 120300Z VRB03KT 9999 FEW017 29/19 Q1012 NOSIG,M
VVTS,1/12/2012 3:30,106.6667,10.8167,87.8,66.2,48.84,50,5,M,29.88,M,6.21,M,FEW,   ,   ,   ,1700,M,M,M,M,M,M,M,M,M,M,90.31,VVTS 120330Z 05005KT 010V080 9999 FEW017 31/19 Q1012 NOSIG,M
VVTS,1/12/2012 4:00,106.6667,10.8167,87.8,66.2,48.84,M,2,M,29.85,M,6.21,M,FEW,   ,   ,   ,1700,M,M,M,M,M,M,M,M,M,M,90.31,VVTS 120400Z VRB02KT 9999 FEW017 31/19 Q1011 NOSIG,M
VVTS,1/12/2012 4:30,106.6667,10.8167,89.6,66.2,46.14,110,5,M,29.85,M,6.21,M,SCT,   ,   ,   ,2000,M,M,M,M,M,M,M,M,M,M,92.27,VVTS 120430Z 11005KT 9999 SCT020 32/19 Q1011 NOSIG,M
VVTS,1/12/2012 5:00,106.6667,10.8167,89.6,66.2,46.14,60,6,M,29.83,M,6.21,M,SCT,   ,   ,   ,2000,M,M,M,M,M,M,M,M,M,M,92.27,VVTS 120500Z 06006KT 350V190 9999 SCT020 32/19 Q1010 NOSIG,M
VVTS,1/12/2012 5:30,106.6667,10.8167,87.8,66.2,48.84,90,8,M,29.8,M,6.21,M,SCT,   ,   ,   ,2000,M,M,M,M,M,M,M,M,M,M,90.31,VVTS 120530Z 09008KT 060V150 9999 SCT020 31/19 Q1009 NOSIG,M
VVTS,1/12/2012 6:00,106.6667,10.8167,89.6,66.2,46.14,100,6,M,29.8,M,6.21,M,SCT,   ,   ,   ,2000,M,M,M,M,M,M,M,M,M,M,92.27,VVTS 120600Z 10006KT 050V140 9999 SCT020 32/19 Q1009 NOSIG,M
VVTS,1/12/2012 6:30,106.6667,10.8167,91.4,66.2,43.61,60,9,M,29.77,M,6.21,M,FEW,SCT,   ,   ,1700,4000,M,M,M,M,M,M,M,M,M,94.29,VVTS 120630Z 06009KT 020V090 9999 FEW017 SCT040 33/19 Q1008 NOSIG,M
VVTS,1/12/2012 7:00,106.6667,10.8167,89.6,66.2,46.14,40,7,M,29.77,M,6.21,M,FEW,SCT,   ,   ,1700,4000,M,M,M,M,M,M,M,M,M,92.27,VVTS 120700Z 04007KT 360V070 9999 FEW017 SCT040 32/19 Q1008 NOSIG,M
VVTS,1/12/2012 7:30,106.6667,10.8167,89.6,66.2,46.14,50,9,M,29.77,M,6.21,M,SCT,SCT,   ,   ,1700,4000,M,M,M,M,M,M,M,M,M,92.27,VVTS 120730Z 05009KT 9999 SCT017 SCT040 32/19 Q1008 NOSIG,M
VVTS,1/12/2012 8:00,106.6667,10.8167,M,M,M,M,M,M,M,M,M,M,   ,   ,   ,   ,M,M,M,M,M,M,M,M,M,M,M,M,VVTS 120800Z NIL,M
VVTS,1/12/2012 8:30,106.6667,10.8167,87.8,66.2,48.84,50,7,M,29.74,M,6.21,M,SCT,SCT,   ,   ,1700,4000,M,M,M,M,M,M,M,M,M,90.31,VVTS 120830Z 05007KT 9999 SCT017 SCT040 31/19 Q1007 NOSIG,M
VVTS,1/12/2012 9:00,106.6667,10.8167,87.8,66.2,48.84,40,4,M,29.74,M,6.21,M,FEW,SCT,   ,   ,1700,2000,M,M,M,M,M,M,M,M,M,90.31,VVTS 120900Z 04004KT 360V100 9999 FEW017TCU SCT020 31/19 Q1007 NOSIG,M
VVTS,1/12/2012 9:30,106.6667,10.8167,87.8,66.2,48.84,50,3,M,29.77,M,6.21,M,FEW,SCT,   ,   ,1700,2000,M,M,M,M,M,M,M,M,M,90.31,VVTS 120930Z 05003KT 9999 FEW017TCU SCT020 31/19 Q1008 NOSIG,M
VVTS,1/12/2012 10:00,106.6667,10.8167,87.8,68,51.98,70,4,M,29.77,M,6.21,M,FEW,SCT,   ,   ,1700,2000,M,M,M,M,M,M,M,M,M,91.43,VVTS 121000Z 07004KT 9999 FEW017TCU SCT020 31/20 Q1008 NOSIG,M
VVTS,1/12/2012 10:30,106.6667,10.8167,86,68,55.04,70,6,M,29.77,M,6.21,M,FEW,SCT,   ,   ,1700,2000,M,M,M,M,M,M,M,M,M,89.41,VVTS 121030Z 07006KT 9999 FEW017TCU SCT020 30/20 Q1008 NOSIG,M
VVTS,1/12/2012 11:00,106.6667,10.8167,84.2,68,58.32,70,4,M,29.77,M,6.21,M,FEW,SCT,   ,   ,1700,2000,M,M,M,M,M,M,M,M,M,87.4,VVTS 121100Z 07004KT 9999 FEW017TCU SCT020 29/20 Q1008 NOSIG,M
VVTS,1/12/2012 11:30,106.6667,10.8167,84.2,68,58.32,230,4,M,29.8,M,6.21,M,FEW,SCT,   ,   ,1700,2000,M,M,M,M,M,M,M,M,M,87.4,VVTS 121130Z 23004KT 190V260 9999 FEW017TCU SCT020 29/20 Q1009 NOSIG,M
VVTS,1/12/2012 12:00,106.6667,10.8167,82.4,69.8,65.74,40,6,M,29.8,M,6.21,M,FEW,SCT,   ,   ,1700,4000,M,M,M,M,M,M,M,M,M,86.22,VVTS 121200Z 04006KT 9999 FEW017 SCT040 28/21 Q1009 NOSIG,M
VVTS,1/12/2012 12:30,106.6667,10.8167,82.4,69.8,65.74,40,6,M,29.8,M,6.21,M,FEW,SCT,   ,   ,1700,4000,M,M,M,M,M,M,M,M,M,86.22,VVTS 121230Z 04006KT 9999 FEW017 SCT040 28/21 Q1009 NOSIG,M
VVTS,1/12/2012 13:00,106.6667,10.8167,80.6,69.8,69.71,20,5,M,29.83,M,6.21,M,FEW,SCT,   ,   ,1700,4000,M,M,M,M,M,M,M,M,M,83.9,VVTS 121300Z 02005KT 340V060 9999 FEW017 SCT040 27/21 Q1010 NOSIG,M
VVTS,1/12/2012 13:30,106.6667,10.8167,80.6,69.8,69.71,50,3,M,29.83,M,6.21,M,FEW,SCT,   ,   ,1700,4000,M,M,M,M,M,M,M,M,M,83.9,VVTS 121330Z 05003KT 9999 FEW017 SCT040 27/21 Q1010 NOSIG,M
VVTS,1/12/2012 14:00,106.6667,10.8167,80.6,69.8,69.71,M,3,M,29.83,M,6.21,M,FEW,SCT,   ,   ,1500,1700,M,M,M,M,M,M,M,M,M,83.9,VVTS 121400Z VRB03KT 9999 FEW015TCU SCT017 27/21 Q1010 NOSIG,M
VVTS,1/12/2012 14:30,106.6667,10.8167,78.8,69.8,73.95,40,5,M,29.83,M,6.21,M,FEW,SCT,   ,   ,1700,4000,M,M,M,M,M,M,M,M,M,81.39,VVTS 121430Z 04005KT 9999 FEW017 SCT040 26/21 Q1010 NOSIG,M
VVTS,1/12/2012 15:00,106.6667,10.8167,78.8,68,69.52,360,5,M,29.83,M,6.21,M,FEW,SCT,   ,   ,1700,4000,M,M,M,M,M,M,M,M,M,81.1,VVTS 121500Z 36005KT 330V030 9999 FEW017 SCT040 26/20 Q1010 NOSIG,M
VVTS,1/12/2012 15:30,106.6667,10.8167,M,M,M,M,M,M,M,M,M,M,   ,   ,   ,   ,M,M,M,M,M,M,M,M,M,M,M,M,VVTS 121530Z NIL,M
VVTS,1/12/2012 16:00,106.6667,10.8167,78.8,68,69.52,M,3,M,29.83,M,6.21,M,FEW,SCT,   ,   ,1700,4000,M,M,M,M,M,M,M,M,M,81.1,VVTS 121600Z VRB03KT 9999 FEW017 SCT040 26/20 Q1010 NOSIG,M
VVTS,1/12/2012 16:30,106.6667,10.8167,77,68,73.78,340,2,M,29.83,M,6.21,M,FEW,SCT,   ,   ,1700,4000,M,M,M,M,M,M,M,M,M,77,VVTS 121630Z 34002KT 9999 FEW017 SCT040 25/20 Q1010 NOSIG,M
VVTS,1/12/2012 17:00,106.6667,10.8167,M,M,M,M,M,M,M,M,M,M,   ,   ,   ,   ,M,M,M,M,M,M,M,M,M,M,M,M,VVTS 121700Z NIL,M
VVTS,1/12/2012 17:30,106.6667,10.8167,75.2,68,78.34,30,4,M,29.85,M,6.21,M,FEW,SCT,   ,   ,1700,4000,M,M,M,M,M,M,M,M,M,75.2,VVTS 121730Z 03004KT 9999 FEW017 SCT040 24/20 Q1011 NOSIG,M
VVTS,1/12/2012 18:00,106.6667,10.8167,75.2,68,78.34,30,3,M,29.83,M,6.21,M,FEW,SCT,   ,   ,1700,4000,M,M,M,M,M,M,M,M,M,75.2,VVTS 121800Z 03003KT 9999 FEW017 SCT040 24/20 Q1010 NOSIG,M
VVTS,1/12/2012 18:30,106.6667,10.8167,M,M,M,M,M,M,M,M,M,M,   ,   ,   ,   ,M,M,M,M,M,M,M,M,M,M,M,M,VVTS 121830Z NIL,M
VVTS,1/12/2012 19:00,106.6667,10.8167,73.4,68,83.21,350,3,M,29.83,M,6.21,M,FEW,SCT,   ,   ,1700,4000,M,M,M,M,M,M,M,M,M,73.4,VVTS 121900Z 35003KT 9999 FEW017 SCT040 23/20 Q1010 NOSIG,M
VVTS,1/12/2012 19:30,106.6667,10.8167,73.4,68,83.21,350,3,M,29.83,M,6.21,M,FEW,SCT,   ,   ,1700,4000,M,M,M,M,M,M,M,M,M,73.4,VVTS 121930Z 35003KT 9999 FEW017 SCT040 23/20 Q1010 NOSIG,M
VVTS,1/12/2012 20:00,106.6667,10.8167,73.4,69.8,88.51,350,5,M,29.8,M,6.21,M,FEW,SCT,   ,   ,1700,4000,M,M,M,M,M,M,M,M,M,74.6,VVTS 122000Z 35005KT 9999 FEW017 SCT040 23/21 Q1009 NOSIG,M
VVTS,1/12/2012 20:30,106.6667,10.8167,73.4,69.8,88.51,10,4,M,29.8,M,6.21,M,FEW,SCT,   ,   ,1700,4000,M,M,M,M,M,M,M,M,M,74.6,VVTS 122030Z 01004KT 9999 FEW017 SCT040 23/21 Q1009 NOSIG,M
VVTS,1/12/2012 21:00,106.6667,10.8167,73.4,69.8,88.51,10,6,M,29.8,M,6.21,M,FEW,SCT,   ,   ,1700,4000,M,M,M,M,M,M,M,M,M,74.6,VVTS 122100Z 01006KT 9999 FEW017 SCT040 23/21 Q1009 NOSIG,M
VVTS,1/12/2012 21:30,106.6667,10.8167,M,M,M,M,M,M,M,M,M,M,   ,   ,   ,   ,M,M,M,M,M,M,M,M,M,M,M,M,VVTS 122130Z NIL,M
VVTS,1/12/2012 22:00,106.6667,10.8167,73.4,68,83.21,10,4,M,29.83,M,6.21,M,FEW,SCT,   ,   ,1700,4000,M,M,M,M,M,M,M,M,M,73.4,VVTS 122200Z 01004KT 9999 FEW017 SCT040 23/20 Q1010 NOSIG,M
VVTS,1/12/2012 22:30,106.6667,10.8167,71.6,68,88.43,10,5,M,29.83,M,6.21,M,FEW,SCT,   ,   ,1700,4000,M,M,M,M,M,M,M,M,M,72.62,VVTS 122230Z 01005KT 340V070 9999 FEW017 SCT040 22/20 Q1010 NOSIG,M
VVTS,1/12/2012 23:00,106.6667,10.8167,73.4,68,83.21,10,4,M,29.83,M,6.21,M,FEW,SCT,   ,   ,1700,4000,M,M,M,M,M,M,M,M,M,73.4,VVTS 122300Z 01004KT 9999 FEW017 SCT040 23/20 Q1010 NOSIG,M
VVTS,1/12/2012 23:30,106.6667,10.8167,73.4,68,83.21,10,4,M,29.83,M,6.21,M,FEW,SCT,   ,   ,1700,4000,M,M,M,M,M,M,M,M,M,73.4,VVTS 122330Z 01004KT 9999 FEW017 SCT040 23/20 Q1010 NOSIG,M
VVTS,1/13/2012 0:00,106.6667,10.8167,73.4,69.8,88.51,40,3,M,29.85,M,6.21,M,FEW,BKN,   ,   ,1700,4000,M,M,M,M,M,M,M,M,M,74.6,VVTS 130000Z 04003KT 9999 FEW017 BKN040 23/21 Q1011 NOSIG,M
VVTS,1/13/2012 0:30,106.6667,10.8167,M,M,M,M,M,M,M,M,M,M,   ,   ,   ,   ,M,M,M,M,M,M,M,M,M,M,M,M,VVTS 130030Z NIL,M
VVTS,1/13/2012 1:00,106.6667,10.8167,75.2,69.8,83.32,40,5,M,29.85,M,6.21,M,FEW,BKN,   ,   ,1700,4000,M,M,M,M,M,M,M,M,M,76.34,VVTS 130100Z 04005KT 9999 FEW017 BKN040 24/21 Q1011 NOSIG,M
VVTS,1/13/2012 1:30,106.6667,10.8167,78.8,68,69.52,30,5,M,29.85,M,6.21,M,FEW,BKN,   ,   ,1700,4000,M,M,M,M,M,M,M,M,M,81.1,VVTS 130130Z 03005KT 360V070 9999 FEW017 BKN040 26/20 Q1011 NOSIG,M
VVTS,1/13/2012 2:00,106.6667,10.8167,80.6,69.8,69.71,20,5,M,29.85,M,6.21,M,FEW,BKN,   ,   ,1700,4000,M,M,M,M,M,M,M,M,M,83.9,VVTS 130200Z 02005KT 9999 FEW017 BKN040 27/21 Q1011 NOSIG,M
VVTS,1/13/2012 2:30,106.6667,10.8167,82.4,69.8,65.74,20,5,M,29.85,M,6.21,M,FEW,BKN,   ,   ,1700,4000,M,M,M,M,M,M,M,M,M,86.22,VVTS 130230Z 02005KT 340V050 9999 FEW017 BKN040 28/21 Q1011 NOSIG,M
VVTS,1/13/2012 3:00,106.6667,10.8167,84.2,69.8,62.03,10,5,M,29.85,M,6.21,M,FEW,BKN,   ,   ,1700,4000,M,M,M,M,M,M,M,M,M,88.43,VVTS 130300Z 01005KT 330V060 9999 FEW017 BKN040 29/21 Q1011 NOSIG,M
VVTS,1/13/2012 3:30,106.6667,10.8167,86,66.2,51.72,60,7,M,29.85,M,6.21,M,FEW,SCT,   ,   ,1700,4000,M,M,M,M,M,M,M,M,M,88.39,VVTS 130330Z 06007KT 010V110 9999 FEW017 SCT040 30/19 Q1011 NOSIG,M
VVTS,1/13/2012 4:00,106.6667,10.8167,87.8,68,51.98,80,6,M,29.85,M,6.21,M,FEW,SCT,   ,   ,1700,4000,M,M,M,M,M,M,M,M,M,91.43,VVTS 130400Z 08006KT 040V120 9999 FEW017 SCT040 31/20 Q1011 NOSIG,M
VVTS,1/13/2012 4:30,106.6667,10.8167,87.8,66.2,48.84,80,8,M,29.83,M,6.21,26,FEW,SCT,   ,   ,1700,4000,M,M,M,M,M,M,M,M,M,90.31,VVTS 130430Z 08008G26KT 040V110 9999 FEW017 SCT040 31/19 Q1010 NOSIG,M
VVTS,1/13/2012 5:00,106.6667,10.8167,87.8,66.2,48.84,110,10,M,29.83,M,6.21,M,SCT,BKN,   ,   ,1700,4000,M,M,M,M,M,M,M,M,M,90.31,VVTS 130500Z 11010KT 060V140 9999 SCT017 BKN040 31/19 Q1010 NOSIG,M
VVTS,1/13/2012 5:30,106.6667,10.8167,87.8,66.2,48.84,80,10,M,29.83,M,6.21,M,SCT,BKN,   ,   ,1700,4000,M,M,M,M,M,M,M,M,M,90.31,VVTS 130530Z 08010KT 9999 SCT017 BKN040 31/19 Q1010 NOSIG,M
VVTS,1/13/2012 6:00,106.6667,10.8167,87.8,68,51.98,80,8,M,29.8,M,6.21,M,SCT,BKN,   ,   ,1700,4000,M,M,M,M,M,M,M,M,M,91.43,VVTS 130600Z 08008KT 040V110 9999 SCT017 BKN040 31/20 Q1009 NOSIG,M
VVTS,1/13/2012 6:30,106.6667,10.8167,87.8,68,51.98,70,6,M,29.77,M,6.21,M,SCT,BKN,   ,   ,1700,4000,M,M,M,M,M,M,M,M,M,91.43,VVTS 130630Z 07006KT 030V110 9999 SCT017 BKN040 31/20 Q1008 NOSIG,M
VVTS,1/13/2012 7:00,106.6667,10.8167,87.8,68,51.98,60,7,M,29.77,M,6.21,M,SCT,BKN,   ,   ,1700,4000,M,M,M,M,M,M,M,M,M,91.43,VVTS 130700Z 06007KT 9999 SCT017 BKN040 31/20 Q1008 NOSIG,M
VVTS,1/13/2012 7:30,106.6667,10.8167,86,68,55.04,50,6,M,29.77,M,6.21,M,SCT,BKN,   ,   ,1700,4000,M,M,M,M,M,M,M,M,M,89.41,VVTS 130730Z 05006KT 9999 SCT017 BKN040 30/20 Q1008 NOSIG,M
VVTS,1/13/2012 8:00,106.6667,10.8167,86,69.8,58.55,30,5,M,29.77,M,6.21,M,SCT,BKN,   ,   ,1700,4000,M,M,M,M,M,M,M,M,M,90.58,VVTS 130800Z 03005KT 350V070 9999 SCT017 BKN040 30/21 Q1008 NOSIG,M
VVTS,1/13/2012 8:30,106.6667,10.8167,86,69.8,58.55,M,3,M,29.77,M,6.21,M,SCT,BKN,   ,   ,1700,4000,M,M,M,M,M,M,M,M,M,90.58,VVTS 130830Z VRB03KT 9999 SCT017 BKN040 30/21 Q1008 NOSIG,M
VVTS,1/13/2012 9:00,106.6667,10.8167,86,68,55.04,M,2,M,29.77,M,6.21,M,SCT,BKN,   ,   ,1700,4000,M,M,M,M,M,M,M,M,M,89.41,VVTS 130900Z VRB02KT 9999 SCT017 BKN040 30/20 Q1008 NOSIG,M
VVTS,1/13/2012 9:30,106.6667,10.8167,84.2,69.8,62.03,M,3,M,29.77,M,6.21,M,SCT,BKN,   ,   ,1700,4000,M,M,M,M,M,M,M,M,M,88.43,VVTS 130930Z VRB03KT 9999 SCT017 BKN040 29/21 Q1008 NOSIG,M
VVTS,1/13/2012 10:00,106.6667,10.8167,84.2,68,58.32,80,4,M,29.77,M,6.21,M,SCT,BKN,   ,   ,1700,4000,M,M,M,M,M,M,M,M,M,87.4,VVTS 131000Z 08004KT 040V100 9999 SCT017 BKN040 29/20 Q1008 NOSIG,M
VVTS,1/13/2012 10:30,106.6667,10.8167,84.2,69.8,62.03,M,3,M,29.77,M,6.21,M,SCT,BKN,   ,   ,1700,4000,M,M,M,M,M,M,M,M,M,88.43,VVTS 131030Z VRB03KT 9999 SCT017 BKN040 29/21 Q1008 NOSIG,M
VVTS,1/13/2012 11:00,106.6667,10.8167,82.4,71.6,69.9,M,2,M,29.77,M,6.21,M,SCT,BKN,   ,   ,1700,4000,M,M,M,M,M,M,M,M,M,87.18,VVTS 131100Z VRB02KT 9999 SCT017 BKN040 28/22 Q1008 NOSIG,M
VVTS,1/13/2012 11:30,106.6667,10.8167,82.4,71.6,69.9,M,1,M,29.8,M,6.21,M,FEW,BKN,   ,   ,1700,4000,M,M,M,M,M,M,M,M,M,87.18,VVTS 131130Z VRB01KT 9999 FEW017 BKN040 28/22 Q1009 NOSIG,M
VVTS,1/13/2012 12:00,106.6667,10.8167,80.6,71.6,74.11,250,1,M,29.8,M,6.21,M,FEW,BKN,   ,   ,1700,4000,M,M,M,M,M,M,M,M,M,84.57,VVTS 131200Z 25001KT 9999 FEW017 BKN040 27/22 Q1009 NOSIG,M
VVTS,1/13/2012 12:30,106.6667,10.8167,80.6,71.6,74.11,260,3,M,29.8,M,5.59,M,FEW,BKN,   ,   ,1700,4000,M,M,M,M,M,M,M,M,M,84.57,VVTS 131230Z 26003KT 9000 FEW017 BKN040 27/22 Q1009 NOSIG,M
VVTS,1/13/2012 13:00,106.6667,10.8167,78.8,71.6,78.62,0,0,M,29.8,M,6.21,M,FEW,BKN,   ,   ,1700,4000,M,M,M,M,M,M,M,M,M,81.7,VVTS 131300Z 00000KT 9999 FEW017 BKN040 26/22 Q1009 NOSIG,M
VVTS,1/13/2012 13:30,106.6667,10.8167,78.8,71.6,78.62,M,1,M,29.83,M,6.21,M,FEW,SCT,   ,   ,1700,4000,M,M,M,M,M,M,M,M,M,81.7,VVTS 131330Z VRB01KT 9999 FEW017 SCT040 26/22 Q1010 NOSIG,M
VVTS,1/13/2012 14:00,106.6667,10.8167,78.8,71.6,78.62,320,4,M,29.83,M,6.21,M,FEW,SCT,   ,   ,1700,4000,M,M,M,M,M,M,M,M,M,81.7,VVTS 131400Z 32004KT 250V050 9999 FEW017 SCT040 26/22 Q1010 NOSIG,M
VVTS,1/13/2012 14:30,106.6667,10.8167,78.8,71.6,78.62,M,2,M,29.83,M,6.21,M,FEW,SCT,   ,   ,1700,4000,M,M,M,M,M,M,M,M,M,81.7,VVTS 131430Z VRB02KT 9999 FEW017 SCT040 26/22 Q1010 NOSIG,M
VVTS,1/13/2012 15:00,106.6667,10.8167,78.8,69.8,73.95,0,0,M,29.83,M,6.21,M,FEW,BKN,   ,   ,1700,4000,M,M,M,M,M,M,M,M,M,81.39,VVTS 131500Z 00000KT 9999 FEW017 BKN040 26/21 Q1010 NOSIG,M
VVTS,1/13/2012 15:30,106.6667,10.8167,78.8,71.6,78.62,M,1,M,29.83,M,6.21,M,FEW,BKN,   ,   ,1700,4000,M,M,M,M,M,M,M,M,M,81.7,VVTS 131530Z VRB01KT 9999 FEW017 BKN040 26/22 Q1010 NOSIG,M
VVTS,1/13/2012 16:00,106.6667,10.8167,78.8,71.6,78.62,M,1,M,29.83,M,6.21,M,FEW,BKN,   ,   ,1700,4000,M,M,M,M,M,M,M,M,M,81.7,VVTS 131600Z VRB01KT 9999 FEW017 BKN040 26/22 Q1010 NOSIG,M
VVTS,1/13/2012 16:30,106.6667,10.8167,78.8,71.6,78.62,M,1,M,29.83,M,6.21,M,FEW,BKN,   ,   ,1700,4000,M,M,M,M,M,M,M,M,M,81.7,VVTS 131630Z VRB01KT 9999 FEW017 BKN040 26/22 Q1010 NOSIG,M
VVTS,1/13/2012 17:00,106.6667,10.8167,78.8,71.6,78.62,M,2,M,29.8,M,6.21,M,FEW,BKN,   ,   ,1700,4000,M,M,M,M,M,M,M,M,M,81.7,VVTS 131700Z VRB02KT 9999 FEW017 BKN040 26/22 Q1009 NOSIG,M
VVTS,1/13/2012 17:30,106.6667,10.8167,77,71.6,83.44,M,2,M,29.8,M,6.21,M,FEW,BKN,   ,   ,1700,4000,M,M,M,M,M,M,M,M,M,78.32,VVTS 131730Z VRB02KT 9999 FEW017 BKN040 25/22 Q1009 NOSIG,M
VVTS,1/13/2012 18:00,106.6667,10.8167,78.8,69.8,73.95,M,1,M,29.8,M,6.21,M,FEW,BKN,   ,   ,1700,4000,M,M,M,M,M,M,M,M,M,81.39,VVTS 131800Z VRB01KT 9999 FEW017 BKN040 26/21 Q1009 NOSIG,M
VVTS,1/13/2012 18:30,106.6667,10.8167,M,M,M,M,M,M,M,M,M,M,   ,   ,   ,   ,M,M,M,M,M,M,M,M,M,M,M,M,VVTS 131830Z NIL,M
VVTS,1/13/2012 19:00,106.6667,10.8167,75.2,69.8,83.32,20,3,M,29.8,M,6.21,M,FEW,SCT,   ,   ,1700,4000,M,M,M,M,M,M,M,M,M,76.34,VVTS 131900Z 02003KT 9999 FEW017 SCT040 24/21 Q1009 NOSIG,M
VVTS,1/13/2012 19:30,106.6667,10.8167,73.4,69.8,88.51,60,2,M,29.8,M,6.21,M,FEW,SCT,   ,   ,1700,4000,M,M,M,M,M,M,M,M,M,74.6,VVTS 131930Z 06002KT 9999 FEW017 SCT040 23/21 Q1009 NOSIG,M
VVTS,1/13/2012 20:00,106.6667,10.8167,73.4,71.6,94.1,40,1,M,29.77,M,5.59,M,FEW,SCT,   ,   ,1700,4000,M,M,M,M,M,M,M,M,M,74.86,VVTS 132000Z 04001KT 9000 FEW017 SCT040 23/22 Q1008 NOSIG,M
VVTS,1/13/2012 20:30,106.6667,10.8167,M,M,M,M,M,M,M,M,M,M,   ,   ,   ,   ,M,M,M,M,M,M,M,M,M,M,M,M,VVTS 132030Z NIL,M
VVTS,1/13/2012 21:00,106.6667,10.8167,73.4,71.6,94.1,10,3,M,29.77,M,4.35,M,FEW,SCT,   ,   ,1700,4000,M,M,M,M,M,M,M,M,M,74.86,VVTS 132100Z 01003KT 7000 FEW017 SCT040 23/22 Q1008 NOSIG,M
VVTS,1/13/2012 21:30,106.6667,10.8167,M,M,M,M,M,M,M,M,M,M,   ,   ,   ,   ,M,M,M,M,M,M,M,M,M,M,M,M,VVTS 132130Z NIL,M
VVTS,1/13/2012 22:00,106.6667,10.8167,73.4,73.4,100,50,2,M,29.77,M,4.97,M,FEW,SCT,   ,   ,1700,4000,M,M,M,M,M,M,M,M,M,75.14,VVTS 132200Z 05002KT 8000 FEW017 SCT040 23/23 Q1008 NOSIG,M
VVTS,1/13/2012 22:30,106.6667,10.8167,73.4,71.6,94.1,320,2,M,29.77,M,4.35,M,FEW,SCT,   ,   ,1700,4000,M,M,M,M,M,M,M,M,M,74.86,VVTS 132230Z 32002KT 7000 FEW017 SCT040 23/22 Q1008 NOSIG,M
VVTS,1/13/2012 23:00,106.6667,10.8167,73.4,71.6,94.1,10,3,M,29.77,M,4.97,M,FEW,SCT,   ,   ,1700,4000,M,M,M,M,M,M,M,M,M,74.86,VVTS 132300Z 01003KT 8000 FEW017 SCT040 23/22 Q1008 NOSIG,M
VVTS,1/13/2012 23:30,106.6667,10.8167,73.4,71.6,94.1,M,2,M,29.77,M,3.73,M,FEW,BKN,   ,   ,1700,4000,M,M,M,M,M,M,M,M,M,74.86,VVTS 132330Z VRB02KT 6000 FEW017 BKN040 23/22 Q1008 NOSIG,M
VVTS,1/14/2012 0:00,106.6667,10.8167,M,M,M,M,M,M,M,M,M,M,   ,   ,   ,   ,M,M,M,M,M,M,M,M,M,M,M,M,VVTS 140000Z NIL,M
VVTS,1/14/2012 0:30,106.6667,10.8167,75.2,73.4,94.14,40,1,M,29.8,M,3.11,M,FEW,SCT,   ,   ,1700,4000,M,M,BR,M,M,M,M,M,M,76.84,VVTS 140030Z 04001KT 5000 BR FEW017 SCT040 24/23 Q1009 NOSIG,M
VVTS,1/14/2012 1:00,106.6667,10.8167,78.8,73.4,83.55,70,2,M,29.8,M,3.73,M,FEW,SCT,   ,   ,1700,4000,M,M,M,M,M,M,M,M,M,82.03,VVTS 140100Z 07002KT 6000 FEW017 SCT040 26/23 Q1009 NOSIG,M
VVTS,1/14/2012 1:30,106.6667,10.8167,82.4,71.6,69.9,M,3,M,29.8,M,4.35,M,FEW,SCT,   ,   ,1700,4000,M,M,M,M,M,M,M,M,M,87.18,VVTS 140130Z VRB03KT 7000 FEW017 SCT040 28/22 Q1009 NOSIG,M
VVTS,1/14/2012 2:00,106.6667,10.8167,84.2,69.8,62.03,90,5,M,29.8,M,3.73,M,FEW,SCT,   ,   ,1700,4000,M,M,M,M,M,M,M,M,M,88.43,VVTS 140200Z 09005KT 060V120 6000 FEW017 SCT040 29/21 Q1009 NOSIG,M
VVTS,1/14/2012 2:30,106.6667,10.8167,87.8,69.8,55.29,100,9,M,29.8,M,6.21,M,FEW,SCT,   ,   ,1700,4000,M,M,M,M,M,M,M,M,M,92.71,VVTS 140230Z 10009KT 060V130 9999 FEW017 SCT040 31/21 Q1009 NOSIG,M
VVTS,1/14/2012 3:00,106.6667,10.8167,87.8,68,51.98,100,11,M,29.8,M,6.21,M,FEW,   ,   ,   ,2000,M,M,M,M,M,M,M,M,M,M,91.43,VVTS 140300Z 10011KT 9999 FEW020 31/20 Q1009 NOSIG,M
VVTS,1/14/2012 3:30,106.6667,10.8167,87.8,69.8,55.29,80,11,M,29.8,M,6.21,M,FEW,   ,   ,   ,2000,M,M,M,M,M,M,M,M,M,M,92.71,VVTS 140330Z 08011KT 9999 FEW020 31/21 Q1009 NOSIG,M
VVTS,1/14/2012 4:00,106.6667,10.8167,89.6,69.8,52.23,110,10,M,29.77,M,6.21,31,SCT,   ,   ,   ,2000,M,M,M,M,M,M,M,M,M,M,94.85,VVTS 140400Z 11010G31KT 070V150 9999 SCT020 32/21 Q1008 NOSIG,M
VVTS,1/14/2012 4:30,106.6667,10.8167,91.4,68,46.41,110,11,M,29.77,M,6.21,M,SCT,   ,   ,   ,2000,M,M,M,M,M,M,M,M,M,M,95.55,VVTS 140430Z 11011KT 9999 SCT020 33/20 Q1008 NOSIG,M
VVTS,1/14/2012 5:00,106.6667,10.8167,91.4,69.8,49.36,120,9,M,M,M,6.21,M,SCT,   ,   ,   ,2000,M,M,M,M,M,M,M,M,M,M,96.99,VVTS 140500Z 12009KT 9999 SCT020 33/21,M
VVTS,1/14/2012 5:30,106.6667,10.8167,91.4,68,46.41,120,10,M,29.74,M,6.21,M,SCT,   ,   ,   ,2000,M,M,M,M,M,M,M,M,M,M,95.55,VVTS 140530Z 12010KT 100V160 9999 SCT020 33/20 Q1007 NOSIG,M
VVTS,1/14/2012 6:00,106.6667,10.8167,93.2,68,43.88,130,11,M,29.71,M,6.21,M,SCT,   ,   ,   ,2000,M,M,M,M,M,M,M,M,M,M,97.67,VVTS 140600Z 13011KT 090V170 9999 SCT020 34/20 Q1006 NOSIG,M
VVTS,1/14/2012 6:30,106.6667,10.8167,93.2,66.2,41.23,130,13,M,29.71,M,6.21,M,SCT,   ,   ,   ,2000,M,M,M,M,M,M,M,M,M,M,96.35,VVTS 140630Z 13013KT 090V160 9999 SCT020 34/19 Q1006 NOSIG,M
VVTS,1/14/2012 7:00,106.6667,10.8167,93.2,66.2,41.23,130,12,M,29.68,M,6.21,M,SCT,   ,   ,   ,2000,M,M,M,M,M,M,M,M,M,M,96.35,VVTS 140700Z 13012KT 090V150 9999 SCT020 34/19 Q1005 NOSIG,M
VVTS,1/14/2012 7:30,106.6667,10.8167,93.2,68,43.88,120,14,M,29.68,M,6.21,M,SCT,   ,   ,   ,2000,M,M,M,M,M,M,M,M,M,M,97.67,VVTS 140730Z 12014KT 9999 SCT020 34/20 Q1005 NOSIG,M
VVTS,1/14/2012 8:00,106.6667,10.8167,91.4,68,46.41,140,16,M,29.68,M,6.21,M,SCT,   ,   ,   ,2000,M,M,M,M,M,M,M,M,M,M,95.55,VVTS 140800Z 14016KT 9999 SCT020 33/20 Q1005 NOSIG,M
VVTS,1/14/2012 8:30,106.6667,10.8167,89.6,68,49.1,130,14,M,29.68,M,6.21,M,FEW,   ,   ,   ,2000,M,M,M,M,M,M,M,M,M,M,93.47,VVTS 140830Z 13014KT 9999 FEW020 32/20 Q1005 NOSIG,M
VVTS,1/14/2012 9:00,106.6667,10.8167,87.8,68,51.98,130,15,M,29.71,M,6.21,M,FEW,   ,   ,   ,2000,M,M,M,M,M,M,M,M,M,M,91.43,VVTS 140900Z 13015KT 9999 FEW020 31/20 Q1006 NOSIG,M
VVTS,1/14/2012 9:30,106.6667,10.8167,86,69.8,58.55,130,15,M,29.71,M,6.21,M,FEW,   ,   ,   ,2000,M,M,M,M,M,M,M,M,M,M,90.58,VVTS 140930Z 13015KT 9999 FEW020 30/21 Q1006 NOSIG,M
VVTS,1/14/2012 10:00,106.6667,10.8167,84.2,68,58.32,120,10,M,29.71,M,6.21,M,FEW,SCT,   ,   ,2000,4000,M,M,M,M,M,M,M,M,M,87.4,VVTS 141000Z 12010KT 9999 FEW020 SCT040 29/20 Q1006 NOSIG,M
VVTS,1/14/2012 10:30,106.6667,10.8167,84.2,69.8,62.03,120,13,M,29.71,M,6.21,M,FEW,SCT,   ,   ,2000,4000,M,M,M,M,M,M,M,M,M,88.43,VVTS 141030Z 12013KT 9999 FEW020 SCT040 29/21 Q1006 NOSIG,M
VVTS,1/14/2012 11:00,106.6667,10.8167,84.2,69.8,62.03,110,10,M,29.74,M,6.21,M,FEW,SCT,   ,   ,2000,4000,M,M,M,M,M,M,M,M,M,88.43,VVTS 141100Z 11010KT 9999 FEW020 SCT040 29/21 Q1007 NOSIG,M
VVTS,1/14/2012 11:30,106.6667,10.8167,M,M,M,M,M,M,M,M,M,M,   ,   ,   ,   ,M,M,M,M,M,M,M,M,M,M,M,M,VVTS 141130Z NIL,M
VVTS,1/14/2012 12:00,106.6667,10.8167,82.4,69.8,65.74,110,10,M,29.74,M,6.21,M,FEW,SCT,   ,   ,2000,4000,M,M,M,M,M,M,M,M,M,86.22,VVTS 141200Z 11010KT 9999 FEW020 SCT040 28/21 Q1007 NOSIG,M
VVTS,1/14/2012 12:30,106.6667,10.8167,82.4,69.8,65.74,100,9,M,29.77,M,6.21,M,FEW,SCT,   ,   ,2000,4000,M,M,M,M,M,M,M,M,M,86.22,VVTS 141230Z 10009KT 9999 FEW020 SCT040 28/21 Q1008 NOSIG,M
VVTS,1/14/2012 13:00,106.6667,10.8167,80.6,69.8,69.71,110,10,M,29.77,M,6.21,M,FEW,SCT,   ,   ,1700,4000,M,M,M,M,M,M,M,M,M,83.9,VVTS 141300Z 11010KT 9999 FEW017 SCT040 27/21 Q1008 NOSIG,M
VVTS,1/14/2012 13:30,106.6667,10.8167,80.6,69.8,69.71,100,13,M,29.77,M,6.21,M,FEW,SCT,   ,   ,1700,4000,M,M,M,M,M,M,M,M,M,83.9,VVTS 141330Z 10013KT 9999 FEW017 SCT040 27/21 Q1008 NOSIG,M
VVTS,1/14/2012 14:00,106.6667,10.8167,80.6,69.8,69.71,100,11,M,29.77,M,6.21,M,FEW,SCT,   ,   ,1700,4000,M,M,M,M,M,M,M,M,M,83.9,VVTS 141400Z 10011KT 9999 FEW017 SCT040 27/21 Q1008 NOSIG,M
VVTS,1/14/2012 14:30,106.6667,10.8167,80.6,69.8,69.71,100,7,M,29.77,M,6.21,M,FEW,SCT,   ,   ,1700,4000,M,M,M,M,M,M,M,M,M,83.9,VVTS 141430Z 10007KT 9999 FEW017 SCT040 27/21 Q1008 NOSIG,M
VVTS,1/14/2012 15:00,106.6667,10.8167,80.6,69.8,69.71,90,6,M,29.77,M,6.21,M,FEW,SCT,   ,   ,1700,4000,M,M,M,M,M,M,M,M,M,83.9,VVTS 141500Z 09006KT 060V140 9999 FEW017 SCT040 27/21 Q1008 NOSIG,M
VVTS,1/14/2012 15:30,106.6667,10.8167,80.6,69.8,69.71,70,4,M,29.8,M,6.21,M,FEW,BKN,   ,   ,1700,4000,M,M,M,M,M,M,M,M,M,83.9,VVTS 141530Z 07004KT 9999 FEW017 BKN040 27/21 Q1009 NOSIG,M
VVTS,1/14/2012 16:00,106.6667,10.8167,80.6,69.8,69.71,60,3,M,29.8,M,6.21,M,FEW,BKN,   ,   ,1700,4000,M,M,M,M,M,M,M,M,M,83.9,VVTS 141600Z 06003KT 9999 FEW017 BKN040 27/21 Q1009 NOSIG,M
VVTS,1/14/2012 16:30,106.6667,10.8167,80.6,69.8,69.71,80,5,M,29.8,M,6.21,M,FEW,BKN,   ,   ,1700,4000,M,M,M,M,M,M,M,M,M,83.9,VVTS 141630Z 08005KT 9999 FEW017 BKN040 27/21 Q1009 NOSIG,M
VVTS,1/14/2012 17:00,106.6667,10.8167,80.6,69.8,69.71,100,6,M,29.8,M,6.21,M,FEW,BKN,   ,   ,1700,4000,M,M,M,M,M,M,M,M,M,83.9,VVTS 141700Z 10006KT 9999 FEW017 BKN040 27/21 Q1009 NOSIG,M
VVTS,1/14/2012 17:30,106.6667,10.8167,80.6,69.8,69.71,100,6,M,29.8,M,6.21,M,FEW,BKN,   ,   ,1700,4000,M,M,M,M,M,M,M,M,M,83.9,VVTS 141730Z 10006KT 9999 FEW017 BKN040 27/21 Q1009 NOSIG,M
VVTS,1/14/2012 18:00,106.6667,10.8167,80.6,69.8,69.71,120,5,M,29.77,M,6.21,M,FEW,BKN,   ,   ,1700,4000,M,M,M,M,M,M,M,M,M,83.9,VVTS 141800Z 12005KT 9999 FEW017 BKN040 27/21 Q1008 NOSIG,M
VVTS,1/14/2012 18:30,106.6667,10.8167,80.6,69.8,69.71,120,7,M,29.77,M,6.21,M,FEW,BKN,   ,   ,1700,4000,M,M,M,M,M,M,M,M,M,83.9,VVTS 141830Z 12007KT 9999 FEW017 BKN040 27/21 Q1008 NOSIG,M
VVTS,1/14/2012 19:00,106.6667,10.8167,78.8,69.8,73.95,120,7,M,29.77,M,6.21,M,FEW,BKN,   ,   ,1700,4000,M,M,M,M,M,M,M,M,M,81.39,VVTS 141900Z 12007KT 9999 FEW017 BKN040 26/21 Q1008 NOSIG,M
VVTS,1/14/2012 19:30,106.6667,10.8167,78.8,69.8,73.95,100,9,M,29.74,M,6.21,M,FEW,BKN,   ,   ,1700,4000,M,M,M,M,M,M,M,M,M,81.39,VVTS 141930Z 10009KT 9999 FEW017 BKN040 26/21 Q1007 NOSIG,M
VVTS,1/14/2012 20:00,106.6667,10.8167,78.8,69.8,73.95,100,6,M,29.74,M,6.21,M,FEW,BKN,   ,   ,1700,4000,M,M,M,M,M,M,M,M,M,81.39,VVTS 142000Z 10006KT 9999 FEW017 BKN040 26/21 Q1007 NOSIG,M
VVTS,1/14/2012 20:30,106.6667,10.8167,77,69.8,78.48,50,5,M,29.74,M,6.21,M,FEW,BKN,   ,   ,1700,4000,M,M,M,M,M,M,M,M,M,78.09,VVTS 142030Z 05005KT 9999 FEW017 BKN040 25/21 Q1007 NOSIG,M
VVTS,1/14/2012 21:00,106.6667,10.8167,75.2,69.8,83.32,60,5,M,29.74,M,6.21,M,FEW,SCT,   ,   ,1700,4000,M,M,M,M,M,M,M,M,M,76.34,VVTS 142100Z 06005KT 9999 FEW017 SCT040 24/21 Q1007 NOSIG,M
VVTS,1/14/2012 21:30,106.6667,10.8167,75.2,69.8,83.32,60,4,M,29.74,M,6.21,M,FEW,SCT,   ,   ,1700,4000,M,M,M,M,M,M,M,M,M,76.34,VVTS 142130Z 06004KT 9999 FEW017 SCT040 24/21 Q1007 NOSIG,M
VVTS,1/14/2012 22:00,106.6667,10.8167,73.4,69.8,88.51,40,3,M,29.74,M,6.21,M,FEW,SCT,   ,   ,1700,4000,M,M,M,M,M,M,M,M,M,74.6,VVTS 142200Z 04003KT 9999 FEW017 SCT040 23/21 Q1007 NOSIG,M
VVTS,1/14/2012 22:30,106.6667,10.8167,75.2,71.6,88.59,10,1,M,29.77,M,6.21,M,FEW,SCT,   ,   ,1700,4000,M,M,M,M,M,M,M,M,M,76.58,VVTS 142230Z 01001KT 9999 FEW017 SCT040 24/22 Q1008 NOSIG,M
VVTS,1/14/2012 23:00,106.6667,10.8167,73.4,71.6,94.1,300,1,M,29.77,M,6.21,M,FEW,SCT,   ,   ,1700,4000,M,M,M,M,M,M,M,M,M,74.86,VVTS 142300Z 30001KT 9999 FEW017 SCT040 23/22 Q1008 NOSIG,M
VVTS,1/14/2012 23:30,106.6667,10.8167,73.4,71.6,94.1,260,1,M,29.8,M,6.21,M,FEW,SCT,   ,   ,1700,4000,M,M,M,M,M,M,M,M,M,74.86,VVTS 142330Z 26001KT 9999 FEW017 SCT040 23/22 Q1009 NOSIG,M
VVTS,1/15/2012 0:00,106.6667,10.8167,77,71.6,83.44,0,0,M,29.8,M,6.21,M,FEW,SCT,   ,   ,1700,4000,M,M,M,M,M,M,M,M,M,78.32,VVTS 150000Z 00000KT 9999 FEW017 SCT040 25/22 Q1009 NOSIG,M
VVTS,1/15/2012 0:30,106.6667,10.8167,78.8,69.8,73.95,100,4,M,29.8,M,6.21,M,FEW,BKN,   ,   ,1700,4000,M,M,M,M,M,M,M,M,M,81.39,VVTS 150030Z 10004KT 9999 FEW017 BKN040 26/21 Q1009 NOSIG,M
VVTS,1/15/2012 1:00,106.6667,10.8167,80.6,71.6,74.11,90,4,M,29.8,M,6.21,M,FEW,BKN,   ,   ,1700,4000,M,M,M,M,M,M,M,M,M,84.57,VVTS 150100Z 09004KT 050V120 9999 FEW017 BKN040 27/22 Q1009 NOSIG,M
VVTS,1/15/2012 1:30,106.6667,10.8167,80.6,71.6,74.11,80,4,M,29.83,M,6.21,M,FEW,BKN,   ,   ,1700,4000,M,M,M,M,M,M,M,M,M,84.57,VVTS 150130Z 08004KT 050V110 9999 FEW017 BKN040 27/22 Q1010 NOSIG,M
VVTS,1/15/2012 2:00,106.6667,10.8167,80.6,69.8,69.71,100,4,M,29.8,M,6.21,M,FEW,BKN,   ,   ,1700,4000,M,M,M,M,M,M,M,M,M,83.9,VVTS 150200Z 10004KT 060V160 9999 FEW017 BKN040 27/21 Q1009 NOSIG,M
VVTS,1/15/2012 2:30,106.6667,10.8167,82.4,71.6,69.9,10,4,M,29.8,M,5.59,M,FEW,BKN,   ,   ,1700,4000,M,M,M,M,M,M,M,M,M,87.18,VVTS 150230Z 01004KT 340V070 9000 FEW017 BKN040 28/22 Q1009 NOSIG,M
VVTS,1/15/2012 3:00,106.6667,10.8167,84.2,71.6,65.95,70,4,M,29.8,M,5.59,M,FEW,BKN,   ,   ,1700,4000,M,M,M,M,M,M,M,M,M,89.6,VVTS 150300Z 07004KT 040V110 9000 FEW017 BKN040 29/22 Q1009 NOSIG,M
VVTS,1/15/2012 3:30,106.6667,10.8167,84.2,71.6,65.95,60,4,M,29.8,M,6.21,M,FEW,BKN,   ,   ,1700,4000,M,M,M,M,M,M,M,M,M,89.6,VVTS 150330Z 06004KT 020V160 9999 FEW017 BKN040 29/22 Q1009 NOSIG,M
VVTS,1/15/2012 4:00,106.6667,10.8167,86,69.8,58.55,90,8,M,29.77,M,6.21,M,SCT,SCT,   ,   ,1700,4000,M,M,M,M,M,M,M,M,M,90.58,VVTS 150400Z 09008KT 050V140 9999 SCT017 SCT040 30/21 Q1008 NOSIG,M
VVTS,1/15/2012 4:30,106.6667,10.8167,87.8,69.8,55.29,120,10,M,29.77,M,6.21,M,SCT,   ,   ,   ,1700,M,M,M,M,M,M,M,M,M,M,92.71,VVTS 150430Z 12010KT 070V160 9999 SCT017 31/21 Q1008 NOSIG,M
VVTS,1/15/2012 5:00,106.6667,10.8167,87.8,69.8,55.29,130,9,M,29.74,M,6.21,M,SCT,   ,   ,   ,1700,M,M,M,M,M,M,M,M,M,M,92.71,VVTS 150500Z 13009KT 100V160 9999 SCT017 31/21 Q1007 NOSIG,M
VVTS,1/15/2012 5:30,106.6667,10.8167,89.6,69.8,52.23,130,8,M,29.71,M,6.21,M,BKN,   ,   ,   ,1700,M,M,M,M,M,M,M,M,M,M,94.85,VVTS 150530Z 13008KT 090V180 9999 BKN017 32/21 Q1006 NOSIG,M
VVTS,1/15/2012 6:00,106.6667,10.8167,87.8,69.8,55.29,120,8,M,29.71,M,6.21,M,BKN,   ,   ,   ,1700,M,M,M,M,M,M,M,M,M,M,92.71,VVTS 150600Z 12008KT 080V160 9999 BKN017 31/21 Q1006 NOSIG,M
VVTS,1/15/2012 6:30,106.6667,10.8167,91.4,69.8,49.36,M,3,M,29.68,M,6.21,M,BKN,   ,   ,   ,1700,M,M,M,M,M,M,M,M,M,M,96.99,VVTS 150630Z VRB03KT 9999 BKN017 33/21 Q1005 NOSIG,M
VVTS,1/15/2012 7:00,106.6667,10.8167,91.4,69.8,49.36,130,8,M,29.68,M,6.21,M,BKN,   ,   ,   ,1700,M,M,M,M,M,M,M,M,M,M,96.99,VVTS 150700Z 13008KT 080V180 9999 BKN017 33/21 Q1005 NOSIG,M
VVTS,1/15/2012 7:30,106.6667,10.8167,91.4,71.6,52.48,150,9,M,29.68,M,6.21,M,FEW,SCT,   ,   ,1700,2000,M,M,M,M,M,M,M,M,M,98.64,VVTS 150730Z 15009KT 120V200 9999 FEW017TCU SCT020 33/22 Q1005 NOSIG,M
VVTS,1/15/2012 8:00,106.6667,10.8167,89.6,69.8,52.23,120,11,M,29.68,M,6.21,M,FEW,SCT,   ,   ,1700,2000,M,M,M,M,M,M,M,M,M,94.85,VVTS 150800Z 12011KT 9999 FEW017CB SCT020 32/21 Q1005 NOSIG,M
VVTS,1/15/2012 8:30,106.6667,10.8167,87.8,69.8,55.29,150,10,M,29.68,M,6.21,M,SCT,SCT,   ,   ,1500,1700,M,M,M,M,M,M,M,M,M,92.71,VVTS 150830Z 15010KT 110V200 9999 SCT015 SCT017CB 31/21 Q1005 NOSIG,M
VVTS,1/15/2012 9:00,106.6667,10.8167,87.8,69.8,55.29,150,10,M,29.68,M,6.21,M,FEW,SCT,   ,   ,1500,1700,M,M,M,M,M,M,M,M,M,92.71,VVTS 150900Z 15010KT 110V180 9999 FEW015CB SCT017 31/21 Q1005 NOSIG,M
VVTS,1/15/2012 9:30,106.6667,10.8167,87.8,69.8,55.29,150,9,M,29.68,M,6.21,M,FEW,SCT,   ,   ,1500,1700,M,M,M,M,M,M,M,M,M,92.71,VVTS 150930Z 15009KT 110V180 9999 FEW015CB SCT017 31/21 Q1005 NOSIG,M
VVTS,1/15/2012 10:00,106.6667,10.8167,86,69.8,58.55,160,12,M,29.68,M,6.21,M,FEW,SCT,   ,   ,1500,1700,M,M,M,M,M,M,M,M,M,90.58,VVTS 151000Z 16012KT 9999 FEW015TCU SCT017 30/21 Q1005 NOSIG,M
VVTS,1/15/2012 10:30,106.6667,10.8167,82.4,69.8,65.74,140,10,M,29.71,M,6.21,M,FEW,SCT,   ,   ,1500,1700,M,M,M,M,M,M,M,M,M,86.22,VVTS 151030Z 14010KT 9999 FEW015TCU SCT017 28/21 Q1006 NOSIG,M
VVTS,1/15/2012 11:00,106.6667,10.8167,82.4,71.6,69.9,140,9,M,29.71,M,6.21,M,FEW,   ,   ,   ,1700,M,M,M,M,M,M,M,M,M,M,87.18,VVTS 151100Z 14009KT 9999 FEW017 28/22 Q1006 NOSIG,M
VVTS,1/15/2012 11:30,106.6667,10.8167,80.6,71.6,74.11,160,9,M,29.74,M,6.21,M,FEW,   ,   ,   ,1700,M,M,M,M,M,M,M,M,M,M,84.57,VVTS 151130Z 16009KT 130V190 9999 FEW017TCU 27/22 Q1007 NOSIG,M
VVTS,1/15/2012 12:00,106.6667,10.8167,80.6,71.6,74.11,140,7,M,29.74,M,6.21,M,FEW,SCT,   ,   ,1700,4000,M,M,M,M,M,M,M,M,M,84.57,VVTS 151200Z 14007KT 110V170 9999 FEW017TCU SCT040 27/22 Q1007 NOSIG,M
VVTS,1/15/2012 12:30,106.6667,10.8167,80.6,71.6,74.11,130,8,M,29.74,M,6.21,M,FEW,SCT,   ,   ,1700,4000,M,M,M,M,M,M,M,M,M,84.57,VVTS 151230Z 13008KT 9999 FEW017 SCT040 27/22 Q1007 NOSIG,M
VVTS,1/15/2012 13:00,106.6667,10.8167,78.8,71.6,78.62,130,9,M,29.74,M,6.21,M,FEW,SCT,   ,   ,1700,4000,M,M,M,M,M,M,M,M,M,81.7,VVTS 151300Z 13009KT 9999 FEW017 SCT040 26/22 Q1007 NOSIG,M
VVTS,1/15/2012 13:30,106.6667,10.8167,78.8,73.4,83.55,120,8,M,29.77,M,6.21,M,FEW,SCT,   ,   ,1700,4000,M,M,M,M,M,M,M,M,M,82.03,VVTS 151330Z 12008KT 100V170 9999 FEW017 SCT040 26/23 Q1008 NOSIG,M
VVTS,1/15/2012 14:00,106.6667,10.8167,M,M,M,M,M,M,M,M,M,M,   ,   ,   ,   ,M,M,M,M,M,M,M,M,M,M,M,M,VVTS 151400Z NIL,M
VVTS,1/15/2012 14:30,106.6667,10.8167,78.8,73.4,83.55,110,6,M,29.77,M,6.21,M,FEW,SCT,   ,   ,1700,4000,M,M,M,M,M,M,M,M,M,82.03,VVTS 151430Z 11006KT 080V160 9999 FEW017 SCT040 26/23 Q1008 NOSIG,M
VVTS,1/15/2012 15:00,106.6667,10.8167,77,73.4,88.67,90,6,M,29.77,M,6.21,M,FEW,SCT,   ,   ,1700,4000,M,M,M,M,M,M,M,M,M,78.57,VVTS 151500Z 09006KT 9999 FEW017 SCT040 25/23 Q1008 NOSIG,M
VVTS,1/15/2012 15:30,106.6667,10.8167,77,73.4,88.67,100,7,M,29.77,M,6.21,M,FEW,SCT,   ,   ,1700,4000,M,M,M,M,M,M,M,M,M,78.57,VVTS 151530Z 10007KT 9999 FEW017 SCT040 25/23 Q1008 NOSIG,M
VVTS,1/15/2012 16:00,106.6667,10.8167,77,73.4,88.67,110,6,M,29.77,M,6.21,M,FEW,SCT,   ,   ,1700,4000,M,M,M,M,M,M,M,M,M,78.57,VVTS 151600Z 11006KT 9999 FEW017 SCT040 25/23 Q1008 NOSIG,M
VVTS,1/15/2012 16:30,106.6667,10.8167,77,73.4,88.67,100,7,M,29.77,M,6.21,M,FEW,SCT,   ,   ,1700,4000,M,M,M,M,M,M,M,M,M,78.57,VVTS 151630Z 10007KT 9999 FEW017 SCT040 25/23 Q1008 NOSIG,M
VVTS,1/15/2012 17:00,106.6667,10.8167,77,73.4,88.67,120,6,M,29.77,M,6.21,M,FEW,SCT,   ,   ,1700,4000,M,M,M,M,M,M,M,M,M,78.57,VVTS 151700Z 12006KT 100V160 9999 FEW017 SCT040 25/23 Q1008 NOSIG,M
VVTS,1/15/2012 17:30,106.6667,10.8167,77,73.4,88.67,110,6,M,29.74,M,6.21,M,FEW,SCT,   ,   ,1700,4000,M,M,M,M,M,M,M,M,M,78.57,VVTS 151730Z 11006KT 090V160 9999 FEW017 SCT040 25/23 Q1007 NOSIG,M
VVTS,1/15/2012 18:00,106.6667,10.8167,75.2,73.4,94.14,90,4,M,29.74,M,6.21,M,FEW,SCT,   ,   ,1700,4000,M,M,M,M,M,M,M,M,M,76.84,VVTS 151800Z 09004KT 9999 FEW017 SCT040 24/23 Q1007 NOSIG,M
VVTS,1/15/2012 18:30,106.6667,10.8167,75.2,73.4,94.14,110,3,M,29.74,M,6.21,M,FEW,SCT,   ,   ,1700,4000,M,M,M,M,M,M,M,M,M,76.84,VVTS 151830Z 11003KT 9999 FEW017 SCT040 24/23 Q1007 NOSIG,M
VVTS,1/15/2012 19:00,106.6667,10.8167,M,M,M,M,M,M,M,M,M,M,   ,   ,   ,   ,M,M,M,M,M,M,M,M,M,M,M,M,VVTS 151900Z NIL,M
VVTS,1/15/2012 19:30,106.6667,10.8167,75.2,73.4,94.14,120,5,M,29.71,M,6.21,M,FEW,SCT,   ,   ,1700,4000,M,M,M,M,M,M,M,M,M,76.84,VVTS 151930Z 12005KT 9999 FEW017 SCT040 24/23 Q1006 NOSIG,M
VVTS,1/15/2012 20:00,106.6667,10.8167,75.2,73.4,94.14,70,4,M,29.71,M,6.21,M,FEW,SCT,   ,   ,1700,4000,M,M,M,M,M,M,M,M,M,76.84,VVTS 152000Z 07004KT 9999 FEW017 SCT040 24/23 Q1006 NOSIG,M
VVTS,1/15/2012 20:30,106.6667,10.8167,73.4,73.4,100,30,4,M,29.71,M,6.21,M,FEW,SCT,   ,   ,1700,4000,M,M,M,M,M,M,M,M,M,75.14,VVTS 152030Z 03004KT 9999 FEW017 SCT040 23/23 Q1006 NOSIG,M
VVTS,1/15/2012 21:00,106.6667,10.8167,73.4,73.4,100,20,2,M,29.71,M,6.21,M,FEW,SCT,   ,   ,1700,4000,M,M,M,M,M,M,M,M,M,75.14,VVTS 152100Z 02002KT 9999 FEW017 SCT040 23/23 Q1006 NOSIG,M
VVTS,1/15/2012 21:30,106.6667,10.8167,73.4,73.4,100,30,1,M,29.71,M,6.21,M,FEW,SCT,   ,   ,1700,4000,M,M,M,M,M,M,M,M,M,75.14,VVTS 152130Z 03001KT 9999 FEW017 SCT040 23/23 Q1006 NOSIG,M
VVTS,1/15/2012 22:00,106.6667,10.8167,73.4,73.4,100,10,1,M,29.74,M,6.21,M,FEW,SCT,   ,   ,1700,4000,M,M,M,M,M,M,M,M,M,75.14,VVTS 152200Z 01001KT 9999 FEW017 SCT040 23/23 Q1007 NOSIG,M
VVTS,1/15/2012 22:30,106.6667,10.8167,71.6,71.6,100,50,3,M,29.74,M,6.21,M,FEW,SCT,   ,   ,1700,4000,M,M,M,M,M,M,M,M,M,73.16,VVTS 152230Z 05003KT 9999 FEW017 SCT040 22/22 Q1007 NOSIG,M
VVTS,1/15/2012 23:00,106.6667,10.8167,73.4,71.6,94.1,30,2,M,29.74,M,5.59,M,FEW,SCT,   ,   ,1700,4000,M,M,M,M,M,M,M,M,M,74.86,VVTS 152300Z 03002KT 9000 FEW017 SCT040 23/22 Q1007 NOSIG,M
VVTS,1/15/2012 23:30,106.6667,10.8167,73.4,73.4,100,M,1,M,29.77,M,6.21,M,SCT,   ,   ,   ,4000,M,M,M,M,M,M,M,M,M,M,75.14,VVTS 152330Z VRB01KT 9999 SCT040 23/23 Q1008 NOSIG,M
VVTS,1/16/2012 0:00,106.6667,10.8167,75.2,75.2,100,50,2,M,29.77,M,6.21,M,SCT,   ,   ,   ,4000,M,M,M,M,M,M,M,M,M,M,77.12,VVTS 160000Z 05002KT 9999 SCT040 24/24 Q1008 NOSIG,M
VVTS,1/16/2012 0:30,106.6667,10.8167,M,M,M,M,M,M,M,M,M,M,   ,   ,   ,   ,M,M,M,M,M,M,M,M,M,M,M,M,VVTS 160030Z NIL,M
VVTS,1/16/2012 1:00,106.6667,10.8167,78.8,73.4,83.55,M,3,M,29.8,M,3.73,M,FEW,   ,   ,   ,2000,M,M,M,M,M,M,M,M,M,M,82.03,VVTS 160100Z VRB03KT 6000 FEW020 26/23 Q1009 NOSIG,M
VVTS,1/16/2012 1:30,106.6667,10.8167,78.8,73.4,83.55,40,4,M,29.8,M,3.73,M,FEW,   ,   ,   ,2000,M,M,M,M,M,M,M,M,M,M,82.03,VVTS 160130Z 04004KT 360V080 6000 FEW020 26/23 Q1009 NOSIG,M
VVTS,1/16/2012 2:00,106.6667,10.8167,82.4,73.4,74.28,70,4,M,29.8,M,6.21,M,FEW,   ,   ,   ,2000,M,M,M,M,M,M,M,M,M,M,88.26,VVTS 160200Z 07004KT 040V110 9999 FEW020 28/23 Q1009 NOSIG,M
VVTS,1/16/2012 2:30,106.6667,10.8167,84.2,73.4,70.08,70,9,M,29.8,M,6.21,M,FEW,   ,   ,   ,2000,M,M,M,M,M,M,M,M,M,M,90.94,VVTS 160230Z 07009KT 050V110 9999 FEW020 29/23 Q1009 NOSIG,M
VVTS,1/16/2012 3:00,106.6667,10.8167,86,71.6,62.25,100,8,M,29.8,M,6.21,M,FEW,   ,   ,   ,2000,M,M,M,M,M,M,M,M,M,M,91.92,VVTS 160300Z 10008KT 070V150 9999 FEW020 30/22 Q1009 NOSIG,M
VVTS,1/16/2012 3:30,106.6667,10.8167,87.8,71.6,58.78,120,7,M,29.77,M,6.21,M,FEW,   ,   ,   ,2000,M,M,M,M,M,M,M,M,M,M,94.18,VVTS 160330Z 12007KT 070V170 9999 FEW020 31/22 Q1008 NOSIG,M
VVTS,1/16/2012 4:00,106.6667,10.8167,87.8,71.6,58.78,90,8,M,29.77,M,6.21,M,SCT,   ,   ,   ,2000,M,M,M,M,M,M,M,M,M,M,94.18,VVTS 160400Z 09008KT 050V150 9999 SCT020 31/22 Q1008 NOSIG,M
VVTS,1/16/2012 4:30,106.6667,10.8167,89.6,71.6,55.53,80,8,M,29.74,M,6.21,M,SCT,   ,   ,   ,2000,M,M,M,M,M,M,M,M,M,M,96.41,VVTS 160430Z 08008KT 050V140 9999 SCT020 32/22 Q1007 NOSIG,M
VVTS,1/16/2012 5:00,106.6667,10.8167,87.8,71.6,58.78,100,6,M,29.71,M,6.21,M,SCT,   ,   ,   ,1700,M,M,M,M,M,M,M,M,M,M,94.18,VVTS 160500Z 10006KT 060V140 9999 SCT017 31/22 Q1006 NOSIG,M
VVTS,1/16/2012 5:30,106.6667,10.8167,89.6,69.8,52.23,110,7,M,29.71,M,6.21,M,SCT,   ,   ,   ,1700,M,M,M,M,M,M,M,M,M,M,94.85,VVTS 160530Z 11007KT 9999 SCT017 32/21 Q1006 NOSIG,M
VVTS,1/16/2012 6:00,106.6667,10.8167,89.6,69.8,52.23,90,6,M,29.68,M,6.21,M,SCT,   ,   ,   ,1700,M,M,M,M,M,M,M,M,M,M,94.85,VVTS 160600Z 09006KT 030V130 9999 SCT017 32/21 Q1005 NOSIG,M
VVTS,1/16/2012 6:30,106.6667,10.8167,91.4,69.8,49.36,120,6,M,29.65,M,6.21,M,SCT,   ,   ,   ,1700,M,M,M,M,M,M,M,M,M,M,96.99,VVTS 160630Z 12006KT 060V160 9999 SCT017 33/21 Q1004 NOSIG,M
VVTS,1/16/2012 7:00,106.6667,10.8167,89.6,69.8,52.23,150,4,M,29.65,M,6.21,M,FEW,SCT,   ,   ,1500,1700,M,M,M,M,M,M,M,M,M,94.85,VVTS 160700Z 15004KT 360V240 9999 FEW015TCU SCT017 32/21 Q1004 NOSIG,M
VVTS,1/16/2012 7:30,106.6667,10.8167,89.6,69.8,52.23,170,4,M,29.65,M,6.21,M,BKN,   ,   ,   ,1700,M,M,M,M,M,M,M,M,M,M,94.85,VVTS 160730Z 17004KT 030V350 9999 BKN017 32/21 Q1004 NOSIG,M
VVTS,1/16/2012 8:00,106.6667,10.8167,89.6,73.4,59.01,160,7,M,29.65,M,6.21,M,BKN,   ,   ,   ,1700,M,M,M,M,M,M,M,M,M,M,98.2,VVTS 160800Z 16007KT 120V190 9999 BKN017 32/23 Q1004 NOSIG,M
VVTS,1/16/2012 8:30,106.6667,10.8167,89.6,73.4,59.01,190,10,M,29.65,M,6.21,M,BKN,   ,   ,   ,1700,M,M,M,M,M,M,M,M,M,M,98.2,VVTS 160830Z 19010KT 9999 BKN017 32/23 Q1004 NOSIG,M
VVTS,1/16/2012 9:00,106.6667,10.8167,87.8,73.4,62.47,170,11,M,29.65,M,6.21,M,SCT,   ,   ,   ,1700,M,M,M,M,M,M,M,M,M,M,95.86,VVTS 160900Z 17011KT 130V190 9999 SCT017 31/23 Q1004 NOSIG,M
VVTS,1/16/2012 9:30,106.6667,10.8167,84.2,73.4,70.08,160,13,M,29.65,M,6.21,M,SCT,   ,   ,   ,1700,M,M,M,M,M,M,M,M,M,M,90.94,VVTS 160930Z 16013KT 9999 SCT017 29/23 Q1004 NOSIG,M
VVTS,1/16/2012 10:00,106.6667,10.8167,82.4,73.4,74.28,160,11,M,29.65,M,6.21,M,FEW,   ,   ,   ,2000,M,M,M,M,M,M,M,M,M,M,88.26,VVTS 161000Z 16011KT 9999 FEW020 28/23 Q1004 NOSIG,M
VVTS,1/16/2012 10:30,106.6667,10.8167,80.6,73.4,78.76,150,11,M,29.68,M,6.21,M,FEW,   ,   ,   ,2000,M,M,M,M,M,M,M,M,M,M,85.32,VVTS 161030Z 15011KT 9999 FEW020 27/23 Q1005 NOSIG,M
VVTS,1/16/2012 11:00,106.6667,10.8167,80.6,71.6,74.11,150,11,M,29.68,M,6.21,M,FEW,   ,   ,   ,2000,M,M,M,M,M,M,M,M,M,M,84.57,VVTS 161100Z 15011KT 120V190 9999 FEW020 27/22 Q1005 NOSIG,M
VVTS,1/16/2012 11:30,106.6667,10.8167,80.6,73.4,78.76,140,9,M,29.71,M,6.21,M,FEW,   ,   ,   ,1700,M,M,M,M,M,M,M,M,M,M,85.32,VVTS 161130Z 14009KT 110V180 9999 FEW017 27/23 Q1006 NOSIG,M
VVTS,1/16/2012 12:00,106.6667,10.8167,78.8,73.4,83.55,150,9,M,29.71,M,6.21,M,SCT,   ,   ,   ,1700,M,M,M,M,M,M,M,M,M,M,82.03,VVTS 161200Z 15009KT 9999 SCT017 26/23 Q1006 NOSIG,M
VVTS,1/16/2012 12:30,106.6667,10.8167,78.8,73.4,83.55,130,7,M,29.74,M,6.21,M,FEW,SCT,   ,   ,1500,1700,M,M,M,M,M,M,M,M,M,82.03,VVTS 161230Z 13007KT 100V180 9999 FEW015TCU SCT017 26/23 Q1007 NOSIG,M
VVTS,1/16/2012 13:00,106.6667,10.8167,78.8,73.4,83.55,130,9,M,29.74,M,6.21,M,FEW,SCT,   ,   ,1700,4000,M,M,M,M,M,M,M,M,M,82.03,VVTS 161300Z 13009KT 120V180 9999 FEW017 SCT040 26/23 Q1007 NOSIG,M
VVTS,1/16/2012 13:30,106.6667,10.8167,78.8,73.4,83.55,140,6,M,29.74,M,6.21,M,FEW,SCT,   ,   ,1700,4000,M,M,M,M,M,M,M,M,M,82.03,VVTS 161330Z 14006KT 9999 FEW017 SCT040 26/23 Q1007 NOSIG,M
VVTS,1/16/2012 14:00,106.6667,10.8167,78.8,73.4,83.55,120,9,M,29.74,M,6.21,M,FEW,BKN,   ,   ,1700,4000,M,M,M,M,M,M,M,M,M,82.03,VVTS 161400Z 12009KT 090V170 9999 FEW017 BKN040 26/23 Q1007 NOSIG,M
VVTS,1/16/2012 14:30,106.6667,10.8167,78.8,73.4,83.55,120,7,M,29.74,M,6.21,M,FEW,BKN,   ,   ,1700,4000,M,M,M,M,M,M,M,M,M,82.03,VVTS 161430Z 12007KT 090V160 9999 FEW017 BKN040 26/23 Q1007 NOSIG,M
VVTS,1/16/2012 15:00,106.6667,10.8167,78.8,73.4,83.55,120,7,M,29.74,M,6.21,M,FEW,BKN,   ,   ,1700,4000,M,M,M,M,M,M,M,M,M,82.03,VVTS 161500Z 12007KT 9999 FEW017 BKN040 26/23 Q1007 NOSIG,M
VVTS,1/16/2012 15:30,106.6667,10.8167,77,73.4,88.67,120,6,M,29.74,M,6.21,M,FEW,SCT,   ,   ,1700,4000,M,M,M,M,M,M,M,M,M,78.57,VVTS 161530Z 12006KT 100V170 9999 FEW017 SCT040 25/23 Q1007 NOSIG,M
VVTS,1/16/2012 16:00,106.6667,10.8167,77,73.4,88.67,140,7,M,29.74,M,6.21,M,FEW,SCT,   ,   ,1700,4000,M,M,M,M,M,M,M,M,M,78.57,VVTS 161600Z 14007KT 9999 FEW017 SCT040 25/23 Q1007 NOSIG,M
VVTS,1/16/2012 16:30,106.6667,10.8167,77,73.4,88.67,120,6,M,29.74,M,6.21,M,FEW,SCT,   ,   ,1700,4000,M,M,M,M,M,M,M,M,M,78.57,VVTS 161630Z 12006KT 9999 FEW017 SCT040 25/23 Q1007 NOSIG,M
VVTS,1/16/2012 17:00,106.6667,10.8167,77,73.4,88.67,140,6,M,29.74,M,6.21,M,FEW,SCT,   ,   ,1700,4000,M,M,M,M,M,M,M,M,M,78.57,VVTS 161700Z 14006KT 9999 FEW017 SCT040 25/23 Q1007 NOSIG,M
VVTS,1/16/2012 17:30,106.6667,10.8167,77,73.4,88.67,140,5,M,29.74,M,6.21,M,FEW,SCT,   ,   ,1700,4000,M,M,M,M,M,M,M,M,M,78.57,VVTS 161730Z 14005KT 090V170 9999 FEW017 SCT040 25/23 Q1007 NOSIG,M
VVTS,1/16/2012 18:00,106.6667,10.8167,77,73.4,88.67,120,6,M,29.74,M,6.21,M,FEW,SCT,   ,   ,1700,4000,M,M,M,M,M,M,M,M,M,78.57,VVTS 161800Z 12006KT 9999 FEW017 SCT040 25/23 Q1007 NOSIG,M
VVTS,1/16/2012 18:30,106.6667,10.8167,77,73.4,88.67,140,6,M,29.74,M,6.21,M,FEW,BKN,   ,   ,1700,4000,M,M,M,M,M,M,M,M,M,78.57,VVTS 161830Z 14006KT 120V180 9999 FEW017 BKN040 25/23 Q1007 NOSIG,M
VVTS,1/16/2012 19:00,106.6667,10.8167,77,73.4,88.67,150,4,M,29.71,M,6.21,M,FEW,BKN,   ,   ,1700,4000,M,M,M,M,M,M,M,M,M,78.57,VVTS 161900Z 15004KT 110V180 9999 FEW017 BKN040 25/23 Q1006 NOSIG,M
VVTS,1/16/2012 19:30,106.6667,10.8167,77,73.4,88.67,M,3,M,29.71,M,6.21,M,FEW,BKN,   ,   ,1700,4000,M,M,M,M,M,M,M,M,M,78.57,VVTS 161930Z VRB03KT 9999 FEW017 BKN040 25/23 Q1006 NOSIG,M
VVTS,1/16/2012 20:00,106.6667,10.8167,77,73.4,88.67,170,6,M,29.71,M,6.21,M,FEW,BKN,   ,   ,1700,4000,M,M,M,M,M,M,M,M,M,78.57,VVTS 162000Z 17006KT 130V200 9999 FEW017 BKN040 25/23 Q1006 NOSIG,M
VVTS,1/16/2012 20:30,106.6667,10.8167,77,73.4,88.67,140,4,M,29.71,M,6.21,M,FEW,BKN,   ,   ,1700,4000,M,M,M,M,M,M,M,M,M,78.57,VVTS 162030Z 14004KT 9999 FEW017 BKN040 25/23 Q1006 NOSIG,M
VVTS,1/16/2012 21:00,106.6667,10.8167,77,73.4,88.67,130,6,M,29.71,M,6.21,M,FEW,BKN,   ,   ,1700,4000,M,M,M,M,M,M,M,M,M,78.57,VVTS 162100Z 13006KT 9999 FEW017 BKN040 25/23 Q1006 NOSIG,M
VVTS,1/16/2012 21:30,106.6667,10.8167,77,73.4,88.67,120,5,M,29.71,M,6.21,M,FEW,BKN,   ,   ,1700,4000,M,M,M,M,M,M,M,M,M,78.57,VVTS 162130Z 12005KT 9999 FEW017 BKN040 25/23 Q1006 NOSIG,M
VVTS,1/16/2012 22:00,106.6667,10.8167,77,73.4,88.67,160,4,M,29.74,M,6.21,M,FEW,BKN,   ,   ,1700,4000,M,M,M,M,M,M,M,M,M,78.57,VVTS 162200Z 16004KT 9999 FEW017 BKN040 25/23 Q1007 NOSIG,M
VVTS,1/16/2012 22:30,106.6667,10.8167,77,73.4,88.67,130,4,M,29.74,M,6.21,M,FEW,BKN,   ,   ,1700,4000,M,M,M,M,M,M,M,M,M,78.57,VVTS 162230Z 13004KT 9999 FEW017 BKN040 25/23 Q1007 NOSIG,M
VVTS,1/16/2012 23:00,106.6667,10.8167,M,M,M,M,M,M,M,M,M,M,   ,   ,   ,   ,M,M,M,M,M,M,M,M,M,M,M,M,VVTS 162300Z NIL,M
VVTS,1/16/2012 23:30,106.6667,10.8167,77,73.4,88.67,100,6,M,29.77,M,6.21,M,FEW,BKN,   ,   ,1700,4000,M,M,M,M,M,M,M,M,M,78.57,VVTS 162330Z 10006KT 9999 FEW017 BKN040 25/23 Q1008 NOSIG,M
VVTS,1/17/2012 0:00,106.6667,10.8167,75.2,73.4,94.14,90,6,M,29.8,M,4.97,M,SCT,BKN,   ,   ,1700,4000,M,M,#NAME?,M,M,M,M,M,M,76.84,VVTS 170000Z 09006KT 8000 -RA SCT017 BKN040 24/23 Q1009 TEMPO TL0020 6000 SHRA,M
VVTS,1/17/2012 0:30,106.6667,10.8167,75.2,75.2,100,70,4,M,29.8,M,4.35,M,SCT,BKN,   ,   ,1500,4000,M,M,#NAME?,M,M,M,M,M,M,77.12,VVTS 170030Z 07004KT 7000 -RA SCT015 BKN040 24/24 Q1009 NOSIG,M
VVTS,1/17/2012 1:00,106.6667,10.8167,75.2,75.2,100,60,4,M,29.8,M,4.35,M,SCT,BKN,   ,   ,1500,4000,M,M,#NAME?,M,M,M,M,M,M,77.12,VVTS 170100Z 06004KT 7000 -RA SCT015 BKN040 24/24 Q1009 NOSIG,M
VVTS,1/17/2012 1:30,106.6667,10.8167,75.2,75.2,100,M,3,M,29.83,M,4.97,M,SCT,BKN,   ,   ,1500,4000,M,M,#NAME?,M,M,M,M,M,M,77.12,VVTS 170130Z VRB03KT 8000 -RA SCT015 BKN040 24/24 Q1010 NOSIG,M
VVTS,1/17/2012 2:00,106.6667,10.8167,75.2,75.2,100,M,2,M,29.83,M,4.97,M,SCT,BKN,   ,   ,1500,4000,M,M,#NAME?,M,M,M,M,M,M,77.12,VVTS 170200Z VRB02KT 8000 -RA SCT015 BKN040 24/24 Q1010 NOSIG,M
VVTS,1/17/2012 2:30,106.6667,10.8167,75.2,75.2,100,M,1,M,M,M,4.97,M,SCT,BKN,   ,   ,1500,4000,M,M,M,M,M,M,M,M,M,77.12,VVTS 170230Z VRB01KT 8000 -RA SCT015 BKN040 24/24 Q1,M
VVTS,1/17/2012 3:00,106.6667,10.8167,75.2,75.2,100,70,4,M,29.8,M,6.21,M,SCT,BKN,   ,   ,1500,4000,M,M,#NAME?,M,M,M,M,M,M,77.12,VVTS 170300Z 07004KT 020V100 9999 -RA SCT015 BKN040 24/24 Q1009 NOSIG,M
VVTS,1/17/2012 3:30,106.6667,10.8167,78.8,73.4,83.55,50,6,M,29.8,M,6.21,M,FEW,BKN,   ,   ,1700,4000,M,M,M,M,M,M,M,M,M,82.03,VVTS 170330Z 05006KT 9999 FEW017 BKN040 26/23 Q1009 NOSIG,M
VVTS,1/17/2012 4:00,106.6667,10.8167,82.4,71.6,69.9,100,9,M,29.77,M,6.21,M,FEW,BKN,   ,   ,1700,4000,M,M,M,M,M,M,M,M,M,87.18,VVTS 170400Z 10009KT 9999 FEW017 BKN040 28/22 Q1008 NOSIG,M
VVTS,1/17/2012 4:30,106.6667,10.8167,86,71.6,62.25,110,7,M,29.77,M,6.21,M,FEW,BKN,   ,   ,1700,4000,M,M,M,M,M,M,M,M,M,91.92,VVTS 170430Z 11007KT 9999 FEW017 BKN040 30/22 Q1008 NOSIG,M
VVTS,1/17/2012 5:00,106.6667,10.8167,86,68,55.04,110,7,M,29.74,M,6.21,M,SCT,   ,   ,   ,1700,M,M,M,M,M,M,M,M,M,M,89.41,VVTS 170500Z 11007KT 9999 SCT017 30/20 Q1007 NOSIG,M
VVTS,1/17/2012 5:30,106.6667,10.8167,86,68,55.04,110,7,M,29.74,M,6.21,M,SCT,   ,   ,   ,1700,M,M,M,M,M,M,M,M,M,M,89.41,VVTS 170530Z 11007KT 9999 SCT017 30/20 Q1007 NOSIG,M
VVTS,1/17/2012 6:00,106.6667,10.8167,86,69.8,58.55,100,3,M,29.71,M,6.21,M,SCT,SCT,   ,   ,1700,4000,M,M,M,M,M,M,M,M,M,90.58,VVTS 170600Z 10003KT 9999 SCT017 SCT040 30/21 Q1006 NOSIG,M
VVTS,1/17/2012 6:30,106.6667,10.8167,86,69.8,58.55,100,3,M,29.68,M,6.21,M,SCT,SCT,   ,   ,1700,4000,M,M,M,M,M,M,M,M,M,90.58,VVTS 170630Z 10003KT 9999 SCT017 SCT040 30/21 Q1005 NOSIG,M
VVTS,1/17/2012 7:00,106.6667,10.8167,87.8,69.8,55.29,110,3,M,29.68,M,6.21,M,SCT,SCT,   ,   ,1700,4000,M,M,M,M,M,M,M,M,M,92.71,VVTS 170700Z 11003KT 9999 SCT017 SCT040 31/21 Q1005 NOSIG,M
VVTS,1/17/2012 7:30,106.6667,10.8167,87.8,69.8,55.29,110,3,M,29.68,M,6.21,M,SCT,SCT,   ,   ,1700,4000,M,M,M,M,M,M,M,M,M,92.71,VVTS 170730Z 11003KT 9999 SCT017 SCT040 31/21 Q1005 NOSIG,M
VVTS,1/17/2012 8:00,106.6667,10.8167,84.2,71.6,65.95,110,5,M,29.68,M,3.73,M,SCT,SCT,   ,   ,1500,1700,M,M,#NAME?,M,M,M,M,M,M,89.6,VVTS 170800Z 11005KT 6000 R07L/1400U -SHRA SCT015 SCT017TCU 29/22 Q1005 TEMPO TL0835 4000 SHRA,M
VVTS,1/17/2012 8:30,106.6667,10.8167,82.4,73.4,74.28,300,3,M,29.65,M,4.35,M,SCT,SCT,   ,   ,1500,1700,M,M,M,M,M,M,M,M,M,88.26,VVTS 170830Z 30003KT 7000 SCT015 SCT017CB 28/23 Q1004 TEMPO TL0835 4000 SHRA,M
VVTS,1/17/2012 9:00,106.6667,10.8167,75.2,75.2,100,M,2,M,29.68,M,0.62,M,BKN,SCT,   ,   ,1300,1500,M,M,#NAME?,M,M,M,M,M,M,77.12,VVTS 170900Z VRB02KT 1000W R25R/1000V1500U +TSRA BKN013 SCT015CB 24/24 Q1005 BECMG TL0915 5000 SHRA,M
VVTS,1/17/2012 9:30,106.6667,10.8167,75.2,75.2,100,260,3,M,29.68,M,2.49,M,BKN,SCT,   ,   ,1300,1500,M,M,TSRA,M,M,M,M,M,M,77.12,VVTS 170930Z 26003KT 4000 TSRA BKN013 SCT015CB 24/24 Q1005 BECMG TL0935 5000 SHRA,M
VVTS,1/17/2012 10:00,106.6667,10.8167,77,75.2,94.19,M,2,M,29.68,M,4.97,M,SCT,BKN,   ,   ,1700,4000,M,M,M,M,M,M,M,M,M,78.83,VVTS 171000Z VRB02KT 8000 SCT017 BKN040 25/24 Q1005 NOSIG,M
VVTS,1/17/2012 10:30,106.6667,10.8167,77,77,100,M,2,M,29.68,M,6.21,M,SCT,SCT,   ,   ,1700,4000,M,M,M,M,M,M,M,M,M,77,VVTS 171030Z VRB02KT 9999 SCT017 SCT040 25/25 Q1005 NOSIG,M
VVTS,1/17/2012 11:00,106.6667,10.8167,77,77,100,290,4,M,29.71,M,4.35,M,SCT,SCT,   ,   ,1700,4000,M,M,M,M,M,M,M,M,M,77,VVTS 171100Z 29004KT 250V320 7000 SCT017 SCT040 25/25 Q1006 NOSIG,M
VVTS,1/17/2012 11:30,106.6667,10.8167,77,77,100,330,1,M,29.71,M,4.97,M,SCT,SCT,   ,   ,1700,4000,M,M,M,M,M,M,M,M,M,77,VVTS 171130Z 33001KT 8000 SCT017 SCT040 25/25 Q1006 NOSIG,M
VVTS,1/17/2012 12:00,106.6667,10.8167,77,77,100,M,1,M,29.74,M,6.21,M,FEW,SCT,   ,   ,1500,1700,M,M,M,M,M,M,M,M,M,77,VVTS 171200Z VRB01KT 9999 FEW015TCU SCT017 25/25 Q1007 NOSIG,M
VVTS,1/17/2012 12:30,106.6667,10.8167,78.8,75.2,88.75,M,2,M,29.74,M,6.21,M,FEW,SCT,   ,   ,1500,1700,M,M,M,M,M,M,M,M,M,82.38,VVTS 171230Z VRB02KT 9999 FEW015TCU SCT017 26/24 Q1007 NOSIG,M
VVTS,1/17/2012 13:00,106.6667,10.8167,78.8,73.4,83.55,130,4,M,29.74,M,6.21,M,FEW,SCT,   ,   ,1500,4000,M,M,M,M,M,M,M,M,M,82.03,VVTS 171300Z 13004KT 100V160 9999 FEW015 SCT040 26/23 Q1007 NOSIG,M
VVTS,1/17/2012 14:00,106.6667,10.8167,78.8,71.6,78.62,M,3,M,29.77,M,6.21,M,FEW,SCT,   ,   ,1500,4000,M,M,M,M,M,M,M,M,M,81.7,VVTS 171400Z VRB03KT 9999 FEW015 SCT040 26/22 Q1008 NOSIG,M
VVTS,1/17/2012 14:30,106.6667,10.8167,77,71.6,83.44,M,3,M,29.77,M,6.21,M,FEW,SCT,   ,   ,1500,4000,M,M,M,M,M,M,M,M,M,78.32,VVTS 171430Z VRB03KT 9999 FEW015 SCT040 25/22 Q1008 NOSIG,M
VVTS,1/17/2012 15:00,106.6667,10.8167,77,71.6,83.44,130,3,M,29.77,M,6.21,M,FEW,SCT,   ,   ,1500,4000,M,M,M,M,M,M,M,M,M,78.32,VVTS 171500Z 13003KT 9999 FEW015 SCT040 25/22 Q1008 NOSIG,M
VVTS,1/17/2012 15:30,106.6667,10.8167,77,71.6,83.44,130,4,M,29.77,M,6.21,M,FEW,SCT,   ,   ,1500,4000,M,M,M,M,M,M,M,M,M,78.32,VVTS 171530Z 13004KT 100V170 9999 FEW015 SCT040 25/22 Q1008 NOSIG,M
VVTS,1/17/2012 16:00,106.6667,10.8167,77,71.6,83.44,130,3,M,29.77,M,6.21,M,FEW,SCT,   ,   ,1500,4000,M,M,M,M,M,M,M,M,M,78.32,VVTS 171600Z 13003KT 9999 FEW015 SCT040 25/22 Q1008 NOSIG,M
VVTS,1/17/2012 16:30,106.6667,10.8167,M,M,M,M,M,M,M,M,M,M,   ,   ,   ,   ,M,M,M,M,M,M,M,M,M,M,M,M,VVTS 171630Z NIL,M
VVTS,1/17/2012 17:00,106.6667,10.8167,77,71.6,83.44,130,4,M,29.74,M,6.21,M,FEW,SCT,   ,   ,1500,4000,M,M,M,M,M,M,M,M,M,78.32,VVTS 171700Z 13004KT 100V190 9999 FEW015 SCT040 25/22 Q1007 NOSIG,M
VVTS,1/17/2012 17:30,106.6667,10.8167,77,71.6,83.44,M,3,M,29.74,M,6.21,M,FEW,SCT,   ,   ,1500,4000,M,M,M,M,M,M,M,M,M,78.32,VVTS 171730Z VRB03KT 9999 FEW015 SCT040 25/22 Q1007 NOSIG,M
VVTS,1/17/2012 18:00,106.6667,10.8167,75.2,71.6,88.59,M,3,M,29.74,M,6.21,M,FEW,SCT,   ,   ,1500,4000,M,M,M,M,M,M,M,M,M,76.58,VVTS 171800Z VRB03KT 9999 FEW015 SCT040 24/22 Q1007 NOSIG,M
VVTS,1/17/2012 18:30,106.6667,10.8167,75.2,71.6,88.59,M,1,M,29.74,M,6.21,M,FEW,SCT,   ,   ,1500,4000,M,M,M,M,M,M,M,M,M,76.58,VVTS 171830Z VRB01KT 9999 FEW015 SCT040 24/22 Q1007 NOSIG,M
VVTS,1/17/2012 19:00,106.6667,10.8167,75.2,71.6,88.59,0,0,M,29.74,M,6.21,M,FEW,SCT,   ,   ,1500,4000,M,M,M,M,M,M,M,M,M,76.58,VVTS 171900Z 00000KT 9999 FEW015 SCT040 24/22 Q1007 NOSIG,M
VVTS,1/17/2012 19:30,106.6667,10.8167,75.2,71.6,88.59,M,1,M,29.74,M,6.21,M,FEW,SCT,   ,   ,1500,4000,M,M,M,M,M,M,M,M,M,76.58,VVTS 171930Z VRB01KT 9999 FEW015 SCT040 24/22 Q1007 NOSIG,M
VVTS,1/17/2012 20:00,106.6667,10.8167,75.2,73.4,94.14,M,3,M,29.71,M,6.21,M,FEW,SCT,   ,   ,1500,4000,M,M,M,M,M,M,M,M,M,76.84,VVTS 172000Z VRB03KT 9999 FEW015 SCT040 24/23 Q1006 NOSIG,M
VVTS,1/17/2012 20:30,106.6667,10.8167,75.2,73.4,94.14,M,2,M,29.71,M,6.21,M,FEW,SCT,   ,   ,1500,4000,M,M,M,M,M,M,M,M,M,76.84,VVTS 172030Z VRB02KT 9999 FEW015 SCT040 24/23 Q1006 NOSIG,M
VVTS,1/17/2012 21:00,106.6667,10.8167,73.4,73.4,100,50,3,M,29.71,M,6.21,M,FEW,SCT,   ,   ,1500,4000,M,M,M,M,M,M,M,M,M,75.14,VVTS 172100Z 05003KT 9999 FEW015 SCT040 23/23 Q1006 NOSIG,M
VVTS,1/17/2012 21:30,106.6667,10.8167,73.4,73.4,100,70,3,M,29.74,M,6.21,M,FEW,SCT,   ,   ,1500,4000,M,M,M,M,M,M,M,M,M,75.14,VVTS 172130Z 07003KT 9999 FEW015 SCT040 23/23 Q1007 NOSIG,M
VVTS,1/17/2012 22:00,106.6667,10.8167,71.6,71.6,100,60,3,M,29.74,M,6.21,M,FEW,SCT,   ,   ,1500,4000,M,M,M,M,M,M,M,M,M,73.16,VVTS 172200Z 06003KT 9999 FEW015 SCT040 22/22 Q1007 NOSIG,M
VVTS,1/17/2012 22:30,106.6667,10.8167,71.6,71.6,100,50,2,M,29.74,M,6.21,M,FEW,SCT,   ,   ,1500,4000,M,M,M,M,M,M,M,M,M,73.16,VVTS 172230Z 05002KT 9999 FEW015 SCT040 22/22 Q1007 NOSIG,M
VVTS,1/17/2012 23:00,106.6667,10.8167,73.4,73.4,100,50,2,M,29.74,M,6.21,M,FEW,   ,   ,   ,4000,M,M,M,M,M,M,M,M,M,M,75.14,VVTS 172300Z 05002KT 9999 FEW040 23/23 Q1007 NOSIG,M
VVTS,1/17/2012 23:30,106.6667,10.8167,71.6,71.6,100,60,2,M,29.77,M,6.21,M,FEW,   ,   ,   ,4000,M,M,M,M,M,M,M,M,M,M,73.16,VVTS 172330Z 06002KT 9999 FEW040 22/22 Q1008 NOSIG,M
VVTS,1/18/2012 0:00,106.6667,10.8167,73.4,73.4,100,50,3,M,29.8,M,6.21,M,FEW,   ,   ,   ,4000,M,M,M,M,M,M,M,M,M,M,75.14,VVTS 180000Z 05003KT 9999 FEW040 23/23 Q1009 NOSIG,M
VVTS,1/18/2012 0:30,106.6667,10.8167,77,73.4,88.67,60,3,M,29.8,M,6.21,M,FEW,   ,   ,   ,4000,M,M,M,M,M,M,M,M,M,M,78.57,VVTS 180030Z 06003KT 9999 FEW040 25/23 Q1009 NOSIG,M
VVTS,1/18/2012 1:00,106.6667,10.8167,78.8,73.4,83.55,M,3,M,29.8,M,6.21,M,FEW,   ,   ,   ,4000,M,M,M,M,M,M,M,M,M,M,82.03,VVTS 180100Z VRB03KT 9999 FEW040 26/23 Q1009 NOSIG,M
VVTS,1/18/2012 1:30,106.6667,10.8167,80.6,73.4,78.76,110,5,M,29.83,M,6.21,M,FEW,   ,   ,   ,2000,M,M,M,M,M,M,M,M,M,M,85.32,VVTS 180130Z 11005KT 9999 FEW020 27/23 Q1010 NOSIG,M
VVTS,1/18/2012 2:00,106.6667,10.8167,82.4,73.4,74.28,M,3,M,29.83,M,6.21,M,FEW,   ,   ,   ,2000,M,M,M,M,M,M,M,M,M,M,88.26,VVTS 180200Z VRB03KT 9999 FEW020 28/23 Q1010 NOSIG,M
VVTS,1/18/2012 2:30,106.6667,10.8167,84.2,71.6,65.95,90,4,M,29.8,M,6.21,M,FEW,   ,   ,   ,2000,M,M,M,M,M,M,M,M,M,M,89.6,VVTS 180230Z 09004KT 040V130 9999 FEW020 29/22 Q1009 NOSIG,M
VVTS,1/18/2012 3:00,106.6667,10.8167,M,M,M,M,M,M,M,M,M,M,   ,   ,   ,   ,M,M,M,M,M,M,M,M,M,M,M,M,VVTS 180300Z NIL,M
VVTS,1/18/2012 3:30,106.6667,10.8167,86,71.6,62.25,80,8,M,29.8,M,6.21,M,SCT,   ,   ,   ,2000,M,M,M,M,M,M,M,M,M,M,91.92,VVTS 180330Z 08008KT 040V100 9999 SCT020 30/22 Q1009 NOSIG,M
VVTS,1/18/2012 4:00,106.6667,10.8167,87.8,71.6,58.78,90,7,M,29.8,M,6.21,M,SCT,   ,   ,   ,2000,M,M,M,M,M,M,M,M,M,M,94.18,VVTS 180400Z 09007KT 060V120 9999 SCT020 31/22 Q1009 NOSIG,M
VVTS,1/18/2012 4:30,106.6667,10.8167,84.2,71.6,65.95,90,6,M,29.8,M,6.21,M,SCT,   ,   ,   ,2000,M,M,M,M,M,M,M,M,M,M,89.6,VVTS 180430Z 09006KT 050V120 9999 SCT020 29/22 Q1009 NOSIG,M
VVTS,1/18/2012 5:00,106.6667,10.8167,84.2,71.6,65.95,90,5,M,29.77,M,6.21,M,BKN,   ,   ,   ,1700,M,M,M,M,M,M,M,M,M,M,89.6,VVTS 180500Z 09005KT 050V120 9999 BKN017 29/22 Q1008 NOSIG,M
VVTS,1/18/2012 5:30,106.6667,10.8167,84.2,71.6,65.95,110,7,M,29.77,M,6.21,M,BKN,   ,   ,   ,1700,M,M,M,M,M,M,M,M,M,M,89.6,VVTS 180530Z 11007KT 9999 BKN017 29/22 Q1008 NOSIG,M
VVTS,1/18/2012 6:00,106.6667,10.8167,84.2,71.6,65.95,120,4,M,29.74,M,6.21,M,FEW,BKN,   ,   ,1500,1700,M,M,M,M,M,M,M,M,M,89.6,VVTS 180600Z 12004KT 080V150 9999 FEW015TCU BKN017 29/22 Q1007 NOSIG,M
VVTS,1/18/2012 6:30,106.6667,10.8167,84.2,71.6,65.95,110,6,M,29.74,M,6.21,M,FEW,BKN,   ,   ,1500,1700,M,M,M,M,M,M,M,M,M,89.6,VVTS 180630Z 11006KT 9999 FEW015TCU BKN017 29/22 Q1007 NOSIG,M
VVTS,1/18/2012 7:00,106.6667,10.8167,87.8,71.6,58.78,100,8,M,29.71,M,6.21,M,FEW,SCT,BKN,   ,1500,1700,4000,M,M,M,M,M,M,M,M,94.18,VVTS 180700Z 10008KT 9999 FEW015TCU SCT017 BKN040 31/22 Q1006 NOSIG,M
VVTS,1/18/2012 7:30,106.6667,10.8167,89.6,71.6,55.53,100,8,M,29.71,M,6.21,M,FEW,SCT,BKN,   ,1500,1700,4000,M,M,M,M,M,M,M,M,96.41,VVTS 180730Z 10008KT 9999 FEW015TCU SCT017 BKN040 32/22 Q1006 NOSIG,M
VVTS,1/18/2012 8:00,106.6667,10.8167,87.8,71.6,58.78,170,9,M,29.71,M,6.21,M,FEW,SCT,   ,   ,1500,1700,M,M,M,M,M,M,M,M,M,94.18,VVTS 180800Z 17009KT 9999 FEW015TCU SCT017 31/22 Q1006 NOSIG,M
VVTS,1/18/2012 8:30,106.6667,10.8167,84.2,71.6,65.95,170,7,M,29.71,M,6.21,M,FEW,SCT,   ,   ,1500,1700,M,M,M,M,M,M,M,M,M,89.6,VVTS 180830Z 17007KT 140V200 9999 FEW015TCU SCT017 29/22 Q1006 NOSIG,M
VVTS,1/18/2012 9:00,106.6667,10.8167,84.2,71.6,65.95,150,10,M,29.71,M,6.21,M,FEW,SCT,   ,   ,1500,1700,M,M,M,M,M,M,M,M,M,89.6,VVTS 180900Z 15010KT 9999 FEW015TCU SCT017 29/22 Q1006 NOSIG,M
VVTS,1/18/2012 9:30,106.6667,10.8167,84.2,71.6,65.95,150,8,M,29.71,M,6.21,M,FEW,BKN,   ,   ,1500,1700,M,M,M,M,M,M,M,M,M,89.6,VVTS 180930Z 15008KT 120V180 9999 FEW015TCU BKN017 29/22 Q1006 NOSIG,M
VVTS,1/18/2012 10:00,106.6667,10.8167,82.4,73.4,74.28,140,8,M,29.71,M,6.21,M,FEW,BKN,   ,   ,1700,4000,M,M,M,M,M,M,M,M,M,88.26,VVTS 181000Z 14008KT 120V180 9999 FEW017 BKN040 28/23 Q1006 NOSIG,M
VVTS,1/18/2012 10:30,106.6667,10.8167,82.4,73.4,74.28,140,5,M,29.74,M,6.21,M,FEW,SCT,   ,   ,1700,4000,M,M,M,M,M,M,M,M,M,88.26,VVTS 181030Z 14005KT 110V180 9999 FEW017 SCT040 28/23 Q1007 NOSIG,M
VVTS,1/18/2012 11:00,106.6667,10.8167,80.6,73.4,78.76,140,7,M,29.74,M,6.21,M,SCT,   ,   ,   ,1700,M,M,M,M,M,M,M,M,M,M,85.32,VVTS 181100Z 14007KT 110V190 9999 SCT017 27/23 Q1007 NOSIG,M
VVTS,1/18/2012 11:30,106.6667,10.8167,80.6,71.6,74.11,130,6,M,29.74,M,6.21,M,SCT,   ,   ,   ,1700,M,M,M,M,M,M,M,M,M,M,84.57,VVTS 181130Z 13006KT 9999 SCT017 27/22 Q1007 NOSIG,M
VVTS,1/18/2012 12:00,106.6667,10.8167,80.6,73.4,78.76,140,8,M,29.74,M,6.21,M,SCT,   ,   ,   ,1700,M,M,M,M,M,M,M,M,M,M,85.32,VVTS 181200Z 14008KT 100V170 9999 SCT017 27/23 Q1007 NOSIG,M
VVTS,1/18/2012 12:30,106.6667,10.8167,80.6,73.4,78.76,130,8,M,29.77,M,6.21,M,SCT,   ,   ,   ,1700,M,M,M,M,M,M,M,M,M,M,85.32,VVTS 181230Z 13008KT 090V150 9999 SCT017 27/23 Q1008 NOSIG,M
VVTS,1/18/2012 13:00,106.6667,10.8167,78.8,73.4,83.55,130,6,M,29.77,M,6.21,M,SCT,   ,   ,   ,1700,M,M,M,M,M,M,M,M,M,M,82.03,VVTS 181300Z 13006KT 9999 SCT017 26/23 Q1008 NOSIG,M
VVTS,1/18/2012 13:30,106.6667,10.8167,78.8,71.6,78.62,130,6,M,29.77,M,6.21,M,SCT,   ,   ,   ,1700,M,M,M,M,M,M,M,M,M,M,81.7,VVTS 181330Z 13006KT 9999 SCT017 26/22 Q1008 NOSIG,M
VVTS,1/18/2012 14:00,106.6667,10.8167,78.8,71.6,78.62,120,9,M,29.8,M,6.21,M,FEW,   ,   ,   ,1700,M,M,M,M,M,M,M,M,M,M,81.7,VVTS 181400Z 12009KT 9999 FEW017 26/22 Q1009 NOSIG,M
VVTS,1/18/2012 14:30,106.6667,10.8167,78.8,71.6,78.62,140,9,M,29.8,M,6.21,M,FEW,   ,   ,   ,1700,M,M,M,M,M,M,M,M,M,M,81.7,VVTS 181430Z 14009KT 9999 FEW017 26/22 Q1009 NOSIG,M
VVTS,1/18/2012 15:00,106.6667,10.8167,78.8,71.6,78.62,130,8,M,29.8,M,6.21,M,FEW,   ,   ,   ,1700,M,M,M,M,M,M,M,M,M,M,81.7,VVTS 181500Z 13008KT 9999 FEW017 26/22 Q1009 NOSIG,M
VVTS,1/18/2012 15:30,106.6667,10.8167,78.8,71.6,78.62,140,8,M,29.8,M,6.21,M,FEW,   ,   ,   ,1700,M,M,M,M,M,M,M,M,M,M,81.7,VVTS 181530Z 14008KT 9999 FEW017 26/22 Q1009 NOSIG,M
VVTS,1/18/2012 16:00,106.6667,10.8167,77,71.6,83.44,130,9,M,29.8,M,6.21,M,FEW,   ,   ,   ,1700,M,M,M,M,M,M,M,M,M,M,78.32,VVTS 181600Z 13009KT 9999 FEW017 25/22 Q1009 NOSIG,M
VVTS,1/18/2012 16:30,106.6667,10.8167,78.8,71.6,78.62,130,10,M,29.8,M,6.21,M,FEW,   ,   ,   ,1700,M,M,M,M,M,M,M,M,M,M,81.7,VVTS 181630Z 13010KT 9999 FEW017 26/22 Q1009 NOSIG,M
VVTS,1/18/2012 17:00,106.6667,10.8167,78.8,71.6,78.62,130,9,M,29.8,M,6.21,M,FEW,   ,   ,   ,1700,M,M,M,M,M,M,M,M,M,M,81.7,VVTS 181700Z 13009KT 9999 FEW017 26/22 Q1009 NOSIG,M
VVTS,1/18/2012 17:30,106.6667,10.8167,77,71.6,83.44,120,10,M,29.8,M,6.21,M,FEW,   ,   ,   ,1700,M,M,M,M,M,M,M,M,M,M,78.32,VVTS 181730Z 12010KT 9999 FEW017 25/22 Q1009 NOSIG,M
VVTS,1/18/2012 18:00,106.6667,10.8167,75.2,73.4,94.14,120,9,M,29.77,M,6.21,M,FEW,   ,   ,   ,1700,M,M,M,M,M,M,M,M,M,M,76.84,VVTS 181800Z 12009KT 9999 FEW017 24/23 Q1008 NOSIG,M
VVTS,1/18/2012 18:30,106.6667,10.8167,75.2,73.4,94.14,120,8,M,29.77,M,6.21,M,FEW,   ,   ,   ,1700,M,M,M,M,M,M,M,M,M,M,76.84,VVTS 181830Z 12008KT 9999 FEW017 24/23 Q1008 NOSIG,M
VVTS,1/18/2012 19:00,106.6667,10.8167,75.2,73.4,94.14,130,9,M,29.77,M,6.21,M,FEW,   ,   ,   ,1700,M,M,M,M,M,M,M,M,M,M,76.84,VVTS 181900Z 13009KT 9999 FEW017 24/23 Q1008 NOSIG,M
VVTS,1/18/2012 19:30,106.6667,10.8167,75.2,73.4,94.14,120,8,M,29.77,M,6.21,M,FEW,   ,   ,   ,1700,M,M,M,M,M,M,M,M,M,M,76.84,VVTS 181930Z 12008KT 9999 FEW017 24/23 Q1008 NOSIG,M
VVTS,1/18/2012 20:00,106.6667,10.8167,75.2,73.4,94.14,120,7,M,29.74,M,6.21,M,FEW,   ,   ,   ,1700,M,M,M,M,M,M,M,M,M,M,76.84,VVTS 182000Z 12007KT 9999 FEW017 24/23 Q1007 NOSIG,M
VVTS,1/18/2012 20:30,106.6667,10.8167,75.2,73.4,94.14,120,8,M,29.74,M,6.21,M,FEW,   ,   ,   ,1700,M,M,M,M,M,M,M,M,M,M,76.84,VVTS 182030Z 12008KT 9999 FEW017 24/23 Q1007 NOSIG,M
VVTS,1/18/2012 21:00,106.6667,10.8167,75.2,73.4,94.14,120,7,M,29.77,M,6.21,M,FEW,   ,   ,   ,1700,M,M,M,M,M,M,M,M,M,M,76.84,VVTS 182100Z 12007KT 9999 FEW017 24/23 Q1008 NOSIG,M
VVTS,1/18/2012 21:30,106.6667,10.8167,75.2,73.4,94.14,120,4,M,29.77,M,6.21,M,FEW,   ,   ,   ,1700,M,M,M,M,M,M,M,M,M,M,76.84,VVTS 182130Z 12004KT 9999 FEW017 24/23 Q1008 NOSIG,M
VVTS,1/18/2012 22:00,106.6667,10.8167,75.2,73.4,94.14,130,6,M,29.77,M,6.21,M,FEW,   ,   ,   ,1700,M,M,M,M,M,M,M,M,M,M,76.84,VVTS 182200Z 13006KT 9999 FEW017 24/23 Q1008 NOSIG,M
VVTS,1/18/2012 22:30,106.6667,10.8167,75.2,73.4,94.14,130,4,M,29.77,M,6.21,M,FEW,   ,   ,   ,1700,M,M,M,M,M,M,M,M,M,M,76.84,VVTS 182230Z 13004KT 9999 FEW017 24/23 Q1008 NOSIG,M
VVTS,1/18/2012 23:00,106.6667,10.8167,75.2,73.4,94.14,130,6,M,29.8,M,6.21,M,FEW,   ,   ,   ,1700,M,M,M,M,M,M,M,M,M,M,76.84,VVTS 182300Z 13006KT 9999 FEW017 24/23 Q1009 NOSIG,M
VVTS,1/18/2012 23:30,106.6667,10.8167,75.2,73.4,94.14,120,7,M,29.8,M,6.21,M,FEW,   ,   ,   ,1700,M,M,M,M,M,M,M,M,M,M,76.84,VVTS 182330Z 12007KT 9999 FEW017 24/23 Q1009 NOSIG,M
VVTS,1/19/2012 0:00,106.6667,10.8167,75.2,73.4,94.14,120,8,M,29.8,M,6.21,M,FEW,   ,   ,   ,1700,M,M,M,M,M,M,M,M,M,M,76.84,VVTS 190000Z 12008KT 9999 FEW017 24/23 Q1009 NOSIG,M
VVTS,1/19/2012 0:30,106.6667,10.8167,78.8,73.4,83.55,120,9,M,29.8,M,6.21,M,FEW,   ,   ,   ,1700,M,M,M,M,M,M,M,M,M,M,82.03,VVTS 190030Z 12009KT 9999 FEW017 26/23 Q1009 NOSIG,M
VVTS,1/19/2012 1:00,106.6667,10.8167,M,M,M,M,M,M,M,M,M,M,   ,   ,   ,   ,M,M,M,M,M,M,M,M,M,M,M,M,VVTS 190100Z NIL,M
VVTS,1/19/2012 1:30,106.6667,10.8167,80.6,73.4,78.76,110,9,M,29.83,M,6.21,M,FEW,   ,   ,   ,2000,M,M,M,M,M,M,M,M,M,M,85.32,VVTS 190130Z 11009KT 9999 FEW020 27/23 Q1010 NOSIG,M
VVTS,1/19/2012 2:00,106.6667,10.8167,82.4,73.4,74.28,100,9,M,29.83,M,6.21,M,FEW,   ,   ,   ,2000,M,M,M,M,M,M,M,M,M,M,88.26,VVTS 190200Z 10009KT 9999 FEW020 28/23 Q1010 NOSIG,M
VVTS,1/19/2012 2:30,106.6667,10.8167,84.2,73.4,70.08,90,10,M,29.83,M,6.21,M,FEW,   ,   ,   ,2000,M,M,M,M,M,M,M,M,M,M,90.94,VVTS 190230Z 09010KT 040V120 9999 FEW020 29/23 Q1010 NOSIG,M
VVTS,1/19/2012 3:00,106.6667,10.8167,86,71.6,62.25,120,11,M,29.83,M,6.21,M,FEW,   ,   ,   ,2000,M,M,M,M,M,M,M,M,M,M,91.92,VVTS 190300Z 12011KT 9999 FEW020 30/22 Q1010 NOSIG,M
VVTS,1/19/2012 3:30,106.6667,10.8167,86,71.6,62.25,90,9,M,29.83,M,6.21,M,SCT,   ,   ,   ,2000,M,M,M,M,M,M,M,M,M,M,91.92,VVTS 190330Z 09009KT 9999 SCT020 30/22 Q1010 NOSIG,M
VVTS,1/19/2012 4:00,106.6667,10.8167,87.8,71.6,58.78,100,8,M,29.8,M,6.21,M,SCT,   ,   ,   ,2000,M,M,M,M,M,M,M,M,M,M,94.18,VVTS 190400Z 10008KT 050V140 9999 SCT020 31/22 Q1009 NOSIG,M
VVTS,1/19/2012 4:30,106.6667,10.8167,89.6,71.6,55.53,110,7,M,29.8,M,6.21,M,SCT,   ,   ,   ,2000,M,M,M,M,M,M,M,M,M,M,96.41,VVTS 190430Z 11007KT 070V150 9999 SCT020 32/22 Q1009 NOSIG,M
VVTS,1/19/2012 5:00,106.6667,10.8167,89.6,71.6,55.53,110,7,M,29.77,M,6.21,M,SCT,   ,   ,   ,2000,M,M,M,M,M,M,M,M,M,M,96.41,VVTS 190500Z 11007KT 9999 SCT020 32/22 Q1008 NOSIG,M
VVTS,1/19/2012 5:30,106.6667,10.8167,91.4,71.6,52.48,130,6,M,29.77,M,6.21,M,SCT,   ,   ,   ,2000,M,M,M,M,M,M,M,M,M,M,98.64,VVTS 190530Z 13006KT 090V190 9999 SCT020 33/22 Q1008 NOSIG,M
VVTS,1/19/2012 6:00,106.6667,10.8167,89.6,71.6,55.53,150,6,0,29.74,M,6.21,M,FEW,SCT,   ,   ,1500,1700,M,M,M,M,M,M,M,M,M,96.41,VVTS 190600Z 15006KT 090V200 9999 FEW015TCU SCT017 32/22 Q1007 NOSIG,M
VVTS,1/19/2012 6:30,106.6667,10.8167,91.4,71.6,52.48,150,8,0,29.74,M,6.21,M,FEW,SCT,   ,   ,1500,1700,M,M,M,M,M,M,M,M,M,98.64,VVTS 190630Z 15008KT 100V190 9999 FEW015CB SCT017 33/22 Q1007 NOSIG,M
VVTS,1/19/2012 7:00,106.6667,10.8167,87.8,71.6,58.78,160,8,0,29.74,M,6.21,M,SCT,SCT,   ,   ,1500,1700,M,M,M,M,M,M,M,M,M,94.18,VVTS 190700Z 16008KT 120V200 9999 SCT015CB SCT017 31/22 Q1007 NOSIG,M
VVTS,1/19/2012 7:30,106.6667,10.8167,84.2,73.4,70.08,160,11,0,29.74,M,6.21,M,SCT,SCT,   ,   ,1500,1700,M,M,M,M,M,M,M,M,M,90.94,VVTS 190730Z 16011KT 9999 SCT015CB SCT017 29/23 Q1007 NOSIG,M
VVTS,1/19/2012 8:00,106.6667,10.8167,87.8,73.4,62.47,160,10,0,29.71,M,6.21,M,SCT,SCT,   ,   ,1500,1700,M,M,VCSH,M,M,M,M,M,M,95.86,VVTS 190800Z 16010KT 9999 VCSH SCT015CB SCT017 31/23 Q1006 NOSIG,M
VVTS,1/19/2012 8:30,106.6667,10.8167,87.8,73.4,62.47,160,12,0,29.71,M,6.21,M,SCT,SCT,   ,   ,1500,1700,M,M,M,M,M,M,M,M,M,95.86,VVTS 190830Z 16012KT 9999 SCT015CB SCT017 31/23 Q1006 NOSIG,M
VVTS,1/19/2012 9:00,106.6667,10.8167,87.8,71.6,58.78,150,12,0,29.71,M,6.21,M,SCT,SCT,   ,   ,1500,1700,M,M,M,M,M,M,M,M,M,94.18,VVTS 190900Z 15012KT 9999 SCT015CB SCT017 31/22 Q1006 NOSIG,M
VVTS,1/19/2012 9:30,106.6667,10.8167,86,71.6,62.25,140,8,0,29.71,M,6.21,M,SCT,SCT,   ,   ,1500,1700,M,M,M,M,M,M,M,M,M,91.92,VVTS 190930Z 14008KT 9999 SCT015CB SCT017 30/22 Q1006 NOSIG,M
VVTS,1/19/2012 10:00,106.6667,10.8167,84.2,71.6,65.95,150,10,0,29.74,M,6.21,M,FEW,SCT,   ,   ,1500,1700,M,M,M,M,M,M,M,M,M,89.6,VVTS 191000Z 15010KT 9999 FEW015CB SCT017 29/22 Q1007 NOSIG,M
VVTS,1/19/2012 10:30,106.6667,10.8167,84.2,71.6,65.95,150,9,0,29.74,M,6.21,M,FEW,   ,   ,   ,1700,M,M,M,M,M,M,M,M,M,M,89.6,VVTS 191030Z 15009KT 120V190 9999 FEW017 29/22 Q1007 NOSIG,M
VVTS,1/19/2012 11:00,106.6667,10.8167,82.4,71.6,69.9,150,8,0,29.74,M,6.21,M,FEW,SCT,   ,   ,1700,4000,M,M,M,M,M,M,M,M,M,87.18,VVTS 191100Z 15008KT 120V200 9999 FEW017 SCT040 28/22 Q1007 NOSIG,M
VVTS,1/19/2012 11:30,106.6667,10.8167,80.6,71.6,74.11,140,9,0,29.77,M,6.21,M,FEW,SCT,   ,   ,1700,4000,M,M,M,M,M,M,M,M,M,84.57,VVTS 191130Z 14009KT 110V190 9999 FEW017 SCT040 27/22 Q1008 NOSIG,M
VVTS,1/19/2012 12:00,106.6667,10.8167,80.6,73.4,78.76,130,8,0,29.77,M,6.21,M,FEW,SCT,   ,   ,1700,4000,M,M,M,M,M,M,M,M,M,85.32,VVTS 191200Z 13008KT 9999 FEW017 SCT040 27/23 Q1008 NOSIG,M
VVTS,1/19/2012 12:30,106.6667,10.8167,80.6,71.6,74.11,130,7,0,29.77,M,6.21,M,FEW,SCT,   ,   ,1700,4000,M,M,M,M,M,M,M,M,M,84.57,VVTS 191230Z 13007KT 100V180 9999 FEW017 SCT040 27/22 Q1008 NOSIG,M
VVTS,1/19/2012 13:00,106.6667,10.8167,80.6,71.6,74.11,120,8,0,29.77,M,6.21,M,FEW,SCT,   ,   ,1700,4000,M,M,M,M,M,M,M,M,M,84.57,VVTS 191300Z 12008KT 9999 FEW017 SCT040 27/22 Q1008 NOSIG,M
VVTS,1/19/2012 13:30,106.6667,10.8167,80.6,71.6,74.11,120,9,0,29.8,M,6.21,M,FEW,SCT,   ,   ,1700,4000,M,M,M,M,M,M,M,M,M,84.57,VVTS 191330Z 12009KT 9999 FEW017 SCT040 27/22 Q1009 NOSIG,M
VVTS,1/19/2012 14:00,106.6667,10.8167,78.8,71.6,78.62,120,8,0,29.8,M,6.21,M,FEW,SCT,   ,   ,1700,4000,M,M,M,M,M,M,M,M,M,81.7,VVTS 191400Z 12008KT 090V150 9999 FEW017 SCT040 26/22 Q1009 NOSIG,M
VVTS,1/19/2012 14:30,106.6667,10.8167,78.8,71.6,78.62,110,7,0,29.8,M,6.21,M,FEW,SCT,   ,   ,1700,4000,M,M,M,M,M,M,M,M,M,81.7,VVTS 191430Z 11007KT 9999 FEW017 SCT040 26/22 Q1009 NOSIG,M
VVTS,1/19/2012 15:00,106.6667,10.8167,78.8,71.6,78.62,120,7,0,29.8,M,6.21,M,FEW,SCT,   ,   ,1700,4000,M,M,M,M,M,M,M,M,M,81.7,VVTS 191500Z 12007KT 9999 FEW017 SCT040 26/22 Q1009 NOSIG,M
VVTS,1/19/2012 15:30,106.6667,10.8167,78.8,71.6,78.62,130,8,0,29.83,M,M,M,FEW,SCT,   ,   ,1700,4000,M,M,M,M,M,M,M,M,M,81.7,VVTS 191530Z 13008KT 10099 FEW017 SCT040 26/22 Q1010 NOSIG,M
VVTS,1/19/2012 16:00,106.6667,10.8167,78.8,71.6,78.62,130,6,0,29.83,M,6.21,M,FEW,SCT,   ,   ,1700,4000,M,M,M,M,M,M,M,M,M,81.7,VVTS 191600Z 13006KT 9999 FEW017 SCT040 26/22 Q1010 NOSIG,M
VVTS,1/19/2012 16:30,106.6667,10.8167,78.8,71.6,78.62,120,7,0,29.83,M,6.21,M,FEW,SCT,   ,   ,1700,4000,M,M,M,M,M,M,M,M,M,81.7,VVTS 191630Z 12007KT 9999 FEW017 SCT040 26/22 Q1010 NOSIG,M
VVTS,1/19/2012 17:00,106.6667,10.8167,78.8,71.6,78.62,120,7,0,29.83,M,6.21,M,FEW,SCT,   ,   ,1700,4000,M,M,M,M,M,M,M,M,M,81.7,VVTS 191700Z 12007KT 9999 FEW017 SCT040 26/22 Q1010 NOSIG,M
VVTS,1/19/2012 17:30,106.6667,10.8167,77,71.6,83.44,130,6,0,29.8,M,6.21,M,FEW,SCT,   ,   ,1700,4000,M,M,M,M,M,M,M,M,M,78.32,VVTS 191730Z 13006KT 9999 FEW017 SCT040 25/22 Q1009 NOSIG,M
VVTS,1/19/2012 18:00,106.6667,10.8167,78.8,71.6,78.62,130,7,0,29.8,M,6.21,M,FEW,SCT,   ,   ,1700,4000,M,M,M,M,M,M,M,M,M,81.7,VVTS 191800Z 13007KT 9999 FEW017 SCT040 26/22 Q1009 NOSIG,M
VVTS,1/19/2012 18:30,106.6667,10.8167,77,71.6,83.44,140,7,0,29.8,M,6.21,M,FEW,SCT,   ,   ,1700,4000,M,M,M,M,M,M,M,M,M,78.32,VVTS 191830Z 14007KT 9999 FEW017 SCT040 25/22 Q1009 NOSIG,M
VVTS,1/19/2012 19:00,106.6667,10.8167,77,71.6,83.44,130,7,0,29.77,M,6.21,M,FEW,SCT,   ,   ,1700,4000,M,M,M,M,M,M,M,M,M,78.32,VVTS 191900Z 13007KT 9999 FEW017 SCT040 25/22 Q1008 NOSIG,M
VVTS,1/19/2012 19:30,106.6667,10.8167,M,M,M,M,M,0,M,M,M,M,   ,   ,   ,   ,M,M,M,M,M,M,M,M,M,M,M,M,VVTS 191930Z NIL,M
VVTS,1/19/2012 20:00,106.6667,10.8167,77,71.6,83.44,130,5,0,29.77,M,6.21,M,FEW,SCT,   ,   ,1700,4000,M,M,M,M,M,M,M,M,M,78.32,VVTS 192000Z 13005KT 9999 FEW017 SCT040 25/22 Q1008 NOSIG,M
VVTS,1/19/2012 20:30,106.6667,10.8167,77,71.6,83.44,120,6,0,29.77,M,6.21,M,FEW,SCT,   ,   ,1700,4000,M,M,M,M,M,M,M,M,M,78.32,VVTS 192030Z 12006KT 9999 FEW017 SCT040 25/22 Q1008 NOSIG,M
VVTS,1/19/2012 21:00,106.6667,10.8167,75.2,71.6,88.59,120,5,0,29.77,M,6.21,M,FEW,SCT,   ,   ,1700,4000,M,M,M,M,M,M,M,M,M,76.58,VVTS 192100Z 12005KT 9999 FEW017 SCT040 24/22 Q1008 NOSIG,M
VVTS,1/19/2012 21:30,106.6667,10.8167,75.2,71.6,88.59,110,5,0,29.77,M,6.21,M,FEW,SCT,   ,   ,1700,4000,M,M,M,M,M,M,M,M,M,76.58,VVTS 192130Z 11005KT 9999 FEW017 SCT040 24/22 Q1008 NOSIG,M
VVTS,1/19/2012 22:00,106.6667,10.8167,75.2,71.6,88.59,110,5,0,29.77,M,6.21,M,FEW,SCT,   ,   ,1700,4000,M,M,M,M,M,M,M,M,M,76.58,VVTS 192200Z 11005KT 9999 FEW017 SCT040 24/22 Q1008 NOSIG,M
VVTS,1/19/2012 22:30,106.6667,10.8167,75.2,71.6,88.59,110,5,0,29.77,M,6.21,M,FEW,SCT,   ,   ,1700,4000,M,M,M,M,M,M,M,M,M,76.58,VVTS 192230Z 11005KT 9999 FEW017 SCT040 24/22 Q1008 NOSIG,M
VVTS,1/19/2012 23:00,106.6667,10.8167,75.2,71.6,88.59,120,6,0,29.8,M,6.21,M,FEW,SCT,   ,   ,1700,4000,M,M,M,M,M,M,M,M,M,76.58,VVTS 192300Z 12006KT 9999 FEW017 SCT040 24/22 Q1009 NOSIG,M
VVTS,1/19/2012 23:30,106.6667,10.8167,75.2,71.6,88.59,120,7,0,29.8,M,6.21,M,FEW,SCT,   ,   ,1700,4000,M,M,M,M,M,M,M,M,M,76.58,VVTS 192330Z 12007KT 9999 FEW017 SCT040 24/22 Q1009 NOSIG,M
VVTS,1/20/2012 0:00,106.6667,10.8167,75.2,71.6,88.59,110,6,0,29.83,M,6.21,M,FEW,SCT,   ,   ,1700,4000,M,M,M,M,M,M,M,M,M,76.58,VVTS 200000Z 11006KT 9999 FEW017 SCT040 24/22 Q1010 NOSIG,M
VVTS,1/20/2012 0:30,106.6667,10.8167,78.8,71.6,78.62,90,5,0,29.83,M,6.21,M,FEW,   ,   ,   ,1700,M,M,M,M,M,M,M,M,M,M,81.7,VVTS 200030Z 09005KT 9999 FEW017 26/22 Q1010 NOSIG,M
VVTS,1/20/2012 1:00,106.6667,10.8167,80.6,71.6,74.11,100,5,0,29.83,M,6.21,M,FEW,   ,   ,   ,1700,M,M,M,M,M,M,M,M,M,M,84.57,VVTS 200100Z 10005KT 070V130 9999 FEW017 27/22 Q1010 NOSIG,M
VVTS,1/20/2012 1:30,106.6667,10.8167,82.4,71.6,69.9,100,7,0,29.85,M,6.21,M,FEW,   ,   ,   ,1700,M,M,M,M,M,M,M,M,M,M,87.18,VVTS 200130Z 10007KT 9999 FEW017 28/22 Q1011 NOSIG,M
VVTS,1/20/2012 2:00,106.6667,10.8167,82.4,69.8,65.74,100,10,0,29.85,M,6.21,M,FEW,   ,   ,   ,1700,M,M,M,M,M,M,M,M,M,M,86.22,VVTS 200200Z 10010KT 9999 FEW017 28/21 Q1011 NOSIG,M
VVTS,1/20/2012 2:30,106.6667,10.8167,84.2,69.8,62.03,90,11,0,29.85,M,6.21,M,FEW,   ,   ,   ,1700,M,M,M,M,M,M,M,M,M,M,88.43,VVTS 200230Z 09011KT 9999 FEW017 29/21 Q1011 NOSIG,M
VVTS,1/20/2012 3:00,106.6667,10.8167,86,71.6,62.25,90,9,0,29.85,M,6.21,M,FEW,   ,   ,   ,1700,M,M,M,M,M,M,M,M,M,M,91.92,VVTS 200300Z 09009KT 060V120 9999 FEW017 30/22 Q1011 NOSIG,M
VVTS,1/20/2012 3:30,106.6667,10.8167,87.8,69.8,55.29,100,9,0,29.85,M,6.21,M,SCT,   ,   ,   ,1700,M,M,M,M,M,M,M,M,M,M,92.71,VVTS 200330Z 10009KT 070V140 9999 SCT017 31/21 Q1011 NOSIG,M
VVTS,1/20/2012 4:00,106.6667,10.8167,87.8,71.6,58.78,60,5,0,29.83,M,6.21,M,SCT,   ,   ,   ,1700,M,M,M,M,M,M,M,M,M,M,94.18,VVTS 200400Z 06005KT 020V110 9999 SCT017 31/22 Q1010 NOSIG,M
VVTS,1/20/2012 4:30,106.6667,10.8167,87.8,69.8,55.29,60,7,0,29.83,M,6.21,M,SCT,   ,   ,   ,1700,M,M,M,M,M,M,M,M,M,M,92.71,VVTS 200430Z 06007KT 020V130 9999 SCT017 31/21 Q1010 NOSIG,M
VVTS,1/20/2012 5:00,106.6667,10.8167,91.4,69.8,49.36,M,M,0,29.83,M,M,M,SCT,   ,   ,   ,1700,M,M,M,M,M,M,M,M,M,M,96.99,VVTS 200500Z SCT017 33/21 Q1010 NOSIG,M
VVTS,1/20/2012 5:09,106.6667,10.8167,91.4,69.8,49.36,M,M,0,29.83,M,M,M,SCT,   ,   ,   ,1700,M,M,M,M,M,M,M,M,M,M,96.99,VVTS 200509 SCT017 33/21 Q1010 NOSIG,M
VVTS,1/20/2012 5:30,106.6667,10.8167,91.4,69.8,49.36,140,5,0,29.8,M,6.21,M,SCT,   ,   ,   ,1700,M,M,M,M,M,M,M,M,M,M,96.99,VVTS 200530Z 14005KT 080V210 9999 SCT017 33/21 Q1009 NOSIG,M
VVTS,1/20/2012 6:00,106.6667,10.8167,91.4,68,46.41,120,5,0,29.8,M,6.21,M,SCT,   ,   ,   ,1700,M,M,M,M,M,M,M,M,M,M,95.55,VVTS 200600Z 12005KT 100V160 9999 SCT017 33/20 Q1009 NOSIG,M
VVTS,1/20/2012 6:30,106.6667,10.8167,91.4,68,46.41,160,5,0,29.77,M,6.21,M,SCT,   ,   ,   ,1700,M,M,M,M,M,M,M,M,M,M,95.55,VVTS 200630Z 16005KT 080V240 9999 SCT017 33/20 Q1008 NOSIG,M
VVTS,1/20/2012 7:00,106.6667,10.8167,89.6,69.8,52.23,130,9,0,29.74,M,6.21,M,SCT,   ,   ,   ,1700,M,M,M,M,M,M,M,M,M,M,94.85,VVTS 200700Z 13009KT 050V210 9999 SCT017 32/21 Q1007 NOSIG,M
VVTS,1/20/2012 7:30,106.6667,10.8167,91.4,69.8,49.36,130,9,0,29.74,M,6.21,M,SCT,   ,   ,   ,1700,M,M,M,M,M,M,M,M,M,M,96.99,VVTS 200730Z 13009KT 050V210 9999 SCT017 33/21 Q1007 NOSIG,M
VVTS,1/20/2012 8:00,106.6667,10.8167,89.6,71.6,55.53,150,10,0,29.74,M,6.21,M,SCT,   ,   ,   ,1700,M,M,M,M,M,M,M,M,M,M,96.41,VVTS 200800Z 15010KT 9999 SCT017 32/22 Q1007 NOSIG,M
VVTS,1/20/2012 8:30,106.6667,10.8167,89.6,71.6,55.53,180,8,0,29.74,M,6.21,M,SCT,   ,   ,   ,1700,M,M,M,M,M,M,M,M,M,M,96.41,VVTS 200830Z 18008KT 140V200 9999 SCT017 32/22 Q1007 NOSIG,M
VVTS,1/20/2012 9:00,106.6667,10.8167,89.6,71.6,55.53,150,9,0,29.74,M,6.21,M,SCT,   ,   ,   ,1700,M,M,M,M,M,M,M,M,M,M,96.41,VVTS 200900Z 15009KT 120V190 9999 SCT017 32/22 Q1007 NOSIG,M
VVTS,1/20/2012 9:30,106.6667,10.8167,87.8,69.8,55.29,150,9,0,29.74,M,6.21,M,SCT,   ,   ,   ,1700,M,M,M,M,M,M,M,M,M,M,92.71,VVTS 200930Z 15009KT 110V210 9999 SCT017 31/21 Q1007 NOSIG,M
VVTS,1/20/2012 10:00,106.6667,10.8167,M,M,M,M,M,0,M,M,M,M,   ,   ,   ,   ,M,M,M,M,M,M,M,M,M,M,M,M,VVTS 201000Z NIL,M
VVTS,1/20/2012 10:30,106.6667,10.8167,84.2,69.8,62.03,170,8,0,29.74,M,6.21,M,SCT,   ,   ,   ,1700,M,M,M,M,M,M,M,M,M,M,88.43,VVTS 201030Z 17008KT 130V190 9999 SCT017 29/21 Q1007 NOSIG,M
VVTS,1/20/2012 11:00,106.6667,10.8167,82.4,69.8,65.74,140,8,0,29.74,M,6.21,M,FEW,   ,   ,   ,1700,M,M,M,M,M,M,M,M,M,M,86.22,VVTS 201100Z 14008KT 120V190 9999 FEW017 28/21 Q1007 NOSIG,M
VVTS,1/20/2012 11:30,106.6667,10.8167,82.4,69.8,65.74,160,7,0,29.77,M,6.21,M,FEW,   ,   ,   ,1700,M,M,M,M,M,M,M,M,M,M,86.22,VVTS 201130Z 16007KT 120V200 9999 FEW017 28/21 Q1008 NOSIG,M
VVTS,1/20/2012 12:00,106.6667,10.8167,80.6,69.8,69.71,160,7,0,29.77,M,6.21,M,FEW,   ,   ,   ,1700,M,M,M,M,M,M,M,M,M,M,83.9,VVTS 201200Z 16007KT 9999 FEW017 27/21 Q1008 NOSIG,M
VVTS,1/20/2012 12:30,106.6667,10.8167,M,M,M,M,M,0,M,M,M,M,   ,   ,   ,   ,M,M,M,M,M,M,M,M,M,M,M,M,VVTS 201230Z NIL,M
VVTS,1/20/2012 13:00,106.6667,10.8167,80.6,71.6,74.11,150,4,0,29.8,M,6.21,M,FEW,   ,   ,   ,1700,M,M,M,M,M,M,M,M,M,M,84.57,VVTS 201300Z 15004KT 110V180 9999 FEW017 27/22 Q1009 NOSIG,M
VVTS,1/20/2012 13:30,106.6667,10.8167,78.8,71.6,78.62,120,6,0,29.8,M,6.21,M,FEW,   ,   ,   ,1700,M,M,M,M,M,M,M,M,M,M,81.7,VVTS 201330Z 12006KT 090V180 9999 FEW017 26/22 Q1009 NOSIG,M
VVTS,1/20/2012 14:00,106.6667,10.8167,78.8,71.6,78.62,130,6,0,29.8,M,6.21,M,FEW,   ,   ,   ,1700,M,M,M,M,M,M,M,M,M,M,81.7,VVTS 201400Z 13006KT 110V190 9999 FEW017 26/22 Q1009 NOSIG,M
VVTS,1/20/2012 14:30,106.6667,10.8167,78.8,68,69.52,130,6,0,29.8,M,6.21,M,FEW,   ,   ,   ,1700,M,M,M,M,M,M,M,M,M,M,81.1,VVTS 201430Z 13006KT 110V180 9999 FEW017 26/20 Q1009 NOSIG,M
VVTS,1/20/2012 15:00,106.6667,10.8167,78.8,68,69.52,140,6,0,29.8,M,6.21,M,FEW,   ,   ,   ,1700,M,M,M,M,M,M,M,M,M,M,81.1,VVTS 201500Z 14006KT 120V190 9999 FEW017 26/20 Q1009 NOSIG,M
VVTS,1/20/2012 15:30,106.6667,10.8167,78.8,68,69.52,120,6,0,29.8,M,6.21,M,FEW,   ,   ,   ,1700,M,M,M,M,M,M,M,M,M,M,81.1,VVTS 201530Z 12006KT 090V170 9999 FEW017 26/20 Q1009 NOSIG,M
VVTS,1/20/2012 16:00,106.6667,10.8167,78.8,68,69.52,130,5,0,29.8,M,6.21,M,FEW,   ,   ,   ,1700,M,M,M,M,M,M,M,M,M,M,81.1,VVTS 201600Z 13005KT 9999 FEW017 26/20 Q1009 NOSIG,M
VVTS,1/20/2012 16:30,106.6667,10.8167,77,69.8,78.48,130,5,0,29.8,M,6.21,M,FEW,   ,   ,   ,1700,M,M,M,M,M,M,M,M,M,M,78.09,VVTS 201630Z 13005KT 100V190 9999 FEW017 25/21 Q1009 NOSIG,M
VVTS,1/20/2012 17:00,106.6667,10.8167,75.2,69.8,83.32,170,5,0,29.8,M,6.21,M,FEW,   ,   ,   ,1700,M,M,M,M,M,M,M,M,M,M,76.34,VVTS 201700Z 17005KT 150V210 9999 FEW017 24/21 Q1009 NOSIG,M
VVTS,1/20/2012 17:30,106.6667,10.8167,75.2,69.8,83.32,160,5,0,29.8,M,6.21,M,FEW,   ,   ,   ,1700,M,M,M,M,M,M,M,M,M,M,76.34,VVTS 201730Z 16005KT 120V200 9999 FEW017 24/21 Q1009 NOSIG,M
VVTS,1/20/2012 18:00,106.6667,10.8167,75.2,69.8,83.32,160,5,0,29.8,M,6.21,M,FEW,   ,   ,   ,1700,M,M,M,M,M,M,M,M,M,M,76.34,VVTS 201800Z 16005KT 130V210 9999 FEW017 24/21 Q1009 NOSIG,M
VVTS,1/20/2012 18:30,106.6667,10.8167,75.2,69.8,83.32,140,5,0,29.77,M,6.21,M,FEW,   ,   ,   ,1700,M,M,M,M,M,M,M,M,M,M,76.34,VVTS 201830Z 14005KT 120V210 9999 FEW017 24/21 Q1008 NOSIG,M
VVTS,1/20/2012 19:00,106.6667,10.8167,75.2,69.8,83.32,120,6,0,29.77,M,6.21,M,FEW,   ,   ,   ,1700,M,M,M,M,M,M,M,M,M,M,76.34,VVTS 201900Z 12006KT 9999 FEW017 24/21 Q1008 NOSIG,M
VVTS,1/20/2012 19:30,106.6667,10.8167,75.2,71.6,88.59,120,6,0,29.77,M,6.21,M,FEW,   ,   ,   ,1700,M,M,M,M,M,M,M,M,M,M,76.58,VVTS 201930Z 12006KT 9999 FEW017 24/22 Q1008 NOSIG,M
VVTS,1/20/2012 20:00,106.6667,10.8167,75.2,71.6,88.59,120,6,0,29.77,M,6.21,M,FEW,   ,   ,   ,1700,M,M,M,M,M,M,M,M,M,M,76.58,VVTS 202000Z 12006KT 100V160 9999 FEW017 24/22 Q1008 NOSIG,M
VVTS,1/20/2012 20:30,106.6667,10.8167,75.2,71.6,88.59,120,6,0,29.77,M,6.21,M,FEW,   ,   ,   ,1700,M,M,M,M,M,M,M,M,M,M,76.58,VVTS 202030Z 12006KT 9999 FEW017 24/22 Q1008 NOSIG,M
VVTS,1/20/2012 21:00,106.6667,10.8167,75.2,71.6,88.59,120,6,0,29.77,M,6.21,M,FEW,   ,   ,   ,1700,M,M,M,M,M,M,M,M,M,M,76.58,VVTS 202100Z 12006KT 9999 FEW017 24/22 Q1008 NOSIG,M
VVTS,1/20/2012 21:30,106.6667,10.8167,75.2,71.6,88.59,110,7,0,29.77,M,6.21,M,FEW,   ,   ,   ,1700,M,M,M,M,M,M,M,M,M,M,76.58,VVTS 202130Z 11007KT 9999 FEW017 24/22 Q1008 NOSIG,M
VVTS,1/20/2012 22:00,106.6667,10.8167,75.2,71.6,88.59,120,6,0,29.77,M,6.21,M,FEW,   ,   ,   ,1700,M,M,M,M,M,M,M,M,M,M,76.58,VVTS 202200Z 12006KT 9999 FEW017 24/22 Q1008 NOSIG,M
VVTS,1/20/2012 22:30,106.6667,10.8167,73.4,71.6,94.1,120,6,0,29.8,M,6.21,M,FEW,   ,   ,   ,1700,M,M,M,M,M,M,M,M,M,M,74.86,VVTS 202230Z 12006KT 9999 FEW017 23/22 Q1009 NOSIG,M
VVTS,1/20/2012 23:00,106.6667,10.8167,73.4,71.6,94.1,120,6,0,29.8,M,6.21,M,FEW,   ,   ,   ,1700,M,M,M,M,M,M,M,M,M,M,74.86,VVTS 202300Z 12006KT 100V160 9999 FEW017 23/22 Q1009 NOSIG,M
VVTS,1/20/2012 23:30,106.6667,10.8167,73.4,71.6,94.1,100,6,0,29.8,M,6.21,M,FEW,   ,   ,   ,1700,M,M,M,M,M,M,M,M,M,M,74.86,VVTS 202330Z 10006KT 9999 FEW017 23/22 Q1009 NOSIG,M
VVTS,1/21/2012 0:00,106.6667,10.8167,75.2,71.6,88.59,110,5,0,29.8,M,6.21,M,FEW,   ,   ,   ,2000,M,M,M,M,M,M,M,M,M,M,76.58,VVTS 210000Z 11005KT 080V150 9999 FEW020 24/22 Q1009 NOSIG,M
VVTS,1/21/2012 0:30,106.6667,10.8167,75.2,71.6,88.59,100,7,0,29.83,M,6.21,M,FEW,   ,   ,   ,2000,M,M,M,M,M,M,M,M,M,M,76.58,VVTS 210030Z 10007KT 080V150 9999 FEW020 24/22 Q1010 NOSIG,M
VVTS,1/21/2012 1:00,106.6667,10.8167,78.8,71.6,78.62,110,8,0,29.83,M,6.21,M,FEW,   ,   ,   ,2000,M,M,M,M,M,M,M,M,M,M,81.7,VVTS 210100Z 11008KT 9999 FEW020 26/22 Q1010 NOSIG,M
VVTS,1/21/2012 1:30,106.6667,10.8167,80.6,71.6,74.11,110,9,0,29.85,M,6.21,M,FEW,   ,   ,   ,2000,M,M,M,M,M,M,M,M,M,M,84.57,VVTS 210130Z 11009KT 9999 FEW020 27/22 Q1011 NOSIG,M
VVTS,1/21/2012 2:00,106.6667,10.8167,80.6,69.8,69.71,100,8,0,29.85,M,6.21,M,FEW,   ,   ,   ,2000,M,M,M,M,M,M,M,M,M,M,83.9,VVTS 210200Z 10008KT 070V130 9999 FEW020 27/21 Q1011 NOSIG,M
VVTS,1/21/2012 2:30,106.6667,10.8167,82.4,69.8,65.74,90,6,0,29.85,M,6.21,M,FEW,   ,   ,   ,2000,M,M,M,M,M,M,M,M,M,M,86.22,VVTS 210230Z 09006KT 040V120 9999 FEW020 28/21 Q1011 NOSIG,M
VVTS,1/21/2012 3:00,106.6667,10.8167,84.2,68,58.32,100,7,0,29.85,M,6.21,M,FEW,   ,   ,   ,2000,M,M,M,M,M,M,M,M,M,M,87.4,VVTS 210300Z 10007KT 9999 FEW020 29/20 Q1011 NOSIG,M
VVTS,1/21/2012 3:30,106.6667,10.8167,84.2,66.2,54.8,80,7,0,29.85,M,6.21,M,FEW,   ,   ,   ,2000,M,M,M,M,M,M,M,M,M,M,86.5,VVTS 210330Z 08007KT 050V120 9999 FEW020 29/19 Q1011 NOSIG,M
VVTS,1/21/2012 4:00,106.6667,10.8167,87.8,64.4,45.88,100,8,0,29.83,M,6.21,30,FEW,   ,   ,   ,2000,M,M,M,M,M,M,M,M,M,M,89.33,VVTS 210400Z 10008G30KT 050V140 9999 FEW020 31/18 Q1010 NOSIG,M
VVTS,1/21/2012 4:30,106.6667,10.8167,87.8,64.4,45.88,90,10,0,29.83,M,6.21,M,FEW,   ,   ,   ,2000,M,M,M,M,M,M,M,M,M,M,89.33,VVTS 210430Z 09010KT 9999 FEW020 31/18 Q1010 NOSIG,M
VVTS,1/21/2012 5:00,106.6667,10.8167,89.6,64.4,43.34,80,7,0,29.8,M,6.21,M,FEW,   ,   ,   ,2000,M,M,M,M,M,M,M,M,M,M,91.23,VVTS 210500Z 08007KT 9999 FEW020 32/18 Q1009 NOSIG,M
VVTS,1/21/2012 5:30,106.6667,10.8167,89.6,64.4,43.34,80,7,0,29.8,M,6.21,M,FEW,   ,   ,   ,2000,M,M,M,M,M,M,M,M,M,M,91.23,VVTS 210530Z 08007KT 9999 FEW020 32/18 Q1009 NOSIG,M
VVTS,1/21/2012 6:00,106.6667,10.8167,89.6,64.4,43.34,90,5,0,29.77,M,6.21,M,FEW,   ,   ,   ,2000,M,M,M,M,M,M,M,M,M,M,91.23,VVTS 210600Z 09005KT 030V170 9999 FEW020 32/18 Q1008 NOSIG,M
VVTS,1/21/2012 6:30,106.6667,10.8167,91.4,60.8,36.08,120,6,0,29.74,M,6.21,M,FEW,   ,   ,   ,2000,M,M,M,M,M,M,M,M,M,M,91.4,VVTS 210630Z 12006KT 040V170 9999 FEW020 33/16 Q1007 NOSIG,M
VVTS,1/21/2012 7:00,106.6667,10.8167,91.4,60.8,36.08,130,6,0,29.74,M,6.21,M,FEW,   ,   ,   ,2000,M,M,M,M,M,M,M,M,M,M,91.4,VVTS 210700Z 13006KT 080V180 9999 FEW020 33/16 Q1007 NOSIG,M
VVTS,1/21/2012 7:30,106.6667,10.8167,91.4,62.6,38.45,140,6,0,29.71,M,6.21,M,FEW,   ,   ,   ,2000,M,M,M,M,M,M,M,M,M,M,91.4,VVTS 210730Z 14006KT 100V210 9999 FEW020 33/17 Q1006 NOSIG,M
VVTS,1/21/2012 8:00,106.6667,10.8167,91.4,66.2,43.61,180,9,0,29.74,M,6.21,M,FEW,   ,   ,   ,2000,M,M,M,M,M,M,M,M,M,M,94.29,VVTS 210800Z 18009KT 9999 FEW020 33/19 Q1007 NOSIG,M
VVTS,1/21/2012 8:30,106.6667,10.8167,89.6,68,49.1,180,10,0,29.71,M,6.21,M,FEW,   ,   ,   ,2000,M,M,M,M,M,M,M,M,M,M,93.47,VVTS 210830Z 18010KT 140V220 9999 FEW020 32/20 Q1006 NOSIG,M
VVTS,1/21/2012 9:00,106.6667,10.8167,89.6,66.2,46.14,150,10,0,29.71,M,6.21,M,FEW,   ,   ,   ,2000,M,M,M,M,M,M,M,M,M,M,92.27,VVTS 210900Z 15010KT 9999 FEW020 32/19 Q1006 NOSIG,M
VVTS,1/21/2012 9:30,106.6667,10.8167,87.8,64.4,45.88,160,11,0,29.74,M,6.21,M,FEW,   ,   ,   ,2000,M,M,M,M,M,M,M,M,M,M,89.33,VVTS 210930Z 16011KT 9999 FEW020 31/18 Q1007 NOSIG,M
VVTS,1/21/2012 10:00,106.6667,10.8167,86,64.4,48.58,160,10,0,29.74,M,6.21,M,FEW,   ,   ,   ,2000,M,M,M,M,M,M,M,M,M,M,87.49,VVTS 211000Z 16010KT 9999 FEW020 30/18 Q1007 NOSIG,M
VVTS,1/21/2012 10:30,106.6667,10.8167,84.2,64.4,51.47,150,9,0,29.74,M,6.21,M,FEW,   ,   ,   ,2000,M,M,M,M,M,M,M,M,M,M,85.71,VVTS 211030Z 15009KT 9999 FEW020 29/18 Q1007 NOSIG,M
VVTS,1/21/2012 11:00,106.6667,10.8167,82.4,64.4,54.55,160,9,0,29.74,M,6.21,M,FEW,   ,   ,   ,2000,M,M,M,M,M,M,M,M,M,M,83.98,VVTS 211100Z 16009KT 9999 FEW020 28/18 Q1007 NOSIG,M
VVTS,1/21/2012 11:30,106.6667,10.8167,82.4,64.4,54.55,150,7,0,29.74,M,6.21,M,FEW,   ,   ,   ,2000,M,M,M,M,M,M,M,M,M,M,83.98,VVTS 211130Z 15007KT 9999 FEW020 28/18 Q1007 NOSIG,M
VVTS,1/21/2012 12:00,106.6667,10.8167,80.6,66.2,61.58,130,7,0,29.77,M,6.21,M,FEW,   ,   ,   ,2000,M,M,M,M,M,M,M,M,M,M,82.75,VVTS 211200Z 13007KT 110V170 9999 FEW020 27/19 Q1008 NOSIG,M
VVTS,1/21/2012 12:30,106.6667,10.8167,80.6,64.4,57.84,130,8,0,29.77,M,6.21,M,FEW,   ,   ,   ,2000,M,M,M,M,M,M,M,M,M,M,82.27,VVTS 211230Z 13008KT 100V180 9999 FEW020 27/18 Q1008 NOSIG,M
VVTS,1/21/2012 13:00,106.6667,10.8167,80.6,64.4,57.84,120,8,0,29.77,M,6.21,M,FEW,   ,   ,   ,2000,M,M,M,M,M,M,M,M,M,M,82.27,VVTS 211300Z 12008KT 9999 FEW020 27/18 Q1008 NOSIG,M
VVTS,1/21/2012 13:30,106.6667,10.8167,78.8,64.4,61.36,120,9,0,29.8,M,6.21,M,FEW,   ,   ,   ,2000,M,M,M,M,M,M,M,M,M,M,80.56,VVTS 211330Z 12009KT 9999 FEW020 26/18 Q1009 NOSIG,M
VVTS,1/21/2012 14:00,106.6667,10.8167,78.8,64.4,61.36,130,8,0,29.8,M,6.21,M,FEW,   ,   ,   ,2000,M,M,M,M,M,M,M,M,M,M,80.56,VVTS 211400Z 13008KT 110V180 9999 FEW020 26/18 Q1009 NOSIG,M
VVTS,1/21/2012 14:30,106.6667,10.8167,78.8,66.2,65.33,130,9,0,29.8,M,6.21,M,FEW,   ,   ,   ,2000,M,M,M,M,M,M,M,M,M,M,80.82,VVTS 211430Z 13009KT 110V170 9999 FEW020 26/19 Q1009 NOSIG,M
VVTS,1/21/2012 15:30,106.6667,10.8167,77,66.2,69.33,170,5,0,29.8,M,6.21,M,FEW,   ,   ,   ,2000,M,M,M,M,M,M,M,M,M,M,77,VVTS 211530Z 17005KT 9999 FEW020 25/19 Q1009 NOSIG,M
VVTS,1/21/2012 16:00,106.6667,10.8167,75.2,68,78.34,170,6,0,29.8,M,6.21,M,FEW,   ,   ,   ,1700,M,M,M,M,M,M,M,M,M,M,75.2,VVTS 211600Z 17006KT 130V190 9999 FEW017 24/20 Q1009 NOSIG,M
VVTS,1/21/2012 16:30,106.6667,10.8167,75.2,68,78.34,170,5,0,29.8,M,6.21,M,FEW,   ,   ,   ,1700,M,M,M,M,M,M,M,M,M,M,75.2,VVTS 211630Z 17005KT 100V200 9999 FEW017 24/20 Q1009 NOSIG,M
VVTS,1/21/2012 17:00,106.6667,10.8167,75.2,68,78.34,160,4,0,29.8,M,6.21,M,FEW,   ,   ,   ,1700,M,M,M,M,M,M,M,M,M,M,75.2,VVTS 211700Z 16004KT 090V190 9999 FEW017 24/20 Q1009 NOSIG,M
VVTS,1/21/2012 17:30,106.6667,10.8167,75.2,68,78.34,150,4,0,29.8,M,6.21,M,FEW,   ,   ,   ,1700,M,M,M,M,M,M,M,M,M,M,75.2,VVTS 211730Z 15004KT 100V190 9999 FEW017 24/20 Q1009 NOSIG,M
VVTS,1/21/2012 18:00,106.6667,10.8167,75.2,68,78.34,180,2,0,29.8,M,6.21,M,FEW,   ,   ,   ,1700,M,M,M,M,M,M,M,M,M,M,75.2,VVTS 211800Z 18002KT 9999 FEW017 24/20 Q1009 NOSIG,M
VVTS,1/21/2012 18:30,106.6667,10.8167,73.4,68,83.21,M,3,0,29.8,M,6.21,M,FEW,   ,   ,   ,1700,M,M,M,M,M,M,M,M,M,M,73.4,VVTS 211830Z VRB03KT 9999 FEW017 23/20 Q1009 NOSIG,M
VVTS,1/21/2012 19:00,106.6667,10.8167,71.6,69.8,94.06,M,3,0,M,M,6.21,M,FEW,   ,   ,   ,1700,M,M,M,M,M,M,M,M,M,M,72.88,VVTS 211900Z VRB03KT 9999 FEW017 22/21,M
VVTS,1/21/2012 19:30,106.6667,10.8167,73.4,69.8,88.51,110,4,0,29.8,M,6.21,M,FEW,   ,   ,   ,1700,M,M,M,M,M,M,M,M,M,M,74.6,VVTS 211930Z 11004KT 9999 FEW017 23/21 Q1009 NOSIG,M
VVTS,1/21/2012 20:00,106.6667,10.8167,73.4,68,83.21,M,2,0,29.77,M,6.21,M,FEW,   ,   ,   ,1700,M,M,M,M,M,M,M,M,M,M,73.4,VVTS 212000Z VRB02KT 9999 FEW017 23/20 Q1008 NOSIG,M
VVTS,1/21/2012 20:30,106.6667,10.8167,73.4,68,83.21,120,2,0,29.8,M,6.21,M,FEW,   ,   ,   ,1700,M,M,M,M,M,M,M,M,M,M,73.4,VVTS 212030Z 12002KT 9999 FEW017 23/20 Q1009 NOSIG,M
VVTS,1/21/2012 21:00,106.6667,10.8167,71.6,68,88.43,M,2,0,29.8,M,6.21,M,FEW,   ,   ,   ,1700,M,M,M,M,M,M,M,M,M,M,72.62,VVTS 212100Z VRB02KT 9999 FEW017 22/20 Q1009 NOSIG,M
VVTS,1/21/2012 21:30,106.6667,10.8167,69.8,68,94.01,90,1,0,29.8,M,6.21,M,FEW,   ,   ,   ,1700,M,M,M,M,M,M,M,M,M,M,69.8,VVTS 212130Z 09001KT 9999 FEW017 21/20 Q1009 NOSIG,M
VVTS,1/21/2012 22:00,106.6667,10.8167,69.8,68,94.01,70,3,0,29.8,M,6.21,M,FEW,   ,   ,   ,1700,M,M,M,M,M,M,M,M,M,M,69.8,VVTS 212200Z 07003KT 9999 FEW017 21/20 Q1009 NOSIG,M
VVTS,1/21/2012 22:30,106.6667,10.8167,69.8,69.8,100,60,4,0,29.8,M,6.21,M,FEW,   ,   ,   ,1700,M,M,M,M,M,M,M,M,M,M,69.8,VVTS 212230Z 06004KT 9999 FEW017 21/21 Q1009 NOSIG,M
VVTS,1/21/2012 23:00,106.6667,10.8167,69.8,69.8,100,60,3,0,29.83,M,6.21,M,FEW,   ,   ,   ,1700,M,M,M,M,M,M,M,M,M,M,69.8,VVTS 212300Z 06003KT 9999 FEW017 21/21 Q1010 NOSIG,M
VVTS,1/21/2012 23:30,106.6667,10.8167,69.8,69.8,100,40,3,0,29.83,M,6.21,M,FEW,   ,   ,   ,1700,M,M,M,M,M,M,M,M,M,M,69.8,VVTS 212330Z 04003KT 9999 FEW017 21/21 Q1010 NOSIG,M
VVTS,1/22/2012 0:00,106.6667,10.8167,71.6,71.6,100,60,3,0,29.83,M,6.21,M,FEW,   ,   ,   ,1700,M,M,M,M,M,M,M,M,M,M,73.16,VVTS 220000Z 06003KT 9999 FEW017 22/22 Q1010 NOSIG,M
VVTS,1/22/2012 0:30,106.6667,10.8167,73.4,71.6,94.1,M,3,0,29.85,M,6.21,M,FEW,   ,   ,   ,1700,M,M,M,M,M,M,M,M,M,M,74.86,VVTS 220030Z VRB03KT 9999 FEW017 23/22 Q1011 NOSIG,M
VVTS,1/22/2012 1:00,106.6667,10.8167,75.2,71.6,88.59,M,3,0,29.85,M,6.21,M,FEW,   ,   ,   ,1700,M,M,M,M,M,M,M,M,M,M,76.58,VVTS 220100Z VRB03KT 9999 FEW017 24/22 Q1011 NOSIG,M
VVTS,1/22/2012 1:30,106.6667,10.8167,78.8,71.6,78.62,M,2,0,29.85,M,6.21,M,FEW,   ,   ,   ,1700,M,M,M,M,M,M,M,M,M,M,81.7,VVTS 220130Z VRB02KT 9999 FEW017 26/22 Q1011 NOSIG,M
VVTS,1/22/2012 2:00,106.6667,10.8167,80.6,69.8,69.71,M,3,0,29.85,M,6.21,M,FEW,   ,   ,   ,1700,M,M,M,M,M,M,M,M,M,M,83.9,VVTS 220200Z VRB03KT 9999 FEW017 27/21 Q1011 NOSIG,M
VVTS,1/22/2012 2:30,106.6667,10.8167,82.4,66.2,58.08,M,3,0,29.85,M,6.21,M,FEW,   ,   ,   ,1700,M,M,M,M,M,M,M,M,M,M,84.63,VVTS 220230Z VRB03KT 9999 FEW017 28/19 Q1011 NOSIG,M
VVTS,1/22/2012 3:00,106.6667,10.8167,84.2,66.2,54.8,100,4,0,29.85,M,6.21,M,FEW,   ,   ,   ,1700,M,M,M,M,M,M,M,M,M,M,86.5,VVTS 220300Z 10004KT 230V220 9999 FEW017 29/19 Q1011 NOSIG,M
VVTS,1/22/2012 3:30,106.6667,10.8167,84.2,66.2,54.8,M,3,0,29.85,M,6.21,M,FEW,   ,   ,   ,1700,M,M,M,M,M,M,M,M,M,M,86.5,VVTS 220330Z VRB03KT 9999 FEW017 29/19 Q1011 NOSIG,M
VVTS,1/22/2012 4:00,106.6667,10.8167,86,64.4,48.58,M,3,0,29.83,M,6.21,M,FEW,   ,   ,   ,1700,M,M,M,M,M,M,M,M,M,M,87.49,VVTS 220400Z VRB03KT 9999 FEW017 30/18 Q1010 NOSIG,M
VVTS,1/22/2012 4:30,106.6667,10.8167,87.8,64.4,45.88,M,3,0,29.83,M,6.21,M,FEW,   ,   ,   ,1700,M,M,M,M,M,M,M,M,M,M,89.33,VVTS 220430Z VRB03KT 9999 FEW017 31/18 Q1010 NOSIG,M
VVTS,1/22/2012 5:00,106.6667,10.8167,89.6,62.6,40.69,M,3,0,29.8,M,6.21,M,FEW,   ,   ,   ,2000,M,M,M,M,M,M,M,M,M,M,90.32,VVTS 220500Z VRB03KT 9999 FEW020 32/17 Q1009 NOSIG,M
VVTS,1/22/2012 5:30,106.6667,10.8167,89.6,60.8,38.18,80,5,0,29.8,M,6.21,M,FEW,   ,   ,   ,2000,M,M,M,M,M,M,M,M,M,M,89.6,VVTS 220530Z 08005KT 350V160 9999 FEW020 32/16 Q1009 NOSIG,M
VVTS,1/22/2012 6:00,106.6667,10.8167,91.4,60.8,36.08,70,5,0,29.77,M,6.21,M,FEW,   ,   ,   ,2000,M,M,M,M,M,M,M,M,M,M,91.4,VVTS 220600Z 07005KT 010V130 9999 FEW020 33/16 Q1008 NOSIG,M
VVTS,1/22/2012 6:30,106.6667,10.8167,91.4,62.6,38.45,M,3,0,29.77,M,6.21,M,FEW,   ,   ,   ,2000,M,M,M,M,M,M,M,M,M,M,91.4,VVTS 220630Z VRB03KT 9999 FEW020 33/17 Q1008 NOSIG,M
VVTS,1/22/2012 7:00,106.6667,10.8167,91.4,62.6,38.45,110,4,0,29.77,M,6.21,M,FEW,   ,   ,   ,2000,M,M,M,M,M,M,M,M,M,M,91.4,VVTS 220700Z 11004KT 290V250 9999 FEW020 33/17 Q1008 NOSIG,M
VVTS,1/22/2012 7:30,106.6667,10.8167,93.2,62.6,36.35,M,3,0,29.74,M,6.21,M,FEW,   ,   ,   ,2000,M,M,M,M,M,M,M,M,M,M,93.2,VVTS 220730Z VRB03KT 9999 FEW020 34/17 Q1007 NOSIG,M
VVTS,1/22/2012 8:00,106.6667,10.8167,93.2,62.6,36.35,M,2,0,29.74,M,6.21,M,FEW,   ,   ,   ,2000,M,M,M,M,M,M,M,M,M,M,93.2,VVTS 220800Z VRB02KT 9999 FEW020 34/17 Q1007 NOSIG,M
VVTS,1/22/2012 8:30,106.6667,10.8167,89.6,69.8,52.23,170,10,0,29.74,M,6.21,M,FEW,   ,   ,   ,2000,M,M,M,M,M,M,M,M,M,M,94.85,VVTS 220830Z 17010KT 130V200 9999 FEW020 32/21 Q1007 NOSIG,M
VVTS,1/22/2012 9:00,106.6667,10.8167,86,69.8,58.55,170,11,0,29.74,M,6.21,M,FEW,   ,   ,   ,2000,M,M,M,M,M,M,M,M,M,M,90.58,VVTS 220900Z 17011KT 9999 FEW020 30/21 Q1007 NOSIG,M
VVTS,1/22/2012 9:30,106.6667,10.8167,84.2,69.8,62.03,160,11,0,29.74,M,6.21,M,FEW,   ,   ,   ,2000,M,M,M,M,M,M,M,M,M,M,88.43,VVTS 220930Z 16011KT 9999 FEW020 29/21 Q1007 NOSIG,M
VVTS,1/22/2012 10:00,106.6667,10.8167,82.4,68,61.81,180,9,0,29.77,M,6.21,M,FEW,   ,   ,   ,2000,M,M,M,M,M,M,M,M,M,M,85.38,VVTS 221000Z 18009KT 9999 FEW020 28/20 Q1008 NOSIG,M
VVTS,1/22/2012 10:30,106.6667,10.8167,80.6,66.2,61.58,170,8,0,29.77,M,6.21,M,FEW,   ,   ,   ,2000,M,M,M,M,M,M,M,M,M,M,82.75,VVTS 221030Z 17008KT 9999 FEW020 27/19 Q1008 NOSIG,M
VVTS,1/22/2012 11:00,106.6667,10.8167,80.6,68,65.54,150,7,0,29.77,M,6.21,M,FEW,   ,   ,   ,2000,M,M,M,M,M,M,M,M,M,M,83.29,VVTS 221100Z 15007KT 130V200 9999 FEW020 27/20 Q1008 NOSIG,M
VVTS,1/22/2012 11:30,106.6667,10.8167,80.6,66.2,61.58,170,6,0,29.77,M,6.21,M,FEW,   ,   ,   ,2000,M,M,M,M,M,M,M,M,M,M,82.75,VVTS 221130Z 17006KT 120V210 9999 FEW020 27/19 Q1008 NOSIG,M
VVTS,1/22/2012 12:00,106.6667,10.8167,78.8,68,69.52,150,7,0,29.77,M,6.21,M,FEW,   ,   ,   ,2000,M,M,M,M,M,M,M,M,M,M,81.1,VVTS 221200Z 15007KT 9999 FEW020 26/20 Q1008 NOSIG,M
VVTS,1/22/2012 12:30,106.6667,10.8167,78.8,68,69.52,150,7,0,29.8,M,6.21,M,FEW,   ,   ,   ,2000,M,M,M,M,M,M,M,M,M,M,81.1,VVTS 221230Z 15007KT 120V190 9999 FEW020 26/20 Q1009 NOSIG,M
VVTS,1/22/2012 13:00,106.6667,10.8167,78.8,69.8,73.95,150,8,0,29.8,M,6.21,M,FEW,   ,   ,   ,2000,M,M,M,M,M,M,M,M,M,M,81.39,VVTS 221300Z 15008KT 9999 FEW020 26/21 Q1009 NOSIG,M
VVTS,1/22/2012 13:30,106.6667,10.8167,78.8,69.8,73.95,160,4,0,29.83,M,6.21,M,FEW,   ,   ,   ,2000,M,M,M,M,M,M,M,M,M,M,81.39,VVTS 221330Z 16004KT 130V220 9999 FEW020 26/21 Q1010 NOSIG,M
VVTS,1/22/2012 14:00,106.6667,10.8167,78.8,69.8,73.95,M,3,0,29.83,M,6.21,M,SCT,   ,   ,   ,2000,M,M,M,M,M,M,M,M,M,M,81.39,VVTS 221400Z VRB03KT 9999 SCT020 26/21 Q1010 NOSIG,M
VVTS,1/22/2012 14:30,106.6667,10.8167,78.8,69.8,73.95,110,6,0,29.83,M,6.21,M,FEW,SCT,   ,   ,1500,1700,M,M,M,M,M,M,M,M,M,81.39,VVTS 221430Z 11006KT 9999 FEW015TCU SCT017 26/21 Q1010 NOSIG,M
VVTS,1/22/2012 15:00,106.6667,10.8167,78.8,69.8,73.95,110,4,0,29.83,M,6.21,M,FEW,SCT,   ,   ,1500,1700,M,M,M,M,M,M,M,M,M,81.39,VVTS 221500Z 11004KT 9999 FEW015TCU SCT017 26/21 Q1010 NOSIG,M
VVTS,1/22/2012 15:30,106.6667,10.8167,78.8,69.8,73.95,110,5,0,29.83,M,6.21,M,FEW,SCT,   ,   ,1500,1700,M,M,M,M,M,M,M,M,M,81.39,VVTS 221530Z 11005KT 9999 FEW015TCU SCT017 26/21 Q1010 NOSIG,M
VVTS,1/22/2012 16:00,106.6667,10.8167,78.8,69.8,73.95,130,5,0,29.83,M,6.21,M,FEW,SCT,   ,   ,1500,1700,M,M,M,M,M,M,M,M,M,81.39,VVTS 221600Z 13005KT 9999 FEW015TCU SCT017 26/21 Q1010 NOSIG,M
VVTS,1/22/2012 16:30,106.6667,10.8167,78.8,69.8,73.95,160,3,0,29.83,M,6.21,M,FEW,SCT,   ,   ,1500,1700,M,M,M,M,M,M,M,M,M,81.39,VVTS 221630Z 16003KT 9999 FEW015TCU SCT017 26/21 Q1010 NOSIG,M
VVTS,1/22/2012 17:00,106.6667,10.8167,77,69.8,78.48,190,3,0,29.83,M,6.21,M,FEW,SCT,   ,   ,1500,1700,M,M,M,M,M,M,M,M,M,78.09,VVTS 221700Z 19003KT 9999 FEW015TCU SCT017 25/21 Q1010 NOSIG,M
VVTS,1/22/2012 17:30,106.6667,10.8167,77,69.8,78.48,M,3,0,29.83,M,6.21,M,SCT,SCT,   ,   ,1700,4000,M,M,M,M,M,M,M,M,M,78.09,VVTS 221730Z VRB03KT 9999 SCT017 SCT040 25/21 Q1010 NOSIG,M
VVTS,1/22/2012 18:00,106.6667,10.8167,77,69.8,78.48,160,4,0,29.83,M,6.21,M,FEW,SCT,   ,   ,1500,1700,M,M,M,M,M,M,M,M,M,78.09,VVTS 221800Z 16004KT 140V200 9999 FEW015TCU SCT017 25/21 Q1010 NOSIG,M
VVTS,1/22/2012 18:30,106.6667,10.8167,75.2,69.8,83.32,170,3,0,29.83,M,6.21,M,FEW,SCT,   ,   ,1700,4000,M,M,M,M,M,M,M,M,M,76.34,VVTS 221830Z 17003KT 9999 FEW017 SCT040 24/21 Q1010 NOSIG,M
VVTS,1/22/2012 19:00,106.6667,10.8167,75.2,69.8,83.32,160,3,0,29.83,M,6.21,M,FEW,SCT,   ,   ,1700,4000,M,M,M,M,M,M,M,M,M,76.34,VVTS 221900Z 16003KT 9999 FEW017 SCT040 24/21 Q1010 NOSIG,M
VVTS,1/22/2012 19:30,106.6667,10.8167,75.2,71.6,88.59,M,2,0,29.8,M,6.21,M,FEW,SCT,   ,   ,1700,4000,M,M,M,M,M,M,M,M,M,76.58,VVTS 221930Z VRB02KT 9999 FEW017 SCT040 24/22 Q1009 NOSIG,M
VVTS,1/22/2012 20:00,106.6667,10.8167,75.2,71.6,88.59,140,3,0,29.8,M,6.21,M,FEW,SCT,   ,   ,1700,4000,M,M,M,M,M,M,M,M,M,76.58,VVTS 222000Z 14003KT 9999 FEW017 SCT040 24/22 Q1009 NOSIG,M
VVTS,1/22/2012 20:30,106.6667,10.8167,75.2,71.6,88.59,120,2,0,29.8,M,6.21,M,FEW,SCT,   ,   ,1700,4000,M,M,M,M,M,M,M,M,M,76.58,VVTS 222030Z 12002KT 9999 FEW017 SCT040 24/22 Q1009 NOSIG,M
VVTS,1/22/2012 21:00,106.6667,10.8167,75.2,71.6,88.59,120,4,0,29.8,M,6.21,M,FEW,SCT,   ,   ,1700,4000,M,M,M,M,M,M,M,M,M,76.58,VVTS 222100Z 12004KT 9999 FEW017 SCT040 24/22 Q1009 NOSIG,M
VVTS,1/22/2012 21:30,106.6667,10.8167,75.2,71.6,88.59,110,4,0,29.8,M,6.21,M,FEW,SCT,   ,   ,1700,4000,M,M,M,M,M,M,M,M,M,76.58,VVTS 222130Z 11004KT 340V140 9999 FEW017 SCT040 24/22 Q1009 NOSIG,M
VVTS,1/22/2012 22:00,106.6667,10.8167,75.2,71.6,88.59,110,4,0,29.8,M,6.21,M,FEW,SCT,   ,   ,1700,4000,M,M,M,M,M,M,M,M,M,76.58,VVTS 222200Z 11004KT 9999 FEW017 SCT040 24/22 Q1009 NOSIG,M
VVTS,1/22/2012 22:30,106.6667,10.8167,75.2,71.6,88.59,130,3,0,29.83,M,6.21,M,FEW,SCT,   ,   ,1700,4000,M,M,M,M,M,M,M,M,M,76.58,VVTS 222230Z 13003KT 9999 FEW017 SCT040 24/22 Q1010 NOSIG,M
VVTS,1/22/2012 23:00,106.6667,10.8167,75.2,71.6,88.59,110,4,0,29.83,M,6.21,M,FEW,SCT,   ,   ,1700,4000,M,M,M,M,M,M,M,M,M,76.58,VVTS 222300Z 11004KT 9999 FEW017 SCT040 24/22 Q1010 NOSIG,M
VVTS,1/22/2012 23:30,106.6667,10.8167,75.2,73.4,94.14,100,5,0,29.83,M,6.21,M,FEW,SCT,   ,   ,1700,4000,M,M,M,M,M,M,M,M,M,76.84,VVTS 222330Z 10005KT 070V140 9999 FEW017 SCT040 24/23 Q1010 NOSIG,M
VVTS,1/23/2012 0:00,106.6667,10.8167,75.2,73.4,94.14,M,2,0,29.83,M,6.21,M,FEW,   ,   ,   ,2000,M,M,M,M,M,M,M,M,M,M,76.84,VVTS 230000Z VRB02KT 9999 FEW020 24/23 Q1010 NOSIG,M
VVTS,1/23/2012 0:30,106.6667,10.8167,75.2,73.4,94.14,60,2,0,29.85,M,6.21,M,FEW,   ,   ,   ,2000,M,M,M,M,M,M,M,M,M,M,76.84,VVTS 230030Z 06002KT 9999 FEW020 24/23 Q1011 NOSIG,M
VVTS,1/23/2012 1:00,106.6667,10.8167,78.8,73.4,83.55,M,1,0,29.85,M,6.21,M,FEW,   ,   ,   ,2000,M,M,M,M,M,M,M,M,M,M,82.03,VVTS 230100Z VRB01KT 9999 FEW020 26/23 Q1011 NOSIG,M
VVTS,1/23/2012 1:30,106.6667,10.8167,78.8,71.6,78.62,M,1,0,29.85,M,6.21,M,FEW,   ,   ,   ,2000,M,M,M,M,M,M,M,M,M,M,81.7,VVTS 230130Z VRB01KT 9999 FEW020 26/22 Q1011 NOSIG,M
VVTS,1/23/2012 2:00,106.6667,10.8167,80.6,71.6,74.11,M,2,0,29.85,M,6.21,M,FEW,   ,   ,   ,2000,M,M,M,M,M,M,M,M,M,M,84.57,VVTS 230200Z VRB02KT 9999 FEW020 27/22 Q1011 NOSIG,M
VVTS,1/23/2012 2:30,106.6667,10.8167,82.4,71.6,69.9,M,2,0,29.85,M,6.21,M,FEW,   ,   ,   ,2000,M,M,M,M,M,M,M,M,M,M,87.18,VVTS 230230Z VRB02KT 9999 FEW020 28/22 Q1011 NOSIG,M
VVTS,1/23/2012 3:00,106.6667,10.8167,84.2,71.6,65.95,M,3,0,29.85,M,6.21,M,FEW,   ,   ,   ,2000,M,M,M,M,M,M,M,M,M,M,89.6,VVTS 230300Z VRB03KT 9999 FEW020 29/22 Q1011 NOSIG,M
VVTS,1/23/2012 3:30,106.6667,10.8167,84.2,71.6,65.95,M,3,0,29.85,M,6.21,M,FEW,   ,   ,   ,2000,M,M,M,M,M,M,M,M,M,M,89.6,VVTS 230330Z VRB03KT 9999 FEW020 29/22 Q1011 NOSIG,M
VVTS,1/23/2012 4:00,106.6667,10.8167,86,71.6,62.25,M,2,0,29.85,M,6.21,M,FEW,   ,   ,   ,2000,M,M,M,M,M,M,M,M,M,M,91.92,VVTS 230400Z VRB02KT 9999 FEW020 30/22 Q1011 NOSIG,M
VVTS,1/23/2012 4:30,106.6667,10.8167,87.8,69.8,55.29,360,5,0,29.83,M,6.21,M,SCT,   ,   ,   ,2000,M,M,M,M,M,M,M,M,M,M,92.71,VVTS 230430Z 36005KT 310V060 9999 SCT020 31/21 Q1010 NOSIG,M
VVTS,1/23/2012 5:00,106.6667,10.8167,87.8,69.8,55.29,10,4,0,29.83,M,6.21,M,SCT,   ,   ,   ,2000,M,M,M,M,M,M,M,M,M,M,92.71,VVTS 230500Z 01004KT 320V060 9999 SCT020 31/21 Q1010 NOSIG,M
VVTS,1/23/2012 5:30,106.6667,10.8167,89.6,71.6,55.53,M,2,0,29.83,M,6.21,M,SCT,   ,   ,   ,2000,M,M,M,M,M,M,M,M,M,M,96.41,VVTS 230530Z VRB02KT 9999 SCT020 32/22 Q1010 NOSIG,M
VVTS,1/23/2012 6:00,106.6667,10.8167,89.6,69.8,52.23,M,2,0,29.8,M,6.21,M,SCT,   ,   ,   ,2000,M,M,M,M,M,M,M,M,M,M,94.85,VVTS 230600Z VRB02KT 9999 SCT020 32/21 Q1009 NOSIG,M
VVTS,1/23/2012 6:30,106.6667,10.8167,87.8,68,51.98,M,2,0,29.77,M,6.21,M,SCT,   ,   ,   ,2000,M,M,M,M,M,M,M,M,M,M,91.43,VVTS 230630Z VRB02KT 9999 SCT020 31/20 Q1008 NOSIG,M
VVTS,1/23/2012 7:00,106.6667,10.8167,87.8,68,51.98,M,3,0,29.77,M,6.21,M,SCT,   ,   ,   ,2000,M,M,M,M,M,M,M,M,M,M,91.43,VVTS 230700Z VRB03KT 9999 SCT020 31/20 Q1008 NOSIG,M
VVTS,1/23/2012 7:30,106.6667,10.8167,89.6,68,49.1,M,2,0,29.74,M,6.21,M,SCT,   ,   ,   ,2000,M,M,M,M,M,M,M,M,M,M,93.47,VVTS 230730Z VRB02KT 9999 SCT020 32/20 Q1007 NOSIG,M
VVTS,1/23/2012 8:00,106.6667,10.8167,89.6,71.6,55.53,M,3,0,29.74,M,6.21,M,SCT,   ,   ,   ,2000,M,M,M,M,M,M,M,M,M,M,96.41,VVTS 230800Z VRB03KT 9999 SCT020 32/22 Q1007 NOSIG,M
VVTS,1/23/2012 8:30,106.6667,10.8167,89.6,71.6,55.53,210,6,0,29.74,M,6.21,M,SCT,   ,   ,   ,2000,M,M,M,M,M,M,M,M,M,M,96.41,VVTS 230830Z 21006KT 9999 SCT020 32/22 Q1007 NOSIG,M
VVTS,1/23/2012 10:00,106.6667,10.8167,78.8,73.4,83.55,180,8,0,29.74,M,4.97,M,FEW,SCT,   ,   ,1500,1700,M,M,#NAME?,M,M,M,M,M,M,82.03,VVTS 231000Z 18008KT 8000 -SHRA FEW015CB SCT017 26/23 Q1007 NOSIG,M
VVTS,1/23/2012 10:30,106.6667,10.8167,80.6,71.6,74.11,180,8,0,29.77,M,6.21,M,FEW,SCT,   ,   ,1500,1700,M,M,M,M,M,M,M,M,M,84.57,VVTS 231030Z 18008KT 9999 FEW015CB SCT017 27/22 Q1008 NOSIG,M
VVTS,1/23/2012 11:00,106.6667,10.8167,80.6,69.8,69.71,170,7,0,29.77,M,6.21,M,FEW,SCT,   ,   ,1500,1700,M,M,M,M,M,M,M,M,M,83.9,VVTS 231100Z 17007KT 9999 FEW015TCU SCT017 27/21 Q1008 NOSIG,M
VVTS,1/23/2012 11:30,106.6667,10.8167,80.6,69.8,69.71,160,7,0,29.77,M,6.21,M,FEW,SCT,   ,   ,1500,1700,M,M,M,M,M,M,M,M,M,83.9,VVTS 231130Z 16007KT 140V210 9999 FEW015TCU SCT017 27/21 Q1008 NOSIG,M
VVTS,1/23/2012 12:00,106.6667,10.8167,78.8,69.8,73.95,150,5,0,29.8,M,6.21,M,FEW,SCT,   ,   ,1700,4000,M,M,M,M,M,M,M,M,M,81.39,VVTS 231200Z 15005KT 130V200 9999 FEW017 SCT040 26/21 Q1009 NOSIG,M
VVTS,1/23/2012 12:30,106.6667,10.8167,78.8,69.8,73.95,150,6,0,29.8,M,6.21,M,FEW,SCT,   ,   ,1700,4000,M,M,M,M,M,M,M,M,M,81.39,VVTS 231230Z 15006KT 9999 FEW017 SCT040 26/21 Q1009 NOSIG,M
VVTS,1/23/2012 13:00,106.6667,10.8167,78.8,69.8,73.95,140,4,0,29.8,M,6.21,M,FEW,SCT,   ,   ,1700,4000,M,M,M,M,M,M,M,M,M,81.39,VVTS 231300Z 14004KT 9999 FEW017 SCT040 26/21 Q1009 NOSIG,M
VVTS,1/23/2012 13:30,106.6667,10.8167,78.8,69.8,73.95,M,3,0,29.8,M,6.21,M,FEW,   ,   ,   ,1700,M,M,M,M,M,M,M,M,M,M,81.39,VVTS 231330Z VRB03KT 9999 FEW017 26/21 Q1009 NOSIG,M
VVTS,1/23/2012 14:00,106.6667,10.8167,78.8,71.6,78.62,160,5,0,29.8,M,6.21,M,FEW,   ,   ,   ,1700,M,M,M,M,M,M,M,M,M,M,81.7,VVTS 231400Z 16005KT 9999 FEW017 26/22 Q1009 NOSIG,M
VVTS,1/23/2012 14:30,106.6667,10.8167,78.8,69.8,73.95,120,4,0,29.83,M,6.21,M,FEW,   ,   ,   ,1700,M,M,M,M,M,M,M,M,M,M,81.39,VVTS 231430Z 12004KT 9999 FEW017 26/21 Q1010 NOSIG,M
VVTS,1/23/2012 15:00,106.6667,10.8167,78.8,69.8,73.95,120,4,0,29.83,M,6.21,M,FEW,   ,   ,   ,1700,M,M,M,M,M,M,M,M,M,M,81.39,VVTS 231500Z 12004KT 9999 FEW017 26/21 Q1010 NOSIG,M
VVTS,1/23/2012 15:30,106.6667,10.8167,77,69.8,78.48,120,4,0,29.83,M,6.21,M,FEW,   ,   ,   ,1700,M,M,M,M,M,M,M,M,M,M,78.09,VVTS 231530Z 12004KT 9999 FEW017 25/21 Q1010 NOSIG,M
VVTS,1/23/2012 16:00,106.6667,10.8167,77,69.8,78.48,120,4,0,29.83,M,6.21,M,FEW,   ,   ,   ,1700,M,M,M,M,M,M,M,M,M,M,78.09,VVTS 231600Z 12004KT 9999 FEW017 25/21 Q1010 NOSIG,M
VVTS,1/23/2012 16:30,106.6667,10.8167,75.2,69.8,83.32,130,3,0,29.83,M,6.21,M,FEW,SCT,   ,   ,1700,4000,M,M,M,M,M,M,M,M,M,76.34,VVTS 231630Z 13003KT 9999 FEW017 SCT040 24/21 Q1010 NOSIG,M
VVTS,1/23/2012 17:00,106.6667,10.8167,75.2,69.8,83.32,M,2,0,29.83,M,6.21,M,FEW,SCT,   ,   ,1700,4000,M,M,M,M,M,M,M,M,M,76.34,VVTS 231700Z VRB02KT 9999 FEW017 SCT040 24/21 Q1010 NOSIG,M
VVTS,1/23/2012 17:30,106.6667,10.8167,75.2,69.8,83.32,M,1,0,29.83,M,6.21,M,FEW,SCT,   ,   ,1700,4000,M,M,M,M,M,M,M,M,M,76.34,VVTS 231730Z VRB01KT 9999 FEW017 SCT040 24/21 Q1010 NOSIG,M
VVTS,1/23/2012 18:00,106.6667,10.8167,73.4,71.6,94.1,0,0,0,29.83,M,6.21,M,FEW,SCT,   ,   ,1700,4000,M,M,M,M,M,M,M,M,M,74.86,VVTS 231800Z 00000KT 9999 FEW017 SCT040 23/22 Q1010 NOSIG,M
VVTS,1/23/2012 18:30,106.6667,10.8167,73.4,71.6,94.1,310,3,0,29.8,M,6.21,M,FEW,SCT,   ,   ,1700,4000,M,M,M,M,M,M,M,M,M,74.86,VVTS 231830Z 31003KT 9999 FEW017 SCT040 23/22 Q1009 NOSIG,M
VVTS,1/23/2012 19:00,106.6667,10.8167,73.4,73.4,100,M,2,0,29.8,M,6.21,M,FEW,SCT,   ,   ,1700,4000,M,M,M,M,M,M,M,M,M,75.14,VVTS 231900Z VRB02KT 9999 FEW017 SCT040 23/23 Q1009 NOSIG,M
VVTS,1/23/2012 19:30,106.6667,10.8167,73.4,73.4,100,300,2,0,29.8,M,6.21,M,FEW,SCT,   ,   ,1700,4000,M,M,M,M,M,M,M,M,M,75.14,VVTS 231930Z 30002KT 9999 FEW017 SCT040 23/23 Q1009 NOSIG,M
VVTS,1/23/2012 20:00,106.6667,10.8167,73.4,71.6,94.1,300,2,0,29.8,M,6.21,M,FEW,SCT,   ,   ,1700,4000,M,M,M,M,M,M,M,M,M,74.86,VVTS 232000Z 30002KT 9999 FEW017 SCT040 23/22 Q1009 NOSIG,M
VVTS,1/23/2012 20:30,106.6667,10.8167,73.4,73.4,100,250,1,0,29.8,M,6.21,M,FEW,SCT,   ,   ,1700,4000,M,M,M,M,M,M,M,M,M,75.14,VVTS 232030Z 25001KT 9999 FEW017 SCT040 23/23 Q1009 NOSIG,M
VVTS,1/23/2012 21:00,106.6667,10.8167,71.6,71.6,100,300,1,0,29.8,M,6.21,M,FEW,SCT,   ,   ,1700,4000,M,M,M,M,M,M,M,M,M,73.16,VVTS 232100Z 30001KT 9999 FEW017 SCT040 22/22 Q1009 NOSIG,M
VVTS,1/23/2012 21:30,106.6667,10.8167,73.4,71.6,94.1,320,1,0,29.8,M,6.21,M,FEW,SCT,   ,   ,1700,4000,M,M,M,M,M,M,M,M,M,74.86,VVTS 232130Z 32001KT 9999 FEW017 SCT040 23/22 Q1009 NOSIG,M
VVTS,1/23/2012 22:00,106.6667,10.8167,73.4,73.4,100,310,1,0,29.8,M,6.21,M,FEW,SCT,   ,   ,1700,4000,M,M,M,M,M,M,M,M,M,75.14,VVTS 232200Z 31001KT 9999 FEW017 SCT040 23/23 Q1009 NOSIG,M
VVTS,1/23/2012 22:30,106.6667,10.8167,73.4,73.4,100,310,2,0,29.8,M,6.21,M,FEW,SCT,   ,   ,1700,4000,M,M,M,M,M,M,M,M,M,75.14,VVTS 232230Z 31002KT 9999 FEW017 SCT040 23/23 Q1009 NOSIG,M
VVTS,1/23/2012 23:30,106.6667,10.8167,73.4,73.4,100,330,4,0,29.83,M,6.21,M,SCT,BKN,   ,   ,1500,4000,M,M,M,M,M,M,M,M,M,75.14,VVTS 232330Z 33004KT 9999 SCT015 BKN040 23/23 Q1010 NOSIG,M
VVTS,1/24/2012 0:00,106.6667,10.8167,73.4,73.4,100,310,3,0,29.83,M,6.21,M,FEW,BKN,   ,   ,1500,4000,M,M,M,M,M,M,M,M,M,75.14,VVTS 240000Z 31003KT 9999 FEW015 BKN040 23/23 Q1010 NOSIG,M
VVTS,1/24/2012 0:30,106.6667,10.8167,73.4,73.4,100,M,3,0,29.85,M,6.21,M,FEW,BKN,   ,   ,1500,4000,M,M,M,M,M,M,M,M,M,75.14,VVTS 240030Z VRB03KT 9999 FEW015 BKN040 23/23 Q1011 NOSIG,M
VVTS,1/24/2012 1:00,106.6667,10.8167,75.2,73.4,94.14,320,4,0,29.85,M,6.21,M,SCT,BKN,   ,   ,1500,4000,M,M,M,M,M,M,M,M,M,76.84,VVTS 240100Z 32004KT 9999 SCT015 BKN040 24/23 Q1011 NOSIG,M
VVTS,1/24/2012 1:30,106.6667,10.8167,77,75.2,94.19,310,6,0,29.85,M,6.21,M,SCT,SCT,   ,   ,1500,4000,M,M,M,M,M,M,M,M,M,78.83,VVTS 240130Z 31006KT 9999 SCT015 SCT040 25/24 Q1011 NOSIG,M
VVTS,1/24/2012 2:00,106.6667,10.8167,77,73.4,88.67,360,4,0,29.88,M,6.21,M,SCT,   ,   ,   ,1500,M,M,M,M,M,M,M,M,M,M,78.57,VVTS 240200Z 36004KT 330V040 9999 SCT015 25/23 Q1012 NOSIG,M
VVTS,1/24/2012 2:30,106.6667,10.8167,78.8,73.4,83.55,10,4,0,29.88,M,6.21,M,SCT,   ,   ,   ,1700,M,M,M,M,M,M,M,M,M,M,82.03,VVTS 240230Z 01004KT 340V070 9999 SCT017 26/23 Q1012 NOSIG,M
VVTS,1/24/2012 3:00,106.6667,10.8167,80.6,73.4,78.76,320,5,0,29.85,M,6.21,M,SCT,   ,   ,   ,1700,M,M,M,M,M,M,M,M,M,M,85.32,VVTS 240300Z 32005KT 230V010 9999 SCT017 27/23 Q1011 NOSIG,M
VVTS,1/24/2012 3:30,106.6667,10.8167,82.4,73.4,74.28,280,4,0,29.85,M,6.21,M,SCT,   ,   ,   ,1700,M,M,M,M,M,M,M,M,M,M,88.26,VVTS 240330Z 28004KT 210V320 9999 SCT017 28/23 Q1011 NOSIG,M
VVTS,1/24/2012 4:00,106.6667,10.8167,82.4,73.4,74.28,300,4,0,29.85,M,6.21,M,SCT,   ,   ,   ,1700,M,M,M,M,M,M,M,M,M,M,88.26,VVTS 240400Z 30004KT 240V350 9999 SCT017 28/23 Q1011 NOSIG,M
VVTS,1/24/2012 4:30,106.6667,10.8167,84.2,73.4,70.08,300,4,0,29.83,M,6.21,M,SCT,   ,   ,   ,1700,M,M,M,M,M,M,M,M,M,M,90.94,VVTS 240430Z 30004KT 270V350 9999 SCT017 29/23 Q1010 NOSIG,M
VVTS,1/24/2012 5:00,106.6667,10.8167,84.2,71.6,65.95,260,4,0,29.83,M,6.21,M,SCT,   ,   ,   ,1700,M,M,M,M,M,M,M,M,M,M,89.6,VVTS 240500Z 26004KT 9999 SCT017 29/22 Q1010 NOSIG,M
VVTS,1/24/2012 5:30,106.6667,10.8167,84.2,71.6,65.95,M,2,0,29.8,M,6.21,M,SCT,   ,   ,   ,1700,M,M,M,M,M,M,M,M,M,M,89.6,VVTS 240530Z VRB02KT 9999 SCT017 29/22 Q1009 NOSIG,M
VVTS,1/24/2012 6:00,106.6667,10.8167,89.6,71.6,55.53,M,2,0,29.8,M,6.21,M,SCT,   ,   ,   ,1700,M,M,M,M,M,M,M,M,M,M,96.41,VVTS 240600Z VRB02KT 9999 SCT017 32/22 Q1009 NOSIG,M
VVTS,1/24/2012 6:30,106.6667,10.8167,87.8,71.6,58.78,M,3,0,29.77,M,6.21,M,SCT,   ,   ,   ,1700,M,M,M,M,M,M,M,M,M,M,94.18,VVTS 240630Z VRB03KT 9999 SCT017 31/22 Q1008 NOSIG,M
VVTS,1/24/2012 7:00,106.6667,10.8167,91.4,71.6,52.48,190,4,0,29.77,M,6.21,M,SCT,   ,   ,   ,1700,M,M,M,M,M,M,M,M,M,M,98.64,VVTS 240700Z 19004KT 130V230 9999 SCT017 33/22 Q1008 NOSIG,M
VVTS,1/24/2012 7:30,106.6667,10.8167,87.8,71.6,58.78,280,4,0,29.74,M,6.21,M,SCT,   ,   ,   ,1700,M,M,M,M,M,M,M,M,M,M,94.18,VVTS 240730Z 28004KT 210V340 9999 SCT017 31/22 Q1007 NOSIG,M
VVTS,1/24/2012 8:00,106.6667,10.8167,89.6,69.8,52.23,M,3,0,29.74,M,6.21,M,SCT,   ,   ,   ,1700,M,M,M,M,M,M,M,M,M,M,94.85,VVTS 240800Z VRB03KT 9999 SCT017 32/21 Q1007 NOSIG,M
VVTS,1/24/2012 8:30,106.6667,10.8167,89.6,69.8,52.23,M,3,0,29.74,M,6.21,M,FEW,SCT,   ,   ,1500,1700,M,M,M,M,M,M,M,M,M,94.85,VVTS 240830Z VRB03KT 9999 FEW015TCU SCT017 32/21 Q1007 NOSIG,M
VVTS,1/24/2012 9:00,106.6667,10.8167,87.8,69.8,55.29,M,3,0,29.74,M,6.21,M,FEW,SCT,   ,   ,1500,1700,M,M,M,M,M,M,M,M,M,92.71,VVTS 240900Z VRB03KT 9999 FEW015TCU SCT017 31/21 Q1007 NOSIG,M
VVTS,1/24/2012 9:30,106.6667,10.8167,87.8,71.6,58.78,M,2,0,29.74,M,6.21,M,FEW,SCT,   ,   ,1500,1700,M,M,M,M,M,M,M,M,M,94.18,VVTS 240930Z VRB02KT 9999 FEW015TCU SCT017 31/22 Q1007 NOSIG,M
VVTS,1/24/2012 10:00,106.6667,10.8167,86,69.8,58.55,270,3,0,29.74,M,6.21,M,SCT,   ,   ,   ,1700,M,M,M,M,M,M,M,M,M,M,90.58,VVTS 241000Z 27003KT 9999 SCT017 30/21 Q1007 NOSIG,M
VVTS,1/24/2012 10:30,106.6667,10.8167,84.2,71.6,65.95,220,6,0,29.74,M,6.21,M,SCT,   ,   ,   ,1700,M,M,M,M,M,M,M,M,M,M,89.6,VVTS 241030Z 22006KT 180V270 9999 SCT017 29/22 Q1007 NOSIG,M
VVTS,1/24/2012 11:00,106.6667,10.8167,84.2,71.6,65.95,210,9,0,29.74,M,6.21,M,SCT,   ,   ,   ,1700,M,M,M,M,M,M,M,M,M,M,89.6,VVTS 241100Z 21009KT 9999 SCT017 29/22 Q1007 NOSIG,M
VVTS,1/24/2012 11:30,106.6667,10.8167,84.2,71.6,65.95,190,6,0,29.77,M,6.21,M,SCT,   ,   ,   ,1700,M,M,M,M,M,M,M,M,M,M,89.6,VVTS 241130Z 19006KT 140V220 9999 SCT017 29/22 Q1008 NOSIG,M
VVTS,1/24/2012 12:00,106.6667,10.8167,80.6,75.2,83.66,150,8,0,29.8,M,6.21,M,FEW,BKN,   ,   ,1700,4000,M,M,M,M,M,M,M,M,M,86.17,VVTS 241200Z 15008KT 120V190 9999 FEW017 BKN040 27/24 Q1009 NOSIG,M
VVTS,1/24/2012 12:30,106.6667,10.8167,78.8,71.6,78.62,140,8,0,29.8,M,6.21,M,FEW,BKN,   ,   ,1700,4000,M,M,M,M,M,M,M,M,M,81.7,VVTS 241230Z 14008KT 9999 FEW017 BKN040 26/22 Q1009 NOSIG,M
VVTS,1/24/2012 13:30,106.6667,10.8167,78.8,68,69.52,130,7,0,29.83,M,6.21,M,FEW,SCT,   ,   ,1700,4000,M,M,M,M,M,M,M,M,M,81.1,VVTS 241330Z 13007KT 9999 FEW017 SCT040 26/20 Q1010 NOSIG,M
VVTS,1/24/2012 14:00,106.6667,10.8167,78.8,69.8,73.95,130,6,0,29.83,M,6.21,M,FEW,SCT,   ,   ,1700,4000,M,M,M,M,M,M,M,M,M,81.39,VVTS 241400Z 13006KT 100V200 9999 FEW017 SCT040 26/21 Q1010 NOSIG,M
VVTS,1/24/2012 14:30,106.6667,10.8167,78.8,69.8,73.95,150,5,0,29.83,M,6.21,M,FEW,SCT,   ,   ,1700,4000,M,M,M,M,M,M,M,M,M,81.39,VVTS 241430Z 15005KT 110V210 9999 FEW017 SCT040 26/21 Q1010 NOSIG,M
VVTS,1/24/2012 15:00,106.6667,10.8167,78.8,69.8,73.95,160,5,0,29.83,M,6.21,M,FEW,SCT,   ,   ,1700,4000,M,M,M,M,M,M,M,M,M,81.39,VVTS 241500Z 16005KT 9999 FEW017 SCT040 26/21 Q1010 NOSIG,M
VVTS,1/24/2012 15:30,106.6667,10.8167,78.8,69.8,73.95,150,6,0,29.83,M,6.21,M,FEW,SCT,   ,   ,1700,4000,M,M,M,M,M,M,M,M,M,81.39,VVTS 241530Z 15006KT 9999 FEW017 SCT040 26/21 Q1010 NOSIG,M
VVTS,1/24/2012 16:00,106.6667,10.8167,78.8,69.8,73.95,150,6,0,29.83,M,6.21,M,FEW,SCT,   ,   ,1700,4000,M,M,M,M,M,M,M,M,M,81.39,VVTS 241600Z 15006KT 120V190 9999 FEW017 SCT040 26/21 Q1010 NOSIG,M
VVTS,1/24/2012 16:30,106.6667,10.8167,77,69.8,78.48,160,5,0,29.8,M,6.21,M,FEW,SCT,   ,   ,1700,4000,M,M,M,M,M,M,M,M,M,78.09,VVTS 241630Z 16005KT 130V200 9999 FEW017 SCT040 25/21 Q1009 NOSIG,M
VVTS,1/24/2012 17:00,106.6667,10.8167,77,69.8,78.48,130,4,0,29.8,M,6.21,M,FEW,SCT,   ,   ,1700,4000,M,M,M,M,M,M,M,M,M,78.09,VVTS 241700Z 13004KT 100V190 9999 FEW017 SCT040 25/21 Q1009 NOSIG,M
VVTS,1/24/2012 17:30,106.6667,10.8167,77,69.8,78.48,M,3,0,29.8,M,6.21,M,FEW,SCT,   ,   ,1700,4000,M,M,M,M,M,M,M,M,M,78.09,VVTS 241730Z VRB03KT 9999 FEW017 SCT040 25/21 Q1009 NOSIG,M
VVTS,1/24/2012 18:00,106.6667,10.8167,75.2,69.8,83.32,110,4,0,29.8,M,6.21,M,FEW,SCT,   ,   ,1700,4000,M,M,M,M,M,M,M,M,M,76.34,VVTS 241800Z 11004KT 9999 FEW017 SCT040 24/21 Q1009 NOSIG,M
VVTS,1/24/2012 18:30,106.6667,10.8167,75.2,69.8,83.32,80,5,0,29.8,M,6.21,M,FEW,SCT,   ,   ,1700,4000,M,M,M,M,M,M,M,M,M,76.34,VVTS 241830Z 08005KT 9999 FEW017 SCT040 24/21 Q1009 NOSIG,M
VVTS,1/24/2012 19:00,106.6667,10.8167,75.2,69.8,83.32,M,3,0,29.8,M,6.21,M,FEW,SCT,   ,   ,1700,4000,M,M,M,M,M,M,M,M,M,76.34,VVTS 241900Z VRB03KT 9999 FEW017 SCT040 24/21 Q1009 NOSIG,M
VVTS,1/24/2012 19:30,106.6667,10.8167,73.4,69.8,88.51,340,3,0,29.77,M,6.21,M,FEW,SCT,   ,   ,1700,4000,M,M,M,M,M,M,M,M,M,74.6,VVTS 241930Z 34003KT 9999 FEW017 SCT040 23/21 Q1008 NOSIG,M
VVTS,1/24/2012 20:00,106.6667,10.8167,75.2,71.6,88.59,320,5,0,29.77,M,6.21,M,FEW,SCT,   ,   ,1700,4000,M,M,M,M,M,M,M,M,M,76.58,VVTS 242000Z 32005KT 9999 FEW017 SCT040 24/22 Q1008 NOSIG,M
VVTS,1/24/2012 20:30,106.6667,10.8167,75.2,71.6,88.59,320,4,0,29.77,M,6.21,M,FEW,SCT,   ,   ,1700,4000,M,M,M,M,M,M,M,M,M,76.58,VVTS 242030Z 32004KT 9999 FEW017 SCT040 24/22 Q1008 NOSIG,M
VVTS,1/24/2012 21:00,106.6667,10.8167,75.2,71.6,88.59,310,2,0,29.77,M,6.21,M,FEW,SCT,   ,   ,1700,4000,M,M,M,M,M,M,M,M,M,76.58,VVTS 242100Z 31002KT 9999 FEW017 SCT040 24/22 Q1008 NOSIG,M
VVTS,1/24/2012 21:30,106.6667,10.8167,75.2,71.6,88.59,300,2,0,29.77,M,6.21,M,FEW,SCT,   ,   ,1700,4000,M,M,M,M,M,M,M,M,M,76.58,VVTS 242130Z 30002KT 9999 FEW017 SCT040 24/22 Q1008 NOSIG,M
VVTS,1/24/2012 22:00,106.6667,10.8167,73.4,71.6,94.1,310,1,0,29.77,M,6.21,M,FEW,SCT,   ,   ,1700,4000,M,M,M,M,M,M,M,M,M,74.86,VVTS 242200Z 31001KT 9999 FEW017 SCT040 23/22 Q1008 NOSIG,M
VVTS,1/24/2012 22:30,106.6667,10.8167,73.4,71.6,94.1,330,3,0,29.8,M,6.21,M,FEW,SCT,   ,   ,1700,4000,M,M,M,M,M,M,M,M,M,74.86,VVTS 242230Z 33003KT 9999 FEW017 SCT040 23/22 Q1009 NOSIG,M
VVTS,1/24/2012 23:30,106.6667,10.8167,73.4,71.6,94.1,330,2,0,29.83,M,6.21,M,FEW,   ,   ,   ,1700,M,M,M,M,M,M,M,M,M,M,74.86,VVTS 242330Z 33002KT 9999 FEW017 23/22 Q1010 NOSIG,M
VVTS,1/25/2012 0:00,106.6667,10.8167,73.4,73.4,100,320,3,0,29.83,M,6.21,M,FEW,   ,   ,   ,1700,M,M,M,M,M,M,M,M,M,M,75.14,VVTS 250000Z 32003KT 9999 FEW017 23/23 Q1010 NOSIG,M
VVTS,1/25/2012 0:30,106.6667,10.8167,73.4,73.4,100,0,0,0,29.83,M,6.21,M,FEW,   ,   ,   ,1700,M,M,M,M,M,M,M,M,M,M,75.14,VVTS 250030Z 00000KT 9999 FEW017 23/23 Q1010 NOSIG,M
VVTS,1/25/2012 1:00,106.6667,10.8167,75.2,73.4,94.14,M,3,0,29.85,M,6.21,M,FEW,   ,   ,   ,1700,M,M,M,M,M,M,M,M,M,M,76.84,VVTS 250100Z VRB03KT 9999 FEW017 24/23 Q1011 NOSIG,M
VVTS,1/25/2012 1:30,106.6667,10.8167,78.8,71.6,78.62,M,3,0,29.85,M,6.21,M,FEW,   ,   ,   ,1700,M,M,M,M,M,M,M,M,M,M,81.7,VVTS 250130Z VRB03KT 9999 FEW017 26/22 Q1011 NOSIG,M
VVTS,1/25/2012 2:00,106.6667,10.8167,78.8,71.6,78.62,30,4,0,29.85,M,6.21,M,FEW,   ,   ,   ,1700,M,M,M,M,M,M,M,M,M,M,81.7,VVTS 250200Z 03004KT 350V080 9999 FEW017 26/22 Q1011 NOSIG,M
VVTS,1/25/2012 2:30,106.6667,10.8167,82.4,71.6,69.9,20,4,0,29.85,M,6.21,M,FEW,   ,   ,   ,1700,M,M,M,M,M,M,M,M,M,M,87.18,VVTS 250230Z 02004KT 320V080 9999 FEW017 28/22 Q1011 NOSIG,M
VVTS,1/25/2012 3:00,106.6667,10.8167,82.4,69.8,65.74,360,5,0,29.85,M,6.21,M,FEW,   ,   ,   ,1700,M,M,M,M,M,M,M,M,M,M,86.22,VVTS 250300Z 36005KT 290V040 9999 FEW017 28/21 Q1011 NOSIG,M
VVTS,1/25/2012 3:30,106.6667,10.8167,84.2,69.8,62.03,10,4,0,29.85,M,6.21,M,SCT,   ,   ,   ,1700,M,M,M,M,M,M,M,M,M,M,88.43,VVTS 250330Z 01004KT 260V110 9999 SCT017 29/21 Q1011 NOSIG,M
VVTS,1/25/2012 4:00,106.6667,10.8167,86,71.6,62.25,350,4,0,29.85,M,6.21,M,SCT,   ,   ,   ,1700,M,M,M,M,M,M,M,M,M,M,91.92,VVTS 250400Z 35004KT 290V040 9999 SCT017 30/22 Q1011 NOSIG,M
VVTS,1/25/2012 4:30,106.6667,10.8167,86,71.6,62.25,330,8,0,29.83,M,6.21,M,SCT,   ,   ,   ,1700,M,M,M,M,M,M,M,M,M,M,91.92,VVTS 250430Z 33008KT 270V010 9999 SCT017 30/22 Q1010 NOSIG,M
VVTS,1/25/2012 5:00,106.6667,10.8167,86,71.6,62.25,300,6,0,29.83,M,6.21,M,SCT,   ,   ,   ,1700,M,M,M,M,M,M,M,M,M,M,91.92,VVTS 250500Z 30006KT 260V360 9999 SCT017 30/22 Q1010 NOSIG,M
VVTS,1/25/2012 5:30,106.6667,10.8167,87.8,71.6,58.78,320,6,0,29.83,M,6.21,M,SCT,   ,   ,   ,1700,M,M,M,M,M,M,M,M,M,M,94.18,VVTS 250530Z 32006KT 300V010 9999 SCT017 31/22 Q1010 NOSIG,M
VVTS,1/25/2012 6:00,106.6667,10.8167,87.8,69.8,55.29,M,3,0,29.8,M,6.21,M,SCT,   ,   ,   ,1700,M,M,M,M,M,M,M,M,M,M,92.71,VVTS 250600Z VRB03KT 9999 SCT017 31/21 Q1009 NOSIG,M
VVTS,1/25/2012 6:30,106.6667,10.8167,89.6,69.8,52.23,M,2,0,29.8,M,6.21,M,SCT,   ,   ,   ,1700,M,M,M,M,M,M,M,M,M,M,94.85,VVTS 250630Z VRB02KT 9999 SCT017 32/21 Q1009 NOSIG,M
VVTS,1/25/2012 7:00,106.6667,10.8167,87.8,69.8,55.29,M,3,0,29.77,M,6.21,M,SCT,   ,   ,   ,1700,M,M,M,M,M,M,M,M,M,M,92.71,VVTS 250700Z VRB03KT 9999 SCT017 31/21 Q1008 NOSIG,M
VVTS,1/25/2012 7:30,106.6667,10.8167,89.6,68,49.1,210,4,0,29.77,M,M,M,SCT,   ,   ,   ,1700,M,M,M,M,M,M,M,M,M,M,93.47,VVTS 250730Z 21004KT 17099 SCT017 32/20 Q1008 NOSIG,M
VVTS,1/25/2012 8:00,106.6667,10.8167,91.4,68,46.41,140,4,0,29.74,M,6.21,M,SCT,   ,   ,   ,1700,M,M,M,M,M,M,M,M,M,M,95.55,VVTS 250800Z 14004KT 060V190 9999 SCT017 33/20 Q1007 NOSIG,M
VVTS,1/25/2012 8:30,106.6667,10.8167,87.8,69.8,55.29,260,4,0,29.74,M,6.21,M,SCT,   ,   ,   ,1700,M,M,M,M,M,M,M,M,M,M,92.71,VVTS 250830Z 26004KT 210V300 9999 SCT017 31/21 Q1007 NOSIG,M
VVTS,1/25/2012 9:00,106.6667,10.8167,84.2,73.4,70.08,170,11,0,29.74,M,6.21,M,SCT,   ,   ,   ,1700,M,M,M,M,M,M,M,M,M,M,90.94,VVTS 250900Z 17011KT 9999 SCT017 29/23 Q1007 NOSIG,M
VVTS,1/25/2012 10:00,106.6667,10.8167,80.6,73.4,78.76,180,8,0,29.77,M,6.21,M,FEW,SCT,   ,   ,1500,1700,M,M,M,M,M,M,M,M,M,85.32,VVTS 251000Z 18008KT 130V210 9999 FEW015CB SCT017 27/23 Q1008 NOSIG,M
VVTS,1/25/2012 10:30,106.6667,10.8167,80.6,71.6,74.11,160,8,0,29.77,M,6.21,M,FEW,SCT,   ,   ,1500,1700,M,M,M,M,M,M,M,M,M,84.57,VVTS 251030Z 16008KT 9999 FEW015CB SCT017 27/22 Q1008 NOSIG,M
VVTS,1/25/2012 11:00,106.6667,10.8167,80.6,71.6,74.11,150,6,0,29.8,M,6.21,M,FEW,SCT,   ,   ,1500,1700,M,M,M,M,M,M,M,M,M,84.57,VVTS 251100Z 15006KT 120V190 9999 FEW015CB SCT017 27/22 Q1009 NOSIG,M
VVTS,1/25/2012 11:30,106.6667,10.8167,80.6,69.8,69.71,160,5,0,29.8,M,6.21,M,FEW,SCT,   ,   ,1500,1700,M,M,M,M,M,M,M,M,M,83.9,VVTS 251130Z 16005KT 9999 FEW015CB SCT017 27/21 Q1009 NOSIG,M
VVTS,1/25/2012 12:00,106.6667,10.8167,80.6,69.8,69.71,M,3,0,29.83,M,6.21,M,FEW,SCT,   ,   ,1500,1700,M,M,M,M,M,M,M,M,M,83.9,VVTS 251200Z VRB03KT 9999 FEW015CB SCT017 27/21 Q1010 NOSIG,M
VVTS,1/25/2012 12:30,106.6667,10.8167,80.6,69.8,69.71,180,4,0,29.83,M,6.21,M,SCT,   ,   ,   ,1700,M,M,M,M,M,M,M,M,M,M,83.9,VVTS 251230Z 18004KT 9999 SCT017 27/21 Q1010 NOSIG,M
VVTS,1/25/2012 13:00,106.6667,10.8167,78.8,69.8,73.95,180,5,0,29.83,M,6.21,M,SCT,   ,   ,   ,1700,M,M,M,M,M,M,M,M,M,M,81.39,VVTS 251300Z 18005KT 150V210 9999 SCT017 26/21 Q1010 NOSIG,M
VVTS,1/25/2012 13:30,106.6667,10.8167,78.8,71.6,78.62,180,5,0,29.83,M,6.21,M,SCT,   ,   ,   ,1700,M,M,M,M,M,M,M,M,M,M,81.7,VVTS 251330Z 18005KT 9999 SCT017 26/22 Q1010 NOSIG,M
VVTS,1/25/2012 14:00,106.6667,10.8167,78.8,71.6,78.62,170,4,0,29.83,M,6.21,M,SCT,   ,   ,   ,1700,M,M,M,M,M,M,M,M,M,M,81.7,VVTS 251400Z 17004KT 150V210 9999 SCT017 26/22 Q1010 NOSIG,M
VVTS,1/25/2012 14:30,106.6667,10.8167,78.8,71.6,78.62,140,6,0,29.85,M,6.21,M,SCT,   ,   ,   ,1700,M,M,M,M,M,M,M,M,M,M,81.7,VVTS 251430Z 14006KT 9999 SCT017 26/22 Q1011 NOSIG,M
VVTS,1/25/2012 15:00,106.6667,10.8167,78.8,69.8,73.95,110,5,0,29.85,M,6.21,M,SCT,   ,   ,   ,1700,M,M,M,M,M,M,M,M,M,M,81.39,VVTS 251500Z 11005KT 9999 SCT017 26/21 Q1011 NOSIG,M
VVTS,1/25/2012 15:30,106.6667,10.8167,78.8,69.8,73.95,110,4,0,29.85,M,6.21,M,SCT,   ,   ,   ,1700,M,M,M,M,M,M,M,M,M,M,81.39,VVTS 251530Z 11004KT 080V150 9999 SCT017 26/21 Q1011 NOSIG,M
VVTS,1/25/2012 16:00,106.6667,10.8167,77,69.8,78.48,100,5,0,29.85,M,6.21,M,SCT,   ,   ,   ,1500,M,M,M,M,M,M,M,M,M,M,78.09,VVTS 251600Z 10005KT 9999 SCT015 25/21 Q1011 NOSIG,M
VVTS,1/25/2012 16:30,106.6667,10.8167,77,69.8,78.48,80,8,0,29.85,M,6.21,M,SCT,   ,   ,   ,1500,M,M,M,M,M,M,M,M,M,M,78.09,VVTS 251630Z 08008KT 9999 SCT015 25/21 Q1011 NOSIG,M
VVTS,1/25/2012 17:00,106.6667,10.8167,75.2,69.8,83.32,90,5,0,29.85,M,6.21,M,SCT,   ,   ,   ,1500,M,M,M,M,M,M,M,M,M,M,76.34,VVTS 251700Z 09005KT 9999 SCT015 24/21 Q1011 NOSIG,M
VVTS,1/25/2012 17:30,106.6667,10.8167,75.2,69.8,83.32,80,4,0,29.83,M,6.21,M,SCT,   ,   ,   ,1500,M,M,M,M,M,M,M,M,M,M,76.34,VVTS 251730Z 08004KT 9999 SCT015 24/21 Q1010 NOSIG,M
VVTS,1/25/2012 18:30,106.6667,10.8167,73.4,69.8,88.51,70,3,0,29.83,M,6.21,M,FEW,SCT,   ,   ,1500,4000,M,M,M,M,M,M,M,M,M,74.6,VVTS 251830Z 07003KT 9999 FEW015 SCT040 23/21 Q1010 NOSIG,M
VVTS,1/25/2012 19:00,106.6667,10.8167,73.4,71.6,94.1,50,2,0,29.83,M,6.21,M,FEW,SCT,   ,   ,1500,4000,M,M,M,M,M,M,M,M,M,74.86,VVTS 251900Z 05002KT 9999 FEW015 SCT040 23/22 Q1010 NOSIG,M
VVTS,1/25/2012 19:30,106.6667,10.8167,73.4,71.6,94.1,10,3,0,29.8,M,6.21,M,FEW,SCT,   ,   ,1500,4000,M,M,M,M,M,M,M,M,M,74.86,VVTS 251930Z 01003KT 9999 FEW015 SCT040 23/22 Q1009 NOSIG,M
VVTS,1/25/2012 20:00,106.6667,10.8167,73.4,71.6,94.1,M,3,0,29.8,M,6.21,M,FEW,SCT,   ,   ,1500,4000,M,M,M,M,M,M,M,M,M,74.86,VVTS 252000Z VRB03KT 9999 FEW015 SCT040 23/22 Q1009 NOSIG,M
VVTS,1/25/2012 20:30,106.6667,10.8167,73.4,71.6,94.1,350,4,0,29.8,M,6.21,M,FEW,SCT,   ,   ,1500,4000,M,M,M,M,M,M,M,M,M,74.86,VVTS 252030Z 35004KT 9999 FEW015 SCT040 23/22 Q1009 NOSIG,M
VVTS,1/25/2012 21:00,106.6667,10.8167,73.4,71.6,94.1,10,3,0,29.8,M,6.21,M,FEW,SCT,   ,   ,1500,4000,M,M,M,M,M,M,M,M,M,74.86,VVTS 252100Z 01003KT 9999 FEW015 SCT040 23/22 Q1009 NOSIG,M
VVTS,1/25/2012 21:30,106.6667,10.8167,73.4,71.6,94.1,10,4,0,29.8,M,6.21,M,FEW,SCT,   ,   ,1500,4000,M,M,M,M,M,M,M,M,M,74.86,VVTS 252130Z 01004KT 9999 FEW015 SCT040 23/22 Q1009 NOSIG,M
VVTS,1/25/2012 22:00,106.6667,10.8167,73.4,71.6,94.1,10,3,0,29.83,M,6.21,M,FEW,SCT,   ,   ,1500,4000,M,M,M,M,M,M,M,M,M,74.86,VVTS 252200Z 01003KT 9999 FEW015 SCT040 23/22 Q1010 NOSIG,M
VVTS,1/25/2012 22:30,106.6667,10.8167,71.6,71.6,100,10,3,0,29.83,M,6.21,M,FEW,SCT,   ,   ,1500,4000,M,M,M,M,M,M,M,M,M,73.16,VVTS 252230Z 01003KT 9999 FEW015 SCT040 22/22 Q1010 NOSIG,M
VVTS,1/25/2012 23:00,106.6667,10.8167,71.6,71.6,100,M,1,0,29.83,M,6.21,M,FEW,SCT,   ,   ,1500,4000,M,M,M,M,M,M,M,M,M,73.16,VVTS 252300Z VRB01KT 9999 FEW015 SCT040 22/22 Q1010 NOSIG,M
VVTS,1/25/2012 23:30,106.6667,10.8167,71.6,71.6,100,M,1,0,29.83,M,6.21,M,FEW,SCT,   ,   ,1500,4000,M,M,M,M,M,M,M,M,M,73.16,VVTS 252330Z VRB01KT 9999 FEW015 SCT040 22/22 Q1010 NOSIG,M
VVTS,1/26/2012 0:00,106.6667,10.8167,71.6,71.6,100,10,4,0,29.85,M,6.21,M,FEW,SCT,   ,   ,1500,4000,M,M,M,M,M,M,M,M,M,73.16,VVTS 260000Z 01004KT 340V120 9999 FEW015 SCT040 22/22 Q1011 NOSIG,M
VVTS,1/26/2012 0:30,106.6667,10.8167,73.4,69.8,88.51,360,5,0,29.85,M,6.21,M,FEW,BKN,   ,   ,1500,4000,M,M,M,M,M,M,M,M,M,74.6,VVTS 260030Z 36005KT 9999 FEW015 BKN040 23/21 Q1011 NOSIG,M
VVTS,1/26/2012 1:00,106.6667,10.8167,75.2,69.8,83.32,M,3,0,29.88,M,6.21,M,SCT,SCT,   ,   ,1500,4000,M,M,M,M,M,M,M,M,M,76.34,VVTS 260100Z VRB03KT 9999 SCT015 SCT040 24/21 Q1012 NOSIG,M
VVTS,1/26/2012 1:30,106.6667,10.8167,78.8,68,69.52,M,2,0,29.88,M,6.21,M,SCT,   ,   ,   ,1700,M,M,M,M,M,M,M,M,M,M,81.1,VVTS 260130Z VRB02KT 9999 SCT017 26/20 Q1012 NOSIG,M
VVTS,1/26/2012 2:00,106.6667,10.8167,80.6,69.8,69.71,M,3,0,29.88,M,6.21,M,FEW,   ,   ,   ,2000,M,M,M,M,M,M,M,M,M,M,83.9,VVTS 260200Z VRB03KT 9999 FEW020 27/21 Q1012 NOSIG,M
VVTS,1/26/2012 2:30,106.6667,10.8167,82.4,69.8,65.74,M,3,0,29.88,M,6.21,M,FEW,   ,   ,   ,2000,M,M,M,M,M,M,M,M,M,M,86.22,VVTS 260230Z VRB03KT 9999 FEW020 28/21 Q1012 NOSIG,M
VVTS,1/26/2012 3:00,106.6667,10.8167,84.2,69.8,62.03,M,3,0,29.88,M,6.21,M,FEW,   ,   ,   ,2000,M,M,M,M,M,M,M,M,M,M,88.43,VVTS 260300Z VRB03KT 9999 FEW020 29/21 Q1012 NOSIG,M
VVTS,1/26/2012 3:30,106.6667,10.8167,84.2,68,58.32,M,2,0,29.85,M,6.21,M,SCT,   ,   ,   ,2000,M,M,M,M,M,M,M,M,M,M,87.4,VVTS 260330Z VRB02KT 9999 SCT020 29/20 Q1011 NOSIG,M
VVTS,1/26/2012 4:00,106.6667,10.8167,86,68,55.04,M,1,0,29.85,M,6.21,M,SCT,   ,   ,   ,2000,M,M,M,M,M,M,M,M,M,M,89.41,VVTS 260400Z VRB01KT 9999 SCT020 30/20 Q1011 NOSIG,M
VVTS,1/26/2012 4:30,106.6667,10.8167,87.8,69.8,55.29,M,2,0,29.85,M,6.21,M,SCT,   ,   ,   ,2000,M,M,M,M,M,M,M,M,M,M,92.71,VVTS 260430Z VRB02KT 9999 SCT020 31/21 Q1011 NOSIG,M
VVTS,1/26/2012 5:00,106.6667,10.8167,87.8,69.8,55.29,M,2,0,29.83,M,6.21,M,SCT,   ,   ,   ,2000,M,M,M,M,M,M,M,M,M,M,92.71,VVTS 260500Z VRB02KT 9999 SCT020 31/21 Q1010 NOSIG,M
VVTS,1/26/2012 5:30,106.6667,10.8167,89.6,68,49.1,M,2,0,29.8,M,6.21,M,SCT,   ,   ,   ,2000,M,M,M,M,M,M,M,M,M,M,93.47,VVTS 260530Z VRB02KT 9999 SCT020 32/20 Q1009 NOSIG,M
VVTS,1/26/2012 6:00,106.6667,10.8167,87.8,69.8,55.29,290,4,0,29.8,M,6.21,M,SCT,   ,   ,   ,2000,M,M,M,M,M,M,M,M,M,M,92.71,VVTS 260600Z 29004KT 240V360 9999 SCT020 31/21 Q1009 NOSIG,M
VVTS,1/26/2012 6:30,106.6667,10.8167,91.4,69.8,49.36,M,3,0,29.77,M,6.21,M,SCT,   ,   ,   ,2000,M,M,M,M,M,M,M,M,M,M,96.99,VVTS 260630Z VRB03KT 9999 SCT020 33/21 Q1008 NOSIG,M
VVTS,1/26/2012 7:00,106.6667,10.8167,87.8,69.8,55.29,260,4,0,29.77,M,6.21,M,SCT,   ,   ,   ,2000,M,M,M,M,M,M,M,M,M,M,92.71,VVTS 260700Z 26004KT 230V300 9999 SCT020 31/21 Q1008 NOSIG,M
VVTS,1/26/2012 7:30,106.6667,10.8167,87.8,69.8,55.29,280,4,0,29.77,M,6.21,M,SCT,   ,   ,   ,2000,M,M,M,M,M,M,M,M,M,M,92.71,VVTS 260730Z 28004KT 240V300 9999 SCT020 31/21 Q1008 NOSIG,M
VVTS,1/26/2012 8:00,106.6667,10.8167,87.8,68,51.98,M,3,0,29.74,M,6.21,M,SCT,   ,   ,   ,2000,M,M,M,M,M,M,M,M,M,M,91.43,VVTS 260800Z VRB03KT 9999 SCT020 31/20 Q1007 NOSIG,M
VVTS,1/26/2012 8:30,106.6667,10.8167,87.8,69.8,55.29,190,6,0,29.74,M,6.21,M,SCT,   ,   ,   ,2000,M,M,M,M,M,M,M,M,M,M,92.71,VVTS 260830Z 19006KT 140V250 9999 SCT020 31/21 Q1007 NOSIG,M
VVTS,1/26/2012 9:09,106.6667,10.8167,87.8,69.8,55.29,M,M,0,29.74,M,M,M,SCT,   ,   ,   ,2000,M,M,M,M,M,M,M,M,M,M,92.71,VVTS 260909 SCT020 31/21 Q1007 NOSIG,M
VVTS,1/26/2012 9:30,106.6667,10.8167,87.8,69.8,55.29,M,3,0,29.77,M,6.21,M,SCT,   ,   ,   ,2000,M,M,M,M,M,M,M,M,M,M,92.71,VVTS 260930Z VRB03KT 9999 SCT020 31/21 Q1008 NOSIG,M
VVTS,1/26/2012 10:00,106.6667,10.8167,84.2,71.6,65.95,170,8,0,29.77,M,6.21,M,SCT,   ,   ,   ,2000,M,M,M,M,M,M,M,M,M,M,89.6,VVTS 261000Z 17008KT 150V210 9999 SCT020 29/22 Q1008 NOSIG,M
VVTS,1/26/2012 10:30,106.6667,10.8167,82.4,69.8,65.74,160,9,0,29.77,M,6.21,M,SCT,   ,   ,   ,2000,M,M,M,M,M,M,M,M,M,M,86.22,VVTS 261030Z 16009KT 9999 SCT020 28/21 Q1008 NOSIG,M
VVTS,1/26/2012 11:00,106.6667,10.8167,82.4,69.8,65.74,150,8,0,29.77,M,6.21,M,SCT,   ,   ,   ,2000,M,M,M,M,M,M,M,M,M,M,86.22,VVTS 261100Z 15008KT 120V180 9999 SCT020 28/21 Q1008 NOSIG,M
VVTS,1/26/2012 11:30,106.6667,10.8167,80.6,66.2,61.58,160,7,0,29.8,M,6.21,M,SCT,   ,   ,   ,2000,M,M,M,M,M,M,M,M,M,M,82.75,VVTS 261130Z 16007KT 9999 SCT020 27/19 Q1009 NOSIG,M
VVTS,1/26/2012 12:00,106.6667,10.8167,80.6,68,65.54,140,6,0,29.8,M,6.21,M,FEW,   ,   ,   ,2000,M,M,M,M,M,M,M,M,M,M,83.29,VVTS 261200Z 14006KT 9999 FEW020 27/20 Q1009 NOSIG,M
VVTS,1/26/2012 12:30,106.6667,10.8167,80.6,69.8,69.71,150,5,0,29.8,M,6.21,M,FEW,   ,   ,   ,2000,M,M,M,M,M,M,M,M,M,M,83.9,VVTS 261230Z 15005KT 130V190 9999 FEW020 27/21 Q1009 NOSIG,M
VVTS,1/26/2012 13:00,106.6667,10.8167,80.6,68,65.54,M,3,0,29.83,M,6.21,M,FEW,   ,   ,   ,2000,M,M,M,M,M,M,M,M,M,M,83.29,VVTS 261300Z VRB03KT 9999 FEW020 27/20 Q1010 NOSIG,M
VVTS,1/26/2012 13:30,106.6667,10.8167,78.8,68,69.52,M,3,0,29.83,M,6.21,M,FEW,   ,   ,   ,2000,M,M,M,M,M,M,M,M,M,M,81.1,VVTS 261330Z VRB03KT 9999 FEW020 26/20 Q1010 NOSIG,M
VVTS,1/26/2012 14:00,106.6667,10.8167,80.6,68,65.54,120,6,0,29.83,M,6.21,M,FEW,   ,   ,   ,2000,M,M,M,M,M,M,M,M,M,M,83.29,VVTS 261400Z 12006KT 090V170 9999 FEW020 27/20 Q1010 NOSIG,M
VVTS,1/26/2012 14:30,106.6667,10.8167,78.8,66.2,65.33,110,5,0,29.83,M,6.21,M,FEW,   ,   ,   ,2000,M,M,M,M,M,M,M,M,M,M,80.82,VVTS 261430Z 11005KT 080V150 9999 FEW020 26/19 Q1010 NOSIG,M
VVTS,1/26/2012 15:00,106.6667,10.8167,78.8,66.2,65.33,140,4,0,29.83,M,6.21,M,FEW,   ,   ,   ,2000,M,M,M,M,M,M,M,M,M,M,80.82,VVTS 261500Z 14004KT 120V190 9999 FEW020 26/19 Q1010 NOSIG,M
VVTS,1/26/2012 15:30,106.6667,10.8167,78.8,66.2,65.33,120,3,0,29.83,M,6.21,M,FEW,   ,   ,   ,2000,M,M,M,M,M,M,M,M,M,M,80.82,VVTS 261530Z 12003KT 9999 FEW020 26/19 Q1010 NOSIG,M
VVTS,1/26/2012 16:00,106.6667,10.8167,78.8,66.2,65.33,100,5,0,29.83,M,6.21,M,FEW,   ,   ,   ,2000,M,M,M,M,M,M,M,M,M,M,80.82,VVTS 261600Z 10005KT 080V160 9999 FEW020 26/19 Q1010 NOSIG,M
VVTS,1/26/2012 16:30,106.6667,10.8167,77,66.2,69.33,80,5,0,29.83,M,6.21,M,FEW,   ,   ,   ,2000,M,M,M,M,M,M,M,M,M,M,77,VVTS 261630Z 08005KT 9999 FEW020 25/19 Q1010 NOSIG,M
VVTS,1/26/2012 17:00,106.6667,10.8167,75.2,66.2,73.61,80,5,0,29.83,M,6.21,M,FEW,   ,   ,   ,2000,M,M,M,M,M,M,M,M,M,M,75.2,VVTS 261700Z 08005KT 060V130 9999 FEW020 24/19 Q1010 NOSIG,M
VVTS,1/26/2012 17:30,106.6667,10.8167,75.2,66.2,73.61,100,6,0,29.8,M,6.21,M,FEW,   ,   ,   ,2000,M,M,M,M,M,M,M,M,M,M,75.2,VVTS 261730Z 10006KT 080V140 9999 FEW020 24/19 Q1009 NOSIG,M
VVTS,1/26/2012 18:00,106.6667,10.8167,73.4,66.2,78.19,80,4,0,29.8,M,6.21,M,FEW,   ,   ,   ,1700,M,M,M,M,M,M,M,M,M,M,73.4,VVTS 261800Z 08004KT 9999 FEW017 23/19 Q1009 NOSIG,M
VVTS,1/26/2012 18:30,106.6667,10.8167,73.4,68,83.21,M,3,0,29.8,M,6.21,M,FEW,   ,   ,   ,1700,M,M,M,M,M,M,M,M,M,M,73.4,VVTS 261830Z VRB03KT 9999 FEW017 23/20 Q1009 NOSIG,M
VVTS,1/26/2012 19:00,106.6667,10.8167,73.4,68,83.21,50,2,0,29.8,M,6.21,M,FEW,   ,   ,   ,1700,M,M,M,M,M,M,M,M,M,M,73.4,VVTS 261900Z 05002KT 9999 FEW017 23/20 Q1009 NOSIG,M
VVTS,1/26/2012 19:30,106.6667,10.8167,73.4,68,83.21,50,3,0,29.77,M,6.21,M,FEW,   ,   ,   ,1700,M,M,M,M,M,M,M,M,M,M,73.4,VVTS 261930Z 05003KT 9999 FEW017 23/20 Q1008 NOSIG,M
VVTS,1/26/2012 20:00,106.6667,10.8167,73.4,66.2,78.19,60,2,0,29.77,M,6.21,M,FEW,   ,   ,   ,1700,M,M,M,M,M,M,M,M,M,M,73.4,VVTS 262000Z 06002KT 9999 FEW017 23/19 Q1008 NOSIG,M
VVTS,1/26/2012 20:30,106.6667,10.8167,73.4,68,83.21,10,2,0,29.77,M,6.21,M,FEW,   ,   ,   ,1700,M,M,M,M,M,M,M,M,M,M,73.4,VVTS 262030Z 01002KT 9999 FEW017 23/20 Q1008 NOSIG,M
VVTS,1/26/2012 21:00,106.6667,10.8167,73.4,68,83.21,10,2,0,29.77,M,6.21,M,FEW,   ,   ,   ,1700,M,M,M,M,M,M,M,M,M,M,73.4,VVTS 262100Z 01002KT 9999 FEW017 23/20 Q1008 NOSIG,M
VVTS,1/26/2012 21:30,106.6667,10.8167,71.6,68,88.43,M,1,0,29.77,M,6.21,M,FEW,   ,   ,   ,1700,M,M,M,M,M,M,M,M,M,M,72.62,VVTS 262130Z VRB01KT 9999 FEW017 22/20 Q1008 NOSIG,M
VVTS,1/26/2012 22:00,106.6667,10.8167,71.6,68,88.43,350,2,0,29.77,M,6.21,M,FEW,   ,   ,   ,1700,M,M,M,M,M,M,M,M,M,M,72.62,VVTS 262200Z 35002KT 9999 FEW017 22/20 Q1008 NOSIG,M
VVTS,1/26/2012 22:30,106.6667,10.8167,71.6,69.8,94.06,350,3,0,29.77,M,6.21,M,FEW,   ,   ,   ,1700,M,M,M,M,M,M,M,M,M,M,72.88,VVTS 262230Z 35003KT 9999 FEW017 22/21 Q1008 NOSIG,M
VVTS,1/26/2012 23:00,106.6667,10.8167,71.6,69.8,94.06,360,3,0,29.8,M,6.21,M,FEW,   ,   ,   ,1700,M,M,M,M,M,M,M,M,M,M,72.88,VVTS 262300Z 36003KT 9999 FEW017 22/21 Q1009 NOSIG,M
VVTS,1/26/2012 23:30,106.6667,10.8167,71.6,69.8,94.06,350,2,0,29.8,M,6.21,M,FEW,   ,   ,   ,1700,M,M,M,M,M,M,M,M,M,M,72.88,VVTS 262330Z 35002KT 9999 FEW017 22/21 Q1009 NOSIG,M
VVTS,1/27/2012 0:00,106.6667,10.8167,71.6,69.8,94.06,360,3,0,29.8,M,6.21,M,FEW,   ,   ,   ,1700,M,M,M,M,M,M,M,M,M,M,72.88,VVTS 270000Z 36003KT 9999 FEW017 22/21 Q1009 NOSIG,M
VVTS,1/27/2012 0:30,106.6667,10.8167,73.4,71.6,94.1,M,3,0,29.83,M,6.21,M,FEW,   ,   ,   ,1700,M,M,M,M,M,M,M,M,M,M,74.86,VVTS 270030Z VRB03KT 9999 FEW017 23/22 Q1010 NOSIG,M
VVTS,1/27/2012 1:00,106.6667,10.8167,75.2,71.6,88.59,M,2,0,29.83,M,6.21,M,FEW,   ,   ,   ,1700,M,M,M,M,M,M,M,M,M,M,76.58,VVTS 270100Z VRB02KT 9999 FEW017 24/22 Q1010 NOSIG,M
VVTS,1/27/2012 1:30,106.6667,10.8167,78.8,69.8,73.95,M,3,0,29.83,M,6.21,M,FEW,   ,   ,   ,1700,M,M,M,M,M,M,M,M,M,M,81.39,VVTS 270130Z VRB03KT 9999 FEW017 26/21 Q1010 NOSIG,M
VVTS,1/27/2012 2:00,106.6667,10.8167,80.6,69.8,69.71,360,4,0,29.85,M,6.21,M,FEW,SCT,   ,   ,2000,4000,M,M,M,M,M,M,M,M,M,83.9,VVTS 270200Z 36004KT 320V070 9999 FEW020 SCT040 27/21 Q1011 NOSIG,M
VVTS,1/27/2012 2:30,106.6667,10.8167,80.6,69.8,69.71,340,4,0,29.85,M,6.21,M,FEW,SCT,   ,   ,2000,4000,M,M,M,M,M,M,M,M,M,83.9,VVTS 270230Z 34004KT 290V030 9999 FEW020 SCT040 27/21 Q1011 NOSIG,M
VVTS,1/27/2012 3:00,106.6667,10.8167,82.4,69.8,65.74,M,3,0,29.85,M,6.21,M,FEW,SCT,   ,   ,2000,4000,M,M,M,M,M,M,M,M,M,86.22,VVTS 270300Z VRB03KT 9999 FEW020 SCT040 28/21 Q1011 NOSIG,M
VVTS,1/27/2012 3:30,106.6667,10.8167,84.2,71.6,65.95,340,5,0,29.83,M,6.21,M,FEW,SCT,   ,   ,2000,4000,M,M,M,M,M,M,M,M,M,89.6,VVTS 270330Z 34005KT 290V050 9999 FEW020 SCT040 29/22 Q1010 NOSIG,M
VVTS,1/27/2012 4:00,106.6667,10.8167,87.8,69.8,55.29,M,3,0,29.83,M,6.21,M,FEW,SCT,   ,   ,2000,4000,M,M,M,M,M,M,M,M,M,92.71,VVTS 270400Z VRB03KT 9999 FEW020 SCT040 31/21 Q1010 NOSIG,M
VVTS,1/27/2012 4:30,106.6667,10.8167,87.8,71.6,58.78,300,4,0,29.83,M,6.21,M,SCT,   ,   ,   ,2000,M,M,M,M,M,M,M,M,M,M,94.18,VVTS 270430Z 30004KT 250V330 9999 SCT020 31/22 Q1010 NOSIG,M
VVTS,1/27/2012 5:00,106.6667,10.8167,87.8,69.8,55.29,M,2,0,29.83,M,6.21,M,SCT,   ,   ,   ,2000,M,M,M,M,M,M,M,M,M,M,92.71,VVTS 270500Z VRB02KT 9999 SCT020 31/21 Q1010 NOSIG,M
VVTS,1/27/2012 5:30,106.6667,10.8167,84.2,69.8,62.03,280,4,0,29.8,M,6.21,M,BKN,   ,   ,   ,1700,M,M,M,M,M,M,M,M,M,M,88.43,VVTS 270530Z 28004KT 220V330 9999 BKN017 29/21 Q1009 NOSIG,M
VVTS,1/27/2012 6:00,106.6667,10.8167,84.2,71.6,65.95,280,4,0,29.8,M,6.21,M,FEW,SCT,   ,   ,1500,1700,M,M,M,M,M,M,M,M,M,89.6,VVTS 270600Z 28004KT 220V360 9999 FEW015TCU SCT017 29/22 Q1009 NOSIG,M
VVTS,1/27/2012 6:30,106.6667,10.8167,89.6,71.6,55.53,280,5,0,29.77,M,6.21,M,FEW,SCT,   ,   ,1500,1700,M,M,M,M,M,M,M,M,M,96.41,VVTS 270630Z 28005KT 250V330 9999 FEW015TCU SCT017 32/22 Q1008 NOSIG,M
VVTS,1/27/2012 7:00,106.6667,10.8167,86,71.6,62.25,260,5,0,29.77,M,6.21,M,FEW,SCT,   ,   ,1500,1700,M,M,M,M,M,M,M,M,M,91.92,VVTS 270700Z 26005KT 230V300 9999 FEW015TCU SCT017 30/22 Q1008 NOSIG,M
VVTS,1/27/2012 7:30,106.6667,10.8167,84.2,71.6,65.95,280,5,0,29.77,M,6.21,M,FEW,SCT,   ,   ,1500,1700,M,M,M,M,M,M,M,M,M,89.6,VVTS 270730Z 28005KT 9999 FEW015TCU SCT017 29/22 Q1008 NOSIG,M
VVTS,1/27/2012 8:00,106.6667,10.8167,87.8,71.6,58.78,260,5,0,29.74,M,6.21,M,FEW,SCT,   ,   ,1500,1700,M,M,M,M,M,M,M,M,M,94.18,VVTS 270800Z 26005KT 220V320 9999 FEW015TCU SCT017 31/22 Q1007 NOSIG,M
VVTS,1/27/2012 8:30,106.6667,10.8167,84.2,71.6,65.95,240,8,0,29.74,M,6.21,M,BKN,   ,   ,   ,1500,M,M,M,M,M,M,M,M,M,M,89.6,VVTS 270830Z 24008KT 9999 BKN015 29/22 Q1007 NOSIG,M
VVTS,1/27/2012 9:00,106.6667,10.8167,87.8,73.4,62.47,240,7,0,29.74,M,6.21,M,SCT,   ,   ,   ,1700,M,M,M,M,M,M,M,M,M,M,95.86,VVTS 270900Z 24007KT 9999 SCT017 31/23 Q1007 NOSIG,M
VVTS,1/27/2012 9:30,106.6667,10.8167,86,73.4,66.15,240,6,0,29.74,M,6.21,M,SCT,   ,   ,   ,1700,M,M,M,M,M,M,M,M,M,M,93.45,VVTS 270930Z 24006KT 210V280 9999 SCT017 30/23 Q1007 NOSIG,M
VVTS,1/27/2012 10:00,106.6667,10.8167,84.2,71.6,65.95,240,5,0,29.77,M,6.21,M,SCT,   ,   ,   ,1700,M,M,M,M,M,M,M,M,M,M,89.6,VVTS 271000Z 24005KT 9999 SCT017 29/22 Q1008 NOSIG,M
VVTS,1/27/2012 10:30,106.6667,10.8167,82.4,71.6,69.9,240,7,0,29.77,M,6.21,M,SCT,   ,   ,   ,1700,M,M,M,M,M,M,M,M,M,M,87.18,VVTS 271030Z 24007KT 9999 SCT017 28/22 Q1008 NOSIG,M
VVTS,1/27/2012 11:00,106.6667,10.8167,82.4,71.6,69.9,190,7,0,29.77,M,6.21,M,FEW,SCT,   ,   ,1500,1700,M,M,M,M,M,M,M,M,M,87.18,VVTS 271100Z 19007KT 9999 FEW015TCU SCT017 28/22 Q1008 NOSIG,M
VVTS,1/27/2012 11:30,106.6667,10.8167,80.6,71.6,74.11,160,7,0,29.8,M,6.21,M,FEW,SCT,   ,   ,1500,1700,M,M,M,M,M,M,M,M,M,84.57,VVTS 271130Z 16007KT 9999 FEW015TCU SCT017 27/22 Q1009 NOSIG,M
VVTS,1/27/2012 12:30,106.6667,10.8167,78.8,69.8,73.95,160,4,0,29.8,M,6.21,M,SCT,   ,   ,   ,1700,M,M,M,M,M,M,M,M,M,M,81.39,VVTS 271230Z 16004KT 140V200 9999 SCT017 26/21 Q1009 NOSIG,M
VVTS,1/27/2012 13:00,106.6667,10.8167,78.8,69.8,73.95,160,4,0,29.83,M,6.21,M,SCT,   ,   ,   ,1500,M,M,M,M,M,M,M,M,M,M,81.39,VVTS 271300Z 16004KT 9999 SCT015 26/21 Q1010 NOSIG,M
VVTS,1/27/2012 13:30,106.6667,10.8167,78.8,69.8,73.95,190,2,0,29.83,M,6.21,M,FEW,SCT,   ,   ,1500,4000,M,M,M,M,M,M,M,M,M,81.39,VVTS 271330Z 19002KT 9999 FEW015 SCT040 26/21 Q1010 NOSIG,M
VVTS,1/27/2012 14:00,106.6667,10.8167,75.2,69.8,83.32,M,1,0,29.83,M,6.21,M,FEW,SCT,   ,   ,1500,4000,M,M,M,M,M,M,M,M,M,76.34,VVTS 271400Z VRB01KT 9999 FEW015 SCT040 24/21 Q1010 NOSIG,M
VVTS,1/27/2012 14:30,106.6667,10.8167,78.8,69.8,73.95,M,1,0,29.85,M,6.21,M,FEW,SCT,   ,   ,1500,4000,M,M,M,M,M,M,M,M,M,81.39,VVTS 271430Z VRB01KT 9999 FEW015 SCT040 26/21 Q1011 NOSIG,M
VVTS,1/27/2012 15:00,106.6667,10.8167,75.2,69.8,83.32,250,2,0,29.83,M,6.21,M,FEW,SCT,   ,   ,1500,4000,M,M,M,M,M,M,M,M,M,76.34,VVTS 271500Z 25002KT 9999 FEW015 SCT040 24/21 Q1010 NOSIG,M
VVTS,1/27/2012 15:30,106.6667,10.8167,75.2,69.8,83.32,M,2,0,29.83,M,6.21,M,FEW,SCT,   ,   ,1500,4000,M,M,M,M,M,M,M,M,M,76.34,VVTS 271530Z VRB02KT 9999 FEW015 SCT040 24/21 Q1010 NOSIG,M
VVTS,1/27/2012 16:00,106.6667,10.8167,75.2,71.6,88.59,310,3,0,29.83,M,6.21,M,FEW,SCT,   ,   ,1500,4000,M,M,M,M,M,M,M,M,M,76.58,VVTS 271600Z 31003KT 9999 FEW015 SCT040 24/22 Q1010 NOSIG,M
VVTS,1/27/2012 16:30,106.6667,10.8167,75.2,69.8,83.32,M,2,0,29.83,M,6.21,M,FEW,SCT,   ,   ,1500,4000,M,M,M,M,M,M,M,M,M,76.34,VVTS 271630Z VRB02KT 9999 FEW015 SCT040 24/21 Q1010 NOSIG,M
VVTS,1/27/2012 17:00,106.6667,10.8167,73.4,69.8,88.51,M,1,0,29.83,M,6.21,M,FEW,SCT,   ,   ,1500,4000,M,M,M,M,M,M,M,M,M,74.6,VVTS 271700Z VRB01KT 9999 FEW015 SCT040 23/21 Q1010 NOSIG,M
VVTS,1/27/2012 17:30,106.6667,10.8167,75.2,71.6,88.59,0,0,0,29.83,M,6.21,M,FEW,SCT,   ,   ,1500,4000,M,M,M,M,M,M,M,M,M,76.58,VVTS 271730Z 00000KT 9999 FEW015 SCT040 24/22 Q1010 NOSIG,M
VVTS,1/27/2012 18:00,106.6667,10.8167,75.2,71.6,88.59,M,1,0,29.8,M,6.21,M,FEW,SCT,   ,   ,1500,4000,M,M,M,M,M,M,M,M,M,76.58,VVTS 271800Z VRB01KT 9999 FEW015 SCT040 24/22 Q1009 NOSIG,M
VVTS,1/27/2012 18:30,106.6667,10.8167,73.4,69.8,88.51,290,1,0,29.8,M,6.21,M,FEW,SCT,   ,   ,1500,4000,M,M,M,M,M,M,M,M,M,74.6,VVTS 271830Z 29001KT 9999 FEW015 SCT040 23/21 Q1009 NOSIG,M
VVTS,1/27/2012 19:00,106.6667,10.8167,73.4,69.8,88.51,310,2,0,29.8,M,6.21,M,FEW,SCT,   ,   ,1500,4000,M,M,M,M,M,M,M,M,M,74.6,VVTS 271900Z 31002KT 9999 FEW015 SCT040 23/21 Q1009 NOSIG,M
VVTS,1/27/2012 19:30,106.6667,10.8167,73.4,69.8,88.51,320,3,0,29.77,M,6.21,M,FEW,SCT,   ,   ,1500,4000,M,M,M,M,M,M,M,M,M,74.6,VVTS 271930Z 32003KT 9999 FEW015 SCT040 23/21 Q1008 NOSIG,M
VVTS,1/27/2012 20:00,106.6667,10.8167,73.4,69.8,88.51,40,2,0,29.77,M,6.21,M,FEW,SCT,   ,   ,1500,4000,M,M,M,M,M,M,M,M,M,74.6,VVTS 272000Z 04002KT 9999 FEW015 SCT040 23/21 Q1008 NOSIG,M
VVTS,1/27/2012 20:30,106.6667,10.8167,73.4,69.8,88.51,M,2,0,29.77,M,6.21,M,FEW,SCT,   ,   ,1500,4000,M,M,M,M,M,M,M,M,M,74.6,VVTS 272030Z VRB02KT 9999 FEW015 SCT040 23/21 Q1008 NOSIG,M
VVTS,1/27/2012 21:00,106.6667,10.8167,73.4,69.8,88.51,10,2,0,29.77,M,6.21,M,FEW,SCT,   ,   ,1500,4000,M,M,M,M,M,M,M,M,M,74.6,VVTS 272100Z 01002KT 9999 FEW015 SCT040 23/21 Q1008 NOSIG,M
VVTS,1/27/2012 21:30,106.6667,10.8167,73.4,71.6,94.1,350,3,0,29.77,M,6.21,M,FEW,SCT,   ,   ,1500,4000,M,M,M,M,M,M,M,M,M,74.86,VVTS 272130Z 35003KT 9999 FEW015 SCT040 23/22 Q1008 NOSIG,M
VVTS,1/27/2012 22:00,106.6667,10.8167,71.6,71.6,100,360,1,0,29.8,M,6.21,M,FEW,SCT,   ,   ,1500,4000,M,M,M,M,M,M,M,M,M,73.16,VVTS 272200Z 36001KT 9999 FEW015 SCT040 22/22 Q1009 NOSIG,M
VVTS,1/27/2012 22:30,106.6667,10.8167,M,71.6,M,350,3,0,29.8,M,M,M,   ,   ,   ,   ,M,M,M,M,M,M,M,M,M,M,M,M,VVTS 272230Z 35003KT 9992/22 Q1009 NOSIG,M
VVTS,1/27/2012 23:00,106.6667,10.8167,71.6,69.8,94.06,20,3,0,29.8,M,6.21,M,FEW,SCT,   ,   ,1500,4000,M,M,M,M,M,M,M,M,M,72.88,VVTS 272300Z 02003KT 9999 FEW015 SCT040 22/21 Q1009 NOSIG,M
VVTS,1/27/2012 23:30,106.6667,10.8167,71.6,71.6,100,30,3,0,29.8,M,4.97,M,FEW,SCT,   ,   ,1500,4000,M,M,M,M,M,M,M,M,M,73.16,VVTS 272330Z 03003KT 8000 FEW015 SCT040 22/22 Q1009 NOSIG,M
VVTS,1/28/2012 0:00,106.6667,10.8167,71.6,71.6,100,10,5,0,29.8,M,5.59,M,FEW,SCT,   ,   ,1500,4000,M,M,M,M,M,M,M,M,M,73.16,VVTS 280000Z 01005KT 9000 FEW015 SCT040 22/22 Q1009 NOSIG,M
VVTS,1/28/2012 0:30,106.6667,10.8167,73.4,73.4,100,10,5,0,29.83,M,6.21,M,FEW,SCT,   ,   ,1500,4000,M,M,M,M,M,M,M,M,M,75.14,VVTS 280030Z 01005KT 9999 FEW015 SCT040 23/23 Q1010 NOSIG,M
VVTS,1/28/2012 1:00,106.6667,10.8167,77,71.6,83.44,360,5,0,29.83,M,6.21,M,FEW,   ,   ,   ,1500,M,M,M,M,M,M,M,M,M,M,78.32,VVTS 280100Z 36005KT 9999 FEW015 25/22 Q1010 NOSIG,M
VVTS,1/28/2012 1:30,106.6667,10.8167,78.8,73.4,83.55,350,6,0,29.85,M,6.21,M,FEW,   ,   ,   ,1500,M,M,M,M,M,M,M,M,M,M,82.03,VVTS 280130Z 35006KT 280V050 9999 FEW015 26/23 Q1011 NOSIG,M
VVTS,1/28/2012 2:00,106.6667,10.8167,80.6,73.4,78.76,350,6,0,29.85,M,6.21,M,FEW,   ,   ,   ,1700,M,M,M,M,M,M,M,M,M,M,85.32,VVTS 280200Z 35006KT 310V020 9999 FEW017 27/23 Q1011 NOSIG,M
VVTS,1/28/2012 2:30,106.6667,10.8167,82.4,73.4,74.28,350,6,0,29.85,M,6.21,M,FEW,   ,   ,   ,1700,M,M,M,M,M,M,M,M,M,M,88.26,VVTS 280230Z 35006KT 320V020 9999 FEW017 28/23 Q1011 NOSIG,M
VVTS,1/28/2012 3:00,106.6667,10.8167,84.2,73.4,70.08,340,7,0,29.85,M,6.21,M,FEW,   ,   ,   ,1700,M,M,M,M,M,M,M,M,M,M,90.94,VVTS 280300Z 34007KT 280V020 9999 FEW017 29/23 Q1011 NOSIG,M
VVTS,1/28/2012 3:30,106.6667,10.8167,84.2,73.4,70.08,340,6,0,29.83,M,6.21,M,FEW,   ,   ,   ,1700,M,M,M,M,M,M,M,M,M,M,90.94,VVTS 280330Z 34006KT 310V020 9999 FEW017 29/23 Q1010 NOSIG,M
VVTS,1/28/2012 4:00,106.6667,10.8167,84.2,71.6,65.95,360,4,0,29.83,M,6.21,M,FEW,BKN,   ,   ,1700,4000,M,M,M,M,M,M,M,M,M,89.6,VVTS 280400Z 36004KT 270V070 9999 FEW017 BKN040 29/22 Q1010 NOSIG,M
VVTS,1/28/2012 4:30,106.6667,10.8167,84.2,71.6,65.95,360,4,0,29.83,M,6.21,M,FEW,BKN,   ,   ,1700,4000,M,M,M,M,M,M,M,M,M,89.6,VVTS 280430Z 36004KT 300V060 9999 FEW017 BKN040 29/22 Q1010 NOSIG,M
VVTS,1/28/2012 5:00,106.6667,10.8167,87.8,71.6,58.78,M,3,0,29.8,M,6.21,M,FEW,BKN,   ,   ,1700,4000,M,M,M,M,M,M,M,M,M,94.18,VVTS 280500Z VRB03KT 9999 FEW017 BKN040 31/22 Q1009 NOSIG,M
VVTS,1/28/2012 5:30,106.6667,10.8167,89.6,71.6,55.53,90,4,0,29.77,M,6.21,M,FEW,SCT,   ,   ,1700,4000,M,M,M,M,M,M,M,M,M,96.41,VVTS 280530Z 09004KT 030V190 9999 FEW017 SCT040 32/22 Q1008 NOSIG,M
VVTS,1/28/2012 6:00,106.6667,10.8167,91.4,69.8,49.36,120,5,0,29.77,M,6.21,M,FEW,SCT,M,M,1700,4000,M,M,M,M,M,M,M,M,M,96.99,VVTS 280600Z 12005KT 010V170 9999 FEW017 SCT040 33/21 Q1008 NOSIG,M
VVTS,1/28/2012 6:30,106.6667,10.8167,87.8,69.8,55.29,120,7,0,29.74,M,6.21,M,FEW,SCT,M,M,1700,4000,M,M,M,M,M,M,M,M,M,92.71,VVTS 280630Z 12007KT 090V150 9999 FEW017 SCT040 31/21 Q1007 NOSIG,M
VVTS,1/28/2012 7:00,106.6667,10.8167,87.8,69.8,55.29,130,8,0,29.74,M,6.21,M,SCT,SCT,M,M,2000,4000,M,M,M,M,M,M,M,M,M,92.71,VVTS 280700Z 13008KT 090V160 9999 SCT020 SCT040 31/21 Q1007 NOSIG,M
VVTS,1/28/2012 7:30,106.6667,10.8167,86,71.6,62.25,130,8,0,29.71,M,6.21,M,SCT,SCT,M,M,2000,4000,M,M,M,M,M,M,M,M,M,91.92,VVTS 280730Z 13008KT 9999 SCT020 SCT040 30/22 Q1006 NOSIG,M
VVTS,1/28/2012 8:00,106.6667,10.8167,86,71.6,62.25,130,7,0,29.71,M,6.21,M,FEW,BKN,M,M,2000,4000,M,M,M,M,M,M,M,M,M,91.92,VVTS 280800Z 13007KT 9999 FEW020 BKN040 30/22 Q1006 NOSIG,M
VVTS,1/28/2012 8:30,106.6667,10.8167,87.8,71.6,58.78,110,6,0,29.71,M,6.21,M,FEW,BKN,M,M,2000,4000,M,M,M,M,M,M,M,M,M,94.18,VVTS 280830Z 11006KT 080V160 9999 FEW020 BKN040 31/22 Q1006 NOSIG,M
VVTS,1/28/2012 9:00,106.6667,10.8167,86,71.6,62.25,130,6,0,29.71,M,6.21,M,FEW,BKN,M,M,2000,4000,M,M,M,M,M,M,M,M,M,91.92,VVTS 280900Z 13006KT 090V170 9999 FEW020 BKN040 30/22 Q1006 NOSIG,M
VVTS,1/28/2012 9:30,106.6667,10.8167,84.2,71.6,65.95,130,5,0,29.71,M,6.21,M,FEW,BKN,M,M,2000,4000,M,M,M,M,M,M,M,M,M,89.6,VVTS 280930Z 13005KT 9999 FEW020 BKN040 29/22 Q1006 NOSIG,M
VVTS,1/28/2012 10:00,106.6667,10.8167,84.2,71.6,65.95,120,5,0,29.71,M,6.21,M,FEW,BKN,M,M,2000,4000,M,M,M,M,M,M,M,M,M,89.6,VVTS 281000Z 12005KT 090V150 9999 FEW020 BKN040 29/22 Q1006 NOSIG,M
VVTS,1/28/2012 10:30,106.6667,10.8167,84.2,71.6,65.95,140,5,0,29.74,M,6.21,M,FEW,BKN,M,M,2000,4000,M,M,M,M,M,M,M,M,M,89.6,VVTS 281030Z 14005KT 9999 FEW020 BKN040 29/22 Q1007 NOSIG,M
VVTS,1/28/2012 11:30,106.6667,10.8167,82.4,73.4,74.28,170,6,0,29.74,M,6.21,M,FEW,BKN,M,M,1700,4000,M,M,M,M,M,M,M,M,M,88.26,VVTS 281130Z 17006KT 9999 FEW017 BKN040 28/23 Q1007 NOSIG,M
VVTS,1/28/2012 12:00,106.6667,10.8167,80.6,73.4,78.76,170,5,0,29.77,M,6.21,M,FEW,BKN,M,M,1700,4000,M,M,M,M,M,M,M,M,M,85.32,VVTS 281200Z 17005KT 9999 FEW017 BKN040 27/23 Q1008 NOSIG,M
VVTS,1/28/2012 12:30,106.6667,10.8167,80.6,71.6,74.11,170,4,0,29.77,M,6.21,M,FEW,BKN,M,M,1700,4000,M,M,M,M,M,M,M,M,M,84.57,VVTS 281230Z 17004KT 9999 FEW017 BKN040 27/22 Q1008 NOSIG,M
VVTS,1/28/2012 13:00,106.6667,10.8167,80.6,71.6,74.11,170,4,0,29.77,M,6.21,M,FEW,BKN,M,M,1700,4000,M,M,M,M,M,M,M,M,M,84.57,VVTS 281300Z 17004KT 130V200 9999 FEW017 BKN040 27/22 Q1008 NOSIG,M
VVTS,1/28/2012 13:30,106.6667,10.8167,80.6,71.6,74.11,M,3,0,29.8,M,6.21,M,FEW,BKN,M,M,1700,4000,M,M,M,M,M,M,M,M,M,84.57,VVTS 281330Z VRB03KT 9999 FEW017 BKN040 27/22 Q1009 NOSIG,M
VVTS,1/28/2012 14:00,106.6667,10.8167,80.6,71.6,74.11,M,2,0,29.8,M,6.21,M,FEW,BKN,M,M,1700,4000,M,M,M,M,M,M,M,M,M,84.57,VVTS 281400Z VRB02KT 9999 FEW017 BKN040 27/22 Q1009 NOSIG,M
VVTS,1/28/2012 14:30,106.6667,10.8167,78.8,71.6,78.62,M,2,0,29.8,M,6.21,M,FEW,BKN,M,M,1700,4000,M,M,M,M,M,M,M,M,M,81.7,VVTS 281430Z VRB02KT 9999 FEW017 BKN040 26/22 Q1009 NOSIG,M
VVTS,1/28/2012 15:00,106.6667,10.8167,78.8,71.6,78.62,250,3,0,29.8,M,6.21,M,FEW,BKN,M,M,1700,4000,M,M,M,M,M,M,M,M,M,81.7,VVTS 281500Z 25003KT 9999 FEW017 BKN040 26/22 Q1009 NOSIG,M
VVTS,1/28/2012 15:30,106.6667,10.8167,78.8,71.6,78.62,M,2,0,29.8,M,6.21,M,FEW,BKN,M,M,1700,4000,M,M,M,M,M,M,M,M,M,81.7,VVTS 281530Z VRB02KT 9999 FEW017 BKN040 26/22 Q1009 NOSIG,M
VVTS,1/28/2012 16:00,106.6667,10.8167,78.8,71.6,78.62,M,2,0,29.83,M,6.21,M,FEW,BKN,M,M,1700,4000,M,M,M,M,M,M,M,M,M,81.7,VVTS 281600Z VRB02KT 9999 FEW017 BKN040 26/22 Q1010 NOSIG,M
VVTS,1/28/2012 16:30,106.6667,10.8167,78.8,71.6,78.62,M,1,0,29.8,M,6.21,M,FEW,BKN,M,M,1700,4000,M,M,M,M,M,M,M,M,M,81.7,VVTS 281630Z VRB01KT 9999 FEW017 BKN040 26/22 Q1009 NOSIG,M
VVTS,1/28/2012 17:00,106.6667,10.8167,78.8,71.6,78.62,0,0,0,29.83,M,6.21,M,FEW,BKN,M,M,1700,4000,M,M,M,M,M,M,M,M,M,81.7,VVTS 281700Z 00000KT 9999 FEW017 BKN040 26/22 Q1010 NOSIG,M
VVTS,1/28/2012 17:30,106.6667,10.8167,78.8,71.6,78.62,M,2,0,29.8,M,6.21,M,FEW,BKN,M,M,1700,4000,M,M,M,M,M,M,M,M,M,81.7,VVTS 281730Z VRB02KT 9999 FEW017 BKN040 26/22 Q1009 NOSIG,M
VVTS,1/28/2012 18:00,106.6667,10.8167,78.8,71.6,78.62,300,3,0,29.8,M,6.21,M,FEW,BKN,M,M,1700,4000,M,M,M,M,M,M,M,M,M,81.7,VVTS 281800Z 30003KT 9999 FEW017 BKN040 26/22 Q1009 NOSIG,M
VVTS,1/28/2012 19:00,106.6667,10.8167,78.8,73.4,83.55,M,2,0,29.8,M,6.21,M,FEW,BKN,M,M,1700,4000,M,M,M,M,M,M,M,M,M,82.03,VVTS 281900Z VRB02KT 9999 FEW017 BKN040 26/23 Q1009 NOSIG,M
VVTS,1/28/2012 19:30,106.6667,10.8167,77,73.4,88.67,M,1,0,29.77,M,6.21,M,FEW,BKN,M,M,1700,4000,M,M,M,M,M,M,M,M,M,78.57,VVTS 281930Z VRB01KT 9999 FEW017 BKN040 25/23 Q1008 NOSIG,M
VVTS,1/28/2012 20:00,106.6667,10.8167,77,73.4,88.67,M,3,0,29.77,M,6.21,M,FEW,BKN,M,M,1700,4000,M,M,M,M,M,M,M,M,M,78.57,VVTS 282000Z VRB03KT 9999 FEW017 BKN040 25/23 Q1008 NOSIG,M
VVTS,1/28/2012 20:30,106.6667,10.8167,78.8,69.8,73.95,90,5,0,29.77,M,6.21,M,FEW,BKN,M,M,1700,4000,M,M,M,M,M,M,M,M,M,81.39,VVTS 282030Z 09005KT 9999 FEW017 BKN040 26/21 Q1008 NOSIG,M
VVTS,1/28/2012 21:00,106.6667,10.8167,78.8,69.8,73.95,90,7,0,29.8,M,6.21,M,FEW,BKN,M,M,1700,4000,M,M,M,M,M,M,M,M,M,81.39,VVTS 282100Z 09007KT 9999 FEW017 BKN040 26/21 Q1009 NOSIG,M
VVTS,1/28/2012 21:30,106.6667,10.8167,77,69.8,78.48,50,6,0,29.8,M,6.21,M,FEW,BKN,M,M,1700,4000,M,M,M,M,M,M,M,M,M,78.09,VVTS 282130Z 05006KT 9999 FEW017 BKN040 25/21 Q1009 NOSIG,M
VVTS,1/28/2012 22:00,106.6667,10.8167,77,69.8,78.48,40,6,0,29.77,M,6.21,M,FEW,BKN,M,M,1700,4000,M,M,M,M,M,M,M,M,M,78.09,VVTS 282200Z 04006KT 9999 FEW017 BKN040 25/21 Q1008 NOSIG,M
VVTS,1/28/2012 22:30,106.6667,10.8167,75.2,69.8,83.32,40,7,0,29.8,M,6.21,M,FEW,SCT,M,M,1700,4000,M,M,M,M,M,M,M,M,M,76.34,VVTS 282230Z 04007KT 9999 FEW017 SCT040 24/21 Q1009 NOSIG,M
VVTS,1/28/2012 23:00,106.6667,10.8167,75.2,69.8,83.32,40,6,0,29.77,M,6.21,M,FEW,SCT,M,M,1700,4000,M,M,M,M,M,M,M,M,M,76.34,VVTS 282300Z 04006KT 9999 FEW017 SCT040 24/21 Q1008 NOSIG,M
VVTS,1/28/2012 23:30,106.6667,10.8167,75.2,71.6,88.59,50,8,0,29.8,M,6.21,M,FEW,SCT,M,M,1700,4000,M,M,M,M,M,M,M,M,M,76.58,VVTS 282330Z 05008KT 9999 FEW017 SCT040 24/22 Q1009 NOSIG,M
VVTS,1/29/2012 0:00,106.6667,10.8167,75.2,71.6,88.59,30,7,0,29.8,M,6.21,M,FEW,BKN,M,M,1700,4000,M,M,M,M,M,M,M,M,M,76.58,VVTS 290000Z 03007KT 9999 FEW017 BKN040 24/22 Q1009 NOSIG,M
VVTS,1/29/2012 0:30,106.6667,10.8167,77,73.4,88.67,40,6,0,29.8,M,6.21,M,FEW,BKN,M,M,1700,4000,M,M,M,M,M,M,M,M,M,78.57,VVTS 290030Z 04006KT 9999 FEW017 BKN040 25/23 Q1009 NOSIG,M
VVTS,1/29/2012 1:00,106.6667,10.8167,78.8,73.4,83.55,30,7,0,29.8,M,6.21,M,FEW,BKN,M,M,1700,4000,M,M,M,M,M,M,M,M,M,82.03,VVTS 290100Z 03007KT 9999 FEW017 BKN040 26/23 Q1009 NOSIG,M
VVTS,1/29/2012 1:30,106.6667,10.8167,80.6,73.4,78.76,20,8,0,29.8,M,6.21,M,FEW,SCT,M,M,1700,4000,M,M,M,M,M,M,M,M,M,85.32,VVTS 290130Z 02008KT 9999 FEW017 SCT040 27/23 Q1009 NOSIG,M
VVTS,1/29/2012 2:00,106.6667,10.8167,82.4,71.6,69.9,40,7,0,29.83,M,6.21,M,FEW,M,M,M,1700,M,M,M,M,M,M,M,M,M,M,87.18,VVTS 290200Z 04007KT 9999 FEW017 28/22 Q1010 NOSIG,M
VVTS,1/29/2012 2:30,106.6667,10.8167,82.4,69.8,65.74,50,5,0,29.83,M,6.21,M,FEW,M,M,M,1700,M,M,M,M,M,M,M,M,M,M,86.22,VVTS 290230Z 05005KT 360V080 9999 FEW017 28/21 Q1010 NOSIG,M
VVTS,1/29/2012 3:00,106.6667,10.8167,82.4,71.6,69.9,70,6,0,29.83,M,6.21,M,FEW,M,M,M,1700,M,M,M,M,M,M,M,M,M,M,87.18,VVTS 290300Z 07006KT 9999 FEW017 28/22 Q1010 NOSIG,M
VVTS,1/29/2012 3:30,106.6667,10.8167,82.4,71.6,69.9,40,5,0,29.83,M,6.21,M,FEW,SCT,M,M,1700,4000,M,M,M,M,M,M,M,M,M,87.18,VVTS 290330Z 04005KT 360V090 9999 FEW017 SCT040 28/22 Q1010 NOSIG,M
VVTS,1/29/2012 4:00,106.6667,10.8167,84.2,71.6,65.95,M,3,0,29.8,M,6.21,M,FEW,SCT,M,M,1700,4000,M,M,M,M,M,M,M,M,M,89.6,VVTS 290400Z VRB03KT 9999 FEW017 SCT040 29/22 Q1009 NOSIG,M
VVTS,1/29/2012 4:30,106.6667,10.8167,84.2,71.6,65.95,M,2,0,29.8,M,6.21,M,FEW,SCT,M,M,1700,4000,M,M,M,M,M,M,M,M,M,89.6,VVTS 290430Z VRB02KT 9999 FEW017 SCT040 29/22 Q1009 NOSIG,M
VVTS,1/29/2012 5:00,106.6667,10.8167,86,71.6,62.25,M,2,0,29.8,M,6.21,M,FEW,SCT,M,M,1700,4000,M,M,M,M,M,M,M,M,M,91.92,VVTS 290500Z VRB02KT 9999 FEW017 SCT040 30/22 Q1009 NOSIG,M
VVTS,1/29/2012 5:30,106.6667,10.8167,87.8,71.6,58.78,M,3,0,29.77,M,6.21,M,FEW,BKN,M,M,1700,4000,M,M,M,M,M,M,M,M,M,94.18,VVTS 290530Z VRB03KT 9999 FEW017 BKN040 31/22 Q1008 NOSIG,M
VVTS,1/29/2012 6:00,106.6667,10.8167,87.8,71.6,58.78,200,6,0,29.77,M,6.21,M,FEW,BKN,M,M,1700,4000,M,M,M,M,M,M,M,M,M,94.18,VVTS 290600Z 20006KT 150V240 9999 FEW017 BKN040 31/22 Q1008 NOSIG,M
VVTS,1/29/2012 6:30,106.6667,10.8167,84.2,71.6,65.95,170,9,0,29.74,M,6.21,M,FEW,BKN,M,M,1700,4000,M,M,M,M,M,M,M,M,M,89.6,VVTS 290630Z 17009KT 9999 FEW017 BKN040 29/22 Q1007 NOSIG,M
VVTS,1/29/2012 7:00,106.6667,10.8167,86,71.6,62.25,190,5,0,29.74,M,6.21,M,FEW,BKN,M,M,1700,4000,M,M,M,M,M,M,M,M,M,91.92,VVTS 290700Z 19005KT 150V220 9999 FEW017 BKN040 30/22 Q1007 NOSIG,M
VVTS,1/29/2012 7:30,106.6667,10.8167,89.6,73.4,59.01,220,5,0,29.71,M,6.21,M,FEW,BKN,M,M,1700,4000,M,M,M,M,M,M,M,M,M,98.2,VVTS 290730Z 22005KT 140V280 9999 FEW017 BKN040 32/23 Q1006 NOSIG,M
VVTS,1/29/2012 8:00,106.6667,10.8167,89.6,71.6,55.53,220,6,0,29.71,M,6.21,M,FEW,BKN,M,M,1700,4000,M,M,M,M,M,M,M,M,M,96.41,VVTS 290800Z 22006KT 180V260 9999 FEW017 BKN040 32/22 Q1006 NOSIG,M
VVTS,1/29/2012 8:30,106.6667,10.8167,86,71.6,62.25,240,5,0,29.71,M,6.21,M,FEW,BKN,M,M,1700,4000,M,M,M,M,M,M,M,M,M,91.92,VVTS 290830Z 24005KT 200V270 9999 FEW017 BKN040 30/22 Q1006 NOSIG,M
VVTS,1/29/2012 9:00,106.6667,10.8167,86,71.6,62.25,150,8,0,29.71,M,6.21,M,SCT,BKN,M,M,1500,4000,M,M,M,M,M,M,M,M,M,91.92,VVTS 290900Z 15008KT 110V180 9999 SCT015 BKN040 30/22 Q1006 NOSIG,M
VVTS,1/29/2012 9:30,106.6667,10.8167,84.2,71.6,65.95,170,8,0,29.71,M,6.21,M,SCT,SCT,M,M,1500,4000,M,M,M,M,M,M,M,M,M,89.6,VVTS 290930Z 17008KT 9999 SCT015 SCT040 29/22 Q1006 NOSIG,M
VVTS,1/29/2012 10:00,106.6667,10.8167,84.2,69.8,62.03,160,7,0,29.71,M,6.21,M,SCT,SCT,M,M,1500,4000,M,M,M,M,M,M,M,M,M,88.43,VVTS 291000Z 16007KT 130V200 9999 SCT015 SCT040 29/21 Q1006 NOSIG,M
VVTS,1/29/2012 10:30,106.6667,10.8167,84.2,69.8,62.03,100,9,0,29.74,M,6.21,M,FEW,SCT,M,M,1500,4000,M,M,M,M,M,M,M,M,M,88.43,VVTS 291030Z 10009KT 9999 FEW015 SCT040 29/21 Q1007 NOSIG,M
VVTS,1/29/2012 11:00,106.6667,10.8167,82.4,71.6,69.9,150,4,0,29.74,M,6.21,M,FEW,SCT,M,M,1500,4000,M,M,M,M,M,M,M,M,M,87.18,VVTS 291100Z 15004KT 090V210 9999 FEW015 SCT040 28/22 Q1007 NOSIG,M
VVTS,1/29/2012 11:30,106.6667,10.8167,82.4,71.6,69.9,170,3,0,29.74,M,6.21,M,FEW,SCT,M,M,1700,4000,M,M,M,M,M,M,M,M,M,87.18,VVTS 291130Z 17003KT 9999 FEW017 SCT040 28/22 Q1007 NOSIG,M
VVTS,1/29/2012 12:00,106.6667,10.8167,80.6,71.6,74.11,170,5,0,29.74,M,6.21,M,FEW,M,M,M,1700,M,M,M,M,M,M,M,M,M,M,84.57,VVTS 291200Z 17005KT 9999 FEW017 27/22 Q1007 NOSIG,M
VVTS,1/29/2012 12:30,106.6667,10.8167,80.6,71.6,74.11,M,3,0,29.77,M,6.21,M,FEW,M,M,M,1700,M,M,M,M,M,M,M,M,M,M,84.57,VVTS 291230Z VRB03KT 9999 FEW017 27/22 Q1008 NOSIG,M
VVTS,1/29/2012 13:00,106.6667,10.8167,78.8,71.6,78.62,220,5,0,29.77,M,6.21,M,FEW,M,M,M,1700,M,M,M,M,M,M,M,M,M,M,81.7,VVTS 291300Z 22005KT 9999 FEW017 26/22 Q1008 NOSIG,M
VVTS,1/29/2012 13:30,106.6667,10.8167,80.6,71.6,74.11,130,5,0,29.8,M,6.21,M,FEW,M,M,M,1700,M,M,M,M,M,M,M,M,M,M,84.57,VVTS 291330Z 13005KT 110V200 9999 FEW017 27/22 Q1009 NOSIG,M
VVTS,1/29/2012 14:00,106.6667,10.8167,80.6,69.8,69.71,130,6,0,29.8,M,6.21,M,FEW,M,M,M,1700,M,M,M,M,M,M,M,M,M,M,83.9,VVTS 291400Z 13006KT 9999 FEW017 27/21 Q1009 NOSIG,M
VVTS,1/29/2012 14:30,106.6667,10.8167,80.6,71.6,74.11,110,7,0,29.8,M,6.21,M,FEW,M,M,M,1700,M,M,M,M,M,M,M,M,M,M,84.57,VVTS 291430Z 11007KT 9999 FEW017 27/22 Q1009 NOSIG,M
VVTS,1/29/2012 15:00,106.6667,10.8167,78.8,71.6,78.62,110,7,0,29.8,M,6.21,M,FEW,M,M,M,1700,M,M,M,M,M,M,M,M,M,M,81.7,VVTS 291500Z 11007KT 9999 FEW017 26/22 Q1009 NOSIG,M
VVTS,1/29/2012 15:30,106.6667,10.8167,78.8,71.6,78.62,120,9,0,29.8,M,6.21,M,FEW,M,M,M,1700,M,M,M,M,M,M,M,M,M,M,81.7,VVTS 291530Z 12009KT 9999 FEW017 26/22 Q1009 NOSIG,M
VVTS,1/29/2012 16:00,106.6667,10.8167,78.8,71.6,78.62,110,7,0,29.8,M,6.21,M,FEW,SCT,M,M,1700,4000,M,M,M,M,M,M,M,M,M,81.7,VVTS 291600Z 11007KT 9999 FEW017 SCT040 26/22 Q1009 NOSIG,M
VVTS,1/29/2012 16:30,106.6667,10.8167,78.8,71.6,78.62,120,7,0,29.8,M,6.21,M,FEW,SCT,M,M,1700,4000,M,M,M,M,M,M,M,M,M,81.7,VVTS 291630Z 12007KT 9999 FEW017 SCT040 26/22 Q1009 NOSIG,M
VVTS,1/29/2012 17:00,106.6667,10.8167,78.8,71.6,78.62,120,8,0,29.8,M,6.21,M,FEW,SCT,M,M,1700,4000,M,M,M,M,M,M,M,M,M,81.7,VVTS 291700Z 12008KT 9999 FEW017 SCT040 26/22 Q1009 NOSIG,M
VVTS,1/29/2012 17:30,106.6667,10.8167,77,71.6,83.44,60,7,0,29.8,M,6.21,M,FEW,SCT,M,M,1700,4000,M,M,M,M,M,M,M,M,M,78.32,VVTS 291730Z 06007KT 9999 FEW017 SCT040 25/22 Q1009 NOSIG,M
VVTS,1/29/2012 18:00,106.6667,10.8167,77,71.6,83.44,70,5,0,29.8,M,6.21,M,FEW,SCT,M,M,1700,4000,M,M,M,M,M,M,M,M,M,78.32,VVTS 291800Z 07005KT 9999 FEW017 SCT040 25/22 Q1009 NOSIG,M
VVTS,1/29/2012 18:30,106.6667,10.8167,75.2,71.6,88.59,70,4,0,29.8,M,6.21,M,FEW,SCT,M,M,1700,4000,M,M,M,M,M,M,M,M,M,76.58,VVTS 291830Z 07004KT 9999 FEW017 SCT040 24/22 Q1009 NOSIG,M
VVTS,1/29/2012 19:00,106.6667,10.8167,75.2,71.6,88.59,20,3,0,29.77,M,6.21,M,FEW,SCT,M,M,1700,4000,M,M,M,M,M,M,M,M,M,76.58,VVTS 291900Z 02003KT 9999 FEW017 SCT040 24/22 Q1008 NOSIG,M
VVTS,1/29/2012 19:30,106.6667,10.8167,75.2,73.4,94.14,10,4,0,29.77,M,6.21,M,FEW,SCT,M,M,1700,4000,M,M,M,M,M,M,M,M,M,76.84,VVTS 291930Z 01004KT 9999 FEW017 SCT040 24/23 Q1008 NOSIG,M
VVTS,1/29/2012 20:00,106.6667,10.8167,75.2,73.4,94.14,10,2,0,29.77,M,6.21,M,FEW,SCT,M,M,1700,4000,M,M,M,M,M,M,M,M,M,76.84,VVTS 292000Z 01002KT 9999 FEW017 SCT040 24/23 Q1008 NOSIG,M
VVTS,1/29/2012 20:30,106.6667,10.8167,75.2,73.4,94.14,M,2,0,29.77,M,6.21,M,FEW,SCT,M,M,1700,4000,M,M,M,M,M,M,M,M,M,76.84,VVTS 292030Z VRB02KT 9999 FEW017 SCT040 24/23 Q1008 NOSIG,M
VVTS,1/29/2012 21:00,106.6667,10.8167,75.2,73.4,94.14,100,4,0,29.8,M,6.21,M,FEW,SCT,M,M,1700,4000,M,M,M,M,M,M,M,M,M,76.84,VVTS 292100Z 10004KT 060V150 9999 FEW017 SCT040 24/23 Q1009 NOSIG,M
VVTS,1/29/2012 21:30,106.6667,10.8167,75.2,73.4,94.14,60,2,0,29.8,M,6.21,M,FEW,SCT,M,M,1700,4000,M,M,M,M,M,M,M,M,M,76.84,VVTS 292130Z 06002KT 9999 FEW017 SCT040 24/23 Q1009 NOSIG,M
VVTS,1/29/2012 22:00,106.6667,10.8167,75.2,73.4,94.14,40,2,0,29.8,M,6.21,M,FEW,SCT,M,M,1700,4000,M,M,M,M,M,M,M,M,M,76.84,VVTS 292200Z 04002KT 9999 FEW017 SCT040 24/23 Q1009 NOSIG,M
VVTS,1/29/2012 22:30,106.6667,10.8167,73.4,73.4,100,50,2,0,29.8,M,6.21,M,FEW,SCT,M,M,1700,4000,M,M,M,M,M,M,M,M,M,75.14,VVTS 292230Z 05002KT 9999 FEW017 SCT040 23/23 Q1009 NOSIG,M
VVTS,1/29/2012 23:00,106.6667,10.8167,73.4,73.4,100,50,2,0,29.8,M,6.21,M,FEW,SCT,M,M,1700,4000,M,M,M,M,M,M,M,M,M,75.14,VVTS 292300Z 05002KT 9999 FEW017 SCT040 23/23 Q1009 NOSIG,M
VVTS,1/29/2012 23:30,106.6667,10.8167,73.4,73.4,100,40,1,0,29.83,M,6.21,M,FEW,SCT,M,M,1700,4000,M,M,M,M,M,M,M,M,M,75.14,VVTS 292330Z 04001KT 9999 FEW017 SCT040 23/23 Q1010 NOSIG,M
VVTS,1/30/2012 0:00,106.6667,10.8167,73.4,73.4,100,40,1,0,29.83,M,6.21,M,FEW,BKN,M,M,1700,4000,M,M,M,M,M,M,M,M,M,75.14,VVTS 300000Z 04001KT 9999 FEW017 BKN040 23/23 Q1010 NOSIG,M
VVTS,1/30/2012 0:30,106.6667,10.8167,78.8,75.2,88.75,80,5,0,29.85,M,6.21,M,FEW,SCT,M,M,1700,4000,M,M,M,M,M,M,M,M,M,82.38,VVTS 300030Z 08005KT 9999 FEW017 SCT040 26/24 Q1011 NOSIG,M
VVTS,1/30/2012 1:00,106.6667,10.8167,80.6,73.4,78.76,90,8,0,29.85,M,6.21,M,FEW,SCT,M,M,1700,4000,M,M,M,M,M,M,M,M,M,85.32,VVTS 300100Z 09008KT 9999 FEW017 SCT040 27/23 Q1011 NOSIG,M
VVTS,1/30/2012 1:30,106.6667,10.8167,80.6,73.4,78.76,100,6,0,29.85,M,6.21,M,FEW,M,M,M,2000,M,M,M,M,M,M,M,M,M,M,85.32,VVTS 300130Z 10006KT 070V130 9999 FEW020 27/23 Q1011 NOSIG,M
VVTS,1/30/2012 2:00,106.6667,10.8167,82.4,73.4,74.28,70,4,0,29.85,M,6.21,M,FEW,M,M,M,2000,M,M,M,M,M,M,M,M,M,M,88.26,VVTS 300200Z 07004KT 360V150 9999 FEW020 28/23 Q1011 NOSIG,M
VVTS,1/30/2012 2:30,106.6667,10.8167,84.2,71.6,65.95,80,5,0,29.85,M,6.21,M,FEW,M,M,M,2000,M,M,M,M,M,M,M,M,M,M,89.6,VVTS 300230Z 08005KT 030V140 9999 FEW020 29/22 Q1011 NOSIG,M
VVTS,1/30/2012 3:00,106.6667,10.8167,86,71.6,62.25,110,7,0,29.85,M,6.21,M,FEW,M,M,M,2000,M,M,M,M,M,M,M,M,M,M,91.92,VVTS 300300Z 11007KT 080V140 9999 FEW020 30/22 Q1011 NOSIG,M
VVTS,1/30/2012 3:30,106.6667,10.8167,87.8,69.8,55.29,80,6,0,29.85,M,6.21,M,FEW,M,M,M,2000,M,M,M,M,M,M,M,M,M,M,92.71,VVTS 300330Z 08006KT 010V120 9999 FEW020 31/21 Q1011 NOSIG,M
VVTS,1/30/2012 4:00,106.6667,10.8167,89.6,69.8,52.23,90,9,0,29.85,M,6.21,M,SCT,M,M,M,2000,M,M,M,M,M,M,M,M,M,M,94.85,VVTS 300400Z 09009KT 040V140 9999 SCT020 32/21 Q1011 NOSIG,M
VVTS,1/30/2012 4:30,106.6667,10.8167,89.6,69.8,52.23,110,8,0,29.83,M,6.21,M,SCT,M,M,M,2000,M,M,M,M,M,M,M,M,M,M,94.85,VVTS 300430Z 11008KT 090V160 9999 SCT020 32/21 Q1010 NOSIG,M
VVTS,1/30/2012 5:00,106.6667,10.8167,89.6,69.8,52.23,110,6,0,29.83,M,6.21,M,BKN,M,M,M,1700,M,M,M,M,M,M,M,M,M,M,94.85,VVTS 300500Z 11006KT 9999 BKN017 32/21 Q1010 NOSIG,M
VVTS,1/30/2012 5:30,106.6667,10.8167,87.8,68,51.98,80,8,0,29.83,M,6.21,M,BKN,M,M,M,1500,M,M,M,M,M,M,M,M,M,M,91.43,VVTS 300530Z 08008KT 9999 BKN015 31/20 Q1010 NOSIG,M
VVTS,1/30/2012 6:00,106.6667,10.8167,89.6,68,49.1,90,7,0,29.8,M,6.21,M,BKN,M,M,M,1500,M,M,M,M,M,M,M,M,M,M,93.47,VVTS 300600Z 09007KT 050V170 9999 BKN015 32/20 Q1009 NOSIG,M
VVTS,1/30/2012 6:30,106.6667,10.8167,84.2,69.8,62.03,80,10,0,29.8,M,4.97,M,FEW,SCT,M,M,1500,1700,M,M,#NAME?,M,M,M,M,M,M,88.43,VVTS 300630Z 08010KT 050V130 8000 -RA FEW015TCU SCT017 29/21 Q1009 TEMPO TL0645 09010G22KT 5000 SHRA,M
VVTS,1/30/2012 7:00,106.6667,10.8167,80.6,73.4,78.76,110,7,0,29.8,M,6.21,M,FEW,SCT,M,M,1500,1700,M,M,M,M,M,M,M,M,M,85.32,VVTS 300700Z 11007KT 9999 FEW015TCU SCT017 27/23 Q1009 TEMPO TL0645 09010G22KT 5000 SHRA,M
VVTS,1/30/2012 7:30,106.6667,10.8167,84.2,73.4,70.08,M,3,0,29.77,M,6.21,M,FEW,SCT,M,M,1500,1700,M,M,M,M,M,M,M,M,M,90.94,VVTS 300730Z VRB03KT 9999 FEW015TCU SCT017 29/23 Q1008 NOSIG,M
VVTS,1/30/2012 8:00,106.6667,10.8167,82.4,71.6,69.9,130,12,0,29.77,M,6.21,M,FEW,SCT,M,M,1500,1700,M,M,M,M,M,M,M,M,M,87.18,VVTS 300800Z 13012KT 9999 FEW015TCU SCT017 28/22 Q1008 NOSIG,M
VVTS,1/30/2012 8:30,106.6667,10.8167,82.4,71.6,69.9,80,5,0,29.77,M,6.21,M,FEW,SCT,M,M,1500,1700,M,M,M,M,M,M,M,M,M,87.18,VVTS 300830Z 08005KT 9999 FEW015TCU SCT017 28/22 Q1008 NOSIG,M
VVTS,1/30/2012 9:00,106.6667,10.8167,84.2,71.6,65.95,80,3,0,29.77,M,6.21,M,FEW,SCT,M,M,1500,1700,M,M,M,M,M,M,M,M,M,89.6,VVTS 300900Z 08003KT 9999 FEW015TCU SCT017 29/22 Q1008 NOSIG,M
VVTS,1/30/2012 9:30,106.6667,10.8167,84.2,71.6,65.95,M,2,0,29.77,M,6.21,M,FEW,SCT,M,M,1500,4000,M,M,M,M,M,M,M,M,M,89.6,VVTS 300930Z VRB02KT 9999 FEW015 SCT040 29/22 Q1008 NOSIG,M
VVTS,1/30/2012 10:00,106.6667,10.8167,84.2,69.8,62.03,M,3,0,29.77,M,6.21,M,FEW,SCT,M,M,1500,4000,M,M,M,M,M,M,M,M,M,88.43,VVTS 301000Z VRB03KT 9999 FEW015 SCT040 29/21 Q1008 NOSIG,M
VVTS,1/30/2012 10:30,106.6667,10.8167,84.2,69.8,62.03,M,2,0,29.77,M,6.21,M,FEW,SCT,M,M,1500,4000,M,M,M,M,M,M,M,M,M,88.43,VVTS 301030Z VRB02KT 9999 FEW015 SCT040 29/21 Q1008 NOSIG,M
VVTS,1/30/2012 11:00,106.6667,10.8167,82.4,71.6,69.9,20,2,0,29.77,M,6.21,M,FEW,SCT,M,M,1700,4000,M,M,M,M,M,M,M,M,M,87.18,VVTS 301100Z 02002KT 9999 FEW017 SCT040 28/22 Q1008 NOSIG,M
VVTS,1/30/2012 11:30,106.6667,10.8167,82.4,71.6,69.9,10,2,0,29.8,M,6.21,M,FEW,SCT,M,M,1700,4000,M,M,M,M,M,M,M,M,M,87.18,VVTS 301130Z 01002KT 9999 FEW017 SCT040 28/22 Q1009 NOSIG,M
VVTS,1/30/2012 12:00,106.6667,10.8167,82.4,73.4,74.28,0,0,0,29.8,M,6.21,M,FEW,SCT,M,M,1700,4000,M,M,M,M,M,M,M,M,M,88.26,VVTS 301200Z 00000KT 9999 FEW017 SCT040 28/23 Q1009 NOSIG,M
VVTS,1/30/2012 12:30,106.6667,10.8167,80.6,73.4,78.76,50,2,0,29.8,M,6.21,M,FEW,SCT,M,M,1700,4000,M,M,M,M,M,M,M,M,M,85.32,VVTS 301230Z 05002KT 9999 FEW017 SCT040 27/23 Q1009 NOSIG,M
VVTS,1/30/2012 13:00,106.6667,10.8167,80.6,71.6,74.11,M,1,0,29.83,M,6.21,M,FEW,SCT,M,M,1700,4000,M,M,M,M,M,M,M,M,M,84.57,VVTS 301300Z VRB01KT 9999 FEW017 SCT040 27/22 Q1010 NOSIG,M
VVTS,1/30/2012 13:30,106.6667,10.8167,80.6,71.6,74.11,130,5,0,29.83,M,6.21,M,FEW,M,M,M,1700,M,M,M,M,M,M,M,M,M,M,84.57,VVTS 301330Z 13005KT 110V190 9999 FEW017 27/22 Q1010 NOSIG,M
VVTS,1/30/2012 14:00,106.6667,10.8167,78.8,71.6,78.62,80,6,0,29.85,M,6.21,M,FEW,M,M,M,1700,M,M,M,M,M,M,M,M,M,M,81.7,VVTS 301400Z 08006KT 050V130 9999 FEW017 26/22 Q1011 NOSIG,M
VVTS,1/30/2012 14:30,106.6667,10.8167,78.8,71.6,78.62,60,4,0,29.85,M,6.21,M,FEW,M,M,M,1700,M,M,M,M,M,M,M,M,M,M,81.7,VVTS 301430Z 06004KT 9999 FEW017 26/22 Q1011 NOSIG,M
VVTS,1/30/2012 15:00,106.6667,10.8167,78.8,71.6,78.62,M,3,0,29.85,M,6.21,M,FEW,M,M,M,1700,M,M,M,M,M,M,M,M,M,M,81.7,VVTS 301500Z VRB03KT 9999 FEW017 26/22 Q1011 NOSIG,M
VVTS,1/30/2012 15:30,106.6667,10.8167,77,71.6,83.44,90,4,0,29.85,M,6.21,M,FEW,M,M,M,1700,M,M,M,M,M,M,M,M,M,M,78.32,VVTS 301530Z 09004KT 9999 FEW017 25/22 Q1011 NOSIG,M
VVTS,1/30/2012 16:00,106.6667,10.8167,78.8,71.6,78.62,90,5,0,29.85,M,6.21,M,FEW,M,M,M,1700,M,M,M,M,M,M,M,M,M,M,81.7,VVTS 301600Z 09005KT 9999 FEW017 26/22 Q1011 NOSIG,M
VVTS,1/30/2012 16:30,106.6667,10.8167,77,69.8,78.48,90,5,0,29.83,M,6.21,M,FEW,M,M,M,1700,M,M,M,M,M,M,M,M,M,M,78.09,VVTS 301630Z 09005KT 9999 FEW017 25/21 Q1010 NOSIG,M
VVTS,1/30/2012 17:00,106.6667,10.8167,78.8,69.8,73.95,100,4,0,29.83,M,6.21,M,FEW,M,M,M,1700,M,M,M,M,M,M,M,M,M,M,81.39,VVTS 301700Z 10004KT 070V140 9999 FEW017 26/21 Q1010 NOSIG,M
VVTS,1/30/2012 17:30,106.6667,10.8167,77,69.8,78.48,90,6,0,29.83,M,6.21,M,FEW,M,M,M,1700,M,M,M,M,M,M,M,M,M,M,78.09,VVTS 301730Z 09006KT 9999 FEW017 25/21 Q1010 NOSIG,M
VVTS,1/30/2012 18:00,106.6667,10.8167,75.2,69.8,83.32,80,3,0,29.83,M,6.21,M,FEW,M,M,M,1700,M,M,M,M,M,M,M,M,M,M,76.34,VVTS 301800Z 08003KT 9999 FEW017 24/21 Q1010 NOSIG,M
VVTS,1/30/2012 18:30,106.6667,10.8167,73.4,69.8,88.51,30,4,0,29.83,M,6.21,M,FEW,M,M,M,1700,M,M,M,M,M,M,M,M,M,M,74.6,VVTS 301830Z 03004KT 9999 FEW017 23/21 Q1010 NOSIG,M
VVTS,1/30/2012 19:00,106.6667,10.8167,75.2,69.8,83.32,340,1,0,29.83,M,6.21,M,FEW,M,M,M,1700,M,M,M,M,M,M,M,M,M,M,76.34,VVTS 301900Z 34001KT 9999 FEW017 24/21 Q1010 NOSIG,M
VVTS,1/30/2012 19:30,106.6667,10.8167,75.2,69.8,83.32,310,1,0,29.83,M,6.21,M,FEW,M,M,M,1700,M,M,M,M,M,M,M,M,M,M,76.34,VVTS 301930Z 31001KT 9999 FEW017 24/21 Q1010 NOSIG,M
VVTS,1/30/2012 20:00,106.6667,10.8167,73.4,69.8,88.51,280,1,0,29.83,M,6.21,M,FEW,M,M,M,1700,M,M,M,M,M,M,M,M,M,M,74.6,VVTS 302000Z 28001KT 9999 FEW017 23/21 Q1010 NOSIG,M
VVTS,1/30/2012 20:30,106.6667,10.8167,73.4,71.6,94.1,0,0,0,29.8,M,6.21,M,FEW,M,M,M,1700,M,M,M,M,M,M,M,M,M,M,74.86,VVTS 302030Z 00000KT 9999 FEW017 23/22 Q1009 NOSIG,M
VVTS,1/30/2012 21:00,106.6667,10.8167,71.6,71.6,100,0,0,0,29.8,M,6.21,M,FEW,M,M,M,1700,M,M,M,M,M,M,M,M,M,M,73.16,VVTS 302100Z 00000KT 9999 FEW017 22/22 Q1009 NOSIG,M
VVTS,1/30/2012 21:30,106.6667,10.8167,73.4,71.6,94.1,10,1,0,29.83,M,6.21,M,FEW,M,M,M,1700,M,M,M,M,M,M,M,M,M,M,74.86,VVTS 302130Z 01001KT 9999 FEW017 23/22 Q1010 NOSIG,M
VVTS,1/30/2012 22:00,106.6667,10.8167,73.4,71.6,94.1,350,1,0,29.8,M,6.21,M,FEW,M,M,M,1700,M,M,M,M,M,M,M,M,M,M,74.86,VVTS 302200Z 35001KT 9999 FEW017 23/22 Q1009 NOSIG,M
VVTS,1/30/2012 22:30,106.6667,10.8167,73.4,73.4,100,M,2,0,29.83,M,6.21,M,FEW,M,M,M,1700,M,M,M,M,M,M,M,M,M,M,75.14,VVTS 302230Z VRB02KT 9999 FEW017 23/23 Q1010 NOSIG,M
VVTS,1/30/2012 23:00,106.6667,10.8167,71.6,71.6,100,M,1,0,29.83,M,6.21,M,FEW,M,M,M,1700,M,M,M,M,M,M,M,M,M,M,73.16,VVTS 302300Z VRB01KT 9999 FEW017 22/22 Q1010 NOSIG,M
VVTS,1/30/2012 23:30,106.6667,10.8167,71.6,71.6,100,10,3,0,29.85,M,6.21,M,FEW,M,M,M,1700,M,M,M,M,M,M,M,M,M,M,73.16,VVTS 302330Z 01003KT 9999 FEW017 22/22 Q1011 NOSIG,M
VVTS,1/31/2012 0:00,106.6667,10.8167,73.4,71.6,94.1,270,1,0,29.85,M,6.21,M,FEW,M,M,M,1700,M,M,M,M,M,M,M,M,M,M,74.86,VVTS 310000Z 27001KT 9999 FEW017 23/22 Q1011 NOSIG,M
VVTS,1/31/2012 0:30,106.6667,10.8167,75.2,73.4,94.14,0,0,0,29.85,M,6.21,M,FEW,M,M,M,2000,M,M,M,M,M,M,M,M,M,M,76.84,VVTS 310030Z 00000KT 9999 FEW020 24/23 Q1011 NOSIG,M
VVTS,1/31/2012 1:00,106.6667,10.8167,78.8,73.4,83.55,0,0,0,29.88,M,6.21,M,FEW,M,M,M,2000,M,M,M,M,M,M,M,M,M,M,82.03,VVTS 310100Z 00000KT 9999 FEW020 26/23 Q1012 NOSIG,M
VVTS,1/31/2012 1:30,106.6667,10.8167,80.6,71.6,74.11,120,4,0,29.88,M,6.21,M,FEW,M,M,M,2000,M,M,M,M,M,M,M,M,M,M,84.57,VVTS 310130Z 12004KT 090V150 9999 FEW020 27/22 Q1012 NOSIG,M
VVTS,1/31/2012 2:00,106.6667,10.8167,80.6,69.8,69.71,120,5,0,29.91,M,6.21,M,FEW,SCT,M,M,2000,4000,M,M,M,M,M,M,M,M,M,83.9,VVTS 310200Z 12005KT 090V170 9999 FEW020 SCT040 27/21 Q1013 NOSIG,M
VVTS,1/31/2012 2:30,106.6667,10.8167,84.2,69.8,62.03,100,5,0,29.91,M,6.21,M,FEW,SCT,M,M,2000,4000,M,M,M,M,M,M,M,M,M,88.43,VVTS 310230Z 10005KT 040V180 9999 FEW020 SCT040 29/21 Q1013 NOSIG,M
VVTS,1/31/2012 3:00,106.6667,10.8167,84.2,69.8,62.03,140,9,0,29.91,M,6.21,M,FEW,BKN,M,M,1700,4000,M,M,M,M,M,M,M,M,M,88.43,VVTS 310300Z 14009KT 100V180 9999 FEW017 BKN040 29/21 Q1013 NOSIG,M
VVTS,1/31/2012 3:30,106.6667,10.8167,82.4,69.8,65.74,110,6,0,29.91,M,6.21,M,FEW,BKN,M,M,1700,4000,M,M,M,M,M,M,M,M,M,86.22,VVTS 310330Z 11006KT 080V170 9999 FEW017 BKN040 28/21 Q1013 NOSIG,M
VVTS,1/31/2012 4:00,106.6667,10.8167,86,69.8,58.55,140,7,0,29.91,M,6.21,M,FEW,BKN,M,M,1700,4000,M,M,M,M,M,M,M,M,M,90.58,VVTS 310400Z 14007KT 100V210 9999 FEW017 BKN040 30/21 Q1013 NOSIG,M
VVTS,1/31/2012 4:30,106.6667,10.8167,86,71.6,62.25,140,7,0,29.88,M,6.21,M,SCT,SCT,M,M,1700,4000,M,M,M,M,M,M,M,M,M,91.92,VVTS 310430Z 14007KT 090V200 9999 SCT017 SCT040 30/22 Q1012 NOSIG,M
VVTS,1/31/2012 5:00,106.6667,10.8167,87.8,71.6,58.78,140,7,0,29.88,M,6.21,M,SCT,SCT,M,M,1700,4000,M,M,M,M,M,M,M,M,M,94.18,VVTS 310500Z 14007KT 110V170 9999 SCT017 SCT040 31/22 Q1012 NOSIG,M
VVTS,1/31/2012 5:30,106.6667,10.8167,87.8,71.6,58.78,90,8,0,29.85,M,6.21,M,SCT,SCT,M,M,1700,4000,M,M,M,M,M,M,M,M,M,94.18,VVTS 310530Z 09008KT 050V130 9999 SCT017 SCT040 31/22 Q1011 NOSIG,M
VVTS,1/31/2012 6:00,106.6667,10.8167,87.8,69.8,55.29,130,8,0,29.85,M,6.21,M,SCT,SCT,M,M,1700,4000,M,M,M,M,M,M,M,M,M,92.71,VVTS 310600Z 13008KT 090V160 9999 SCT017 SCT040 31/21 Q1011 NOSIG,M
VVTS,1/31/2012 6:30,106.6667,10.8167,87.8,69.8,55.29,130,10,0,29.83,M,6.21,M,SCT,SCT,M,M,1700,4000,M,M,M,M,M,M,M,M,M,92.71,VVTS 310630Z 13010KT 090V170 9999 SCT017 SCT040 31/21 Q1010 NOSIG,M
VVTS,1/31/2012 7:00,106.6667,10.8167,87.8,69.8,55.29,100,8,0,29.83,M,6.21,M,SCT,SCT,M,M,1700,4000,M,M,M,M,M,M,M,M,M,92.71,VVTS 310700Z 10008KT 060V130 9999 SCT017 SCT040 31/21 Q1010 NOSIG,M
VVTS,1/31/2012 7:30,106.6667,10.8167,89.6,69.8,52.23,90,6,0,29.8,M,6.21,M,SCT,BKN,M,M,1700,4000,M,M,M,M,M,M,M,M,M,94.85,VVTS 310730Z 09006KT 030V130 9999 SCT017 BKN040 32/21 Q1009 NOSIG,M
VVTS,1/31/2012 8:00,106.6667,10.8167,89.6,69.8,52.23,120,8,0,29.8,M,6.21,M,SCT,BKN,M,M,1700,4000,M,M,M,M,M,M,M,M,M,94.85,VVTS 310800Z 12008KT 9999 SCT017 BKN040 32/21 Q1009 NOSIG,M
VVTS,1/31/2012 8:30,106.6667,10.8167,89.6,69.8,52.23,80,6,0,29.8,M,6.21,M,SCT,BKN,M,M,1700,4000,M,M,M,M,M,M,M,M,M,94.85,VVTS 310830Z 08006KT 040V130 9999 SCT017 BKN040 32/21 Q1009 NOSIG,M
VVTS,1/31/2012 9:00,106.6667,10.8167,87.8,69.8,55.29,100,7,0,29.8,M,6.21,M,FEW,BKN,M,M,1700,4000,M,M,M,M,M,M,M,M,M,92.71,VVTS 310900Z 10007KT 060V140 9999 FEW017 BKN040 31/21 Q1009 NOSIG,M
VVTS,1/31/2012 9:30,106.6667,10.8167,87.8,68,51.98,80,6,0,29.8,M,6.21,M,FEW,BKN,M,M,1700,4000,M,M,M,M,M,M,M,M,M,91.43,VVTS 310930Z 08006KT 040V110 9999 FEW017 BKN040 31/20 Q1009 NOSIG,M
VVTS,1/31/2012 10:00,106.6667,10.8167,86,69.8,58.55,80,7,0,29.8,M,6.21,M,FEW,BKN,M,M,1700,4000,M,M,M,M,M,M,M,M,M,90.58,VVTS 311000Z 08007KT 9999 FEW017 BKN040 30/21 Q1009 NOSIG,M
VVTS,1/31/2012 10:30,106.6667,10.8167,84.2,69.8,62.03,70,5,0,29.8,M,6.21,M,FEW,SCT,M,M,1700,4000,M,M,M,M,M,M,M,M,M,88.43,VVTS 311030Z 07005KT 9999 FEW017 SCT040 29/21 Q1009 NOSIG,M
VVTS,1/31/2012 11:00,106.6667,10.8167,82.4,69.8,65.74,50,5,0,29.8,M,6.21,M,FEW,SCT,M,M,1700,4000,M,M,M,M,M,M,M,M,M,86.22,VVTS 311100Z 05005KT 9999 FEW017 SCT040 28/21 Q1009 NOSIG,M
VVTS,1/31/2012 11:30,106.6667,10.8167,82.4,69.8,65.74,40,5,0,29.8,M,6.21,M,FEW,SCT,M,M,1700,4000,M,M,M,M,M,M,M,M,M,86.22,VVTS 311130Z 04005KT 9999 FEW017 SCT040 28/21 Q1009 NOSIG,M
VVTS,1/31/2012 12:00,106.6667,10.8167,82.4,69.8,65.74,40,4,0,29.83,M,6.21,M,FEW,SCT,M,M,1700,4000,M,M,M,M,M,M,M,M,M,86.22,VVTS 311200Z 04004KT 9999 FEW017 SCT040 28/21 Q1010 NOSIG,M
VVTS,1/31/2012 12:30,106.6667,10.8167,80.6,69.8,69.71,70,5,0,29.83,M,6.21,M,FEW,SCT,M,M,1700,4000,M,M,M,M,M,M,M,M,M,83.9,VVTS 311230Z 07005KT 9999 FEW017 SCT040 27/21 Q1010 NOSIG,M
VVTS,1/31/2012 13:00,106.6667,10.8167,80.6,69.8,69.71,90,5,0,29.85,M,6.21,M,FEW,SCT,M,M,1700,4000,M,M,M,M,M,M,M,M,M,83.9,VVTS 311300Z 09005KT 070V140 9999 FEW017 SCT040 27/21 Q1011 NOSIG,M
VVTS,1/31/2012 13:30,106.6667,10.8167,82.4,71.6,69.9,130,4,0,29.85,M,6.21,M,FEW,SCT,M,M,1700,4000,M,M,M,M,M,M,M,M,M,87.18,VVTS 311330Z 13004KT 9999 FEW017 SCT040 28/22 Q1011 NOSIG,M
VVTS,1/31/2012 14:00,106.6667,10.8167,80.6,71.6,74.11,110,5,0,29.85,M,6.21,M,FEW,SCT,M,M,1700,4000,M,M,M,M,M,M,M,M,M,84.57,VVTS 311400Z 11005KT 9999 FEW017 SCT040 27/22 Q1011 NOSIG,M
VVTS,1/31/2012 14:30,106.6667,10.8167,78.8,71.6,78.62,110,5,0,29.88,M,6.21,M,FEW,SCT,M,M,1700,4000,M,M,M,M,M,M,M,M,M,81.7,VVTS 311430Z 11005KT 9999 FEW017 SCT040 26/22 Q1012 NOSIG,M
VVTS,1/31/2012 15:00,106.6667,10.8167,78.8,71.6,78.62,70,3,0,29.88,M,6.21,M,FEW,SCT,M,M,1700,4000,M,M,M,M,M,M,M,M,M,81.7,VVTS 311500Z 07003KT 9999 FEW017 SCT040 26/22 Q1012 NOSIG,M
VVTS,1/31/2012 15:30,106.6667,10.8167,75.2,73.4,94.14,60,2,0,29.85,M,6.21,M,FEW,SCT,M,M,1700,4000,M,M,M,M,M,M,M,M,M,76.84,VVTS 311530Z 06002KT 9999 FEW017 SCT040 24/23 Q1011 NOSIG,M
VVTS,1/31/2012 16:00,106.6667,10.8167,75.2,71.6,88.59,60,2,0,29.85,M,6.21,M,FEW,SCT,M,M,1700,4000,M,M,M,M,M,M,M,M,M,76.58,VVTS 311600Z 06002KT 9999 FEW017 SCT040 24/22 Q1011 NOSIG,M
VVTS,1/31/2012 16:30,106.6667,10.8167,78.8,71.6,78.62,120,3,0,29.85,M,6.21,M,FEW,SCT,M,M,1700,4000,M,M,M,M,M,M,M,M,M,81.7,VVTS 311630Z 12003KT 9999 FEW017 SCT040 26/22 Q1011 NOSIG,M
VVTS,1/31/2012 17:00,106.6667,10.8167,75.2,71.6,88.59,70,2,0,29.85,M,6.21,M,FEW,SCT,M,M,1700,4000,M,M,M,M,M,M,M,M,M,76.58,VVTS 311700Z 07002KT 9999 FEW017 SCT040 24/22 Q1011 NOSIG,M
VVTS,1/31/2012 17:30,106.6667,10.8167,75.2,71.6,88.59,M,2,0,29.85,M,6.21,M,FEW,SCT,M,M,1700,4000,M,M,M,M,M,M,M,M,M,76.58,VVTS 311730Z VRB02KT 9999 FEW017 SCT040 24/22 Q1011 NOSIG,M
VVTS,1/31/2012 18:00,106.6667,10.8167,75.2,71.6,88.59,50,1,0,29.85,M,6.21,M,FEW,SCT,M,M,1700,4000,M,M,M,M,M,M,M,M,M,76.58,VVTS 311800Z 05001KT 9999 FEW017 SCT040 24/22 Q1011 NOSIG,M
VVTS,1/31/2012 18:30,106.6667,10.8167,75.2,71.6,88.59,30,1,0,29.83,M,6.21,M,FEW,SCT,M,M,1700,4000,M,M,M,M,M,M,M,M,M,76.58,VVTS 311830Z 03001KT 9999 FEW017 SCT040 24/22 Q1010 NOSIG,M
VVTS,1/31/2012 19:00,106.6667,10.8167,73.4,71.6,94.1,50,1,0,29.83,M,6.21,M,FEW,SCT,M,M,1700,4000,M,M,M,M,M,M,M,M,M,74.86,VVTS 311900Z 05001KT 9999 FEW017 SCT040 23/22 Q1010 NOSIG,M
VVTS,1/31/2012 19:30,106.6667,10.8167,73.4,71.6,94.1,250,3,0,29.83,M,6.21,M,FEW,SCT,M,M,1700,4000,M,M,M,M,M,M,M,M,M,74.86,VVTS 311930Z 25003KT 9999 FEW017 SCT040 23/22 Q1010 NOSIG,M
VVTS,1/31/2012 20:00,106.6667,10.8167,73.4,71.6,94.1,270,2,0,29.83,M,6.21,M,FEW,SCT,M,M,1700,4000,M,M,M,M,M,M,M,M,M,74.86,VVTS 312000Z 27002KT 9999 FEW017 SCT040 23/22 Q1010 NOSIG,M
VVTS,1/31/2012 20:30,106.6667,10.8167,73.4,71.6,94.1,260,2,0,29.83,M,4.97,M,FEW,SCT,M,M,1700,4000,M,M,M,M,M,M,M,M,M,74.86,VVTS 312030Z 26002KT 8000 FEW017 SCT040 23/22 Q1010 NOSIG,M
VVTS,1/31/2012 21:00,106.6667,10.8167,73.4,73.4,100,M,3,0,29.83,M,6.21,M,FEW,SCT,M,M,1700,4000,M,M,M,M,M,M,M,M,M,75.14,VVTS 312100Z VRB03KT 9999 FEW017 SCT040 23/23 Q1010 NOSIG,M
VVTS,1/31/2012 21:30,106.6667,10.8167,73.4,71.6,94.1,140,3,0,29.83,M,6.21,M,FEW,SCT,M,M,1700,4000,M,M,M,M,M,M,M,M,M,74.86,VVTS 312130Z 14003KT 9999 FEW017 SCT040 23/22 Q1010 NOSIG,M
VVTS,1/31/2012 22:00,106.6667,10.8167,73.4,69.8,88.51,M,1,0,29.83,M,6.21,M,FEW,SCT,M,M,1700,4000,M,M,M,M,M,M,M,M,M,74.6,VVTS 312200Z VRB01KT 9999 FEW017 SCT040 23/21 Q1010 NOSIG,M
VVTS,1/31/2012 22:30,106.6667,10.8167,73.4,71.6,94.1,90,1,0,29.83,M,6.21,M,FEW,SCT,M,M,1700,4000,M,M,M,M,M,M,M,M,M,74.86,VVTS 312230Z 09001KT 9999 FEW017 SCT040 23/22 Q1010 NOSIG,M
VVTS,1/31/2012 23:00,106.6667,10.8167,73.4,71.6,94.1,80,1,0,29.85,M,6.21,M,FEW,SCT,M,M,1700,4000,M,M,M,M,M,M,M,M,M,74.86,VVTS 312300Z 08001KT 9999 FEW017 SCT040 23/22 Q1011 NOSIG,M
VVTS,1/31/2012 23:30,106.6667,10.8167,71.6,69.8,94.06,60,2,0,29.85,M,6.21,M,FEW,SCT,M,M,1700,4000,M,M,M,M,M,M,M,M,M,72.88,VVTS 312330Z 06002KT 9999 FEW017 SCT040 22/21 Q1011 NOSIG,M
VVTS,2/1/2012 0:00,106.6667,10.8167,73.4,71.6,94.1,60,3,0,29.85,M,6.21,M,FEW,M,M,M,1700,M,M,M,M,M,M,M,M,M,M,74.86,VVTS 010000Z 06003KT 9999 FEW017 23/22 Q1011 NOSIG,M
VVTS,2/1/2012 0:30,106.6667,10.8167,75.2,71.6,88.59,50,2,0,29.88,M,6.21,M,FEW,M,M,M,1700,M,M,M,M,M,M,M,M,M,M,76.58,VVTS 010030Z 05002KT 9999 FEW017 24/22 Q1012 NOSIG,M
VVTS,2/1/2012 1:00,106.6667,10.8167,78.8,71.6,78.62,M,2,0,29.88,M,6.21,M,FEW,M,M,M,1700,M,M,M,M,M,M,M,M,M,M,81.7,VVTS 010100Z VRB02KT 9999 FEW017 26/22 Q1012 NOSIG,M
VVTS,2/1/2012 1:30,106.6667,10.8167,80.6,71.6,74.11,M,2,0,29.88,M,6.21,M,M,M,M,M,M,M,M,M,M,M,M,M,M,M,M,84.57,VVTS 010130Z VRB02KT CAVOK 27/22 Q1012 NOSIG,M
VVTS,2/1/2012 2:00,106.6667,10.8167,82.4,71.6,69.9,M,2,0,29.91,M,6.21,M,M,M,M,M,M,M,M,M,M,M,M,M,M,M,M,87.18,VVTS 010200Z VRB02KT CAVOK 28/22 Q1013 NOSIG,M
VVTS,2/1/2012 2:30,106.6667,10.8167,84.2,69.8,62.03,M,2,0,29.91,M,6.21,M,M,M,M,M,M,M,M,M,M,M,M,M,M,M,M,88.43,VVTS 010230Z VRB02KT CAVOK 29/21 Q1013 NOSIG,M
VVTS,2/1/2012 3:00,106.6667,10.8167,84.2,69.8,62.03,M,3,0,29.88,M,6.21,M,M,M,M,M,M,M,M,M,M,M,M,M,M,M,M,88.43,VVTS 010300Z VRB03KT CAVOK 29/21 Q1012 NOSIG,M
VVTS,2/1/2012 3:30,106.6667,10.8167,86,69.8,58.55,M,3,0,29.88,M,6.21,M,M,M,M,M,M,M,M,M,M,M,M,M,M,M,M,90.58,VVTS 010330Z VRB03KT CAVOK 30/21 Q1012 NOSIG,M
VVTS,2/1/2012 4:00,106.6667,10.8167,87.8,69.8,55.29,M,2,0,29.85,M,6.21,M,FEW,M,M,M,2000,M,M,M,M,M,M,M,M,M,M,92.71,VVTS 010400Z VRB02KT 9999 FEW020 31/21 Q1011 NOSIG,M
VVTS,2/1/2012 4:30,106.6667,10.8167,87.8,68,51.98,M,3,0,29.85,M,6.21,M,FEW,M,M,M,2000,M,M,M,M,M,M,M,M,M,M,91.43,VVTS 010430Z VRB03KT 9999 FEW020 31/20 Q1011 NOSIG,M
VVTS,2/1/2012 5:00,106.6667,10.8167,89.6,68,49.1,M,3,0,29.83,M,6.21,M,SCT,M,M,M,2000,M,M,M,M,M,M,M,M,M,M,93.47,VVTS 010500Z VRB03KT 9999 SCT020 32/20 Q1010 NOSIG,M
VVTS,2/1/2012 5:30,106.6667,10.8167,91.4,66.2,43.61,140,4,0,29.83,M,6.21,M,SCT,M,M,M,2000,M,M,M,M,M,M,M,M,M,M,94.29,VVTS 010530Z 14004KT 030V240 9999 SCT020 33/19 Q1010 NOSIG,M
VVTS,2/1/2012 6:00,106.6667,10.8167,91.4,66.2,43.61,80,5,0,29.8,M,6.21,M,SCT,M,M,M,2000,M,M,M,M,M,M,M,M,M,M,94.29,VVTS 010600Z 08005KT 360V130 9999 SCT020 33/19 Q1009 NOSIG,M
VVTS,2/1/2012 6:30,106.6667,10.8167,93.2,66.2,41.23,130,7,0,29.8,M,6.21,M,SCT,M,M,M,2000,M,M,M,M,M,M,M,M,M,M,96.35,VVTS 010630Z 13007KT 090V180 9999 SCT020 34/19 Q1009 NOSIG,M
VVTS,2/1/2012 7:00,106.6667,10.8167,93.2,66.2,41.23,120,6,0,29.77,M,6.21,M,SCT,M,M,M,2000,M,M,M,M,M,M,M,M,M,M,96.35,VVTS 010700Z 12006KT 060V160 9999 SCT020 34/19 Q1008 NOSIG,M
VVTS,2/1/2012 7:30,106.6667,10.8167,91.4,66.2,43.61,120,4,0,29.77,M,6.21,M,SCT,M,M,M,2000,M,M,M,M,M,M,M,M,M,M,94.29,VVTS 010730Z 12004KT 030V230 9999 SCT020 33/19 Q1008 NOSIG,M
VVTS,2/1/2012 8:00,106.6667,10.8167,91.4,66.2,43.61,80,5,0,29.77,M,6.21,M,SCT,M,M,M,2000,M,M,M,M,M,M,M,M,M,M,94.29,VVTS 010800Z 08005KT 030V120 9999 SCT020 33/19 Q1008 NOSIG,M
VVTS,2/1/2012 8:30,106.6667,10.8167,87.8,71.6,58.78,190,7,0,29.77,M,6.21,M,SCT,M,M,M,1700,M,M,M,M,M,M,M,M,M,M,94.18,VVTS 010830Z 19007KT 140V220 9999 SCT017 31/22 Q1008 NOSIG,M
VVTS,2/1/2012 9:00,106.6667,10.8167,86,71.6,62.25,170,7,0,29.77,M,6.21,M,FEW,SCT,M,M,1500,1700,M,M,M,M,M,M,M,M,M,91.92,VVTS 010900Z 17007KT 9999 FEW015TCU SCT017 30/22 Q1008 NOSIG,M
VVTS,2/1/2012 9:30,106.6667,10.8167,84.2,71.6,65.95,190,8,0,29.77,M,6.21,M,FEW,SCT,M,M,1500,1700,M,M,M,M,M,M,M,M,M,89.6,VVTS 010930Z 19008KT 9999 FEW015TCU SCT017 29/22 Q1008 NOSIG,M
VVTS,2/1/2012 10:00,106.6667,10.8167,84.2,71.6,65.95,170,7,0,29.8,M,6.21,M,FEW,BKN,M,M,1700,4000,M,M,M,M,M,M,M,M,M,89.6,VVTS 011000Z 17007KT 140V210 9999 FEW017 BKN040 29/22 Q1009 NOSIG,M
VVTS,2/1/2012 10:30,106.6667,10.8167,82.4,71.6,69.9,190,8,0,29.8,M,6.21,M,FEW,SCT,BKN,M,1500,1700,4000,M,M,M,M,M,M,M,M,87.18,VVTS 011030Z 19008KT 9999 FEW015TCU SCT017 BKN040 28/22 Q1009 NOSIG,M
VVTS,2/1/2012 11:00,106.6667,10.8167,82.4,69.8,65.74,200,8,0,29.8,M,6.21,M,FEW,SCT,M,M,1500,1700,M,M,M,M,M,M,M,M,M,86.22,VVTS 011100Z 20008KT 9999 FEW015TCU SCT017 28/21 Q1009 NOSIG,M
VVTS,2/1/2012 11:30,106.6667,10.8167,80.6,71.6,74.11,160,6,0,29.83,M,6.21,M,FEW,SCT,M,M,1500,1700,M,M,M,M,M,M,M,M,M,84.57,VVTS 011130Z 16006KT 9999 FEW015TCU SCT017 27/22 Q1010 NOSIG,M
VVTS,2/1/2012 12:00,106.6667,10.8167,80.6,69.8,69.71,150,4,0,29.83,M,6.21,M,FEW,SCT,M,M,1700,4000,M,M,M,M,M,M,M,M,M,83.9,VVTS 011200Z 15004KT 130V200 9999 FEW017 SCT040 27/21 Q1010 NOSIG,M
VVTS,2/1/2012 12:30,106.6667,10.8167,80.6,69.8,69.71,160,5,0,29.83,M,6.21,M,FEW,SCT,M,M,1700,4000,M,M,M,M,M,M,M,M,M,83.9,VVTS 011230Z 16005KT 140V200 9999 FEW017 SCT040 27/21 Q1010 NOSIG,M
VVTS,2/1/2012 13:00,106.6667,10.8167,80.6,69.8,69.71,140,3,0,29.83,M,6.21,M,FEW,SCT,M,M,1700,4000,M,M,M,M,M,M,M,M,M,83.9,VVTS 011300Z 14003KT 9999 FEW017 SCT040 27/21 Q1010 NOSIG,M
VVTS,2/1/2012 13:30,106.6667,10.8167,80.6,68,65.54,120,6,0,29.85,M,6.21,M,FEW,SCT,M,M,1700,4000,M,M,M,M,M,M,M,M,M,83.29,VVTS 011330Z 12006KT 9999 FEW017 SCT040 27/20 Q1011 NOSIG,M
VVTS,2/1/2012 14:00,106.6667,10.8167,80.6,68,65.54,120,7,0,29.85,M,6.21,M,FEW,SCT,M,M,1700,4000,M,M,M,M,M,M,M,M,M,83.29,VVTS 011400Z 12007KT 060V150 9999 FEW017 SCT040 27/20 Q1011 NOSIG,M
VVTS,2/1/2012 14:30,106.6667,10.8167,80.6,68,65.54,120,8,0,29.85,M,6.21,M,FEW,SCT,M,M,1700,4000,M,M,M,M,M,M,M,M,M,83.29,VVTS 011430Z 12008KT 9999 FEW017 SCT040 27/20 Q1011 NOSIG,M
VVTS,2/1/2012 15:00,106.6667,10.8167,78.8,68,69.52,110,8,0,29.85,M,6.21,M,FEW,SCT,M,M,1700,4000,M,M,M,M,M,M,M,M,M,81.1,VVTS 011500Z 11008KT 9999 FEW017 SCT040 26/20 Q1011 NOSIG,M
VVTS,2/1/2012 15:30,106.6667,10.8167,78.8,68,69.52,110,7,0,29.85,M,6.21,M,FEW,SCT,M,M,1700,4000,M,M,M,M,M,M,M,M,M,81.1,VVTS 011530Z 11007KT 9999 FEW017 SCT040 26/20 Q1011 NOSIG,M
VVTS,2/1/2012 16:00,106.6667,10.8167,78.8,69.8,73.95,100,4,0,29.85,M,6.21,M,FEW,SCT,M,M,1700,4000,M,M,M,M,M,M,M,M,M,81.39,VVTS 011600Z 10004KT 9999 FEW017 SCT040 26/21 Q1011 NOSIG,M
VVTS,2/1/2012 16:30,106.6667,10.8167,77,69.8,78.48,40,3,0,29.85,M,6.21,M,FEW,SCT,M,M,1700,4000,M,M,M,M,M,M,M,M,M,78.09,VVTS 011630Z 04003KT 9999 FEW017 SCT040 25/21 Q1011 NOSIG,M
VVTS,2/1/2012 17:00,106.6667,10.8167,75.2,69.8,83.32,70,2,0,29.83,M,6.21,M,FEW,SCT,M,M,1700,4000,M,M,M,M,M,M,M,M,M,76.34,VVTS 011700Z 07002KT 9999 FEW017 SCT040 24/21 Q1010 NOSIG,M
VVTS,2/1/2012 17:30,106.6667,10.8167,77,69.8,78.48,50,3,0,29.83,M,6.21,M,FEW,SCT,M,M,1700,4000,M,M,M,M,M,M,M,M,M,78.09,VVTS 011730Z 05003KT 9999 FEW017 SCT040 25/21 Q1010 NOSIG,M
VVTS,2/1/2012 18:00,106.6667,10.8167,75.2,69.8,83.32,40,2,0,29.83,M,6.21,M,FEW,M,M,M,1700,M,M,M,M,M,M,M,M,M,M,76.34,VVTS 011800Z 04002KT 9999 FEW017 24/21 Q1010 NOSIG,M
VVTS,2/1/2012 18:30,106.6667,10.8167,75.2,69.8,83.32,50,2,0,29.83,M,6.21,M,FEW,M,M,M,1700,M,M,M,M,M,M,M,M,M,M,76.34,VVTS 011830Z 05002KT 9999 FEW017 24/21 Q1010 NOSIG,M
VVTS,2/1/2012 19:00,106.6667,10.8167,75.2,68,78.34,110,3,0,29.83,M,6.21,M,FEW,M,M,M,1700,M,M,M,M,M,M,M,M,M,M,75.2,VVTS 011900Z 11003KT 9999 FEW017 24/20 Q1010 NOSIG,M
VVTS,2/1/2012 19:30,106.6667,10.8167,75.2,68,78.34,90,5,0,29.83,M,6.21,M,FEW,M,M,M,1700,M,M,M,M,M,M,M,M,M,M,75.2,VVTS 011930Z 09005KT 9999 FEW017 24/20 Q1010 NOSIG,M
VVTS,2/1/2012 20:00,106.6667,10.8167,73.4,69.8,88.51,80,2,0,29.83,M,6.21,M,FEW,M,M,M,1700,M,M,M,M,M,M,M,M,M,M,74.6,VVTS 012000Z 08002KT 9999 FEW017 23/21 Q1010 NOSIG,M
VVTS,2/1/2012 20:30,106.6667,10.8167,73.4,69.8,88.51,80,3,0,29.83,M,6.21,M,FEW,M,M,M,1700,M,M,M,M,M,M,M,M,M,M,74.6,VVTS 012030Z 08003KT 9999 FEW017 23/21 Q1010 NOSIG,M
VVTS,2/1/2012 21:00,106.6667,10.8167,73.4,69.8,88.51,80,3,0,29.83,M,6.21,M,FEW,M,M,M,1700,M,M,M,M,M,M,M,M,M,M,74.6,VVTS 012100Z 08003KT 9999 FEW017 23/21 Q1010 NOSIG,M
VVTS,2/1/2012 21:30,106.6667,10.8167,73.4,69.8,88.51,50,3,0,29.83,M,6.21,M,FEW,M,M,M,1700,M,M,M,M,M,M,M,M,M,M,74.6,VVTS 012130Z 05003KT 9999 FEW017 23/21 Q1010 NOSIG,M
VVTS,2/1/2012 22:00,106.6667,10.8167,75.2,69.8,83.32,30,2,0,29.85,M,6.21,M,FEW,M,M,M,1700,M,M,M,M,M,M,M,M,M,M,76.34,VVTS 012200Z 03002KT 9999 FEW017 24/21 Q1011 NOSIG,M
VVTS,2/1/2012 22:30,106.6667,10.8167,73.4,69.8,88.51,M,1,0,29.85,M,6.21,M,FEW,M,M,M,1700,M,M,M,M,M,M,M,M,M,M,74.6,VVTS 012230Z VRB01KT 9999 FEW017 23/21 Q1011 NOSIG,M
VVTS,2/1/2012 23:00,106.6667,10.8167,75.2,69.8,83.32,110,3,0,29.85,M,6.21,M,FEW,SCT,M,M,1700,4000,M,M,M,M,M,M,M,M,M,76.34,VVTS 012300Z 11003KT 9999 FEW017 SCT040 24/21 Q1011 NOSIG,M
VVTS,2/1/2012 23:30,106.6667,10.8167,75.2,68,78.34,90,3,0,29.88,M,6.21,M,FEW,BKN,M,M,1700,4000,M,M,M,M,M,M,M,M,M,75.2,VVTS 012330Z 09003KT 9999 FEW017 BKN040 24/20 Q1012 NOSIG,M
VVTS,2/2/2012 0:00,106.6667,10.8167,75.2,69.8,83.32,50,3,0,29.88,M,6.21,M,FEW,BKN,M,M,1700,4000,M,M,M,M,M,M,M,M,M,76.34,VVTS 020000Z 05003KT 9999 FEW017 BKN040 24/21 Q1012 NOSIG,M
VVTS,2/2/2012 0:30,106.6667,10.8167,77,69.8,78.48,40,2,0,29.88,M,6.21,M,FEW,BKN,M,M,1700,4000,M,M,M,M,M,M,M,M,M,78.09,VVTS 020030Z 04002KT 9999 FEW017 BKN040 25/21 Q1012 NOSIG,M
VVTS,2/2/2012 1:00,106.6667,10.8167,78.8,69.8,73.95,M,1,0,29.91,M,6.21,M,FEW,BKN,M,M,1700,4000,M,M,M,M,M,M,M,M,M,81.39,VVTS 020100Z VRB01KT 9999 FEW017 BKN040 26/21 Q1013 NOSIG,M
VVTS,2/2/2012 1:30,106.6667,10.8167,80.6,69.8,69.71,M,1,0,29.91,M,6.21,M,FEW,BKN,M,M,1700,4000,M,M,M,M,M,M,M,M,M,83.9,VVTS 020130Z VRB01KT 9999 FEW017 BKN040 27/21 Q1013 NOSIG,M
VVTS,2/2/2012 2:00,106.6667,10.8167,80.6,68,65.54,M,1,0,29.91,M,6.21,M,FEW,BKN,M,M,1700,4000,M,M,M,M,M,M,M,M,M,83.29,VVTS 020200Z VRB01KT 9999 FEW017 BKN040 27/20 Q1013 NOSIG,M
VVTS,2/2/2012 2:30,106.6667,10.8167,82.4,66.2,58.08,70,5,0,29.91,M,6.21,M,FEW,BKN,M,M,1700,4000,M,M,M,M,M,M,M,M,M,84.63,VVTS 020230Z 07005KT 030V110 9999 FEW017 BKN040 28/19 Q1013 NOSIG,M
VVTS,2/2/2012 3:00,106.6667,10.8167,84.2,66.2,54.8,130,6,0,29.91,M,6.21,M,FEW,SCT,M,M,1700,4000,M,M,M,M,M,M,M,M,M,86.5,VVTS 020300Z 13006KT 9999 FEW017 SCT040 29/19 Q1013 NOSIG,M
VVTS,2/2/2012 3:30,106.6667,10.8167,86,66.2,51.72,70,5,0,29.91,M,6.21,M,FEW,M,M,M,2000,M,M,M,M,M,M,M,M,M,M,88.39,VVTS 020330Z 07005KT 330V140 9999 FEW020 30/19 Q1013 NOSIG,M
VVTS,2/2/2012 4:00,106.6667,10.8167,87.8,66.2,48.84,70,8,0,29.88,M,6.21,M,FEW,M,M,M,2000,M,M,M,M,M,M,M,M,M,M,90.31,VVTS 020400Z 07008KT 9999 FEW020 31/19 Q1012 NOSIG,M
VVTS,2/2/2012 4:30,106.6667,10.8167,87.8,66.2,48.84,90,8,0,29.88,M,6.21,M,FEW,M,M,M,2000,M,M,M,M,M,M,M,M,M,M,90.31,VVTS 020430Z 09008KT 050V120 9999 FEW020 31/19 Q1012 NOSIG,M
VVTS,2/2/2012 5:00,106.6667,10.8167,89.6,68,49.1,90,6,0,29.88,M,6.21,M,FEW,BKN,M,M,1700,4000,M,M,M,M,M,M,M,M,M,93.47,VVTS 020500Z 09006KT 020V140 9999 FEW017 BKN040 32/20 Q1012 NOSIG,M
VVTS,2/2/2012 5:30,106.6667,10.8167,89.6,66.2,46.14,90,9,0,29.85,M,6.21,M,FEW,BKN,M,M,1700,4000,M,M,M,M,M,M,M,M,M,92.27,VVTS 020530Z 09009KT 9999 FEW017 BKN040 32/19 Q1011 NOSIG,M
VVTS,2/2/2012 6:00,106.6667,10.8167,91.4,66.2,43.61,80,4,0,29.85,M,6.21,M,FEW,BKN,M,M,1700,4000,M,M,M,M,M,M,M,M,M,94.29,VVTS 020600Z 08004KT 040V150 9999 FEW017 BKN040 33/19 Q1011 NOSIG,M
VVTS,2/2/2012 6:30,106.6667,10.8167,89.6,66.2,46.14,50,4,0,29.83,M,6.21,M,SCT,BKN,M,M,1700,4000,M,M,M,M,M,M,M,M,M,92.27,VVTS 020630Z 05004KT 340V110 9999 SCT017 BKN040 32/19 Q1010 NOSIG,M
VVTS,2/2/2012 7:00,106.6667,10.8167,91.4,66.2,43.61,120,5,0,29.83,M,6.21,M,SCT,SCT,M,M,1700,4000,M,M,M,M,M,M,M,M,M,94.29,VVTS 020700Z 12005KT 080V200 9999 SCT017 SCT040 33/19 Q1010 NOSIG,M
VVTS,2/2/2012 7:30,106.6667,10.8167,89.6,66.2,46.14,M,3,0,29.8,M,6.21,M,SCT,M,M,M,1700,M,M,M,M,M,M,M,M,M,M,92.27,VVTS 020730Z VRB03KT 9999 SCT017 32/19 Q1009 NOSIG,M
VVTS,2/2/2012 8:00,106.6667,10.8167,89.6,66.2,46.14,M,1,0,29.8,M,6.21,M,SCT,M,M,M,1700,M,M,M,M,M,M,M,M,M,M,92.27,VVTS 020800Z VRB01KT 9999 SCT017 32/19 Q1009 NOSIG,M
VVTS,2/2/2012 8:30,106.6667,10.8167,91.4,66.2,43.61,M,1,0,29.8,M,6.21,M,SCT,M,M,M,1700,M,M,M,M,M,M,M,M,M,M,94.29,VVTS 020830Z VRB01KT 9999 SCT017 33/19 Q1009 NOSIG,M
VVTS,2/2/2012 9:00,106.6667,10.8167,89.6,68,49.1,170,4,0,29.8,M,6.21,M,SCT,M,M,M,1700,M,M,M,M,M,M,M,M,M,M,93.47,VVTS 020900Z 17004KT 140V210 9999 SCT017 32/20 Q1009 NOSIG,M
VVTS,2/2/2012 9:30,106.6667,10.8167,87.8,69.8,55.29,160,4,0,29.8,M,6.21,M,FEW,SCT,M,M,1500,1700,M,M,M,M,M,M,M,M,M,92.71,VVTS 020930Z 16004KT 130V220 9999 FEW015TCU SCT017 31/21 Q1009 NOSIG,M
VVTS,2/2/2012 10:00,106.6667,10.8167,86,69.8,58.55,160,7,0,29.8,M,6.21,M,FEW,SCT,M,M,1500,1700,M,M,M,M,M,M,M,M,M,90.58,VVTS 021000Z 16007KT 130V200 9999 FEW015TCU SCT017 30/21 Q1009 NOSIG,M
VVTS,2/2/2012 10:30,106.6667,10.8167,84.2,71.6,65.95,180,4,0,29.8,M,6.21,M,FEW,SCT,M,M,1500,1700,M,M,VCSH,M,M,M,M,M,M,89.6,VVTS 021030Z 18004KT 130V270 9999 VCSH FEW015CB SCT017 29/22 Q1009 NOSIG,M
VVTS,2/2/2012 11:00,106.6667,10.8167,82.4,71.6,69.9,160,5,0,29.83,M,6.21,M,FEW,SCT,M,M,1500,1700,M,M,M,M,M,M,M,M,M,87.18,VVTS 021100Z 16005KT 100V200 9999 FEW015TCU SCT017 28/22 Q1010 NOSIG,M
VVTS,2/2/2012 11:30,106.6667,10.8167,82.4,68,61.81,130,7,0,29.83,M,6.21,M,SCT,SCT,M,M,1700,4000,M,M,M,M,M,M,M,M,M,85.38,VVTS 021130Z 13007KT 9999 SCT017 SCT040 28/20 Q1010 NOSIG,M
VVTS,2/2/2012 12:00,106.6667,10.8167,82.4,68,61.81,130,8,0,29.83,M,6.21,M,SCT,SCT,M,M,1700,4000,M,M,M,M,M,M,M,M,M,85.38,VVTS 021200Z 13008KT 9999 SCT017 SCT040 28/20 Q1010 NOSIG,M
VVTS,2/2/2012 12:30,106.6667,10.8167,82.4,69.8,65.74,140,7,0,29.85,M,6.21,M,FEW,SCT,M,M,1500,1700,M,M,M,M,M,M,M,M,M,86.22,VVTS 021230Z 14007KT 110V190 9999 FEW015TCU SCT017 28/21 Q1011 NOSIG,M
VVTS,2/2/2012 13:00,106.6667,10.8167,80.6,68,65.54,130,6,0,29.85,M,6.21,M,FEW,SCT,M,M,1500,1700,M,M,M,M,M,M,M,M,M,83.29,VVTS 021300Z 13006KT 090V170 9999 FEW015TCU SCT017 27/20 Q1011 NOSIG,M
VVTS,2/2/2012 13:30,106.6667,10.8167,80.6,66.2,61.58,130,5,0,29.88,M,6.21,M,FEW,SCT,M,M,1500,1700,M,M,M,M,M,M,M,M,M,82.75,VVTS 021330Z 13005KT 9999 FEW015TCU SCT017 27/19 Q1012 NOSIG,M
VVTS,2/2/2012 14:00,106.6667,10.8167,80.6,66.2,61.58,120,5,0,29.88,M,6.21,M,FEW,SCT,M,M,1500,1700,M,M,M,M,M,M,M,M,M,82.75,VVTS 021400Z 12005KT 080V170 9999 FEW015TCU SCT017 27/19 Q1012 NOSIG,M
VVTS,2/2/2012 14:30,106.6667,10.8167,80.6,66.2,61.58,100,4,0,29.88,M,6.21,M,SCT,M,M,M,1500,M,M,M,M,M,M,M,M,M,M,82.75,VVTS 021430Z 10004KT 060V140 9999 SCT015 27/19 Q1012 NOSIG,M
VVTS,2/2/2012 15:00,106.6667,10.8167,80.6,66.2,61.58,M,3,0,29.88,M,6.21,M,SCT,M,M,M,1500,M,M,M,M,M,M,M,M,M,M,82.75,VVTS 021500Z VRB03KT 9999 SCT015 27/19 Q1012 NOSIG,M
VVTS,2/2/2012 15:30,106.6667,10.8167,80.6,66.2,61.58,130,6,0,29.88,M,6.21,M,SCT,M,M,M,1500,M,M,M,M,M,M,M,M,M,M,82.75,VVTS 021530Z 13006KT 9999 SCT015 27/19 Q1012 NOSIG,M
VVTS,2/2/2012 16:00,106.6667,10.8167,78.8,66.2,65.33,130,7,0,29.88,M,6.21,M,SCT,M,M,M,1500,M,M,M,M,M,M,M,M,M,M,80.82,VVTS 021600Z 13007KT 9999 SCT015 26/19 Q1012 NOSIG,M
VVTS,2/2/2012 16:30,106.6667,10.8167,78.8,66.2,65.33,110,7,0,29.88,M,6.21,M,SCT,M,M,M,1500,M,M,M,M,M,M,M,M,M,M,80.82,VVTS 021630Z 11007KT 9999 SCT015 26/19 Q1012 NOSIG,M
VVTS,2/2/2012 17:00,106.6667,10.8167,78.8,66.2,65.33,130,5,0,29.88,M,6.21,M,SCT,M,M,M,1500,M,M,M,M,M,M,M,M,M,M,80.82,VVTS 021700Z 13005KT 090V190 9999 SCT015 26/19 Q1012 NOSIG,M
VVTS,2/2/2012 17:30,106.6667,10.8167,75.2,68,78.34,50,6,0,29.88,M,6.21,M,SCT,M,M,M,1500,M,M,M,M,M,M,M,M,M,M,75.2,VVTS 021730Z 05006KT 9999 SCT015 24/20 Q1012 NOSIG,M
VVTS,2/2/2012 18:00,106.6667,10.8167,75.2,68,78.34,80,4,0,29.88,M,6.21,M,FEW,M,M,M,1700,M,M,M,M,M,M,M,M,M,M,75.2,VVTS 021800Z 08004KT 9999 FEW017 24/20 Q1012 NOSIG,M
VVTS,2/2/2012 18:30,106.6667,10.8167,73.4,68,83.21,120,3,0,29.88,M,6.21,M,FEW,M,M,M,1700,M,M,M,M,M,M,M,M,M,M,73.4,VVTS 021830Z 12003KT 9999 FEW017 23/20 Q1012 NOSIG,M
VVTS,2/2/2012 19:00,106.6667,10.8167,75.2,68,78.34,110,2,0,29.85,M,6.21,M,FEW,M,M,M,1700,M,M,M,M,M,M,M,M,M,M,75.2,VVTS 021900Z 11002KT 9999 FEW017 24/20 Q1011 NOSIG,M
VVTS,2/2/2012 19:30,106.6667,10.8167,73.4,69.8,88.51,50,1,0,29.85,M,6.21,M,FEW,M,M,M,1700,M,M,M,M,M,M,M,M,M,M,74.6,VVTS 021930Z 05001KT 9999 FEW017 23/21 Q1011 NOSIG,M
VVTS,2/2/2012 20:00,106.6667,10.8167,75.2,71.6,88.59,0,0,0,29.85,M,6.21,M,FEW,M,M,M,1700,M,M,M,M,M,M,M,M,M,M,76.58,VVTS 022000Z 00000KT 9999 FEW017 24/22 Q1011 NOSIG,M
VVTS,2/2/2012 20:30,106.6667,10.8167,75.2,71.6,88.59,290,1,0,29.85,M,6.21,M,FEW,M,M,M,1700,M,M,M,M,M,M,M,M,M,M,76.58,VVTS 022030Z 29001KT 9999 FEW017 24/22 Q1011 NOSIG,M
VVTS,2/2/2012 21:00,106.6667,10.8167,75.2,69.8,83.32,300,1,0,29.85,M,6.21,M,FEW,M,M,M,1700,M,M,M,M,M,M,M,M,M,M,76.34,VVTS 022100Z 30001KT 9999 FEW017 24/21 Q1011 NOSIG,M
VVTS,2/2/2012 21:30,106.6667,10.8167,75.2,71.6,88.59,0,0,0,29.88,M,6.21,M,FEW,SCT,M,M,1700,4000,M,M,M,M,M,M,M,M,M,76.58,VVTS 022130Z 00000KT 9999 FEW017 SCT040 24/22 Q1012 NOSIG,M
VVTS,2/2/2012 22:00,106.6667,10.8167,75.2,71.6,88.59,90,1,0,29.88,M,6.21,M,FEW,SCT,M,M,1700,4000,M,M,M,M,M,M,M,M,M,76.58,VVTS 022200Z 09001KT 9999 FEW017 SCT040 24/22 Q1012 NOSIG,M
VVTS,2/2/2012 22:30,106.6667,10.8167,73.4,71.6,94.1,0,0,0,29.88,M,6.21,M,FEW,SCT,M,M,1700,4000,M,M,M,M,M,M,M,M,M,74.86,VVTS 022230Z 00000KT 9999 FEW017 SCT040 23/22 Q1012 NOSIG,M
VVTS,2/2/2012 23:30,106.6667,10.8167,73.4,71.6,94.1,M,2,0,29.88,M,4.97,M,FEW,M,M,M,1700,M,M,M,M,M,M,M,M,M,M,74.86,VVTS 022330Z VRB02KT 8000 FEW017 23/22 Q1012 NOSIG,M
VVTS,2/3/2012 0:00,106.6667,10.8167,73.4,71.6,94.1,70,2,0,29.91,M,6.21,M,FEW,SCT,M,M,1700,4000,M,M,M,M,M,M,M,M,M,74.86,VVTS 030000Z 07002KT 9999 FEW017 SCT040 23/22 Q1013 NOSIG,M
VVTS,2/3/2012 0:30,106.6667,10.8167,75.2,71.6,88.59,M,1,0,29.91,M,6.21,M,FEW,SCT,M,M,1700,4000,M,M,M,M,M,M,M,M,M,76.58,VVTS 030030Z VRB01KT 9999 FEW017 SCT040 24/22 Q1013 NOSIG,M
VVTS,2/3/2012 1:00,106.6667,10.8167,77,73.4,88.67,M,1,0,29.91,M,4.35,M,FEW,M,M,M,1500,M,M,M,M,M,M,M,M,M,M,78.57,VVTS 030100Z VRB01KT 7000 FEW015 25/23 Q1013 NOSIG,M
VVTS,2/3/2012 1:30,106.6667,10.8167,78.8,73.4,83.55,10,4,0,29.91,M,4.35,M,SCT,M,M,M,1700,M,M,M,M,M,M,M,M,M,M,82.03,VVTS 030130Z 01004KT 340V060 7000 SCT017 26/23 Q1013 NOSIG,M
VVTS,2/3/2012 2:00,106.6667,10.8167,80.6,71.6,74.11,M,3,0,29.94,M,4.97,M,SCT,M,M,M,1700,M,M,M,M,M,M,M,M,M,M,84.57,VVTS 030200Z VRB03KT 8000 SCT017 27/22 Q1014 NOSIG,M
VVTS,2/3/2012 2:30,106.6667,10.8167,82.4,71.6,69.9,M,2,0,29.94,M,4.97,M,SCT,M,M,M,1700,M,M,M,M,M,M,M,M,M,M,87.18,VVTS 030230Z VRB02KT 8000 SCT017 28/22 Q1014 NOSIG,M
VVTS,2/3/2012 3:00,106.6667,10.8167,82.4,71.6,69.9,M,3,0,29.91,M,4.97,M,SCT,M,M,M,1700,M,M,M,M,M,M,M,M,M,M,87.18,VVTS 030300Z VRB03KT 8000 SCT017 28/22 Q1013 NOSIG,M
VVTS,2/3/2012 3:30,106.6667,10.8167,84.2,71.6,65.95,340,4,0,29.91,M,4.97,M,SCT,M,M,M,1700,M,M,M,M,M,M,M,M,M,M,89.6,VVTS 030330Z 34004KT 270V030 8000 SCT017 29/22 Q1013 NOSIG,M
VVTS,2/3/2012 4:00,106.6667,10.8167,87.8,71.6,58.78,340,4,0,29.91,M,6.21,M,SCT,M,M,M,1700,M,M,M,M,M,M,M,M,M,M,94.18,VVTS 030400Z 34004KT 260V060 9999 SCT017 31/22 Q1013 NOSIG,M
VVTS,2/3/2012 4:30,106.6667,10.8167,86,71.6,62.25,310,4,0,29.88,M,6.21,M,SCT,M,M,M,1700,M,M,M,M,M,M,M,M,M,M,91.92,VVTS 030430Z 31004KT 200V090 9999 SCT017 30/22 Q1012 NOSIG,M
VVTS,2/3/2012 5:00,106.6667,10.8167,87.8,71.6,58.78,340,5,0,29.88,M,6.21,M,SCT,M,M,M,1700,M,M,M,M,M,M,M,M,M,M,94.18,VVTS 030500Z 34005KT 280V050 9999 SCT017 31/22 Q1012 NOSIG,M
VVTS,2/3/2012 5:30,106.6667,10.8167,87.8,71.6,58.78,330,5,0,29.85,M,6.21,M,BKN,M,M,M,1700,M,M,M,M,M,M,M,M,M,M,94.18,VVTS 030530Z 33005KT 240V100 9999 BKN017 31/22 Q1011 NOSIG,M
VVTS,2/3/2012 6:00,106.6667,10.8167,89.6,71.6,55.53,260,4,0,29.85,M,6.21,M,BKN,M,M,M,1700,M,M,M,M,M,M,M,M,M,M,96.41,VVTS 030600Z 26004KT 160V010 9999 BKN017 32/22 Q1011 NOSIG,M
VVTS,2/3/2012 6:30,106.6667,10.8167,89.6,69.8,52.23,M,2,0,29.83,M,6.21,M,BKN,M,M,M,1700,M,M,M,M,M,M,M,M,M,M,94.85,VVTS 030630Z VRB02KT 9999 BKN017 32/21 Q1010 NOSIG,M
VVTS,2/3/2012 7:00,106.6667,10.8167,89.6,69.8,52.23,M,3,0,29.83,M,6.21,M,BKN,M,M,M,1700,M,M,M,M,M,M,M,M,M,M,94.85,VVTS 030700Z VRB03KT 9999 BKN017 32/21 Q1010 NOSIG,M
VVTS,2/3/2012 7:30,106.6667,10.8167,87.8,69.8,55.29,M,2,0,29.8,M,6.21,M,BKN,M,M,M,1700,M,M,M,M,M,M,M,M,M,M,92.71,VVTS 030730Z VRB02KT 9999 BKN017 31/21 Q1009 NOSIG,M
VVTS,2/3/2012 8:00,106.6667,10.8167,89.6,69.8,52.23,M,2,0,29.8,M,6.21,M,FEW,SCT,BKN,M,1500,1700,4000,M,M,M,M,M,M,M,M,94.85,VVTS 030800Z VRB02KT 9999 FEW015TCU SCT017 BKN040 32/21 Q1009 NOSIG,M
VVTS,2/3/2012 8:30,106.6667,10.8167,89.6,69.8,52.23,M,3,0,29.8,M,6.21,M,FEW,SCT,M,M,1500,1700,M,M,M,M,M,M,M,M,M,94.85,VVTS 030830Z VRB03KT 9999 FEW015TCU SCT017 32/21 Q1009 NOSIG,M
VVTS,2/3/2012 9:00,106.6667,10.8167,87.8,73.4,62.47,160,11,0,29.8,M,6.21,M,FEW,SCT,M,M,1500,1700,M,M,M,M,M,M,M,M,M,95.86,VVTS 030900Z 16011KT 9999 FEW015TCU SCT017 31/23 Q1009 NOSIG,M
VVTS,2/3/2012 9:30,106.6667,10.8167,84.2,71.6,65.95,150,12,0,29.8,M,6.21,M,FEW,SCT,M,M,1500,1700,M,M,M,M,M,M,M,M,M,89.6,VVTS 030930Z 15012KT 9999 FEW015TCU SCT017 29/22 Q1009 NOSIG,M
VVTS,2/3/2012 10:00,106.6667,10.8167,82.4,69.8,65.74,160,10,0,29.8,M,6.21,M,FEW,SCT,M,M,1500,1700,M,M,M,M,M,M,M,M,M,86.22,VVTS 031000Z 16010KT 140V210 9999 FEW015TCU SCT017 28/21 Q1009 NOSIG,M
VVTS,2/3/2012 10:30,106.6667,10.8167,80.6,69.8,69.71,160,11,0,29.8,M,6.21,M,FEW,SCT,M,M,1500,1700,M,M,M,M,M,M,M,M,M,83.9,VVTS 031030Z 16011KT 9999 FEW015TCU SCT017 27/21 Q1009 NOSIG,M
VVTS,2/3/2012 11:00,106.6667,10.8167,80.6,69.8,69.71,160,8,0,29.83,M,6.21,M,FEW,SCT,M,M,1500,1700,M,M,M,M,M,M,M,M,M,83.9,VVTS 031100Z 16008KT 9999 FEW015TCU SCT017 27/21 Q1010 NOSIG,M
VVTS,2/3/2012 11:30,106.6667,10.8167,80.6,69.8,69.71,160,6,0,29.83,M,6.21,M,FEW,SCT,M,M,1500,1700,M,M,M,M,M,M,M,M,M,83.9,VVTS 031130Z 16006KT 120V200 9999 FEW015TCU SCT017 27/21 Q1010 NOSIG,M
VVTS,2/3/2012 12:00,106.6667,10.8167,80.6,69.8,69.71,180,6,0,29.83,M,6.21,M,FEW,SCT,M,M,1500,1700,M,M,M,M,M,M,M,M,M,83.9,VVTS 031200Z 18006KT 9999 FEW015TCU SCT017 27/21 Q1010 N OSIG,M
VVTS,2/3/2012 12:30,106.6667,10.8167,78.8,71.6,78.62,180,5,0,29.85,M,6.21,M,FEW,SCT,M,M,1700,4000,M,M,M,M,M,M,M,M,M,81.7,VVTS 031230Z 18005KT 150V210 9999 FEW017 SCT040 26/22 Q1011 NOSIG,M
VVTS,2/3/2012 13:00,106.6667,10.8167,78.8,71.6,78.62,160,5,0,29.85,M,6.21,M,FEW,SCT,M,M,1700,4000,M,M,M,M,M,M,M,M,M,81.7,VVTS 031300Z 16005KT 9999 FEW017 SCT040 26/22 Q1011 NOSIG,M
VVTS,2/3/2012 13:30,106.6667,10.8167,78.8,71.6,78.62,160,5,0,29.85,M,6.21,M,FEW,SCT,M,M,1700,4000,M,M,M,M,M,M,M,M,M,81.7,VVTS 031330Z 16005KT 9999 FEW017 SCT040 26/22 Q1011 NOSIG,M
VVTS,2/3/2012 14:00,106.6667,10.8167,78.8,71.6,78.62,M,3,0,29.88,M,6.21,M,FEW,SCT,M,M,1700,4000,M,M,M,M,M,M,M,M,M,81.7,VVTS 031400Z VRB03KT 9999 FEW017 SCT040 26/22 Q1012 NOSIG,M
VVTS,2/3/2012 14:30,106.6667,10.8167,78.8,71.6,78.62,110,4,0,29.88,M,6.21,M,FEW,SCT,M,M,1700,4000,M,M,M,M,M,M,M,M,M,81.7,VVTS 031430Z 11004KT 9999 FEW017 SCT040 26/22 Q1012 NOSIG,M
VVTS,2/3/2012 15:00,106.6667,10.8167,77,69.8,78.48,M,3,0,29.88,M,6.21,M,FEW,SCT,M,M,1700,4000,M,M,M,M,M,M,M,M,M,78.09,VVTS 031500Z VRB03KT 9999 FEW017 SCT040 25/21 Q1012 NOSIG,M
VVTS,2/3/2012 15:30,106.6667,10.8167,77,69.8,78.48,120,4,0,29.88,M,6.21,M,FEW,SCT,M,M,1700,4000,M,M,M,M,M,M,M,M,M,78.09,VVTS 031530Z 12004KT 9999 FEW017 SCT040 25/21 Q1012 NOSIG,M
VVTS,2/3/2012 16:00,106.6667,10.8167,77,69.8,78.48,140,4,0,29.88,M,6.21,M,FEW,SCT,M,M,1700,4000,M,M,M,M,M,M,M,M,M,78.09,VVTS 031600Z 14004KT 9999 FEW017 SCT040 25/21 Q1012 NOSIG,M
VVTS,2/3/2012 16:30,106.6667,10.8167,75.2,69.8,83.32,50,5,0,29.88,M,6.21,M,FEW,SCT,M,M,1700,4000,M,M,M,M,M,M,M,M,M,76.34,VVTS 031630Z 05005KT 9999 FEW017 SCT040 24/21 Q1012 NOSIG,M
VVTS,2/3/2012 17:00,106.6667,10.8167,75.2,69.8,83.32,60,4,0,29.88,M,6.21,M,FEW,SCT,M,M,1700,4000,M,M,M,M,M,M,M,M,M,76.34,VVTS 031700Z 06004KT 9999 FEW017 SCT040 24/21 Q1012 NOSIG,M
VVTS,2/3/2012 17:30,106.6667,10.8167,75.2,71.6,88.59,M,3,0,29.88,M,6.21,M,FEW,SCT,M,M,1700,4000,M,M,M,M,M,M,M,M,M,76.58,VVTS 031730Z VRB03KT 9999 FEW017 SCT040 24/22 Q1012 NOSIG,M
VVTS,2/3/2012 18:00,106.6667,10.8167,75.2,69.8,83.32,M,3,0,29.88,M,6.21,M,FEW,BKN,M,M,1700,4000,M,M,M,M,M,M,M,M,M,76.34,VVTS 031800Z VRB03KT 9999 FEW017 BKN040 24/21 Q1012 NOSIG,M
VVTS,2/3/2012 19:00,106.6667,10.8167,75.2,73.4,94.14,M,1,0,29.85,M,4.97,M,FEW,BKN,M,M,1700,4000,M,M,M,M,M,M,M,M,M,76.84,VVTS 031900Z VRB01KT 8000 FEW017 BKN040 24/23 Q1011 NOSIG,M
VVTS,2/3/2012 19:30,106.6667,10.8167,75.2,73.4,94.14,0,0,0,29.85,M,4.97,M,FEW,BKN,M,M,1700,4000,M,M,M,M,M,M,M,M,M,76.84,VVTS 031930Z 00000KT 8000 FEW017 BKN040 24/23 Q1011 NOSIG,M
VVTS,2/3/2012 20:00,106.6667,10.8167,75.2,73.4,94.14,340,3,0,29.85,M,M,M,FEW,BKN,M,M,1700,4000,M,M,M,M,M,M,M,M,M,76.84,VVTS 032000Z 34003KT FEW017 BKN040 24/23 Q1011 NOSIG,M
VVTS,2/3/2012 20:30,106.6667,10.8167,75.2,73.4,94.14,M,3,0,29.85,M,5.59,M,FEW,BKN,M,M,1700,4000,M,M,M,M,M,M,M,M,M,76.84,VVTS 032030Z VRB03KT 9000 FEW017 BKN040 24/23 Q1011 NOSIG,M
VVTS,2/3/2012 21:00,106.6667,10.8167,75.2,73.4,94.14,300,2,0,29.85,M,6.21,M,FEW,BKN,M,M,1700,4000,M,M,M,M,M,M,M,M,M,76.84,VVTS 032100Z 30002KT 9999 FEW017 BKN040 24/23 Q1011 NOSIG,M
VVTS,2/3/2012 21:30,106.6667,10.8167,75.2,73.4,94.14,270,1,0,29.85,M,6.21,M,FEW,BKN,M,M,1700,4000,M,M,M,M,M,M,M,M,M,76.84,VVTS 032130Z 27001KT 9999 FEW017 BKN040 24/23 Q1011 NOSIG,M
VVTS,2/3/2012 22:00,106.6667,10.8167,75.2,73.4,94.14,M,2,0,29.85,M,6.21,M,FEW,BKN,M,M,1700,4000,M,M,M,M,M,M,M,M,M,76.84,VVTS 032200Z VRB02KT 9999 FEW017 BKN040 24/23 Q1011 NOSIG,M
VVTS,2/3/2012 22:30,106.6667,10.8167,75.2,73.4,94.14,290,2,0,29.85,M,5.59,M,FEW,BKN,M,M,1700,4000,M,M,M,M,M,M,M,M,M,76.84,VVTS 032230Z 29002KT 9000 FEW017 BKN040 24/23 Q1011 NOSIG,M
VVTS,2/3/2012 23:00,106.6667,10.8167,75.2,73.4,94.14,300,3,0,29.85,M,6.21,M,FEW,BKN,M,M,1700,4000,M,M,M,M,M,M,M,M,M,76.84,VVTS 032300Z 30003KT 9999 FEW017 BKN040 24/23 Q1011 NOSIG,M
VVTS,2/3/2012 23:30,106.6667,10.8167,73.4,73.4,100,290,1,0,29.88,M,6.21,M,FEW,BKN,M,M,1700,4000,M,M,M,M,M,M,M,M,M,75.14,VVTS 032330Z 29001KT 9999 FEW017 BKN040 23/23 Q1012 NOSIG,M
VVTS,2/4/2012 0:00,106.6667,10.8167,75.2,73.4,94.14,320,3,0,29.88,M,6.21,M,SCT,BKN,M,M,1700,4000,M,M,M,M,M,M,M,M,M,76.84,VVTS 040000Z 32003KT 9999 SCT017 BKN040 24/23 Q1012 NOSIG,M
VVTS,2/4/2012 0:30,106.6667,10.8167,75.2,71.6,88.59,300,2,0,29.88,M,6.21,M,SCT,BKN,M,M,1700,4000,M,M,M,M,M,M,M,M,M,76.58,VVTS 040030Z 30002KT 9999 SCT017 BKN040 24/22 Q1012 NOSIG,M
VVTS,2/4/2012 1:00,106.6667,10.8167,77,71.6,83.44,M,1,0,29.88,M,6.21,M,SCT,BKN,M,M,1700,4000,M,M,M,M,M,M,M,M,M,78.32,VVTS 040100Z VRB01KT 9999 SCT017 BKN040 25/22 Q1012 NOSIG,M
VVTS,2/4/2012 1:30,106.6667,10.8167,80.6,71.6,74.11,M,1,0,29.91,M,6.21,M,FEW,SCT,M,M,1700,4000,M,M,M,M,M,M,M,M,M,84.57,VVTS 040130Z VRB01KT 9999 FEW017 SCT040 27/22 Q1013 NOSIG,M
VVTS,2/4/2012 2:00,106.6667,10.8167,82.4,73.4,74.28,M,2,0,29.91,M,4.97,M,SCT,SCT,M,M,1700,4000,M,M,M,M,M,M,M,M,M,88.26,VVTS 040200Z VRB02KT 8000 SCT017 SCT040 28/23 Q1013 NOSIG,M
VVTS,2/4/2012 2:30,106.6667,10.8167,84.2,73.4,70.08,M,2,0,29.91,M,3.11,M,SCT,SCT,M,M,1700,4000,M,M,BR,M,M,M,M,M,M,90.94,VVTS 040230Z VRB02KT 5000 BR SCT017 SCT040 29/23 Q1013 NOSIG,M
VVTS,2/4/2012 3:00,106.6667,10.8167,86,71.6,62.25,140,4,0,29.91,M,3.11,M,SCT,SCT,M,M,1700,4000,M,M,BR,M,M,M,M,M,M,91.92,VVTS 040300Z 14004KT 350V230 5000 BR SCT017 SCT040 30/22 Q1013 NOSIG,M
VVTS,2/4/2012 3:30,106.6667,10.8167,87.8,71.6,58.78,150,4,0,29.88,M,6.21,M,SCT,SCT,M,M,1700,4000,M,M,M,M,M,M,M,M,M,94.18,VVTS 040330Z 15004KT 090V240 9999 SCT017 SCT040 31/22 Q1012 NOSIG,M
VVTS,2/4/2012 4:00,106.6667,10.8167,87.8,69.8,55.29,M,1,0,29.88,M,6.21,M,SCT,M,M,M,1700,M,M,M,M,M,M,M,M,M,M,92.71,VVTS 040400Z VRB01KT 9999 SCT017 31/21 Q1012 NOSIG,M
VVTS,2/4/2012 4:30,106.6667,10.8167,89.6,69.8,52.23,M,2,0,29.88,M,6.21,M,SCT,M,M,M,1700,M,M,M,M,M,M,M,M,M,M,94.85,VVTS 040430Z VRB02KT 9999 SCT017 32/21 Q1012 NOSIG,M
VVTS,2/4/2012 5:00,106.6667,10.8167,87.8,69.8,55.29,M,2,0,29.85,M,6.21,M,SCT,M,M,M,1700,M,M,M,M,M,M,M,M,M,M,92.71,VVTS 040500Z VRB02KT 9999 SCT017 31/21 Q1011 NOSIG,M
VVTS,2/4/2012 6:00,106.6667,10.8167,87.8,71.6,58.78,M,2,0,29.83,M,6.21,M,BKN,M,M,M,1700,M,M,M,M,M,M,M,M,M,M,94.18,VVTS 040600Z VRB02KT 9999 BKN017 31/22 Q1010 NOSIG,M
VVTS,2/4/2012 6:30,106.6667,10.8167,87.8,71.6,58.78,230,6,0,29.83,M,6.21,M,BKN,M,M,M,1700,M,M,M,M,M,M,M,M,M,M,94.18,VVTS 040630Z 23006KT 200V270 9999 BKN017 31/22 Q1010 NOSIG,M
VVTS,2/4/2012 7:00,106.6667,10.8167,89.6,71.6,55.53,240,5,0,29.8,M,6.21,M,BKN,M,M,M,1700,M,M,M,M,M,M,M,M,M,M,96.41,VVTS 040700Z 24005KT 200V290 9999 BKN017 32/22 Q1009 NOSIG,M
VVTS,2/4/2012 7:30,106.6667,10.8167,89.6,71.6,55.53,270,7,0,29.8,M,4.97,M,BKN,M,M,M,1700,M,M,M,M,M,M,M,M,M,M,96.41,VVTS 040730Z 27007KT 8000 BKN017 32/22 Q1009 NOSIG,M
VVTS,2/4/2012 8:30,106.6667,10.8167,89.6,71.6,55.53,270,4,0,29.77,M,6.21,M,SCT,M,M,M,1700,M,M,M,M,M,M,M,M,M,M,96.41,VVTS 040830Z 27004KT 170V330 9999 SCT017 32/22 Q1008 NOSIG,M
VVTS,2/4/2012 9:00,106.6667,10.8167,87.8,71.6,58.78,M,3,0,29.77,M,6.21,M,SCT,M,M,M,1700,M,M,M,M,M,M,M,M,M,M,94.18,VVTS 040900Z VRB03KT 9999 SCT017 31/22 Q1008 NOSIG,M
VVTS,2/4/2012 9:30,106.6667,10.8167,87.8,71.6,58.78,190,6,0,29.77,M,6.21,M,SCT,M,M,M,1700,M,M,M,M,M,M,M,M,M,M,94.18,VVTS 040930Z 19006KT 140V240 9999 SCT017 31/22 Q1008 NOSIG,M
VVTS,2/4/2012 10:00,106.6667,10.8167,84.2,69.8,62.03,160,8,0,29.8,M,6.21,M,FEW,SCT,M,M,1700,2000,M,M,M,M,M,M,M,M,M,88.43,VVTS 041000Z 16008KT 9999 FEW017TCU SCT020 29/21 Q1009 NOSIG,M
VVTS,2/4/2012 10:30,106.6667,10.8167,84.2,68,58.32,180,6,0,29.8,M,6.21,M,SCT,M,M,M,1700,M,M,M,M,M,M,M,M,M,M,87.4,VVTS 041030Z 18006KT 9999 SCT017 29/20 Q1009 NOSIG,M
VVTS,2/4/2012 11:00,106.6667,10.8167,82.4,69.8,65.74,190,4,0,29.8,M,6.21,M,FEW,SCT,M,M,1700,2000,M,M,M,M,M,M,M,M,M,86.22,VVTS 041100Z 19004KT 9999 FEW017TCU SCT020 28/21 Q1009 NOSIG,M
VVTS,2/4/2012 11:30,106.6667,10.8167,82.4,69.8,65.74,170,4,0,29.8,M,6.21,M,FEW,SCT,M,M,1700,4000,M,M,TS,M,M,M,M,M,M,86.22,VVTS 041130Z 17004KT 140V200 9999 TS FEW017CB SCT040 28/21 Q1009 NOSIG,M
VVTS,2/4/2012 12:00,106.6667,10.8167,82.4,69.8,65.74,150,3,0,29.83,M,6.21,M,FEW,SCT,M,M,1700,4000,M,M,TS,M,M,M,M,M,M,86.22,VVTS 041200Z 15003KT 9999 TS FEW017CB SCT040 28/21 Q1010 NOSIG,M
VVTS,2/4/2012 12:30,106.6667,10.8167,82.4,69.8,65.74,150,4,0,29.83,M,6.21,M,FEW,SCT,M,M,1700,4000,M,M,M,M,M,M,M,M,M,86.22,VVTS 041230Z 15004KT 100V200 9999 FEW017 SCT040 28/21 Q1010 NOSIG,M
VVTS,2/4/2012 13:00,106.6667,10.8167,82.4,66.2,58.08,110,8,0,29.85,M,6.21,M,FEW,SCT,M,M,1700,4000,M,M,M,M,M,M,M,M,M,84.63,VVTS 041300Z 11008KT 9999 FEW017 SCT040 28/19 Q1011 NOSIG,M
VVTS,2/4/2012 13:30,106.6667,10.8167,82.4,66.2,58.08,130,5,0,29.85,M,6.21,M,FEW,SCT,M,M,1700,4000,M,M,M,M,M,M,M,M,M,84.63,VVTS 041330Z 13005KT 100V160 9999 FEW017 SCT040 28/19 Q1011 NOSIG,M
VVTS,2/4/2012 14:00,106.6667,10.8167,80.6,66.2,61.58,110,5,0,29.85,M,6.21,M,FEW,SCT,M,M,1700,4000,M,M,M,M,M,M,M,M,M,82.75,VVTS 041400Z 11005KT 070V190 9999 FEW017 SCT040 27/19 Q1011 NOSIG,M
VVTS,2/4/2012 14:30,106.6667,10.8167,80.6,66.2,61.58,110,5,0,29.85,M,6.21,M,FEW,SCT,M,M,1500,4000,M,M,M,M,M,M,M,M,M,82.75,VVTS 041430Z 11005KT 090V150 9999 FEW015 SCT040 27/19 Q1011 NOSIG,M
VVTS,2/4/2012 15:00,106.6667,10.8167,80.6,66.2,61.58,120,5,0,29.85,M,6.21,M,FEW,SCT,M,M,1500,4000,M,M,M,M,M,M,M,M,M,82.75,VVTS 041500Z 12005KT 9999 FEW015 SCT040 27/19 Q1011 NOSIG,M
VVTS,2/4/2012 15:30,106.6667,10.8167,80.6,66.2,61.58,100,6,0,29.85,M,6.21,M,FEW,SCT,M,M,1500,4000,M,M,M,M,M,M,M,M,M,82.75,VVTS 041530Z 10006KT 080V170 9999 FEW015 SCT040 27/19 Q1011 NOSIG,M
VVTS,2/4/2012 16:00,106.6667,10.8167,80.6,66.2,61.58,100,4,0,29.85,M,6.21,M,FEW,SCT,M,M,1500,4000,M,M,M,M,M,M,M,M,M,82.75,VVTS 041600Z 10004KT 9999 FEW015 SCT040 27/19 Q1011 NOSIG,M
VVTS,2/4/2012 16:30,106.6667,10.8167,78.8,66.2,65.33,100,4,0,29.85,M,6.21,M,FEW,SCT,M,M,1500,4000,M,M,M,M,M,M,M,M,M,80.82,VVTS 041630Z 10004KT 9999 FEW015 SCT040 26/19 Q1011 NOSIG,M
VVTS,2/4/2012 17:30,106.6667,10.8167,78.8,66.2,65.33,120,4,0,29.85,M,6.21,M,FEW,SCT,M,M,1500,4000,M,M,M,M,M,M,M,M,M,80.82,VVTS 041730Z 12004KT 080V210 9999 FEW015 SCT040 26/19 Q1011 NOSIG,M
VVTS,2/4/2012 18:00,106.6667,10.8167,78.8,66.2,65.33,140,4,0,29.85,M,6.21,M,FEW,SCT,M,M,1500,4000,M,M,M,M,M,M,M,M,M,80.82,VVTS 041800Z 14004KT 9999 FEW015 SCT040 26/19 Q1011 NOSIG,M
VVTS,2/4/2012 18:30,106.6667,10.8167,78.8,66.2,65.33,130,3,0,29.85,M,6.21,M,FEW,SCT,M,M,1500,4000,M,M,M,M,M,M,M,M,M,80.82,VVTS 041830Z 13003KT 9999 FEW015 SCT040 26/19 Q1011 NOSIG,M
VVTS,2/4/2012 19:00,106.6667,10.8167,78.8,66.2,65.33,130,7,0,29.83,M,6.21,M,FEW,SCT,M,M,1500,4000,M,M,M,M,M,M,M,M,M,80.82,VVTS 041900Z 13007KT 9999 FEW015 SCT040 26/19 Q1010 NOSIG,M
VVTS,2/4/2012 19:30,106.6667,10.8167,78.8,66.2,65.33,120,5,0,29.83,M,6.21,M,FEW,SCT,M,M,1500,4000,M,M,M,M,M,M,M,M,M,80.82,VVTS 041930Z 12005KT 090V150 9999 FEW015 SCT040 26/19 Q1010 NOSIG,M
VVTS,2/4/2012 20:00,106.6667,10.8167,78.8,66.2,65.33,120,5,0,29.83,M,6.21,M,FEW,SCT,M,M,1500,4000,M,M,M,M,M,M,M,M,M,80.82,VVTS 042000Z 12005KT 9999 FEW015 SCT040 26/19 Q1010 NOSIG,M
VVTS,2/4/2012 20:30,106.6667,10.8167,77,68,73.78,80,4,0,29.85,M,6.21,M,FEW,SCT,M,M,1500,4000,M,M,M,M,M,M,M,M,M,77,VVTS 042030Z 08004KT 9999 FEW015 SCT040 25/20 Q1011 NOSIG,M
VVTS,2/4/2012 21:00,106.6667,10.8167,75.2,68,78.34,80,4,0,29.85,M,6.21,M,FEW,SCT,M,M,1500,4000,M,M,M,M,M,M,M,M,M,75.2,VVTS 042100Z 08004KT 9999 FEW015 SCT040 24/20 Q1011 NOSIG,M
VVTS,2/4/2012 21:30,106.6667,10.8167,75.2,68,78.34,90,5,0,29.85,M,6.21,M,FEW,SCT,M,M,1500,4000,M,M,M,M,M,M,M,M,M,75.2,VVTS 042130Z 09005KT 9999 FEW015 SCT040 24/20 Q1011 NOSIG,M
VVTS,2/4/2012 22:00,106.6667,10.8167,77,66.2,69.33,100,5,0,29.85,M,6.21,M,FEW,SCT,M,M,1500,4000,M,M,M,M,M,M,M,M,M,77,VVTS 042200Z 10005KT 9999 FEW015 SCT040 25/19 Q1011 NOSIG,M
VVTS,2/4/2012 22:30,106.6667,10.8167,75.2,68,78.34,90,5,0,29.85,M,6.21,M,FEW,SCT,M,M,1500,4000,M,M,M,M,M,M,M,M,M,75.2,VVTS 042230Z 09005KT 9999 FEW015 SCT040 24/20 Q1011 NOSIG,M
VVTS,2/4/2012 23:00,106.6667,10.8167,75.2,66.2,73.61,90,4,0,29.85,M,6.21,M,FEW,SCT,M,M,1500,4000,M,M,M,M,M,M,M,M,M,75.2,VVTS 042300Z 09004KT 9999 FEW015 SCT040 24/19 Q1011 NOSIG,M
VVTS,2/4/2012 23:30,106.6667,10.8167,75.2,66.2,73.61,80,5,0,29.88,M,6.21,M,FEW,SCT,M,M,1500,4000,M,M,M,M,M,M,M,M,M,75.2,VVTS 042330Z 08005KT 9999 FEW015 SCT040 24/19 Q1012 NOSIG,M
VVTS,2/5/2012 0:00,106.6667,10.8167,77,68,73.78,60,4,0,29.88,M,6.21,M,FEW,SCT,M,M,1500,4000,M,M,M,M,M,M,M,M,M,77,VVTS 050000Z 06004KT 9999 FEW015 SCT040 25/20 Q1012 NOSIG,M
VVTS,2/5/2012 0:30,106.6667,10.8167,78.8,68,69.52,70,5,0,29.91,M,6.21,M,FEW,SCT,M,M,1500,4000,M,M,M,M,M,M,M,M,M,81.1,VVTS 050030Z 07005KT 9999 FEW015 SCT040 26/20 Q1013 NOSIG,M
VVTS,2/5/2012 1:00,106.6667,10.8167,80.6,68,65.54,50,6,0,29.91,M,6.21,M,FEW,SCT,M,M,1500,4000,M,M,M,M,M,M,M,M,M,83.29,VVTS 050100Z 05006KT 9999 FEW015 SCT040 27/20 Q1013 NOSIG,M
VVTS,2/5/2012 1:30,106.6667,10.8167,82.4,68,61.81,60,5,0,29.91,M,6.21,M,FEW,M,M,M,1500,M,M,M,M,M,M,M,M,M,M,85.38,VVTS 050130Z 06005KT 9999 FEW015 28/20 Q1013 NOSIG,M
VVTS,2/5/2012 2:00,106.6667,10.8167,84.2,69.8,62.03,40,5,0,29.91,M,6.21,M,FEW,M,M,M,1500,M,M,M,M,M,M,M,M,M,M,88.43,VVTS 050200Z 04005KT 340V070 9999 FEW015 29/21 Q1013 NOSIG,M
VVTS,2/5/2012 2:30,106.6667,10.8167,86,69.8,58.55,40,5,0,29.91,M,6.21,M,FEW,M,M,M,1500,M,M,M,M,M,M,M,M,M,M,90.58,VVTS 050230Z 04005KT 350V080 9999 FEW015 30/21 Q1013 NOSIG,M
VVTS,2/5/2012 3:00,106.6667,10.8167,89.6,66.2,46.14,30,7,0,29.91,M,6.21,M,FEW,M,M,M,1500,M,M,M,M,M,M,M,M,M,M,92.27,VVTS 050300Z 03007KT 330V080 9999 FEW015 32/19 Q1013 NOSIG,M
VVTS,2/5/2012 3:30,106.6667,10.8167,89.6,66.2,46.14,40,6,0,29.91,M,6.21,M,FEW,M,M,M,1700,M,M,M,M,M,M,M,M,M,M,92.27,VVTS 050330Z 04006KT 350V090 9999 FEW017 32/19 Q1013 NOSIG,M
VVTS,2/5/2012 4:00,106.6667,10.8167,91.4,66.2,43.61,90,6,0,29.88,M,6.21,26,FEW,M,M,M,1700,M,M,M,M,M,M,M,M,M,M,94.29,VVTS 050400Z 09006G26KT 030V210 9999 FEW017 33/19 Q1012 NOSIG,M
VVTS,2/5/2012 4:30,106.6667,10.8167,91.4,66.2,43.61,80,5,0,29.88,M,6.21,M,SCT,M,M,M,1700,M,M,M,M,M,M,M,M,M,M,94.29,VVTS 050430Z 08005KT 030V120 9999 SCT017 33/19 Q1012 NOSIG,M
VVTS,2/5/2012 5:00,106.6667,10.8167,91.4,66.2,43.61,80,6,0,29.85,M,6.21,M,SCT,M,M,M,1700,M,M,M,M,M,M,M,M,M,M,94.29,VVTS 050500Z 08006KT 050V150 9999 SCT017 33/19 Q1011 NOSIG,M
VVTS,2/5/2012 5:30,106.6667,10.8167,93.2,66.2,41.23,M,3,0,29.85,M,6.21,M,SCT,M,M,M,1700,M,M,M,M,M,M,M,M,M,M,96.35,VVTS 050530Z VRB03KT 9999 SCT017 34/19 Q1011 NOSIG,M
VVTS,2/5/2012 6:00,106.6667,10.8167,91.4,66.2,43.61,50,4,0,29.83,M,6.21,M,SCT,M,M,M,1700,M,M,M,M,M,M,M,M,M,M,94.29,VVTS 050600Z 05004KT 350V120 9999 SCT017 33/19 Q1010 NOSIG,M
VVTS,2/5/2012 6:30,106.6667,10.8167,89.6,66.2,46.14,M,3,0,29.83,M,6.21,M,SCT,M,M,M,1700,M,M,M,M,M,M,M,M,M,M,92.27,VVTS 050630Z VRB03KT 9999 SCT017 32/19 Q1010 NOSIG,M
VVTS,2/5/2012 7:00,106.6667,10.8167,91.4,64.4,40.96,M,3,0,29.8,M,6.21,M,SCT,M,M,M,1700,M,M,M,M,M,M,M,M,M,M,93.19,VVTS 050700Z VRB03KT 9999 SCT017 33/18 Q1009 NOSIG,M
VVTS,2/5/2012 7:30,106.6667,10.8167,93.2,64.4,38.73,M,2,0,29.77,M,6.21,M,FEW,SCT,M,M,1500,1700,M,M,M,M,M,M,M,M,M,95.2,VVTS 050730Z VRB02KT 9999 FEW015TCU SCT017 34/18 Q1008 NOSIG,M
VVTS,2/5/2012 8:00,106.6667,10.8167,93.2,64.4,38.73,M,3,0,29.77,M,6.21,M,FEW,SCT,M,M,1500,1700,M,M,M,M,M,M,M,M,M,95.2,VVTS 050800Z VRB03KT 9999 FEW015TCU SCT017 34/18 Q1008 NOSIG,M
VVTS,2/5/2012 8:30,106.6667,10.8167,89.6,69.8,52.23,140,6,0,29.77,M,6.21,M,FEW,SCT,M,M,1500,1700,M,M,M,M,M,M,M,M,M,94.85,VVTS 050830Z 14006KT 090V190 9999 FEW015TCU SCT017 32/21 Q1008 NOSIG,M
VVTS,2/5/2012 9:00,106.6667,10.8167,86,69.8,58.55,160,8,0,29.77,M,6.21,M,FEW,SCT,M,M,1500,1700,M,M,M,M,M,M,M,M,M,90.58,VVTS 050900Z 16008KT 120V200 9999 FEW015TCU SCT017 30/21 Q1008 NOSIG,M
VVTS,2/5/2012 9:30,106.6667,10.8167,84.2,69.8,62.03,180,9,0,29.77,M,6.21,M,FEW,SCT,M,M,1500,1700,M,M,M,M,M,M,M,M,M,88.43,VVTS 050930Z 18009KT 150V210 9999 FEW015CB SCT017 29/21 Q1008 NOSIG,M
VVTS,2/5/2012 10:00,106.6667,10.8167,84.2,71.6,65.95,190,8,0,29.77,M,6.21,M,FEW,SCT,M,M,1500,1700,M,M,M,M,M,M,M,M,M,89.6,VVTS 051000Z 19008KT 9999 FEW015CB SCT017 29/22 Q1008 NO SIG,M
VVTS,2/5/2012 11:00,106.6667,10.8167,84.2,69.8,62.03,180,7,0,29.8,M,6.21,M,FEW,SCT,M,M,1500,1700,M,M,M,M,M,M,M,M,M,88.43,VVTS 051100Z 18007KT 9999 FEW015CB SCT017 29/21 Q1009 NOSIG,M
VVTS,2/5/2012 11:30,106.6667,10.8167,82.4,69.8,65.74,160,7,0,29.8,M,6.21,M,FEW,SCT,M,M,1500,1700,M,M,M,M,M,M,M,M,M,86.22,VVTS 051130Z 16007KT 9999 FEW015CB SCT017 28/21 Q1009 NOSIG,M
VVTS,2/5/2012 12:00,106.6667,10.8167,82.4,68,61.81,120,9,0,29.83,M,6.21,M,FEW,SCT,M,M,1500,1700,M,M,M,M,M,M,M,M,M,85.38,VVTS 051200Z 12009KT 9999 FEW015CB SCT017 28/20 Q1010 NOSIG,M
VVTS,2/5/2012 12:30,106.6667,10.8167,82.4,68,61.81,120,8,0,29.83,M,6.21,M,FEW,SCT,M,M,1500,1700,M,M,M,M,M,M,M,M,M,85.38,VVTS 051230Z 12008KT 090V180 9999 FEW015CB SCT017 28/20 Q1010 NOSIG,M
VVTS,2/5/2012 13:00,106.6667,10.8167,80.6,69.8,69.71,130,9,0,29.83,M,6.21,M,FEW,SCT,M,M,1500,1700,M,M,M,M,M,M,M,M,M,83.9,VVTS 051300Z 13009KT 9999 FEW015CB SCT017 27/21 Q1010 NOSIG,M
VVTS,2/5/2012 13:30,106.6667,10.8167,80.6,68,65.54,120,8,0,29.85,M,6.21,M,FEW,SCT,M,M,1700,2000,M,M,M,M,M,M,M,M,M,83.29,VVTS 051330Z 12008KT 9999 FEW017TCU SCT020 27/20 Q1011 NOSIG,M
VVTS,2/5/2012 14:30,106.6667,10.8167,80.6,69.8,69.71,110,9,0,29.85,M,6.21,M,FEW,SCT,M,M,1700,4000,M,M,M,M,M,M,M,M,M,83.9,VVTS 051430Z 11009KT 9999 FEW017TCU SCT040 27/21 Q1011 NOSIG,M
VVTS,2/5/2012 15:00,106.6667,10.8167,78.8,69.8,73.95,120,6,0,29.85,M,6.21,M,FEW,SCT,M,M,1700,4000,M,M,M,M,M,M,M,M,M,81.39,VVTS 051500Z 12006KT 9999 FEW017 SCT040 26/21 Q1011 NOSIG,M
VVTS,2/5/2012 15:30,106.6667,10.8167,78.8,69.8,73.95,130,6,0,29.85,M,6.21,M,FEW,SCT,M,M,1700,4000,M,M,M,M,M,M,M,M,M,81.39,VVTS 051530Z 13006KT 9999 FEW017 SCT040 26/21 Q1011 NOSIG,M
VVTS,2/5/2012 16:00,106.6667,10.8167,78.8,68,69.52,110,7,0,29.85,M,6.21,M,FEW,SCT,M,M,1700,4000,M,M,M,M,M,M,M,M,M,81.1,VVTS 051600Z 11007KT 9999 FEW017 SCT040 26/20 Q1011 NOSIG,M
VVTS,2/5/2012 16:30,106.6667,10.8167,78.8,68,69.52,130,8,0,29.85,M,6.21,M,FEW,SCT,M,M,1700,4000,M,M,M,M,M,M,M,M,M,81.1,VVTS 051630Z 13008KT 9999 FEW017 SCT040 26/20 Q1011 NOSIG,M
VVTS,2/5/2012 17:00,106.6667,10.8167,78.8,68,69.52,120,6,0,29.85,M,6.21,M,FEW,SCT,M,M,1700,4000,M,M,M,M,M,M,M,M,M,81.1,VVTS 051700Z 12006KT 9999 FEW017 SCT040 26/20 Q1011 NOSIG,M
VVTS,2/5/2012 17:30,106.6667,10.8167,78.8,66.2,65.33,120,6,0,29.83,M,6.21,M,FEW,M,M,M,1700,M,M,M,M,M,M,M,M,M,M,80.82,VVTS 051730Z 12006KT 9999 FEW017 26/19 Q1010 NOSIG,M
VVTS,2/5/2012 18:00,106.6667,10.8167,78.8,66.2,65.33,120,6,0,29.83,M,6.21,M,FEW,M,M,M,1700,M,M,M,M,M,M,M,M,M,M,80.82,VVTS 051800Z 12006KT 9999 FEW017 26/19 Q1010 NOSIG,M
VVTS,2/5/2012 18:30,106.6667,10.8167,78.8,66.2,65.33,120,5,0,29.83,M,6.21,M,FEW,M,M,M,1700,M,M,M,M,M,M,M,M,M,M,80.82,VVTS 051830Z 12005KT 9999 FEW017 26/19 Q1010 NOSIG,M
VVTS,2/5/2012 19:00,106.6667,10.8167,77,66.2,69.33,130,4,0,29.83,M,6.21,M,FEW,M,M,M,1700,M,M,M,M,M,M,M,M,M,M,77,VVTS 051900Z 13004KT 9999 FEW017 25/19 Q1010 NOSIG,M
VVTS,2/5/2012 19:30,106.6667,10.8167,77,66.2,69.33,130,4,0,29.83,M,6.21,M,FEW,M,M,M,1700,M,M,M,M,M,M,M,M,M,M,77,VVTS 051930Z 13004KT 9999 FEW017 25/19 Q1010 NOSIG,M
VVTS,2/5/2012 20:00,106.6667,10.8167,75.2,66.2,73.61,M,1,0,29.83,M,6.21,M,FEW,M,M,M,1700,M,M,M,M,M,M,M,M,M,M,75.2,VVTS 052000Z VRB01KT 9999 FEW017 24/19 Q1010 NOSIG,M
VVTS,2/5/2012 20:30,106.6667,10.8167,75.2,69.8,83.32,130,5,0,29.83,M,6.21,M,FEW,M,M,M,1700,M,M,M,M,M,M,M,M,M,M,76.34,VVTS 052030Z 13005KT 9999 FEW017 24/21 Q1010 NOSIG,M
VVTS,2/5/2012 21:00,106.6667,10.8167,75.2,69.8,83.32,M,3,0,29.83,M,6.21,M,FEW,M,M,M,1700,M,M,M,M,M,M,M,M,M,M,76.34,VVTS 052100Z VRB03KT 9999 FEW017 24/21 Q1010 NOSIG,M
VVTS,2/5/2012 21:30,106.6667,10.8167,73.4,69.8,88.51,120,4,0,29.83,M,6.21,M,FEW,M,M,M,1700,M,M,M,M,M,M,M,M,M,M,74.6,VVTS 052130Z 12004KT 9999 FEW017 23/21 Q1010 NOSIG,M
VVTS,2/5/2012 22:00,106.6667,10.8167,75.2,69.8,83.32,M,3,0,29.83,M,6.21,M,FEW,M,M,M,1700,M,M,M,M,M,M,M,M,M,M,76.34,VVTS 052200Z VRB03KT 9999 FEW017 24/21 Q1010 NOSIG,M
VVTS,2/5/2012 22:30,106.6667,10.8167,73.4,69.8,88.51,M,1,0,29.83,M,6.21,M,FEW,M,M,M,1700,M,M,M,M,M,M,M,M,M,M,74.6,VVTS 052230Z VRB01KT 9999 FEW017 23/21 Q1010 NOSIG,M
VVTS,2/5/2012 23:00,106.6667,10.8167,75.2,71.6,88.59,M,2,0,29.83,M,6.21,M,FEW,M,M,M,1700,M,M,M,M,M,M,M,M,M,M,76.58,VVTS 052300Z VRB02KT 9999 FEW017 24/22 Q1010 NOSIG,M
VVTS,2/5/2012 23:30,106.6667,10.8167,75.2,71.6,88.59,140,4,0,29.83,M,6.21,M,FEW,M,M,M,1700,M,M,M,M,M,M,M,M,M,M,76.58,VVTS 052330Z 14004KT 9999 FEW017 24/22 Q1010 NOSIG,M
VVTS,2/6/2012 0:00,106.6667,10.8167,75.2,71.6,88.59,110,4,0,29.85,M,6.21,M,FEW,M,M,M,1700,M,M,M,M,M,M,M,M,M,M,76.58,VVTS 060000Z 11004KT 9999 FEW017 24/22 Q1011 NOSIG,M
VVTS,2/6/2012 0:30,106.6667,10.8167,77,71.6,83.44,110,8,0,29.85,M,6.21,M,FEW,M,M,M,2000,M,M,M,M,M,M,M,M,M,M,78.32,VVTS 060030Z 11008KT 9999 FEW020 25/22 Q1011 NOSIG,M
VVTS,2/6/2012 1:00,106.6667,10.8167,78.8,71.6,78.62,120,8,0,29.85,M,6.21,M,M,M,M,M,M,M,M,M,M,M,M,M,M,M,M,81.7,VVTS 060100Z 12008KT CAVOK 26/22 Q1011 NOSIG,M
VVTS,2/6/2012 1:30,106.6667,10.8167,80.6,71.6,74.11,110,9,0,29.88,M,6.21,M,M,M,M,M,M,M,M,M,M,M,M,M,M,M,M,84.57,VVTS 060130Z 11009KT CAVOK 27/22 Q1012 NOSIG,M
VVTS,2/6/2012 2:00,106.6667,10.8167,82.4,71.6,69.9,120,7,0,29.88,M,6.21,M,M,M,M,M,M,M,M,M,M,M,M,M,M,M,M,87.18,VVTS 060200Z 12007KT 080V160 CAVOK 28/22 Q1012 NOSIG,M
VVTS,2/6/2012 2:30,106.6667,10.8167,82.4,71.6,69.9,120,6,0,29.88,M,6.21,M,M,M,M,M,M,M,M,M,M,M,M,M,M,M,M,87.18,VVTS 060230Z 12006KT 080V160 CAVOK 28/22 Q1012 NOSIG,M
VVTS,2/6/2012 3:00,106.6667,10.8167,84.2,71.6,65.95,160,4,0,29.88,M,6.21,M,M,M,M,M,M,M,M,M,M,M,M,M,M,M,M,89.6,VVTS 060300Z 16004KT 120V200 CAVOK 29/22 Q1012 NOSIG,M
VVTS,2/6/2012 3:30,106.6667,10.8167,86,71.6,62.25,130,5,0,29.88,M,6.21,M,FEW,M,M,M,2000,M,M,M,M,M,M,M,M,M,M,91.92,VVTS 060330Z 13005KT 070V170 9999 FEW020 30/22 Q1012 NOSIG,M
VVTS,2/6/2012 4:00,106.6667,10.8167,87.8,71.6,58.78,170,4,0,29.85,M,6.21,M,FEW,M,M,M,2000,M,M,M,M,M,M,M,M,M,M,94.18,VVTS 060400Z 17004KT 050V270 9999 FEW020 31/22 Q1011 NOSIG,M
VVTS,2/6/2012 4:30,106.6667,10.8167,87.8,71.6,58.78,140,5,0,29.85,M,6.21,M,SCT,M,M,M,2000,M,M,M,M,M,M,M,M,M,M,94.18,VVTS 060430Z 14005KT 090V180 9999 SCT020 31/22 Q1011 NOSIG,M
VVTS,2/6/2012 5:00,106.6667,10.8167,89.6,69.8,52.23,M,3,0,29.83,M,6.21,M,SCT,M,M,M,2000,M,M,M,M,M,M,M,M,M,M,94.85,VVTS 060500Z VRB03KT 9999 SCT020 32/21 Q1010 NOSIG,M
VVTS,2/6/2012 5:30,106.6667,10.8167,89.6,69.8,52.23,M,3,0,29.8,M,6.21,M,SCT,M,M,M,2000,M,M,M,M,M,M,M,M,M,M,94.85,VVTS 060530Z VRB03KT 9999 SCT020 32/21 Q1009 NOSIG,M
VVTS,2/6/2012 6:00,106.6667,10.8167,89.6,69.8,52.23,M,1,0,29.8,M,6.21,M,BKN,M,M,M,1700,M,M,M,M,M,M,M,M,M,M,94.85,VVTS 060600Z VRB01KT 9999 BKN017 32/21 Q1009 NOSIG,M
VVTS,2/6/2012 6:30,106.6667,10.8167,89.6,71.6,55.53,220,5,0,29.77,M,6.21,M,BKN,M,M,M,1700,M,M,M,M,M,M,M,M,M,M,96.41,VVTS 060630Z 22005KT 180V250 9999 BKN017 32/22 Q1008 NOSIG,M
VVTS,2/6/2012 7:00,106.6667,10.8167,89.6,69.8,52.23,M,3,0,29.77,M,6.21,M,BKN,M,M,M,1700,M,M,M,M,M,M,M,M,M,M,94.85,VVTS 060700Z VRB03KT 9999 BKN017 32/21 Q1008 NOSIG,M
VVTS,2/6/2012 7:30,106.6667,10.8167,91.4,69.8,49.36,230,4,0,29.74,M,6.21,M,BKN,M,M,M,1700,M,M,M,M,M,M,M,M,M,M,96.99,VVTS 060730Z 23004KT 150V270 9999 BKN017 33/21 Q1007 NOSIG,M
VVTS,2/6/2012 8:00,106.6667,10.8167,89.6,71.6,55.53,220,6,0,29.74,M,6.21,M,BKN,M,M,M,1700,M,M,M,M,M,M,M,M,M,M,96.41,VVTS 060800Z 22006KT 190V250 9999 BKN017 32/22 Q1007 NOSIG,M
VVTS,2/6/2012 8:30,106.6667,10.8167,86,73.4,66.15,170,11,0,29.74,M,6.21,M,BKN,M,M,M,1700,M,M,M,M,M,M,M,M,M,M,93.45,VVTS 060830Z 17011KT 9999 BKN017 30/23 Q1007 NOSIG,M
VVTS,2/6/2012 9:00,106.6667,10.8167,84.2,71.6,65.95,170,10,0,29.74,M,6.21,M,SCT,M,M,M,1700,M,M,M,M,M,M,M,M,M,M,89.6,VVTS 060900Z 17010KT 9999 SCT017 29/22 Q1007 NOSIG,M
VVTS,2/6/2012 9:30,106.6667,10.8167,84.2,71.6,65.95,170,10,0,29.74,M,6.21,M,SCT,M,M,M,1700,M,M,M,M,M,M,M,M,M,M,89.6,VVTS 060930Z 17010KT 9999 SCT017 29/22 Q1007 NOSIG,M
VVTS,2/6/2012 10:00,106.6667,10.8167,82.4,69.8,65.74,170,11,0,29.74,M,6.21,M,SCT,M,M,M,1700,M,M,M,M,M,M,M,M,M,M,86.22,VVTS 061000Z 17011KT 9999 SCT017 28/21 Q1007 NOSIG,M
VVTS,2/6/2012 10:30,106.6667,10.8167,80.6,71.6,74.11,170,10,0,29.77,M,6.21,M,SCT,M,M,M,1700,M,M,M,M,M,M,M,M,M,M,84.57,VVTS 061030Z 17010KT 9999 SCT017 27/22 Q1008 NOSIG,M
VVTS,2/6/2012 11:00,106.6667,10.8167,80.6,71.6,74.11,170,9,0,29.77,M,6.21,M,FEW,M,M,M,1500,M,M,M,M,M,M,M,M,M,M,84.57,VVTS 061100Z 17009KT 9999 FEW015TCU 27/22 Q1008 NOSIG,M
VVTS,2/6/2012 11:30,106.6667,10.8167,78.8,71.6,78.62,160,10,0,29.77,M,6.21,M,FEW,M,M,M,1500,M,M,M,M,M,M,M,M,M,M,81.7,VVTS 061130Z 16010KT 140V210 9999 FEW015 26/22 Q1008 NOSIG,M
VVTS,2/6/2012 12:00,106.6667,10.8167,78.8,69.8,73.95,150,9,0,29.8,M,6.21,M,FEW,M,M,M,1500,M,M,M,M,M,M,M,M,M,M,81.39,VVTS 061200Z 15009KT 9999 FEW015 26/21 Q1009 NOSIG,M
VVTS,2/6/2012 12:30,106.6667,10.8167,78.8,71.6,78.62,160,6,0,29.8,M,6.21,M,FEW,M,M,M,1500,M,M,M,M,M,M,M,M,M,M,81.7,VVTS 061230Z 16006KT 110V180 9999 FEW015 26/22 Q1009 NOSIG,M
VVTS,2/6/2012 13:00,106.6667,10.8167,78.8,71.6,78.62,140,6,0,29.8,M,6.21,M,FEW,M,M,M,1500,M,M,M,M,M,M,M,M,M,M,81.7,VVTS 061300Z 14006KT 110V190 9999 FEW015 26/22 Q1009 NOSIG,M
VVTS,2/6/2012 13:30,106.6667,10.8167,78.8,71.6,78.62,140,8,0,29.83,M,6.21,M,FEW,M,M,M,1500,M,M,M,M,M,M,M,M,M,M,81.7,VVTS 061330Z 14008KT 9999 FEW015 26/22 Q1010 NOSIG,M
VVTS,2/6/2012 14:00,106.6667,10.8167,78.8,71.6,78.62,140,7,0,29.83,M,6.21,M,FEW,M,M,M,1500,M,M,M,M,M,M,M,M,M,M,81.7,VVTS 061400Z 14007KT 110V180 9999 FEW015 26/22 Q1010 NOSIG,M
VVTS,2/6/2012 14:30,106.6667,10.8167,77,71.6,83.44,140,7,0,29.83,M,6.21,M,FEW,M,M,M,1500,M,M,M,M,M,M,M,M,M,M,78.32,VVTS 061430Z 14007KT 9999 FEW015 25/22 Q1010 NOSIG,M
VVTS,2/6/2012 15:00,106.6667,10.8167,77,71.6,83.44,140,7,0,29.83,M,6.21,M,FEW,M,M,M,1500,M,M,M,M,M,M,M,M,M,M,78.32,VVTS 061500Z 14007KT 9999 FEW015 25/22 Q1010 NOSIG,M
VVTS,2/6/2012 15:30,106.6667,10.8167,77,73.4,88.67,120,7,0,29.83,M,6.21,M,FEW,M,M,M,1500,M,M,M,M,M,M,M,M,M,M,78.57,VVTS 061530Z 12007KT 9999 FEW015 25/23 Q1010 NOSIG,M
VVTS,2/6/2012 16:00,106.6667,10.8167,77,73.4,88.67,120,7,0,29.83,M,6.21,M,FEW,M,M,M,1500,M,M,M,M,M,M,M,M,M,M,78.57,VVTS 061600Z 12007KT 9999 FEW015 25/23 Q1010 NOSIG,M
VVTS,2/6/2012 16:30,106.6667,10.8167,77,73.4,88.67,120,7,0,29.83,M,6.21,M,FEW,M,M,M,1500,M,M,M,M,M,M,M,M,M,M,78.57,VVTS 061630Z 12007KT 9999 FEW015 25/23 Q1010 NOSIG,M
VVTS,2/6/2012 17:00,106.6667,10.8167,77,73.4,88.67,130,7,0,29.83,M,6.21,M,FEW,M,M,M,1500,M,M,M,M,M,M,M,M,M,M,78.57,VVTS 061700Z 13007KT 100V180 9999 FEW015 25/23 Q1010 NOSIG,M
VVTS,2/6/2012 17:30,106.6667,10.8167,75.2,73.4,94.14,130,5,0,29.8,M,6.21,M,FEW,M,M,M,1500,M,M,M,M,M,M,M,M,M,M,76.84,VVTS 061730Z 13005KT 100V180 9999 FEW015 24/23 Q1009 NOSIG,M
VVTS,2/6/2012 18:00,106.6667,10.8167,75.2,73.4,94.14,110,5,0,29.8,M,6.21,M,FEW,M,M,M,1500,M,M,M,M,M,M,M,M,M,M,76.84,VVTS 061800Z 11005KT 9999 FEW015 24/23 Q1009 NOSIG,M
VVTS,2/6/2012 18:30,106.6667,10.8167,75.2,73.4,94.14,110,5,0,29.8,M,6.21,M,FEW,M,M,M,1500,M,M,M,M,M,M,M,M,M,M,76.84,VVTS 061830Z 11005KT 100V160 9999 FEW015 24/23 Q1009 NOSIG,M
VVTS,2/6/2012 19:00,106.6667,10.8167,75.2,73.4,94.14,120,6,0,29.8,M,6.21,M,FEW,M,M,M,1500,M,M,M,M,M,M,M,M,M,M,76.84,VVTS 061900Z 12006KT 9999 FEW015 24/23 Q1009 NOSIG,M
VVTS,2/6/2012 19:30,106.6667,10.8167,75.2,73.4,94.14,110,5,0,29.8,M,6.21,M,FEW,M,M,M,1500,M,M,M,M,M,M,M,M,M,M,76.84,VVTS 061930Z 11005KT 9999 FEW015 24/23 Q1009 NOSIG,M
VVTS,2/6/2012 20:00,106.6667,10.8167,75.2,73.4,94.14,110,5,0,29.8,M,6.21,M,FEW,M,M,M,1500,M,M,M,M,M,M,M,M,M,M,76.84,VVTS 062000Z 11005KT 9999 FEW015 24/23 Q1009 NOSIG,M
VVTS,2/6/2012 20:30,106.6667,10.8167,75.2,73.4,94.14,110,5,0,29.8,M,6.21,M,FEW,M,M,M,1500,M,M,M,M,M,M,M,M,M,M,76.84,VVTS 062030Z 11005KT 9999 FEW015 24/23 Q1009 NOSIG,M
VVTS,2/6/2012 21:00,106.6667,10.8167,75.2,73.4,94.14,110,4,0,29.8,M,6.21,M,FEW,M,M,M,1500,M,M,M,M,M,M,M,M,M,M,76.84,VVTS 062100Z 11004KT 9999 FEW015 24/23 Q1009 NOSIG,M
VVTS,2/6/2012 21:30,106.6667,10.8167,75.2,73.4,94.14,M,3,0,29.8,M,6.21,M,FEW,M,M,M,1500,M,M,M,M,M,M,M,M,M,M,76.84,VVTS 062130Z VRB03KT 9999 FEW015 24/23 Q1009 NOSIG,M
VVTS,2/6/2012 22:00,106.6667,10.8167,75.2,73.4,94.14,160,5,0,29.8,M,6.21,M,FEW,M,M,M,1500,M,M,M,M,M,M,M,M,M,M,76.84,VVTS 062200Z 16005KT 110V180 9999 FEW015 24/23 Q1009 NOSIG,M
VVTS,2/6/2012 22:30,106.6667,10.8167,75.2,73.4,94.14,160,5,0,29.8,M,6.21,M,FEW,M,M,M,1500,M,M,M,M,M,M,M,M,M,M,76.84,VVTS 062230Z 16005KT 9999 FEW015 24/23 Q1009 NOSIG,M
VVTS,2/6/2012 23:00,106.6667,10.8167,75.2,73.4,94.14,160,4,0,29.8,M,6.21,M,BKN,M,M,M,1500,M,M,M,M,M,M,M,M,M,M,76.84,VVTS 062300Z 16004KT 9999 BKN015 24/23 Q1009 NOSIG,M
VVTS,2/6/2012 23:30,106.6667,10.8167,75.2,73.4,94.14,140,5,0,29.83,M,6.21,M,BKN,M,M,M,1500,M,M,M,M,M,M,M,M,M,M,76.84,VVTS 062330Z 14005KT 9999 BKN015 24/23 Q1010 NOSIG,M
VVTS,2/7/2012 0:00,106.6667,10.8167,75.2,73.4,94.14,140,6,0,29.83,M,6.21,M,SCT,M,M,M,1500,M,M,M,M,M,M,M,M,M,M,76.84,VVTS 070000Z 14006KT 9999 SCT015 24/23 Q1010 NOSIG,M
VVTS,2/7/2012 0:30,106.6667,10.8167,77,73.4,88.67,150,5,0,29.83,M,6.21,M,SCT,M,M,M,1700,M,M,M,M,M,M,M,M,M,M,78.57,VVTS 070030Z 15005KT 9999 SCT017 25/23 Q1010 NOSIG,M
VVTS,2/7/2012 1:00,106.6667,10.8167,78.8,73.4,83.55,150,5,0,29.85,M,6.21,M,SCT,M,M,M,1700,M,M,M,M,M,M,M,M,M,M,82.03,VVTS 070100Z 15005KT 110V170 9999 SCT017 26/23 Q1011 NOSIG,M
VVTS,2/7/2012 1:30,106.6667,10.8167,78.8,71.6,78.62,160,4,0,29.85,M,6.21,M,BKN,M,M,M,1700,M,M,M,M,M,M,M,M,M,M,81.7,VVTS 070130Z 16004KT 9999 BKN017 26/22 Q1011 NOSIG,M
VVTS,2/7/2012 2:00,106.6667,10.8167,80.6,73.4,78.76,M,2,0,29.85,M,6.21,M,BKN,M,M,M,1700,M,M,M,M,M,M,M,M,M,M,85.32,VVTS 070200Z VRB02KT 9999 BKN017 27/23 Q1011 NOSIG,M
VVTS,2/7/2012 2:30,106.6667,10.8167,82.4,M,M,M,2,0,M,M,6.21,M,BKN,M,M,M,1700,M,M,M,M,M,M,M,M,M,M,M,VVTS 070230Z VRB02KT 9999 BKN017 28/222 NOSIG,M
VVTS,2/7/2012 3:00,106.6667,10.8167,82.4,71.6,69.9,M,3,0,29.88,M,6.21,M,BKN,M,M,M,1700,M,M,M,M,M,M,M,M,M,M,87.18,VVTS 070300Z VRB03KT 9999 BKN017 28/22 Q1012 NOSIG,M
VVTS,2/7/2012 3:30,106.6667,10.8167,82.4,71.6,69.9,110,4,0,29.85,M,6.21,M,OVC,M,M,M,1700,M,M,M,M,M,M,M,M,M,M,87.18,VVTS 070330Z 11004KT 070V160 9999 OVC017 28/22 Q1011 NOSIG,M
VVTS,2/7/2012 4:00,106.6667,10.8167,84.2,71.6,65.95,M,2,0,29.85,M,6.21,M,OVC,M,M,M,1700,M,M,M,M,M,M,M,M,M,M,89.6,VVTS 070400Z VRB02KT 9999 OVC017 29/22 Q1011 NOSIG,M
VVTS,2/7/2012 4:30,106.6667,10.8167,82.4,71.6,69.9,M,2,0,29.83,M,6.21,M,BKN,M,M,M,1700,M,M,M,M,M,M,M,M,M,M,87.18,VVTS 070430Z VRB02KT 9999 BKN017 28/22 Q1010 NOSIG,M
VVTS,2/7/2012 5:00,106.6667,10.8167,84.2,71.6,65.95,M,3,0,29.83,M,6.21,M,BKN,M,M,M,1700,M,M,M,M,M,M,M,M,M,M,89.6,VVTS 070500Z VRB03KT 9999 BKN017 29/22 Q1010 NOSIG,M
VVTS,2/7/2012 5:30,106.6667,10.8167,86,71.6,62.25,M,2,0,29.8,M,6.21,M,BKN,M,M,M,2000,M,M,M,M,M,M,M,M,M,M,91.92,VVTS 070530Z VRB02KT 9999 BKN020 30/22 Q1009 NOSIG,M
VVTS,2/7/2012 6:00,106.6667,10.8167,86,71.6,62.25,M,2,0,29.8,M,6.21,M,BKN,M,M,M,2000,M,M,M,M,M,M,M,M,M,M,91.92,VVTS 070600Z VRB02KT 9999 BKN020 30/22 Q1009 NOSIG,M
VVTS,2/7/2012 6:30,106.6667,10.8167,86,71.6,62.25,M,2,0,29.77,M,6.21,M,BKN,M,M,M,2000,M,M,M,M,M,M,M,M,M,M,91.92,VVTS 070630Z VRB02KT 9999 BKN020 30/22 Q1008 NOSIG,M
VVTS,2/7/2012 7:00,106.6667,10.8167,87.8,71.6,58.78,M,2,0,29.77,M,6.21,M,BKN,M,M,M,2000,M,M,M,M,M,M,M,M,M,M,94.18,VVTS 070700Z VRB02KT 9999 BKN020 31/22 Q1008 NOSIG,M
VVTS,2/7/2012 7:30,106.6667,10.8167,89.6,71.6,55.53,M,1,0,29.74,M,6.21,M,BKN,M,M,M,2000,M,M,M,M,M,M,M,M,M,M,96.41,VVTS 070730Z VRB01KT 9999 BKN020 32/22 Q1007 NOSIG,M
VVTS,2/7/2012 8:00,106.6667,10.8167,89.6,71.6,55.53,M,3,0,29.74,M,6.21,M,BKN,M,M,M,2000,M,M,M,M,M,M,M,M,M,M,96.41,VVTS 070800Z VRB03KT 9999 BKN020 32/22 Q1007 NOSIG,M
VVTS,2/7/2012 8:30,106.6667,10.8167,89.6,71.6,55.53,M,2,0,29.74,M,4.97,M,BKN,M,M,M,2000,M,M,M,M,M,M,M,M,M,M,96.41,VVTS 070830Z VRB02KT 8000 BKN020 32/22 Q1007 NOSIG,M
VVTS,2/7/2012 9:00,106.6667,10.8167,89.6,71.6,55.53,M,3,0,29.74,M,6.21,M,SCT,M,M,M,2000,M,M,M,M,M,M,M,M,M,M,96.41,VVTS 070900Z VRB03KT 9999 SCT020 32/22 Q1007 NOSIG,M
VVTS,2/7/2012 9:30,106.6667,10.8167,89.6,71.6,55.53,260,4,0,29.74,M,4.97,M,SCT,M,M,M,2000,M,M,M,M,M,M,M,M,M,M,96.41,VVTS 070930Z 26004KT 230V290 8000 SCT020 32/22 Q1007 NOSIG,M
VVTS,2/7/2012 10:30,106.6667,10.8167,84.2,71.6,65.95,170,8,0,29.74,M,6.21,M,SCT,M,M,M,2000,M,M,M,M,M,M,M,M,M,M,89.6,VVTS 071030Z 17008KT 9999 SCT020 29/22 Q1007 NOSIG,M
VVTS,2/7/2012 11:00,106.6667,10.8167,82.4,73.4,74.28,160,7,0,29.77,M,6.21,M,SCT,M,M,M,1700,M,M,M,M,M,M,M,M,M,M,88.26,VVTS 071100Z 16007KT 130V200 9999 SCT017 28/23 Q1008 NOSIG,M
VVTS,2/7/2012 11:30,106.6667,10.8167,80.6,73.4,78.76,160,7,0,29.77,M,6.21,M,SCT,M,M,M,1700,M,M,M,M,M,M,M,M,M,M,85.32,VVTS 071130Z 16007KT 130V190 9999 SCT017 27/23 Q1008 NOSIG,M
VVTS,2/7/2012 12:00,106.6667,10.8167,80.6,73.4,78.76,160,7,0,29.77,M,6.21,M,SCT,M,M,M,1700,M,M,M,M,M,M,M,M,M,M,85.32,VVTS 071200Z 16007KT 130V190 9999 SCT017 27/23 Q1008 NOSIG,M
VVTS,2/7/2012 12:30,106.6667,10.8167,78.8,73.4,83.55,150,8,0,29.8,M,6.21,M,SCT,M,M,M,1700,M,M,M,M,M,M,M,M,M,M,82.03,VVTS 071230Z 15008KT 120V180 9999 SCT017 26/23 Q1009 NOSIG,M
VVTS,2/7/2012 13:00,106.6667,10.8167,78.8,71.6,78.62,150,9,0,29.8,M,6.21,M,SCT,M,M,M,1700,M,M,M,M,M,M,M,M,M,M,81.7,VVTS 071300Z 15009KT 9999 SCT017 26/22 Q1009 NOSIG,M
VVTS,2/7/2012 13:30,106.6667,10.8167,78.8,71.6,78.62,140,8,0,29.8,M,6.21,M,SCT,M,M,M,1700,M,M,M,M,M,M,M,M,M,M,81.7,VVTS 071330Z 14008KT 110V190 9999 SCT017 26/22 Q1009 NOSIG,M
VVTS,2/7/2012 14:00,106.6667,10.8167,78.8,73.4,83.55,140,7,0,29.83,M,6.21,M,SCT,M,M,M,1700,M,M,M,M,M,M,M,M,M,M,82.03,VVTS 071400Z 14007KT 100V210 9999 SCT017 26/23 Q1010 NOSIG,M
VVTS,2/7/2012 14:30,106.6667,10.8167,78.8,73.4,83.55,140,6,0,29.83,M,6.21,M,SCT,M,M,M,1700,M,M,M,M,M,M,M,M,M,M,82.03,VVTS 071430Z 14006KT 9999 SCT017 26/23 Q1010 NOSIG,M
VVTS,2/7/2012 15:00,106.6667,10.8167,77,73.4,88.67,140,5,0,29.83,M,6.21,M,FEW,M,M,M,1700,M,M,M,M,M,M,M,M,M,M,78.57,VVTS 071500Z 14005KT 100V180 9999 FEW017 25/23 Q1010 NOSIG,M
VVTS,2/7/2012 15:30,106.6667,10.8167,77,73.4,88.67,140,6,0,29.83,M,6.21,M,FEW,M,M,M,1700,M,M,M,M,M,M,M,M,M,M,78.57,VVTS 071530Z 14006KT 9999 FEW017 25/23 Q1010 NOSIG,M
VVTS,2/7/2012 16:00,106.6667,10.8167,77,73.4,88.67,140,7,0,29.83,M,6.21,M,FEW,M,M,M,1700,M,M,M,M,M,M,M,M,M,M,78.57,VVTS 071600Z 14007KT 110V170 9999 FEW017 25/23 Q1010 NOSIG,M
VVTS,2/7/2012 16:30,106.6667,10.8167,77,73.4,88.67,140,7,0,29.83,M,6.21,M,FEW,M,M,M,1700,M,M,M,M,M,M,M,M,M,M,78.57,VVTS 071630Z 14007KT 110V210 9999 FEW017 25/23 Q1010 NOSIG,M
VVTS,2/7/2012 17:00,106.6667,10.8167,77,73.4,88.67,130,5,0,29.83,M,6.21,M,FEW,M,M,M,1700,M,M,M,M,M,M,M,M,M,M,78.57,VVTS 071700Z 13005KT 100V200 9999 FEW017 25/23 Q1010 NOSIG,M
VVTS,2/7/2012 17:30,106.6667,10.8167,77,73.4,88.67,130,7,0,29.83,M,6.21,M,FEW,M,M,M,1700,M,M,M,M,M,M,M,M,M,M,78.57,VVTS 071730Z 13007KT 100V170 9999 FEW017 25/23 Q1010 NOSIG,M
VVTS,2/7/2012 18:00,106.6667,10.8167,77,73.4,88.67,120,6,0,29.83,M,6.21,M,FEW,SCT,M,M,1700,4000,M,M,M,M,M,M,M,M,M,78.57,VVTS 071800Z 12006KT 090V160 9999 FEW017 SCT040 25/23 Q1010 NOSIG,M
VVTS,2/7/2012 18:30,106.6667,10.8167,75.2,73.4,94.14,120,7,0,29.83,M,6.21,M,FEW,BKN,M,M,1700,4000,M,M,M,M,M,M,M,M,M,76.84,VVTS 071830Z 12007KT 9999 FEW017 BKN040 24/23 Q1010 NOSIG,M
VVTS,2/7/2012 19:00,106.6667,10.8167,75.2,73.4,94.14,120,4,0,29.83,M,6.21,M,FEW,BKN,M,M,1700,4000,M,M,M,M,M,M,M,M,M,76.84,VVTS 071900Z 12004KT 090V180 9999 FEW017 BKN040 24/23 Q1010 NOSIG,M
VVTS,2/7/2012 19:30,106.6667,10.8167,75.2,73.4,94.14,120,5,0,29.83,M,6.21,M,FEW,BKN,M,M,1700,4000,M,M,M,M,M,M,M,M,M,76.84,VVTS 071930Z 12005KT 9999 FEW017 BKN040 24/23 Q1010 NOSIG,M
VVTS,2/7/2012 20:00,106.6667,10.8167,75.2,73.4,94.14,150,5,0,29.8,M,6.21,M,FEW,BKN,M,M,1700,4000,M,M,M,M,M,M,M,M,M,76.84,VVTS 072000Z 15005KT 110V170 9999 FEW017 BKN040 24/23 Q1009 NOSIG,M
VVTS,2/7/2012 20:30,106.6667,10.8167,75.2,73.4,94.14,130,5,0,29.8,M,6.21,M,FEW,BKN,M,M,1700,4000,M,M,M,M,M,M,M,M,M,76.84,VVTS 072030Z 13005KT 100V160 9999 FEW017 BKN040 24/23 Q1009 NOSIG,M
VVTS,2/7/2012 21:30,106.6667,10.8167,75.2,73.4,94.14,140,4,0,29.83,M,6.21,M,FEW,BKN,M,M,1700,4000,M,M,M,M,M,M,M,M,M,76.84,VVTS 072130Z 14004KT 9999 FEW017 BKN040 24/23 Q1010 NOSIG,M
VVTS,2/7/2012 22:00,106.6667,10.8167,75.2,73.4,94.14,140,6,0,29.83,M,6.21,M,FEW,BKN,M,M,1700,4000,M,M,M,M,M,M,M,M,M,76.84,VVTS 072200Z 14006KT 9999 FEW017 BKN040 24/23 Q1010 NOSIG,M
VVTS,2/7/2012 22:30,106.6667,10.8167,75.2,73.4,94.14,110,5,0,29.83,M,6.21,M,FEW,BKN,M,M,1700,4000,M,M,M,M,M,M,M,M,M,76.84,VVTS 072230Z 11005KT 9999 FEW017 BKN040 24/23 Q1010 NOSIG,M
VVTS,2/7/2012 23:00,106.6667,10.8167,75.2,73.4,94.14,110,5,0,29.83,M,6.21,M,FEW,BKN,M,M,1700,4000,M,M,M,M,M,M,M,M,M,76.84,VVTS 072300Z 11005KT 090V160 9999 FEW017 BKN040 24/23 Q1010 NOSIG,M
VVTS,2/7/2012 23:30,106.6667,10.8167,75.2,73.4,94.14,130,6,0,29.85,M,6.21,M,FEW,SCT,M,M,1700,4000,M,M,M,M,M,M,M,M,M,76.84,VVTS 072330Z 13006KT 9999 FEW017 SCT040 24/23 Q1011 NOSIG,M
VVTS,2/8/2012 0:00,106.6667,10.8167,77,71.6,83.44,130,7,0,29.85,M,6.21,M,FEW,M,M,M,1700,M,M,M,M,M,M,M,M,M,M,78.32,VVTS 080000Z 13007KT 9999 FEW017 25/22 Q1011 NOSIG,M
VVTS,2/8/2012 0:30,106.6667,10.8167,78.8,71.6,78.62,130,4,0,29.85,M,6.21,M,FEW,M,M,M,1700,M,M,M,M,M,M,M,M,M,M,81.7,VVTS 080030Z 13004KT 100V180 9999 FEW017 26/22 Q1011 NOSIG,M
VVTS,2/8/2012 1:00,106.6667,10.8167,78.8,71.6,78.62,120,5,0,29.88,M,6.21,M,FEW,M,M,M,1700,M,M,M,M,M,M,M,M,M,M,81.7,VVTS 080100Z 12005KT 9999 FEW017 26/22 Q1012 NOSIG,M
VVTS,2/8/2012 1:30,106.6667,10.8167,80.6,71.6,74.11,130,6,0,29.88,M,6.21,M,SCT,SCT,M,M,1700,4000,M,M,M,M,M,M,M,M,M,84.57,VVTS 080130Z 13006KT 090V160 9999 SCT017 SCT040 27/22 Q1012 NOSIG,M
VVTS,2/8/2012 2:00,106.6667,10.8167,80.6,71.6,74.11,120,7,0,29.88,M,6.21,M,BKN,M,M,M,2000,M,M,M,M,M,M,M,M,M,M,84.57,VVTS 080200Z 12007KT 090V160 9999 BKN020 27/22 Q1012 NOSIG,M
VVTS,2/8/2012 2:30,106.6667,10.8167,82.4,71.6,69.9,120,6,0,29.88,M,6.21,M,BKN,M,M,M,2000,M,M,M,M,M,M,M,M,M,M,87.18,VVTS 080230Z 12006KT 090V150 9999 BKN020 28/22 Q1012 NOSIG,M
VVTS,2/8/2012 3:00,106.6667,10.8167,84.2,71.6,65.95,120,8,0,29.88,M,6.21,M,BKN,M,M,M,2000,M,M,M,M,M,M,M,M,M,M,89.6,VVTS 080300Z 12008KT 070V160 9999 BKN020 29/22 Q1012 NOSIG,M
VVTS,2/8/2012 3:30,106.6667,10.8167,84.2,69.8,62.03,110,8,0,29.88,M,6.21,M,SCT,M,M,M,2000,M,M,M,M,M,M,M,M,M,M,88.43,VVTS 080330Z 11008KT 070V190 9999 SCT020 29/21 Q1012 NOSIG,M
VVTS,2/8/2012 4:00,106.6667,10.8167,86,69.8,58.55,90,7,0,29.88,M,6.21,M,SCT,M,M,M,2000,M,M,M,M,M,M,M,M,M,M,90.58,VVTS 080400Z 09007KT 030V130 9999 SCT020 30/21 Q1012 NOSIG,M
VVTS,2/8/2012 4:30,106.6667,10.8167,87.8,69.8,55.29,110,8,0,29.85,M,6.21,M,SCT,M,M,M,2000,M,M,M,M,M,M,M,M,M,M,92.71,VVTS 080430Z 11008KT 050V170 9999 SCT020 31/21 Q1011 NOSIG,M
VVTS,2/8/2012 5:00,106.6667,10.8167,89.6,68,49.1,120,5,0,29.85,M,6.21,M,SCT,M,M,M,2000,M,M,M,M,M,M,M,M,M,M,93.47,VVTS 080500Z 12005KT 060V170 9999 SCT020 32/20 Q1011 NOSIG,M
VVTS,2/8/2012 5:30,106.6667,10.8167,91.4,68,46.41,100,7,0,29.83,M,6.21,M,SCT,M,M,M,2000,M,M,M,M,M,M,M,M,M,M,95.55,VVTS 080530Z 10007KT 010V140 9999 SCT020 33/20 Q1010 NOSIG,M
VVTS,2/8/2012 6:00,106.6667,10.8167,91.4,66.2,43.61,80,7,0,29.8,M,6.21,M,SCT,M,M,M,2000,M,M,M,M,M,M,M,M,M,M,94.29,VVTS 080600Z 08007KT 040V170 9999 SCT020 33/19 Q1009 NOSIG,M
VVTS,2/8/2012 6:30,106.6667,10.8167,91.4,66.2,43.61,120,6,0,29.8,M,6.21,M,SCT,M,M,M,2000,M,M,M,M,M,M,M,M,M,M,94.29,VVTS 080630Z 12006KT 040V190 9999 SCT020 33/19 Q1009 NOSIG,M
VVTS,2/8/2012 7:00,106.6667,10.8167,91.4,66.2,43.61,150,6,0,29.77,M,6.21,M,SCT,M,M,M,2000,M,M,M,M,M,M,M,M,M,M,94.29,VVTS 080700Z 15006KT 100V190 9999 SCT020 33/19 Q1008 NOSIG,M
VVTS,2/8/2012 7:30,106.6667,10.8167,89.6,69.8,52.23,180,10,0,29.77,M,6.21,M,BKN,M,M,M,1700,M,M,M,M,M,M,M,M,M,M,94.85,VVTS 080730Z 18010KT 9999 BKN017 32/21 Q1008 NOSIG,M
VVTS,2/8/2012 8:00,106.6667,10.8167,87.8,66.2,48.84,200,9,0,29.77,M,6.21,M,BKN,M,M,M,1700,M,M,M,M,M,M,M,M,M,M,90.31,VVTS 080800Z 20009KT 9999 BKN017 31/19 Q1008 NOSIG,M
VVTS,2/8/2012 8:30,106.6667,10.8167,89.6,66.2,46.14,180,10,0,29.77,M,6.21,M,SCT,M,M,M,1700,M,M,M,M,M,M,M,M,M,M,92.27,VVTS 080830Z 18010KT 9999 SCT017 32/19 Q1008 NOSIG,M
VVTS,2/8/2012 9:00,106.6667,10.8167,87.8,69.8,55.29,150,10,0,29.77,M,6.21,M,FEW,M,M,M,1700,M,M,M,M,M,M,M,M,M,M,92.71,VVTS 080900Z 15010KT 120V190 9999 FEW017 31/21 Q1008 NOSIG,M
VVTS,2/8/2012 9:30,106.6667,10.8167,86,69.8,58.55,160,10,0,29.77,M,6.21,M,FEW,M,M,M,1700,M,M,M,M,M,M,M,M,M,M,90.58,VVTS 080930Z 16010KT 130V190 9999 FEW017 30/21 Q1008 NOSIG,M
VVTS,2/8/2012 10:00,106.6667,10.8167,84.2,69.8,62.03,160,9,0,29.77,M,6.21,M,FEW,M,M,M,1700,M,M,M,M,M,M,M,M,M,M,88.43,VVTS 081000Z 16009KT 120V180 9999 FEW017 29/21 Q1008 NOSIG,M
VVTS,2/8/2012 10:30,106.6667,10.8167,82.4,69.8,65.74,170,8,0,29.77,M,6.21,M,FEW,M,M,M,1700,M,M,M,M,M,M,M,M,M,M,86.22,VVTS 081030Z 17008KT 9999 FEW017 28/21 Q1008 NOSIG,M
VVTS,2/8/2012 11:00,106.6667,10.8167,80.6,69.8,69.71,150,10,0,29.8,M,6.21,M,FEW,M,M,M,1700,M,M,M,M,M,M,M,M,M,M,83.9,VVTS 081100Z 15010KT 9999 FEW017 27/21 Q1009 NOSIG,M
VVTS,2/8/2012 11:30,106.6667,10.8167,80.6,69.8,69.71,150,8,0,29.8,M,6.21,M,FEW,M,M,M,1700,M,M,M,M,M,M,M,M,M,M,83.9,VVTS 081130Z 15008KT 9999 FEW017 27/21 Q1009 NOSIG,M
VVTS,2/8/2012 12:30,106.6667,10.8167,80.6,69.8,69.71,140,7,0,29.83,M,6.21,M,FEW,SCT,M,M,1700,4000,M,M,M,M,M,M,M,M,M,83.9,VVTS 081230Z 14007KT 9999 FEW017 SCT040 27/21 Q1010 NOSIG,M
VVTS,2/8/2012 13:00,106.6667,10.8167,78.8,69.8,73.95,150,8,0,29.83,M,6.21,M,FEW,SCT,M,M,1700,4000,M,M,M,M,M,M,M,M,M,81.39,VVTS 081300Z 15008KT 120V180 9999 FEW017 SCT040 26/21 Q1010 NOSIG,M
VVTS,2/8/2012 13:30,106.6667,10.8167,78.8,68,69.52,130,8,0,29.83,M,6.21,M,FEW,M,M,M,1700,M,M,M,M,M,M,M,M,M,M,81.1,VVTS 081330Z 13008KT 110V180 9999 FEW017 26/20 Q1010 NOSIG,M
VVTS,2/8/2012 14:00,106.6667,10.8167,78.8,68,69.52,140,7,0,29.83,M,6.21,M,FEW,M,M,M,1700,M,M,M,M,M,M,M,M,M,M,81.1,VVTS 081400Z 14007KT 110V190 9999 FEW017 26/20 Q1010 NOSIG,M
VVTS,2/8/2012 14:30,106.6667,10.8167,78.8,68,69.52,140,8,0,29.85,M,6.21,M,FEW,M,M,M,1700,M,M,M,M,M,M,M,M,M,M,81.1,VVTS 081430Z 14008KT 100V160 9999 FEW017 26/20 Q1011 NOSIG,M
VVTS,2/8/2012 15:00,106.6667,10.8167,78.8,69.8,73.95,120,8,0,29.85,M,6.21,M,FEW,SCT,M,M,1700,4000,M,M,M,M,M,M,M,M,M,81.39,VVTS 081500Z 12008KT 100V160 9999 FEW017 SCT040 26/21 Q1011 NOSIG,M
VVTS,2/8/2012 15:30,106.6667,10.8167,78.8,68,69.52,130,8,0,29.85,M,6.21,M,FEW,SCT,M,M,1700,4000,M,M,M,M,M,M,M,M,M,81.1,VVTS 081530Z 13008KT 9999 FEW017 SCT040 26/20 Q1011 NOSIG,M
VVTS,2/8/2012 16:00,106.6667,10.8167,78.8,69.8,73.95,120,6,0,29.85,M,6.21,M,FEW,SCT,M,M,1700,4000,M,M,M,M,M,M,M,M,M,81.39,VVTS 081600Z 12006KT 9999 FEW017 SCT040 26/21 Q1011 NOSIG,M
VVTS,2/8/2012 16:30,106.6667,10.8167,77,69.8,78.48,120,7,0,29.85,M,6.21,M,FEW,SCT,M,M,1700,4000,M,M,M,M,M,M,M,M,M,78.09,VVTS 081630Z 12007KT 9999 FEW017 SCT040 25/21 Q1011 NOSIG,M
VVTS,2/8/2012 17:00,106.6667,10.8167,77,69.8,78.48,120,5,0,29.83,M,6.21,M,FEW,SCT,M,M,1700,4000,M,M,M,M,M,M,M,M,M,78.09,VVTS 081700Z 12005KT 090V200 9999 FEW017 SCT040 25/21 Q1010 NOSIG,M
VVTS,2/8/2012 17:30,106.6667,10.8167,77,69.8,78.48,130,4,0,29.83,M,6.21,M,FEW,SCT,M,M,1700,4000,M,M,M,M,M,M,M,M,M,78.09,VVTS 081730Z 13004KT 090V190 9999 FEW017 SCT040 25/21 Q1010 NOSIG,M
VVTS,2/8/2012 18:00,106.6667,10.8167,75.2,69.8,83.32,120,4,0,29.83,M,6.21,M,FEW,SCT,M,M,1700,4000,M,M,M,M,M,M,M,M,M,76.34,VVTS 081800Z 12004KT 9999 FEW017 SCT040 24/21 Q1010 NOSIG,M
VVTS,2/8/2012 18:30,106.6667,10.8167,75.2,69.8,83.32,100,4,0,29.83,M,6.21,M,FEW,SCT,M,M,1700,4000,M,M,M,M,M,M,M,M,M,76.34,VVTS 081830Z 10004KT 050V130 9999 FEW017 SCT040 24/21 Q1010 NOSIG,M
VVTS,2/8/2012 19:00,106.6667,10.8167,75.2,69.8,83.32,90,5,0,29.83,M,6.21,M,FEW,SCT,M,M,1700,4000,M,M,M,M,M,M,M,M,M,76.34,VVTS 081900Z 09005KT 060V150 9999 FEW017 SCT040 24/21 Q1010 NOSIG,M
VVTS,2/8/2012 20:00,106.6667,10.8167,73.4,69.8,88.51,90,4,0,29.83,M,6.21,M,FEW,SCT,M,M,1700,4000,M,M,M,M,M,M,M,M,M,74.6,VVTS 082000Z 09004KT 9999 FEW017 SCT040 23/21 Q1010 NOSIG,M
VVTS,2/8/2012 20:30,106.6667,10.8167,73.4,69.8,88.51,60,3,0,29.83,M,6.21,M,FEW,SCT,M,M,1700,4000,M,M,M,M,M,M,M,M,M,74.6,VVTS 082030Z 06003KT 9999 FEW017 SCT040 23/21 Q1010 NOSIG,M
VVTS,2/8/2012 21:00,106.6667,10.8167,71.6,69.8,94.06,60,3,0,29.83,M,6.21,M,FEW,SCT,M,M,1700,4000,M,M,M,M,M,M,M,M,M,72.88,VVTS 082100Z 06003KT 9999 FEW017 SCT040 22/21 Q1010 NOSIG,M
VVTS,2/8/2012 21:30,106.6667,10.8167,71.6,69.8,94.06,70,4,0,29.83,M,6.21,M,FEW,M,M,M,1700,M,M,M,M,M,M,M,M,M,M,72.88,VVTS 082130Z 07004KT 9999 FEW017 22/21 Q1010 NOSIG,M
VVTS,2/8/2012 22:00,106.6667,10.8167,71.6,69.8,94.06,30,3,0,29.83,M,6.21,M,FEW,M,M,M,1700,M,M,M,M,M,M,M,M,M,M,72.88,VVTS 082200Z 03003KT 9999 FEW017 22/21 Q1010 NOSIG,M
VVTS,2/8/2012 22:30,106.6667,10.8167,71.6,69.8,94.06,30,3,0,29.83,M,5.59,M,FEW,M,M,M,1700,M,M,M,M,M,M,M,M,M,M,72.88,VVTS 082230Z 03003KT 9000 FEW017 22/21 Q1010 NOSIG,M
VVTS,2/8/2012 23:00,106.6667,10.8167,71.6,69.8,94.06,10,3,0,29.83,M,4.35,M,FEW,M,M,M,1700,M,M,M,M,M,M,M,M,M,M,72.88,VVTS 082300Z 01003KT 7000 FEW017 22/21 Q1010 NOSIG,M
VVTS,2/8/2012 23:30,106.6667,10.8167,71.6,69.8,94.06,30,4,0,29.83,M,4.97,M,FEW,M,M,M,1700,M,M,M,M,M,M,M,M,M,M,72.88,VVTS 082330Z 03004KT 8000 FEW017 22/21 Q1010 NOSIG,M
VVTS,2/9/2012 0:00,106.6667,10.8167,71.6,71.6,100,M,2,0,29.85,M,3.73,M,FEW,M,M,M,1700,M,M,M,M,M,M,M,M,M,M,73.16,VVTS 090000Z VRB02KT 6000 FEW017 22/22 Q1011 NOSIG,M
VVTS,2/9/2012 0:30,106.6667,10.8167,75.2,71.6,88.59,30,3,0,29.85,M,5.59,M,FEW,M,M,M,1700,M,M,M,M,M,M,M,M,M,M,76.58,VVTS 090030Z 03003KT 9000 FEW017 24/22 Q1011 NOSIG,M
VVTS,2/9/2012 1:00,106.6667,10.8167,78.8,69.8,73.95,M,2,0,29.88,M,6.21,M,M,M,M,M,M,M,M,M,M,M,M,M,M,M,M,81.39,VVTS 090100Z VRB02KT CAVOK 26/21 Q1012 NOSIG,M
VVTS,2/9/2012 1:30,106.6667,10.8167,80.6,69.8,69.71,M,1,0,29.88,M,6.21,M,M,M,M,M,M,M,M,M,M,M,M,M,M,M,M,83.9,VVTS 090130Z VRB01KT CAVOK 27/21 Q1012 NOSIG,M
VVTS,2/9/2012 2:00,106.6667,10.8167,82.4,68,61.81,M,1,0,29.88,M,6.21,M,M,M,M,M,M,M,M,M,M,M,M,M,M,M,M,85.38,VVTS 090200Z VRB01KT CAVOK 28/20 Q1012 NOSIG,M
VVTS,2/9/2012 2:30,106.6667,10.8167,84.2,66.2,54.8,300,4,0,29.88,M,6.21,M,FEW,M,M,M,1700,M,M,M,M,M,M,M,M,M,M,86.5,VVTS 090230Z 30004KT 250V360 9999 FEW017 29/19 Q1012 NOSIG,M
VVTS,2/9/2012 3:00,106.6667,10.8167,84.2,66.2,54.8,M,2,0,29.88,M,6.21,M,FEW,M,M,M,1700,M,M,M,M,M,M,M,M,M,M,86.5,VVTS 090300Z VRB02KT 9999 FEW017 29/19 Q1012 NOSIG,M
VVTS,2/9/2012 3:30,106.6667,10.8167,87.8,66.2,48.84,150,4,0,29.88,M,6.21,M,M,M,M,M,M,M,M,M,M,M,M,M,M,M,M,90.31,VVTS 090330Z 15004KT 100V210 CAVOK 31/19 Q1012 NOSIG,M
VVTS,2/9/2012 4:00,106.6667,10.8167,87.8,64.4,45.88,M,1,0,29.85,M,6.21,M,M,M,M,M,M,M,M,M,M,M,M,M,M,M,M,89.33,VVTS 090400Z VRB01KT CAVOK 31/18 Q1011 NOSIG,M
VVTS,2/9/2012 4:30,106.6667,10.8167,89.6,64.4,43.34,160,4,0,29.85,M,6.21,M,FEW,M,M,M,2000,M,M,M,M,M,M,M,M,M,M,91.23,VVTS 090430Z 16004KT 110V240 9999 FEW020 32/18 Q1011 NOSIG,M
VVTS,2/9/2012 5:00,106.6667,10.8167,89.6,62.6,40.69,130,4,0,29.83,M,6.21,M,FEW,M,M,M,2000,M,M,M,M,M,M,M,M,M,M,90.32,VVTS 090500Z 13004KT 080V260 9999 FEW020 32/17 Q1010 NOSIG,M
VVTS,2/9/2012 5:30,106.6667,10.8167,91.4,60.8,36.08,150,6,0,29.83,M,6.21,M,FEW,M,M,M,2000,M,M,M,M,M,M,M,M,M,M,91.4,VVTS 090530Z 15006KT 080V200 9999 FEW020 33/16 Q1010 NOSIG,M
VVTS,2/9/2012 6:00,106.6667,10.8167,91.4,59,33.84,160,4,0,29.8,M,6.21,M,FEW,M,M,M,2000,M,M,M,M,M,M,M,M,M,M,91.4,VVTS 090600Z 16004KT 330V320 9999 FEW020 33/15 Q1009 NOSIG,M
VVTS,2/9/2012 6:30,106.6667,10.8167,93.2,60.8,34.11,M,3,0,29.8,M,6.21,M,FEW,M,M,M,2000,M,M,M,M,M,M,M,M,M,M,93.2,VVTS 090630Z VRB03KT 9999 FEW020 34/16 Q1009 NOSIG,M
VVTS,2/9/2012 7:00,106.6667,10.8167,93.2,62.6,36.35,140,6,0,29.77,M,6.21,M,FEW,M,M,M,2000,M,M,M,M,M,M,M,M,M,M,93.2,VVTS 090700Z 14006KT 060V240 9999 FEW020 34/17 Q1008 NOSIG,M
VVTS,2/9/2012 7:30,106.6667,10.8167,93.2,62.6,36.35,150,10,0,29.77,M,6.21,M,FEW,M,M,M,2000,M,M,M,M,M,M,M,M,M,M,93.2,VVTS 090730Z 15010KT 120V180 9999 FEW020 34/17 Q1008 NOSIG,M
VVTS,2/9/2012 8:00,106.6667,10.8167,91.4,64.4,40.96,170,9,0,29.77,M,6.21,M,FEW,M,M,M,2000,M,M,M,M,M,M,M,M,M,M,93.19,VVTS 090800Z 17009KT 120V210 9999 FEW020 33/18 Q1008 NOSIG,M
VVTS,2/9/2012 8:30,106.6667,10.8167,91.4,66.2,43.61,160,9,0,29.77,M,6.21,M,FEW,M,M,M,2000,M,M,M,M,M,M,M,M,M,M,94.29,VVTS 090830Z 16009KT 140V210 9999 FEW020 33/19 Q1008 NOSIG,M
VVTS,2/9/2012 9:00,106.6667,10.8167,89.6,64.4,43.34,160,8,0,29.77,M,6.21,M,FEW,M,M,M,2000,M,M,M,M,M,M,M,M,M,M,91.23,VVTS 090900Z 16008KT 130V200 9999 FEW020 32/18 Q1008 NOSIG,M
VVTS,2/9/2012 9:30,106.6667,10.8167,87.8,66.2,48.84,180,9,0,29.77,M,6.21,M,FEW,M,M,M,2000,M,M,M,M,M,M,M,M,M,M,90.31,VVTS 090930Z 18009KT 9999 FEW020 31/19 Q1008 NOSIG,M
VVTS,2/9/2012 10:00,106.6667,10.8167,87.8,66.2,48.84,170,7,0,29.77,M,6.21,M,FEW,M,M,M,2000,M,M,M,M,M,M,M,M,M,M,90.31,VVTS 091000Z 17007KT 150V270 9999 FEW020 31/19 Q1008 NOSIG,M
VVTS,2/9/2012 10:30,106.6667,10.8167,84.2,66.2,54.8,160,8,0,29.8,M,6.21,M,FEW,M,M,M,2000,M,M,M,M,M,M,M,M,M,M,86.5,VVTS 091030Z 16008KT 9999 FEW020 29/19 Q1009 NOSIG,M
VVTS,2/9/2012 11:00,106.6667,10.8167,82.4,68,61.81,170,7,0,29.8,M,6.21,M,FEW,M,M,M,2000,M,M,M,M,M,M,M,M,M,M,85.38,VVTS 091100Z 17007KT 9999 FEW020 28/20 Q1009 NOSIG,M
VVTS,2/9/2012 11:30,106.6667,10.8167,82.4,69.8,65.74,170,6,0,29.83,M,6.21,M,FEW,M,M,M,2000,M,M,M,M,M,M,M,M,M,M,86.22,VVTS 091130Z 17006KT 9999 FEW020 28/21 Q1010 NOSIG,M
VVTS,2/9/2012 12:00,106.6667,10.8167,80.6,68,65.54,90,10,0,29.83,M,6.21,M,FEW,M,M,M,1700,M,M,M,M,M,M,M,M,M,M,83.29,VVTS 091200Z 09010KT 9999 FEW017 27/20 Q1010 NOSIG,M
VVTS,2/9/2012 12:30,106.6667,10.8167,80.6,66.2,61.58,110,10,0,29.83,M,6.21,M,FEW,M,M,M,1700,M,M,M,M,M,M,M,M,M,M,82.75,VVTS 091230Z 11010KT 9999 FEW017 27/19 Q1010 NOSIG,M
VVTS,2/9/2012 13:00,106.6667,10.8167,80.6,68,65.54,130,10,0,29.83,M,6.21,M,FEW,M,M,M,1700,M,M,M,M,M,M,M,M,M,M,83.29,VVTS 091300Z 13010KT 9999 FEW017 27/20 Q1010 NOSIG,M
VVTS,2/9/2012 13:30,106.6667,10.8167,78.8,68,69.52,130,8,0,29.83,M,6.21,M,FEW,M,M,M,1700,M,M,M,M,M,M,M,M,M,M,81.1,VVTS 091330Z 13008KT 9999 FEW017 26/20 Q1010 NOSIG,M
VVTS,2/9/2012 14:30,106.6667,10.8167,78.8,68,69.52,140,12,0,29.85,M,6.21,M,FEW,M,M,M,1700,M,M,M,M,M,M,M,M,M,M,81.1,VVTS 091430Z 14012KT 9999 FEW017 26/20 Q1011 NOSIG,M
VVTS,2/9/2012 15:00,106.6667,10.8167,78.8,68,69.52,140,7,0,29.85,M,6.21,M,FEW,M,M,M,1700,M,M,M,M,M,M,M,M,M,M,81.1,VVTS 091500Z 14007KT 110V180 9999 FEW017 26/20 Q1011 NOSIG,M
VVTS,2/9/2012 15:30,106.6667,10.8167,77,69.8,78.48,150,5,0,29.85,M,6.21,M,FEW,M,M,M,1700,M,M,M,M,M,M,M,M,M,M,78.09,VVTS 091530Z 15005KT 9999 FEW017 25/21 Q1011 NOSIG,M
VVTS,2/9/2012 16:00,106.6667,10.8167,77,69.8,78.48,140,5,0,29.85,M,6.21,M,FEW,M,M,M,1700,M,M,M,M,M,M,M,M,M,M,78.09,VVTS 091600Z 14005KT 9999 FEW017 25/21 Q1011 NOSIG,M
VVTS,2/9/2012 16:30,106.6667,10.8167,75.2,69.8,83.32,120,6,0,29.85,M,6.21,M,FEW,M,M,M,1700,M,M,M,M,M,M,M,M,M,M,76.34,VVTS 091630Z 12006KT 9999 FEW017 24/21 Q1011 NOSIG,M
VVTS,2/9/2012 17:00,106.6667,10.8167,75.2,69.8,83.32,100,7,0,29.85,M,6.21,M,FEW,M,M,M,1700,M,M,M,M,M,M,M,M,M,M,76.34,VVTS 091700Z 10007KT 070V130 9999 FEW017 24/21 Q1011 NOSIG,M
VVTS,2/9/2012 17:30,106.6667,10.8167,75.2,69.8,83.32,70,4,0,29.85,M,6.21,M,FEW,M,M,M,1700,M,M,M,M,M,M,M,M,M,M,76.34,VVTS 091730Z 07004KT 9999 FEW017 24/21 Q1011 NOSIG,M
VVTS,2/9/2012 18:00,106.6667,10.8167,73.4,69.8,88.51,80,5,0,29.85,M,6.21,M,FEW,M,M,M,1700,M,M,M,M,M,M,M,M,M,M,74.6,VVTS 091800Z 08005KT 9999 FEW017 23/21 Q1011 NOSIG,M
VVTS,2/9/2012 18:30,106.6667,10.8167,75.2,69.8,83.32,100,7,0,29.83,M,6.21,M,FEW,M,M,M,1700,M,M,M,M,M,M,M,M,M,M,76.34,VVTS 091830Z 10007KT 9999 FEW017 24/21 Q1010 NOSIG,M
VVTS,2/9/2012 20:00,106.6667,10.8167,73.4,69.8,88.51,70,5,0,29.83,M,6.21,M,FEW,M,M,M,1700,M,M,M,M,M,M,M,M,M,M,74.6,VVTS 092000Z 07005KT 9999 FEW017 23/21 Q1010 NOSIG,M
VVTS,2/9/2012 20:30,106.6667,10.8167,71.6,69.8,94.06,90,3,0,29.83,M,6.21,M,FEW,M,M,M,1700,M,M,M,M,M,M,M,M,M,M,72.88,VVTS 092030Z 09003KT 9999 FEW017 22/21 Q1010 NOSIG,M
VVTS,2/9/2012 21:00,106.6667,10.8167,73.4,69.8,88.51,60,4,0,29.83,M,6.21,M,FEW,M,M,M,1700,M,M,M,M,M,M,M,M,M,M,74.6,VVTS 092100Z 06004KT 9999 FEW017 23/21 Q1010 NOSIG,M
VVTS,2/9/2012 21:30,106.6667,10.8167,71.6,69.8,94.06,80,4,0,29.83,M,6.21,M,FEW,M,M,M,1700,M,M,M,M,M,M,M,M,M,M,72.88,VVTS 092130Z 08004KT 9999 FEW017 22/21 Q1010 NOSIG,M
VVTS,2/9/2012 22:00,106.6667,10.8167,71.6,69.8,94.06,60,4,0,29.83,M,6.21,M,FEW,M,M,M,1700,M,M,M,M,M,M,M,M,M,M,72.88,VVTS 092200Z 06004KT 9999 FEW017 22/21 Q1010 NOSIG,M
VVTS,2/9/2012 22:30,106.6667,10.8167,71.6,69.8,94.06,60,4,0,29.83,M,6.21,M,FEW,M,M,M,1700,M,M,M,M,M,M,M,M,M,M,72.88,VVTS 092230Z 06004KT 9999 FEW017 22/21 Q1010 NOSIG,M
VVTS,2/9/2012 23:00,106.6667,10.8167,71.6,69.8,94.06,70,4,0,29.85,M,6.21,M,FEW,M,M,M,1700,M,M,M,M,M,M,M,M,M,M,72.88,VVTS 092300Z 07004KT 9999 FEW017 22/21 Q1011 NOSIG,M
VVTS,2/9/2012 23:30,106.6667,10.8167,71.6,69.8,94.06,60,4,0,29.85,M,4.97,M,FEW,M,M,M,4000,M,M,M,M,M,M,M,M,M,M,72.88,VVTS 092330Z 06004KT 8000 FEW040 22/21 Q1011 NOSIG,M
VVTS,2/10/2012 0:00,106.6667,10.8167,73.4,71.6,94.1,60,3,0,29.85,M,6.21,M,FEW,M,M,M,4000,M,M,M,M,M,M,M,M,M,M,74.86,VVTS 100000Z 06003KT 9999 FEW040 23/22 Q1011 NOSIG,M
VVTS,2/10/2012 0:30,106.6667,10.8167,73.4,71.6,94.1,20,2,0,29.88,M,6.21,M,FEW,M,M,M,4000,M,M,M,M,M,M,M,M,M,M,74.86,VVTS 100030Z 02002KT 9999 FEW040 23/22 Q1012 NOSIG,M
VVTS,2/10/2012 1:00,106.6667,10.8167,77,71.6,83.44,M,2,0,29.88,M,4.35,M,FEW,M,M,M,4000,M,M,M,M,M,M,M,M,M,M,78.32,VVTS 100100Z VRB02KT 7000 FEW040 25/22 Q1012 NOSIG,M
VVTS,2/10/2012 1:30,106.6667,10.8167,80.6,69.8,69.71,M,2,0,29.88,M,6.21,M,FEW,M,M,M,4000,M,M,M,M,M,M,M,M,M,M,83.9,VVTS 100130Z VRB02KT 9999 FEW040 27/21 Q1012 NOSIG,M
VVTS,2/10/2012 2:00,106.6667,10.8167,82.4,69.8,65.74,70,4,0,29.88,M,6.21,M,FEW,M,M,M,4000,M,M,M,M,M,M,M,M,M,M,86.22,VVTS 100200Z 07004KT 040V110 9999 FEW040 28/21 Q1012 NOSIG,M
VVTS,2/10/2012 2:30,106.6667,10.8167,82.4,69.8,65.74,60,4,0,29.88,M,6.21,M,FEW,M,M,M,4000,M,M,M,M,M,M,M,M,M,M,86.22,VVTS 100230Z 06004KT 010V100 9999 FEW040 28/21 Q1012 NOSIG,M
VVTS,2/10/2012 3:00,106.6667,10.8167,84.2,71.6,65.95,M,3,0,29.88,M,4.35,M,FEW,M,M,M,4000,M,M,M,M,M,M,M,M,M,M,89.6,VVTS 100300Z VRB03KT 7000 FEW040 29/22 Q1012 NOSIG,M
VVTS,2/10/2012 3:30,106.6667,10.8167,86,71.6,62.25,20,5,0,29.88,M,5.59,M,FEW,M,M,M,2000,M,M,M,M,M,M,M,M,M,M,91.92,VVTS 100330Z 02005KT 300V090 9000 FEW020 30/22 Q1012 NOSIG,M
VVTS,2/10/2012 4:00,106.6667,10.8167,87.8,69.8,55.29,360,6,0,29.88,M,6.21,M,SCT,M,M,M,2000,M,M,M,M,M,M,M,M,M,M,92.71,VVTS 100400Z 36006KT 320V040 9999 SCT020 31/21 Q1012 NOSIG,M
VVTS,2/10/2012 4:30,106.6667,10.8167,87.8,69.8,55.29,310,4,0,29.85,M,6.21,M,SCT,M,M,M,2000,M,M,M,M,M,M,M,M,M,M,92.71,VVTS 100430Z 31004KT 250V010 9999 SCT020 31/21 Q1011 NOSIG,M
VVTS,2/10/2012 5:00,106.6667,10.8167,87.8,69.8,55.29,10,4,0,29.85,M,6.21,M,SCT,M,M,M,2000,M,M,M,M,M,M,M,M,M,M,92.71,VVTS 100500Z 01004KT 290V170 9999 SCT020 31/21 Q1011 NOSIG,M
VVTS,2/10/2012 5:30,106.6667,10.8167,89.6,69.8,52.23,360,5,0,29.83,M,6.21,M,SCT,M,M,M,2000,M,M,M,M,M,M,M,M,M,M,94.85,VVTS 100530Z 36005KT 310V040 9999 SCT020 32/21 Q1010 NOSIG,M
VVTS,2/10/2012 6:00,106.6667,10.8167,89.6,69.8,52.23,10,4,0,29.83,M,6.21,M,SCT,M,M,M,2000,M,M,M,M,M,M,M,M,M,M,94.85,VVTS 100600Z 01004KT 230V130 9999 SCT020 32/21 Q1010 NOSIG,M
VVTS,2/10/2012 6:30,106.6667,10.8167,91.4,69.8,49.36,M,3,0,29.8,M,6.21,M,SCT,M,M,M,2000,M,M,M,M,M,M,M,M,M,M,96.99,VVTS 100630Z VRB03KT 9999 SCT020 33/21 Q1009 NOSIG,M
VVTS,2/10/2012 7:00,106.6667,10.8167,93.2,68,43.88,M,3,0,29.8,M,6.21,M,BKN,M,M,M,1700,M,M,M,M,M,M,M,M,M,M,97.67,VVTS 100700Z VRB03KT 9999 BKN017 34/20 Q1009 NOSIG,M
VVTS,2/10/2012 7:30,106.6667,10.8167,89.6,64.4,43.34,M,3,0,29.77,M,6.21,M,FEW,SCT,M,M,1500,1700,M,M,M,M,M,M,M,M,M,91.23,VVTS 100730Z VRB03KT 9999 FEW015TCU SCT017 32/18 Q1008 NOSIG,M
VVTS,2/10/2012 8:00,106.6667,10.8167,89.6,66.2,46.14,M,1,0,29.77,M,6.21,M,FEW,SCT,M,M,1500,1700,M,M,M,M,M,M,M,M,M,92.27,VVTS 100800Z VRB01KT 9999 FEW015TCU SCT017 32/19 Q1008 NOSIG,M
VVTS,2/10/2012 8:30,106.6667,10.8167,87.8,68,51.98,190,7,0,29.77,M,6.21,M,FEW,SCT,M,M,1500,1700,M,M,M,M,M,M,M,M,M,91.43,VVTS 100830Z 19007KT 150V220 9999 FEW015TCU SCT017 31/20 Q1008 NOSIG,M
VVTS,2/10/2012 9:00,106.6667,10.8167,87.8,69.8,55.29,190,8,0,29.77,M,4.97,M,FEW,SCT,M,M,1500,1700,M,M,M,M,M,M,M,M,M,92.71,VVTS 100900Z 19008KT 8000 FEW015CB SCT017 31/21 Q1008 NOSIG,M
VVTS,2/10/2012 9:30,106.6667,10.8167,82.4,71.6,69.9,200,11,0,29.77,M,6.21,M,FEW,SCT,M,M,1500,1700,M,M,M,M,M,M,M,M,M,87.18,VVTS 100930Z 20011KT 9999 FEW015TCU SCT017 28/22 Q1008 NOSIG,M
VVTS,2/10/2012 10:00,106.6667,10.8167,82.4,69.8,65.74,190,10,0,29.8,M,6.21,M,SCT,SCT,M,M,1500,1700,M,M,M,M,M,M,M,M,M,86.22,VVTS 101000Z 19010KT 9999 SCT015 SCT017CB 28/21 Q1009 TEMPO FM1000 TL1025 5000 SHRA,M
VVTS,2/10/2012 10:30,106.6667,10.8167,82.4,68,61.81,200,7,0,29.8,M,6.21,M,SCT,SCT,M,M,1500,1700,M,M,M,M,M,M,M,M,M,85.38,VVTS 101030Z 20007KT 9999 SCT015 SCT017CB 28/20 Q1009 NOSIG,M
VVTS,2/10/2012 11:00,106.6667,10.8167,78.8,73.4,83.55,190,7,0,29.83,M,4.97,M,FEW,SCT,M,M,1500,1700,M,M,#NAME?,M,M,M,M,M,M,82.03,VVTS 101100Z 19007KT 8000 -SHRA FEW015TCU SCT017 26/23 Q1010 NOSIG,M
VVTS,2/10/2012 11:30,106.6667,10.8167,78.8,71.6,78.62,170,7,0,29.83,M,6.21,M,FEW,SCT,M,M,1500,1700,M,M,M,M,M,M,M,M,M,81.7,VVTS 101130Z 17007KT 140V200 9999 FEW015TCU SCT017 26/22 Q1010 NOSIG,M
VVTS,2/10/2012 12:00,106.6667,10.8167,80.6,69.8,69.71,170,7,0,29.83,M,6.21,M,FEW,SCT,M,M,1500,1700,M,M,M,M,M,M,M,M,M,83.9,VVTS 101200Z 17007KT 9999 FEW015TCU SCT017 27/21 Q1010 NOSIG,M
VVTS,2/10/2012 13:00,106.6667,10.8167,80.6,66.2,61.58,130,8,0,29.85,M,6.21,M,FEW,M,M,M,1700,M,M,M,M,M,M,M,M,M,M,82.75,VVTS 101300Z 13008KT 100V160 9999 FEW017 27/19 Q1011 NOSIG,M
VVTS,2/10/2012 13:30,106.6667,10.8167,80.6,64.4,57.84,130,9,0,29.85,M,6.21,M,FEW,M,M,M,1700,M,M,M,M,M,M,M,M,M,M,82.27,VVTS 101330Z 13009KT 100V170 9999 FEW017 27/18 Q1011 NOSIG,M
VVTS,2/10/2012 14:00,106.6667,10.8167,80.6,64.4,57.84,130,7,0,29.85,M,6.21,M,FEW,M,M,M,1700,M,M,M,M,M,M,M,M,M,M,82.27,VVTS 101400Z 13007KT 100V180 9999 FEW017 27/18 Q1011 NOSIG,M
VVTS,2/10/2012 14:30,106.6667,10.8167,78.8,64.4,61.36,120,6,0,29.85,M,6.21,M,FEW,M,M,M,1700,M,M,M,M,M,M,M,M,M,M,80.56,VVTS 101430Z 12006KT 9999 FEW017 26/18 Q1011 NOSIG,M
VVTS,2/10/2012 15:00,106.6667,10.8167,78.8,64.4,61.36,120,5,0,29.85,M,6.21,M,FEW,M,M,M,1700,M,M,M,M,M,M,M,M,M,M,80.56,VVTS 101500Z 12005KT 080V170 9999 FEW017 26/18 Q1011 NOSIG,M
VVTS,2/10/2012 15:30,106.6667,10.8167,78.8,64.4,61.36,130,4,0,29.85,M,6.21,M,FEW,M,M,M,1700,M,M,M,M,M,M,M,M,M,M,80.56,VVTS 101530Z 13004KT 090V150 9999 FEW017 26/18 Q1011 NOSIG,M
VVTS,2/10/2012 16:30,106.6667,10.8167,77,64.4,65.12,130,4,0,29.85,M,6.21,M,FEW,M,M,M,1700,M,M,M,M,M,M,M,M,M,M,77,VVTS 101630Z 13004KT 9999 FEW017 25/18 Q1011 NOSIG,M
VVTS,2/10/2012 17:00,106.6667,10.8167,77,64.4,65.12,110,5,0,29.83,M,6.21,M,FEW,M,M,M,1700,M,M,M,M,M,M,M,M,M,M,77,VVTS 101700Z 11005KT 090V150 9999 FEW017 25/18 Q1010 NOSIG,M
VVTS,2/10/2012 17:30,106.6667,10.8167,75.2,64.4,69.14,50,4,0,29.83,M,6.21,M,FEW,M,M,M,1700,M,M,M,M,M,M,M,M,M,M,75.2,VVTS 101730Z 05004KT 010V110 9999 FEW017 24/18 Q1010 NOSIG,M
VVTS,2/10/2012 18:00,106.6667,10.8167,73.4,66.2,78.19,80,3,0,29.83,M,6.21,M,FEW,M,M,M,1700,M,M,M,M,M,M,M,M,M,M,73.4,VVTS 101800Z 08003KT 9999 FEW017 23/19 Q1010 NOSIG,M
VVTS,2/10/2012 18:30,106.6667,10.8167,73.4,66.2,78.19,50,2,0,29.83,M,6.21,M,FEW,M,M,M,1700,M,M,M,M,M,M,M,M,M,M,73.4,VVTS 101830Z 05002KT 9999 FEW017 23/19 Q1010 NOSIG,M
VVTS,2/10/2012 19:00,106.6667,10.8167,71.6,66.2,83.09,90,3,0,29.8,M,6.21,M,FEW,M,M,M,1700,M,M,M,M,M,M,M,M,M,M,71.6,VVTS 101900Z 09003KT 9999 FEW017 22/19 Q1009 NOSIG,M
VVTS,2/10/2012 19:30,106.6667,10.8167,71.6,68,88.43,M,2,0,29.8,M,6.21,M,FEW,M,M,M,1700,M,M,M,M,M,M,M,M,M,M,72.62,VVTS 101930Z VRB02KT 9999 FEW017 22/20 Q1009 NOSIG,M
VVTS,2/10/2012 20:00,106.6667,10.8167,71.6,66.2,83.09,40,1,0,29.8,M,6.21,M,FEW,M,M,M,1700,M,M,M,M,M,M,M,M,M,M,71.6,VVTS 102000Z 04001KT 9999 FEW017 22/19 Q1009 NOSIG,M
VVTS,2/10/2012 20:30,106.6667,10.8167,71.6,66.2,83.09,M,1,0,29.8,M,6.21,M,FEW,M,M,M,1700,M,M,M,M,M,M,M,M,M,M,71.6,VVTS 102030Z VRB01KT 9999 FEW017 22/19 Q1009 NOSIG,M
VVTS,2/10/2012 21:00,106.6667,10.8167,71.6,69.8,94.06,310,2,0,29.8,M,6.21,M,FEW,SCT,M,M,1700,4000,M,M,M,M,M,M,M,M,M,72.88,VVTS 102100Z 31002KT 9999 FEW017 SCT040 22/21 Q1009 NOSIG,M
VVTS,2/10/2012 21:30,106.6667,10.8167,71.6,68,88.43,310,2,0,29.8,M,6.21,M,FEW,BKN,M,M,1700,4000,M,M,M,M,M,M,M,M,M,72.62,VVTS 102130Z 31002KT 9999 FEW017 BKN040 22/20 Q1009 NOSIG,M
VVTS,2/10/2012 22:00,106.6667,10.8167,71.6,69.8,94.06,350,3,0,29.83,M,6.21,M,FEW,BKN,M,M,1700,4000,M,M,M,M,M,M,M,M,M,72.88,VVTS 102200Z 35003KT 9999 FEW017 BKN040 22/21 Q1010 NOSIG,M
VVTS,2/10/2012 22:30,106.6667,10.8167,71.6,69.8,94.06,350,4,0,29.83,M,6.21,M,FEW,BKN,M,M,1700,4000,M,M,M,M,M,M,M,M,M,72.88,VVTS 102230Z 35004KT 9999 FEW017 BKN040 22/21 Q1010 NOSIG,M
VVTS,2/10/2012 23:00,106.6667,10.8167,71.6,69.8,94.06,350,4,0,29.85,M,6.21,M,FEW,BKN,M,M,1700,4000,M,M,M,M,M,M,M,M,M,72.88,VVTS 102300Z 35004KT 9999 FEW017 BKN040 22/21 Q1011 NOSIG,M
VVTS,2/10/2012 23:30,106.6667,10.8167,69.8,69.8,100,30,2,0,29.85,M,4.97,M,FEW,BKN,M,M,1700,4000,M,M,M,M,M,M,M,M,M,69.8,VVTS 102330Z 03002KT 8000 FEW017 BKN040 21/21 Q1011 NOSIG,M
VVTS,2/11/2012 0:00,106.6667,10.8167,71.6,69.8,94.06,360,2,0,29.85,M,3.73,M,BKN,M,M,M,4000,M,M,M,M,M,M,M,M,M,M,72.88,VVTS 110000Z 36002KT 6000 BKN040 22/21 Q1011 NOSIG,M
VVTS,2/11/2012 0:30,106.6667,10.8167,73.4,71.6,94.1,M,3,0,29.88,M,4.97,M,BKN,M,M,M,4000,M,M,M,M,M,M,M,M,M,M,74.86,VVTS 110030Z VRB03KT 8000 BKN040 23/22 Q1012 NOSIG,M
VVTS,2/11/2012 1:00,106.6667,10.8167,75.2,69.8,83.32,350,4,0,29.88,M,5.59,M,BKN,M,M,M,5000,M,M,M,M,M,M,M,M,M,M,76.34,VVTS 110100Z 35004KT 9000 BKN050 24/21 Q1012 NOSIG,M
VVTS,2/11/2012 1:30,106.6667,10.8167,77,68,73.78,M,3,0,29.88,M,5.59,M,BKN,M,M,M,5000,M,M,M,M,M,M,M,M,M,M,77,VVTS 110130Z VRB03KT 9000 BKN050 25/20 Q1012 NOSIG,M
VVTS,2/11/2012 2:00,106.6667,10.8167,80.6,68,65.54,M,3,0,29.88,M,4.35,M,FEW,SCT,M,M,1700,4000,M,M,M,M,M,M,M,M,M,83.29,VVTS 110200Z VRB03KT 7000 FEW017 SCT040 27/20 Q1012 NOSIG,M
VVTS,2/11/2012 2:30,106.6667,10.8167,82.4,68,61.81,M,2,0,29.88,M,4.97,M,FEW,SCT,M,M,1700,4000,M,M,M,M,M,M,M,M,M,85.38,VVTS 110230Z VRB02KT 8000 FEW017 SCT040 28/20 Q1012 NOSIG,M
VVTS,2/11/2012 3:00,106.6667,10.8167,84.2,66.2,54.8,M,2,0,29.88,M,6.21,M,FEW,M,M,M,1700,M,M,M,M,M,M,M,M,M,M,86.5,VVTS 110300Z VRB02KT 9999 FEW017 29/19 Q1012 NOSIG,M
VVTS,2/11/2012 3:30,106.6667,10.8167,87.8,64.4,45.88,M,1,0,29.88,M,6.21,M,FEW,M,M,M,2000,M,M,M,M,M,M,M,M,M,M,89.33,VVTS 110330Z VRB01KT 9999 FEW020 31/18 Q1012 NOSIG,M
VVTS,2/11/2012 4:00,106.6667,10.8167,87.8,62.6,43.07,M,3,0,29.88,M,6.21,M,FEW,SCT,M,M,2000,4000,M,M,M,M,M,M,M,M,M,88.48,VVTS 110400Z VRB03KT 9999 FEW020 SCT040 31/17 Q1012 NOSIG,M
VVTS,2/11/2012 4:30,106.6667,10.8167,91.4,62.6,38.45,M,2,0,29.85,M,6.21,M,FEW,M,M,M,2000,M,M,M,M,M,M,M,M,M,M,91.4,VVTS 110430Z VRB02KT 9999 FEW020 33/17 Q1011 NOSIG,M
VVTS,2/11/2012 5:00,106.6667,10.8167,89.6,64.4,43.34,200,4,0,29.85,M,6.21,M,FEW,M,M,M,2000,M,M,M,M,M,M,M,M,M,M,91.23,VVTS 110500Z 20004KT 060V320 9999 FEW020 32/18 Q1011 NOSIG,M
VVTS,2/11/2012 5:30,106.6667,10.8167,91.4,64.4,40.96,310,4,0,29.83,M,6.21,M,SCT,M,M,M,2000,M,M,M,M,M,M,M,M,M,M,93.19,VVTS 110530Z 31004KT 140V130 9999 SCT020 33/18 Q1010 NOSIG,M
VVTS,2/11/2012 6:00,106.6667,10.8167,89.6,64.4,43.34,300,4,0,29.83,M,6.21,M,SCT,M,M,M,2000,M,M,M,M,M,M,M,M,M,M,91.23,VVTS 110600Z 30004KT 140V350 9999 SCT020 32/18 Q1010 NOSIG,M
VVTS,2/11/2012 6:30,106.6667,10.8167,89.6,64.4,43.34,330,5,0,29.8,M,6.21,M,SCT,M,M,M,2000,M,M,M,M,M,M,M,M,M,M,91.23,VVTS 110630Z 33005KT 250V050 9999 SCT020 32/18 Q1009 NOSIG,M
VVTS,2/11/2012 7:00,106.6667,10.8167,91.4,64.4,40.96,230,5,0,29.8,M,6.21,M,SCT,M,M,M,2000,M,M,M,M,M,M,M,M,M,M,93.19,VVTS 110700Z 23005KT 160V310 9999 SCT020 33/18 Q1009 NOSIG,M
VVTS,2/11/2012 7:30,106.6667,10.8167,89.6,64.4,43.34,220,5,0,29.77,M,6.21,M,SCT,M,M,M,2000,M,M,M,M,M,M,M,M,M,M,91.23,VVTS 110730Z 22005KT 160V260 9999 SCT020 32/18 Q1008 NOSIG,M
VVTS,2/11/2012 8:00,106.6667,10.8167,89.6,66.2,46.14,290,6,0,29.77,M,6.21,M,SCT,M,M,M,2000,M,M,M,M,M,M,M,M,M,M,92.27,VVTS 110800Z 29006KT 240V330 9999 SCT020 32/19 Q1008 NOSIG,M
VVTS,2/11/2012 8:30,106.6667,10.8167,89.6,69.8,52.23,250,6,0,29.77,M,6.21,M,SCT,M,M,M,2000,M,M,M,M,M,M,M,M,M,M,94.85,VVTS 110830Z 25006KT 9999 SCT020 32/21 Q1008 NOSIG,M
VVTS,2/11/2012 9:00,106.6667,10.8167,87.8,71.6,58.78,180,9,0,29.77,M,6.21,M,BKN,M,M,M,2000,M,M,M,M,M,M,M,M,M,M,94.18,VVTS 110900Z 18009KT 9999 BKN020 31/22 Q1008 NOSIG,M
VVTS,2/11/2012 9:30,106.6667,10.8167,86,69.8,58.55,170,7,0,29.77,M,6.21,M,FEW,SCT,M,M,1700,4000,M,M,M,M,M,M,M,M,M,90.58,VVTS 110930Z 17007KT 140V200 9999 FEW017 SCT040 30/21 Q1008 NOSIG,M
VVTS,2/11/2012 10:00,106.6667,10.8167,86,69.8,58.55,160,8,0,29.77,M,6.21,M,FEW,SCT,M,M,1700,4000,M,M,M,M,M,M,M,M,M,90.58,VVTS 111000Z 16008KT 9999 FEW017 SCT040 30/21 Q1008 NOSIG,M
VVTS,2/11/2012 10:30,106.6667,10.8167,84.2,69.8,62.03,160,7,0,29.8,M,6.21,M,FEW,SCT,M,M,1700,4000,M,M,M,M,M,M,M,M,M,88.43,VVTS 111030Z 16007KT 9999 FEW017 SCT040 29/21 Q1009 NOSIG,M
VVTS,2/11/2012 11:00,106.6667,10.8167,82.4,68,61.81,160,8,0,29.8,M,6.21,M,FEW,SCT,M,M,1700,4000,M,M,M,M,M,M,M,M,M,85.38,VVTS 111100Z 16008KT 9999 FEW017 SCT040 28/20 Q1009 NOSIG,M
VVTS,2/11/2012 11:30,106.6667,10.8167,82.4,68,61.81,150,5,0,29.8,M,6.21,M,FEW,SCT,M,M,1700,4000,M,M,M,M,M,M,M,M,M,85.38,VVTS 111130Z 15005KT 120V180 9999 FEW017 SCT040 28/20 Q1009 NOSIG,M
VVTS,2/11/2012 12:00,106.6667,10.8167,82.4,69.8,65.74,150,5,0,29.8,M,6.21,M,FEW,SCT,M,M,1700,4000,M,M,M,M,M,M,M,M,M,86.22,VVTS 111200Z 15005KT 9999 FEW017 SCT040 28/21 Q1009 NOSIG,M
VVTS,2/11/2012 12:30,106.6667,10.8167,82.4,68,61.81,140,6,0,29.83,M,6.21,M,FEW,SCT,M,M,1700,4000,M,M,M,M,M,M,M,M,M,85.38,VVTS 111230Z 14006KT 110V170 9999 FEW017 SCT040 28/20 Q1010 NOSIG,M
VVTS,2/11/2012 13:00,106.6667,10.8167,82.4,66.2,58.08,120,6,0,29.83,M,6.21,M,FEW,M,M,M,1700,M,M,M,M,M,M,M,M,M,M,84.63,VVTS 111300Z 12006KT 9999 FEW017 28/19 Q1010 NOSIG,M
VVTS,2/11/2012 13:30,106.6667,10.8167,82.4,66.2,58.08,120,6,0,29.83,M,6.21,M,FEW,M,M,M,1700,M,M,M,M,M,M,M,M,M,M,84.63,VVTS 111330Z 12006KT 9999 FEW017 28/19 Q1010 NOSIG,M
VVTS,2/11/2012 14:00,106.6667,10.8167,82.4,66.2,58.08,120,5,0,29.85,M,6.21,M,FEW,M,M,M,1700,M,M,M,M,M,M,M,M,M,M,84.63,VVTS 111400Z 12005KT 9999 FEW017 28/19 Q1011 NOSIG,M
VVTS,2/11/2012 14:30,106.6667,10.8167,82.4,66.2,58.08,140,3,0,29.85,M,6.21,M,FEW,SCT,M,M,1700,4000,M,M,M,M,M,M,M,M,M,84.63,VVTS 111430Z 14003KT 9999 FEW017 SCT040 28/19 Q1011 NOSIG,M
VVTS,2/11/2012 15:30,106.6667,10.8167,80.6,66.2,61.58,150,3,0,29.85,M,6.21,M,FEW,SCT,M,M,1700,4000,M,M,M,M,M,M,M,M,M,82.75,VVTS 111530Z 15003KT 9999 FEW017 SCT040 27/19 Q1011 NOSIG,M
VVTS,2/11/2012 16:00,106.6667,10.8167,80.6,66.2,61.58,130,3,0,29.85,M,6.21,M,FEW,SCT,M,M,1700,4000,M,M,M,M,M,M,M,M,M,82.75,VVTS 111600Z 13003KT 9999 FEW017 SCT040 27/19 Q1011 NOSIG,M
VVTS,2/11/2012 16:30,106.6667,10.8167,80.6,66.2,61.58,120,4,0,29.85,M,6.21,M,FEW,SCT,M,M,1700,4000,M,M,M,M,M,M,M,M,M,82.75,VVTS 111630Z 12004KT 9999 FEW017 SCT040 27/19 Q1011 NOSIG,M
VVTS,2/11/2012 17:00,106.6667,10.8167,80.6,66.2,61.58,120,4,0,29.85,M,6.21,M,FEW,SCT,M,M,1700,4000,M,M,M,M,M,M,M,M,M,82.75,VVTS 111700Z 12004KT 090V170 9999 FEW017 SCT040 27/19 Q1011 NOSIG,M
VVTS,2/11/2012 17:30,106.6667,10.8167,80.6,66.2,61.58,140,4,0,29.85,M,6.21,M,FEW,SCT,M,M,1700,4000,M,M,M,M,M,M,M,M,M,82.75,VVTS 111730Z 14004KT 110V200 9999 FEW017 SCT040 27/19 Q1011 NOSIG,M
VVTS,2/11/2012 18:00,106.6667,10.8167,78.8,66.2,65.33,110,2,0,29.83,M,6.21,M,FEW,SCT,M,M,1700,4000,M,M,M,M,M,M,M,M,M,80.82,VVTS 111800Z 11002KT 9999 FEW017 SCT040 26/19 Q1010 NOSIG,M
VVTS,2/11/2012 18:30,106.6667,10.8167,78.8,66.2,65.33,M,2,0,29.83,M,6.21,M,FEW,SCT,M,M,1700,4000,M,M,M,M,M,M,M,M,M,80.82,VVTS 111830Z VRB02KT 9999 FEW017 SCT040 26/19 Q1010 NOSIG,M
VVTS,2/11/2012 19:00,106.6667,10.8167,77,68,73.78,50,4,0,29.83,M,6.21,M,FEW,SCT,M,M,1700,4000,M,M,M,M,M,M,M,M,M,77,VVTS 111900Z 05004KT 9999 FEW017 SCT040 25/20 Q1010 NOSIG,M
VVTS,2/11/2012 19:30,106.6667,10.8167,78.8,68,69.52,70,4,0,29.83,M,6.21,M,FEW,SCT,M,M,1700,4000,M,M,M,M,M,M,M,M,M,81.1,VVTS 111930Z 07004KT 9999 FEW017 SCT040 26/20 Q1010 NOSIG,M
VVTS,2/11/2012 20:30,106.6667,10.8167,78.8,68,69.52,70,5,0,29.83,M,6.21,M,FEW,SCT,M,M,1700,4000,M,M,M,M,M,M,M,M,M,81.1,VVTS 112030Z 07005KT 9999 FEW017 SCT040 26/20 Q1010 NOSIG,M
VVTS,2/11/2012 21:00,106.6667,10.8167,77,68,73.78,60,4,0,29.83,M,6.21,M,FEW,SCT,M,M,1700,4000,M,M,M,M,M,M,M,M,M,77,VVTS 112100Z 06004KT 9999 FEW017 SCT040 25/20 Q1010 NOSIG,M
VVTS,2/11/2012 21:30,106.6667,10.8167,77,68,73.78,M,3,0,29.83,M,6.21,M,FEW,SCT,M,M,1700,4000,M,M,M,M,M,M,M,M,M,77,VVTS 112130Z VRB03KT 9999 FEW017 SCT040 25/20 Q1010 NOSIG,M
VVTS,2/11/2012 22:00,106.6667,10.8167,77,69.8,78.48,50,3,0,29.83,M,6.21,M,FEW,SCT,M,M,1700,4000,M,M,M,M,M,M,M,M,M,78.09,VVTS 112200Z 05003KT 9999 FEW017 SCT040 25/21 Q1010 NOSIG,M
VVTS,2/11/2012 22:30,106.6667,10.8167,77,69.8,78.48,M,2,0,29.83,M,6.21,M,FEW,SCT,M,M,1700,4000,M,M,M,M,M,M,M,M,M,78.09,VVTS 112230Z VRB02KT 9999 FEW017 SCT040 25/21 Q1010 NOSIG,M
VVTS,2/11/2012 23:00,106.6667,10.8167,77,71.6,83.44,M,3,0,29.83,M,4.97,M,FEW,BKN,M,M,1700,4000,M,M,M,M,M,M,M,M,M,78.32,VVTS 112300Z VRB03KT 8000 FEW017 BKN040 25/22 Q1010 NOSIG,M
VVTS,2/11/2012 23:30,106.6667,10.8167,75.2,71.6,88.59,10,4,0,29.85,M,3.11,M,FEW,BKN,M,M,1500,4000,M,M,BR,M,M,M,M,M,M,76.58,VVTS 112330Z 01004KT 5000 BR FEW015 BKN040 24/22 Q1011 NOSIG,M
VVTS,2/12/2012 0:00,106.6667,10.8167,75.2,71.6,88.59,10,5,0,29.85,M,3.11,M,FEW,BKN,M,M,1700,4000,M,M,BR,M,M,M,M,M,M,76.58,VVTS 120000Z 01005KT 5000 BR FEW017 BKN040 24/22 Q1011 NOSIG,M
VVTS,2/12/2012 0:30,106.6667,10.8167,77,69.8,78.48,M,3,0,29.88,M,3.73,M,SCT,BKN,M,M,1700,4000,M,M,M,M,M,M,M,M,M,78.09,VVTS 120030Z VRB03KT 6000 SCT017 BKN040 25/21 Q1012 NOSIG,M
VVTS,2/12/2012 1:00,106.6667,10.8167,77,69.8,78.48,350,5,0,29.88,M,4.35,M,SCT,BKN,M,M,1700,4000,M,M,M,M,M,M,M,M,M,78.09,VVTS 120100Z 35005KT 7000 SCT017 BKN040 25/21 Q1012 NOSIG,M
VVTS,2/12/2012 1:30,106.6667,10.8167,78.8,69.8,73.95,M,3,0,29.88,M,6.21,M,FEW,BKN,M,M,1700,4000,M,M,M,M,M,M,M,M,M,81.39,VVTS 120130Z VRB03KT 9999 FEW017 BKN040 26/21 Q1012 NOSIG,M
VVTS,2/12/2012 2:00,106.6667,10.8167,80.6,69.8,69.71,M,3,0,29.91,M,6.21,M,FEW,BKN,M,M,1700,4000,M,M,M,M,M,M,M,M,M,83.9,VVTS 120200Z VRB03KT 9999 FEW017 BKN040 27/21 Q1013 NOSIG,M
VVTS,2/12/2012 2:30,106.6667,10.8167,82.4,69.8,65.74,M,2,0,29.91,M,6.21,M,FEW,SCT,M,M,1700,4000,M,M,M,M,M,M,M,M,M,86.22,VVTS 120230Z VRB02KT 9999 FEW017 SCT040 28/21 Q1013 NOSIG,M
VVTS,2/12/2012 3:00,106.6667,10.8167,86,69.8,58.55,M,3,0,29.91,M,6.21,M,FEW,SCT,M,M,1700,4000,M,M,M,M,M,M,M,M,M,90.58,VVTS 120300Z VRB03KT 9999 FEW017 SCT040 30/21 Q1013 NOSIG,M
VVTS,2/12/2012 3:30,106.6667,10.8167,84.2,68,58.32,M,3,0,29.91,M,6.21,M,FEW,SCT,M,M,1700,4000,M,M,M,M,M,M,M,M,M,87.4,VVTS 120330Z VRB03KT 9999 FEW017 SCT040 29/20 Q1013 NOSIG,M
VVTS,2/12/2012 4:00,106.6667,10.8167,87.8,69.8,55.29,290,4,0,29.88,M,6.21,M,FEW,SCT,M,M,1700,4000,M,M,M,M,M,M,M,M,M,92.71,VVTS 120400Z 29004KT 250V350 9999 FEW017 SCT040 31/21 Q1012 NOSIG,M
VVTS,2/12/2012 4:30,106.6667,10.8167,87.8,68,51.98,310,4,0,29.85,M,6.21,M,FEW,SCT,M,M,1700,4000,M,M,M,M,M,M,M,M,M,91.43,VVTS 120430Z 31004KT 270V050 9999 FEW017 SCT040 31/20 Q1011 NOSIG,M
VVTS,2/12/2012 5:00,106.6667,10.8167,89.6,68,49.1,M,3,0,29.85,M,6.21,M,SCT,M,M,M,1700,M,M,M,M,M,M,M,M,M,M,93.47,VVTS 120500Z VRB03KT 9999 SCT017 32/20 Q1011 NOSIG,M
VVTS,2/12/2012 5:30,106.6667,10.8167,91.4,68,46.41,M,2,0,29.83,M,6.21,M,FEW,SCT,M,M,1700,4000,M,M,M,M,M,M,M,M,M,95.55,VVTS 120530Z VRB02KT 9999 FEW017 SCT040 33/20 Q1010 NOSIG,M
VVTS,2/12/2012 6:00,106.6667,10.8167,91.4,66.2,43.61,M,2,0,29.83,M,6.21,M,FEW,SCT,M,M,1700,4000,M,M,M,M,M,M,M,M,M,94.29,VVTS 120600Z VRB02KT 9999 FEW017 SCT040 33/19 Q1010 NOSIG,M
VVTS,2/12/2012 6:30,106.6667,10.8167,91.4,68,46.41,M,3,0,29.8,M,6.21,M,FEW,SCT,M,M,1700,4000,M,M,M,M,M,M,M,M,M,95.55,VVTS 120630Z VRB03KT 9999 FEW017 SCT040 33/20 Q1009 NOSIG,M
VVTS,2/12/2012 7:00,106.6667,10.8167,89.6,68,49.1,180,6,0,29.8,M,6.21,M,FEW,SCT,M,M,1700,4000,M,M,M,M,M,M,M,M,M,93.47,VVTS 120700Z 18006KT 140V210 9999 FEW017 SCT040 32/20 Q1009 NOSIG,M
VVTS,2/12/2012 7:30,106.6667,10.8167,89.6,68,49.1,160,4,0,29.77,M,6.21,M,FEW,SCT,M,M,1700,4000,M,M,M,M,M,M,M,M,M,93.47,VVTS 120730Z 16004KT 100V210 9999 FEW017 SCT040 32/20 Q1008 NOSIG,M
VVTS,2/12/2012 8:00,106.6667,10.8167,87.8,69.8,55.29,180,10,0,29.77,M,6.21,M,SCT,M,M,M,1700,M,M,M,M,M,M,M,M,M,M,92.71,VVTS 120800Z 18010KT 9999 SCT017 31/21 Q1008 NOSIG,M
VVTS,2/12/2012 8:30,106.6667,10.8167,87.8,69.8,55.29,170,8,0,29.77,M,6.21,M,SCT,M,M,M,1700,M,M,M,M,M,M,M,M,M,M,92.71,VVTS 120830Z 17008KT 140V240 9999 SCT017 31/21 Q1008 NOSIG,M
VVTS,2/12/2012 9:00,106.6667,10.8167,87.8,69.8,55.29,190,8,0,29.77,M,6.21,M,SCT,M,M,M,1700,M,M,M,M,M,M,M,M,M,M,92.71,VVTS 120900Z 19008KT 9999 SCT017 31/21 Q1008 NOSIG,M
VVTS,2/12/2012 9:30,106.6667,10.8167,86,69.8,58.55,150,8,0,29.77,M,6.21,M,SCT,M,M,M,1700,M,M,M,M,M,M,M,M,M,M,90.58,VVTS 120930Z 15008KT 120V190 9999 SCT017 30/21 Q1008 NOSIG,M
VVTS,2/12/2012 10:00,106.6667,10.8167,84.2,68,58.32,150,5,0,29.8,M,6.21,M,FEW,M,M,M,1700,M,M,M,M,M,M,M,M,M,M,87.4,VVTS 121000Z 15005KT 130V220 9999 FEW017 29/20 Q1009 NOSIG,M
VVTS,2/12/2012 10:30,106.6667,10.8167,84.2,66.2,54.8,170,7,0,29.8,M,6.21,M,FEW,M,M,M,1700,M,M,M,M,M,M,M,M,M,M,86.5,VVTS 121030Z 17007KT 9999 FEW017 29/19 Q1009 NOSIG,M
VVTS,2/12/2012 11:00,106.6667,10.8167,84.2,66.2,54.8,150,6,0,29.8,M,6.21,M,FEW,SCT,M,M,1500,1700,M,M,M,M,M,M,M,M,M,86.5,VVTS 121100Z 15006KT 9999 FEW015TCU SCT017 29/19 Q1009 NOSIG,M
VVTS,2/12/2012 11:30,106.6667,10.8167,84.2,68,58.32,170,5,0,29.8,M,6.21,M,FEW,SCT,M,M,1500,1700,M,M,M,M,M,M,M,M,M,87.4,VVTS 121130Z 17005KT 9999 FEW015TCU SCT017 29/20 Q1009 NOSIG,M
VVTS,2/12/2012 12:30,106.6667,10.8167,82.4,66.2,58.08,150,6,0,29.83,M,6.21,M,SCT,M,M,M,1700,M,M,M,M,M,M,M,M,M,M,84.63,VVTS 121230Z 15006KT 9999 SCT017 28/19 Q1010 NOSIG,M
VVTS,2/12/2012 13:00,106.6667,10.8167,82.4,64.4,54.55,140,5,0,29.83,M,6.21,M,SCT,M,M,M,1700,M,M,M,M,M,M,M,M,M,M,83.98,VVTS 121300Z 14005KT 9999 SCT017 28/18 Q1010 NOSIG,M
VVTS,2/12/2012 13:30,106.6667,10.8167,82.4,64.4,54.55,120,7,0,29.83,M,6.21,M,SCT,M,M,M,1700,M,M,M,M,M,M,M,M,M,M,83.98,VVTS 121330Z 12007KT 100V180 9999 SCT017 28/18 Q1010 NOSIG,M
VVTS,2/12/2012 14:00,106.6667,10.8167,80.6,64.4,57.84,120,8,0,29.83,M,6.21,M,SCT,M,M,M,1700,M,M,M,M,M,M,M,M,M,M,82.27,VVTS 121400Z 12008KT 090V150 9999 SCT017 27/18 Q1010 NOSIG,M
VVTS,2/12/2012 14:30,106.6667,10.8167,80.6,64.4,57.84,140,8,0,29.83,M,6.21,M,SCT,M,M,M,1700,M,M,M,M,M,M,M,M,M,M,82.27,VVTS 121430Z 14008KT 120V180 9999 SCT017 27/18 Q1010 NOSIG,M
VVTS,2/12/2012 15:00,106.6667,10.8167,78.8,64.4,61.36,130,8,0,29.83,M,6.21,M,SCT,M,M,M,1700,M,M,M,M,M,M,M,M,M,M,80.56,VVTS 121500Z 13008KT 9999 SCT017 26/18 Q1010 NOSIG,M
VVTS,2/12/2012 15:30,106.6667,10.8167,78.8,64.4,61.36,130,8,0,29.83,M,6.21,M,SCT,M,M,M,1700,M,M,M,M,M,M,M,M,M,M,80.56,VVTS 121530Z 13008KT 9999 SCT017 26/18 Q1010 NOSIG,M
VVTS,2/12/2012 16:00,106.6667,10.8167,78.8,64.4,61.36,120,6,0,29.83,M,6.21,M,SCT,M,M,M,1700,M,M,M,M,M,M,M,M,M,M,80.56,VVTS 121600Z 12006KT 9999 SCT017 26/18 Q1010 NOSIG,M
VVTS,2/12/2012 16:30,106.6667,10.8167,78.8,64.4,61.36,120,6,0,29.85,M,6.21,M,SCT,M,M,M,1700,M,M,M,M,M,M,M,M,M,M,80.56,VVTS 121630Z 12006KT 9999 SCT017 26/18 Q1011 NOSIG,M
VVTS,2/12/2012 17:00,106.6667,10.8167,77,66.2,69.33,110,4,0,29.85,M,6.21,M,SCT,M,M,M,1700,M,M,M,M,M,M,M,M,M,M,77,VVTS 121700Z 11004KT 060V160 9999 SCT017 25/19 Q1011 NOSIG,M
VVTS,2/12/2012 17:30,106.6667,10.8167,77,66.2,69.33,120,5,0,29.85,M,6.21,M,SCT,M,M,M,1700,M,M,M,M,M,M,M,M,M,M,77,VVTS 121730Z 12005KT 020V170 9999 SCT017 25/19 Q1011 NOSIG,M
VVTS,2/12/2012 18:00,106.6667,10.8167,75.2,66.2,73.61,M,3,0,29.83,M,6.21,M,FEW,SCT,M,M,1700,4000,M,M,M,M,M,M,M,M,M,75.2,VVTS 121800Z VRB03KT 9999 FEW017 SCT040 24/19 Q1010 NOSIG,M
VVTS,2/12/2012 18:30,106.6667,10.8167,75.2,66.2,73.61,110,4,0,29.83,M,6.21,M,FEW,SCT,M,M,1700,4000,M,M,M,M,M,M,M,M,M,75.2,VVTS 121830Z 11004KT 9999 FEW017 SCT040 24/19 Q1010 NOSIG,M
VVTS,2/12/2012 19:00,106.6667,10.8167,75.2,66.2,73.61,M,3,0,29.83,M,6.21,M,FEW,SCT,M,M,1700,4000,M,M,M,M,M,M,M,M,M,75.2,VVTS 121900Z VRB03KT 9999 FEW017 SCT040 24/19 Q1010 NOSIG,M
VVTS,2/12/2012 19:30,106.6667,10.8167,75.2,68,78.34,M,1,0,29.83,M,6.21,M,FEW,SCT,M,M,1700,4000,M,M,M,M,M,M,M,M,M,75.2,VVTS 121930Z VRB01KT 9999 FEW017 SCT040 24/20 Q1010 NOSIG,M
VVTS,2/12/2012 20:00,106.6667,10.8167,75.2,68,78.34,10,3,0,29.83,M,6.21,M,FEW,SCT,M,M,1700,4000,M,M,M,M,M,M,M,M,M,75.2,VVTS 122000Z 01003KT 9999 FEW017 SCT040 24/20 Q1010 NOSIG,M
VVTS,2/12/2012 20:30,106.6667,10.8167,73.4,69.8,88.51,60,3,0,29.83,M,6.21,M,FEW,SCT,M,M,1700,4000,M,M,M,M,M,M,M,M,M,74.6,VVTS 122030Z 06003KT 9999 FEW017 SCT040 23/21 Q1010 NOSIG,M
VVTS,2/12/2012 21:00,106.6667,10.8167,73.4,69.8,88.51,20,3,0,29.83,M,6.21,M,FEW,SCT,M,M,1700,4000,M,M,M,M,M,M,M,M,M,74.6,VVTS 122100Z 02003KT 9999 FEW017 SCT040 23/21 Q1010 NOSIG,M
VVTS,2/12/2012 21:30,106.6667,10.8167,73.4,69.8,88.51,350,3,0,29.83,M,6.21,M,FEW,SCT,M,M,1700,4000,M,M,M,M,M,M,M,M,M,74.6,VVTS 122130Z 35003KT 9999 FEW017 SCT040 23/21 Q1010 NOSIG,M
VVTS,2/12/2012 22:00,106.6667,10.8167,73.4,69.8,88.51,320,1,0,29.83,M,6.21,M,FEW,SCT,M,M,1700,4000,M,M,M,M,M,M,M,M,M,74.6,VVTS 122200Z 32001KT 9999 FEW017 SCT040 23/21 Q1010 NOSIG,M
VVTS,2/12/2012 22:30,106.6667,10.8167,71.6,69.8,94.06,310,3,0,29.83,M,6.21,M,FEW,SCT,M,M,1700,4000,M,M,M,M,M,M,M,M,M,72.88,VVTS 122230Z 31003KT 9999 FEW017 SCT040 22/21 Q1010 NOSIG,M
VVTS,2/12/2012 23:00,106.6667,10.8167,71.6,69.8,94.06,M,2,0,29.85,M,6.21,M,FEW,SCT,M,M,1700,4000,M,M,M,M,M,M,M,M,M,72.88,VVTS 122300Z VRB02KT 9999 FEW017 SCT040 22/21 Q1011 NOSIG,M
VVTS,2/12/2012 23:30,106.6667,10.8167,71.6,69.8,94.06,340,3,0,29.85,M,4.97,M,FEW,SCT,M,M,1700,4000,M,M,M,M,M,M,M,M,M,72.88,VVTS 122330Z 34003KT 8000 FEW017 SCT040 22/21 Q1011 NOSIG,M
VVTS,2/13/2012 0:00,106.6667,10.8167,73.4,71.6,94.1,20,2,0,29.88,M,3.73,M,FEW,SCT,M,M,1700,4000,M,M,M,M,M,M,M,M,M,74.86,VVTS 130000Z 02002KT 6000 FEW017 SCT040 23/22 Q1012 NOSIG,M
VVTS,2/13/2012 0:30,106.6667,10.8167,75.2,71.6,88.59,340,5,0,29.88,M,4.97,M,FEW,M,M,M,1700,M,M,M,M,M,M,M,M,M,M,76.58,VVTS 130030Z 34005KT 8000 FEW017 24/22 Q1012 NOSIG,M
VVTS,2/13/2012 1:00,106.6667,10.8167,77,69.8,78.48,330,4,0,29.88,M,4.97,M,FEW,M,M,M,1700,M,M,M,M,M,M,M,M,M,M,78.09,VVTS 130100Z 33004KT 220V060 8000 FEW017 25/21 Q1012 NOSIG,M
VVTS,2/13/2012 1:30,106.6667,10.8167,78.8,69.8,73.95,10,5,0,29.88,M,6.21,M,FEW,M,M,M,1700,M,M,M,M,M,M,M,M,M,M,81.39,VVTS 130130Z 01005KT 320V060 9999 FEW017 26/21 Q1012 NOSIG,M
VVTS,2/13/2012 2:00,106.6667,10.8167,80.6,68,65.54,10,4,0,29.91,M,6.21,M,FEW,M,M,M,1700,M,M,M,M,M,M,M,M,M,M,83.29,VVTS 130200Z 01004KT 320V050 9999 FEW017 27/20 Q1013 NOSIG,M
VVTS,2/13/2012 2:30,106.6667,10.8167,82.4,68,61.81,30,4,0,29.91,M,6.21,M,M,M,M,M,M,M,M,M,M,M,M,M,M,M,M,85.38,VVTS 130230Z 03004KT CAVOK 28/20 Q1013 NOSIG,M
VVTS,2/13/2012 3:00,106.6667,10.8167,84.2,66.2,54.8,70,5,0,29.91,M,6.21,M,M,M,M,M,M,M,M,M,M,M,M,M,M,M,M,86.5,VVTS 130300Z 07005KT 010V100 CAVOK 29/19 Q1013 NOSIG,M
VVTS,2/13/2012 3:30,106.6667,10.8167,86,66.2,51.72,350,4,0,29.88,M,6.21,M,M,M,M,M,M,M,M,M,M,M,M,M,M,M,M,88.39,VVTS 130330Z 35004KT 290V060 CAVOK 30/19 Q1012 NOSIG,M
VVTS,2/13/2012 4:00,106.6667,10.8167,87.8,66.2,48.84,10,6,0,29.88,M,6.21,M,M,M,M,M,M,M,M,M,M,M,M,M,M,M,M,90.31,VVTS 130400Z 01006KT 320V090 CAVOK 31/19 Q1012 NOSIG,M
VVTS,2/13/2012 4:30,106.6667,10.8167,89.6,68,49.1,350,6,0,29.88,M,6.21,M,FEW,M,M,M,1700,M,M,M,M,M,M,M,M,M,M,93.47,VVTS 130430Z 35006KT 320V060 9999 FEW017 32/20 Q1012 NOSIG,M
VVTS,2/13/2012 5:00,106.6667,10.8167,89.6,68,49.1,20,7,0,29.85,M,6.21,M,SCT,M,M,M,1700,M,M,M,M,M,M,M,M,M,M,93.47,VVTS 130500Z 02007KT 9999 SCT017 32/20 Q1011 NOSIG,M
VVTS,2/13/2012 5:30,106.6667,10.8167,89.6,68,49.1,290,6,0,29.85,M,6.21,M,SCT,M,M,M,1700,M,M,M,M,M,M,M,M,M,M,93.47,VVTS 130530Z 29006KT 260V330 9999 SCT017 32/20 Q1011 NOSIG,M
VVTS,2/13/2012 6:00,106.6667,10.8167,89.6,68,49.1,M,3,0,29.83,M,6.21,M,SCT,M,M,M,1700,M,M,M,M,M,M,M,M,M,M,93.47,VVTS 130600Z VRB03KT 9999 SCT017 32/20 Q1010 NOSIG,M
VVTS,2/13/2012 6:30,106.6667,10.8167,89.6,68,49.1,290,6,0,29.83,M,6.21,M,SCT,M,M,M,1700,M,M,M,M,M,M,M,M,M,M,93.47,VVTS 130630Z 29006KT 230V340 9999 SCT017 32/20 Q1010 NOSIG,M
VVTS,2/13/2012 7:00,106.6667,10.8167,91.4,68,46.41,320,4,0,29.8,M,6.21,M,SCT,M,M,M,1700,M,M,M,M,M,M,M,M,M,M,95.55,VVTS 130700Z 32004KT 280V110 9999 SCT017 33/20 Q1009 NOSIG,M
VVTS,2/13/2012 7:30,106.6667,10.8167,89.6,68,49.1,M,3,0,29.8,M,6.21,M,SCT,M,M,M,1700,M,M,M,M,M,M,M,M,M,M,93.47,VVTS 130730Z VRB03KT 9999 SCT017 32/20 Q1009 NOSIG,M
VVTS,2/13/2012 8:00,106.6667,10.8167,89.6,66.2,46.14,300,5,0,29.77,M,6.21,M,SCT,M,M,M,1700,M,M,M,M,M,M,M,M,M,M,92.27,VVTS 130800Z 30005KT 260V340 9999 SCT017 32/19 Q1008 NOSIG,M
VVTS,2/13/2012 8:30,106.6667,10.8167,91.4,66.2,43.61,320,4,0,29.77,M,6.21,M,SCT,M,M,M,1700,M,M,M,M,M,M,M,M,M,M,94.29,VVTS 130830Z 32004KT 250V060 9999 SCT017 33/19 Q1008 NOSIG,M
VVTS,2/13/2012 9:00,106.6667,10.8167,91.4,69.8,49.36,110,5,0,29.77,M,6.21,M,SCT,M,M,M,1700,M,M,M,M,M,M,M,M,M,M,96.99,VVTS 130900Z 11005KT 350V210 9999 SCT017 33/21 Q1008 NOSIG,M
VVTS,2/13/2012 9:30,106.6667,10.8167,84.2,71.6,65.95,160,11,0,29.77,M,6.21,M,SCT,M,M,M,1700,M,M,M,M,M,M,M,M,M,M,89.6,VVTS 130930Z 16011KT 9999 SCT017 29/22 Q1008 NOSIG,M
VVTS,2/13/2012 10:00,106.6667,10.8167,82.4,69.8,65.74,170,11,0,29.8,M,6.21,M,FEW,SCT,M,M,1500,1700,M,M,M,M,M,M,M,M,M,86.22,VVTS 131000Z 17011KT 9999 FEW015TCU SCT017 28/21 Q1009 NOSIG,M
VVTS,2/13/2012 10:30,106.6667,10.8167,82.4,69.8,65.74,170,9,0,29.8,M,6.21,M,FEW,SCT,M,M,1500,1700,M,M,M,M,M,M,M,M,M,86.22,VVTS 131030Z 17009KT 9999 FEW015TCU SCT017 28/21 Q1009 NOSIG,M
VVTS,2/13/2012 11:00,106.6667,10.8167,82.4,66.2,58.08,150,9,0,29.8,M,6.21,M,FEW,SCT,M,M,1500,1700,M,M,M,M,M,M,M,M,M,84.63,VVTS 131100Z 15009KT 9999 FEW015TCU SCT017 28/19 Q1009 NOSIG,M
VVTS,2/13/2012 11:30,106.6667,10.8167,80.6,66.2,61.58,150,8,0,29.83,M,6.21,M,FEW,SCT,M,M,1500,1700,M,M,M,M,M,M,M,M,M,82.75,VVTS 131130Z 15008KT 9999 FEW015TCU SCT017 27/19 Q1010 NOSIG,M
VVTS,2/13/2012 12:00,106.6667,10.8167,80.6,66.2,61.58,140,5,0,29.83,M,6.21,M,FEW,SCT,M,M,1500,1700,M,M,M,M,M,M,M,M,M,82.75,VVTS 131200Z 14005KT 110V180 9999 FEW015TCU SCT017 27/19 Q1010 NOSIG,M
VVTS,2/13/2012 12:30,106.6667,10.8167,80.6,66.2,61.58,130,7,0,29.83,M,6.21,M,FEW,SCT,M,M,1500,1700,M,M,M,M,M,M,M,M,M,82.75,VVTS 131230Z 13007KT 080V160 9999 FEW015TCU SCT017 27/19 Q1010 NOSIG,M
VVTS,2/13/2012 13:00,106.6667,10.8167,80.6,64.4,57.84,130,7,0,29.85,M,6.21,M,FEW,M,M,M,1700,M,M,M,M,M,M,M,M,M,M,82.27,VVTS 131300Z 13007KT 100V170 9999 FEW017 27/18 Q1011 NOSIG,M
VVTS,2/13/2012 13:30,106.6667,10.8167,80.6,64.4,57.84,130,6,0,29.85,M,6.21,M,FEW,M,M,M,1700,M,M,M,M,M,M,M,M,M,M,82.27,VVTS 131330Z 13006KT 9999 FEW017 27/18 Q1011 NOSIG,M
VVTS,2/13/2012 14:00,106.6667,10.8167,78.8,66.2,65.33,150,4,0,29.85,M,6.21,M,FEW,M,M,M,1700,M,M,M,M,M,M,M,M,M,M,80.82,VVTS 131400Z 15004KT 120V180 9999 FEW017 26/19 Q1011 NOSIG,M
VVTS,2/13/2012 15:00,106.6667,10.8167,78.8,66.2,65.33,140,5,0,29.88,M,6.21,M,FEW,M,M,M,1700,M,M,M,M,M,M,M,M,M,M,80.82,VVTS 131500Z 14005KT 9999 FEW017 26/19 Q1012 NOSIG,M
VVTS,2/13/2012 15:30,106.6667,10.8167,78.8,66.2,65.33,130,7,0,29.88,M,6.21,M,FEW,M,M,M,1700,M,M,M,M,M,M,M,M,M,M,80.82,VVTS 131530Z 13007KT 9999 FEW017 26/19 Q1012 NOSIG,M
VVTS,2/13/2012 16:00,106.6667,10.8167,78.8,68,69.52,150,4,0,29.85,M,6.21,M,FEW,M,M,M,1700,M,M,M,M,M,M,M,M,M,M,81.1,VVTS 131600Z 15004KT 9999 FEW017 26/20 Q1011 NOSIG,M
VVTS,2/13/2012 16:30,106.6667,10.8167,77,69.8,78.48,160,3,0,29.85,M,6.21,M,FEW,M,M,M,1700,M,M,M,M,M,M,M,M,M,M,78.09,VVTS 131630Z 16003KT 9999 FEW017 25/21 Q1011 NOSIG,M
VVTS,2/13/2012 17:00,106.6667,10.8167,75.2,69.8,83.32,M,3,0,29.85,M,6.21,M,FEW,M,M,M,1700,M,M,M,M,M,M,M,M,M,M,76.34,VVTS 131700Z VRB03KT 9999 FEW017 24/21 Q1011 NOSIG,M
VVTS,2/13/2012 17:30,106.6667,10.8167,75.2,69.8,83.32,160,3,0,29.85,M,6.21,M,FEW,M,M,M,1700,M,M,M,M,M,M,M,M,M,M,76.34,VVTS 131730Z 16003KT 9999 FEW017 24/21 Q1011 NOSIG,M
VVTS,2/13/2012 18:00,106.6667,10.8167,75.2,69.8,83.32,180,3,0,29.83,M,6.21,M,FEW,M,M,M,1700,M,M,M,M,M,M,M,M,M,M,76.34,VVTS 131800Z 18003KT 9999 FEW017 24/21 Q1010 NOSIG,M
VVTS,2/13/2012 18:30,106.6667,10.8167,75.2,69.8,83.32,180,2,0,29.83,M,6.21,M,FEW,M,M,M,1700,M,M,M,M,M,M,M,M,M,M,76.34,VVTS 131830Z 18002KT 9999 FEW017 24/21 Q1010 NOSIG,M
VVTS,2/13/2012 19:00,106.6667,10.8167,73.4,69.8,88.51,M,1,0,29.83,M,6.21,M,FEW,M,M,M,1700,M,M,M,M,M,M,M,M,M,M,74.6,VVTS 131900Z VRB01KT 9999 FEW017 23/21 Q1010 NOSIG,M
VVTS,2/13/2012 19:30,106.6667,10.8167,73.4,69.8,88.51,0,0,0,29.83,M,6.21,M,FEW,M,M,M,1700,M,M,M,M,M,M,M,M,M,M,74.6,VVTS 131930Z 00000KT 9999 FEW017 23/21 Q1010 NOSIG,M
VVTS,2/13/2012 20:00,106.6667,10.8167,73.4,69.8,88.51,0,0,0,29.8,M,6.21,M,FEW,M,M,M,1700,M,M,M,M,M,M,M,M,M,M,74.6,VVTS 132000Z 00000KT 9999 FEW017 23/21 Q1009 NOSIG,M
VVTS,2/13/2012 20:30,106.6667,10.8167,73.4,71.6,94.1,310,2,0,29.8,M,6.21,M,FEW,M,M,M,1700,M,M,M,M,M,M,M,M,M,M,74.86,VVTS 132030Z 31002KT 9999 FEW017 23/22 Q1009 NOSIG,M
VVTS,2/13/2012 21:00,106.6667,10.8167,73.4,69.8,88.51,340,3,0,29.8,M,6.21,M,FEW,M,M,M,1700,M,M,M,M,M,M,M,M,M,M,74.6,VVTS 132100Z 34003KT 9999 FEW017 23/21 Q1009 NOSIG,M
VVTS,2/13/2012 21:30,106.6667,10.8167,73.4,71.6,94.1,320,3,0,29.83,M,6.21,M,FEW,M,M,M,1700,M,M,M,M,M,M,M,M,M,M,74.86,VVTS 132130Z 32003KT 9999 FEW017 23/22 Q1010 NOSIG,M
VVTS,2/13/2012 22:30,106.6667,10.8167,69.8,69.8,100,M,1,0,29.83,M,4.97,M,FEW,M,M,M,1700,M,M,M,M,M,M,M,M,M,M,69.8,VVTS 132230Z VRB01KT 8000 FEW017 21/21 Q1010 NOSIG,M
VVTS,2/13/2012 23:00,106.6667,10.8167,71.6,71.6,100,340,1,0,29.85,M,4.35,M,FEW,M,M,M,1700,M,M,M,M,M,M,M,M,M,M,73.16,VVTS 132300Z 34001KT 7000 FEW017 22/22 Q1011 NOSIG,M
VVTS,2/13/2012 23:30,106.6667,10.8167,71.6,71.6,100,0,0,0,29.85,M,2.49,M,FEW,M,M,M,1700,M,M,M,BR,M,M,M,M,M,M,73.16,VVTS 132330Z 00000KT 4000 BR FEW017 22/22 Q1011 NOSIG,M
VVTS,2/14/2012 0:00,106.6667,10.8167,71.6,71.6,100,340,2,0,29.85,M,2.92,M,FEW,M,M,M,1700,M,M,M,BR,M,M,M,M,M,M,73.16,VVTS 140000Z 34002KT 4700 BR FEW017 22/22 Q1011 NOSIG,M
VVTS,2/14/2012 0:30,106.6667,10.8167,75.2,73.4,94.14,340,3,0,29.85,M,3.73,M,FEW,M,M,M,1700,M,M,M,M,M,M,M,M,M,M,76.84,VVTS 140030Z 34003KT 6000 FEW017 24/23 Q1011 NOSIG,M
VVTS,2/14/2012 1:00,106.6667,10.8167,75.2,71.6,88.59,M,3,0,29.88,M,3.11,M,FEW,M,M,M,1700,M,M,M,BR,M,M,M,M,M,M,76.58,VVTS 140100Z VRB03KT 5000 BR FEW017 24/22 Q1012 NOSIG,M
VVTS,2/14/2012 1:30,106.6667,10.8167,78.8,73.4,83.55,M,3,0,29.88,M,3.73,M,FEW,M,M,M,2000,M,M,M,M,M,M,M,M,M,M,82.03,VVTS 140130Z VRB03KT 6000 FEW020 26/23 Q1012 NOSIG,M
VVTS,2/14/2012 2:00,106.6667,10.8167,78.8,71.6,78.62,M,2,0,29.88,M,3.73,M,FEW,M,M,M,2000,M,M,M,M,M,M,M,M,M,M,81.7,VVTS 140200Z VRB02KT 6000 FEW020 26/22 Q1012 NOSIG,M
VVTS,2/14/2012 2:30,106.6667,10.8167,80.6,71.6,74.11,M,3,0,29.88,M,3.73,M,FEW,M,M,M,2000,M,M,M,M,M,M,M,M,M,M,84.57,VVTS 140230Z VRB03KT 6000 FEW020 27/22 Q1012 NOSIG,M
VVTS,2/14/2012 3:00,106.6667,10.8167,82.4,71.6,69.9,M,3,0,29.88,M,4.97,M,FEW,M,M,M,2000,M,M,M,M,M,M,M,M,M,M,87.18,VVTS 140300Z VRB03KT 8000 FEW020 28/22 Q1012 NOSIG,M
VVTS,2/14/2012 3:30,106.6667,10.8167,82.4,71.6,69.9,340,4,0,29.88,M,4.97,M,FEW,M,M,M,2000,M,M,M,M,M,M,M,M,M,M,87.18,VVTS 140330Z 34004KT 290V020 8000 FEW020 28/22 Q1012 NOSIG,M
VVTS,2/14/2012 4:00,106.6667,10.8167,86,71.6,62.25,M,3,0,29.88,M,4.97,M,FEW,M,M,M,2000,M,M,M,M,M,M,M,M,M,M,91.92,VVTS 140400Z VRB03KT 8000 FEW020 30/22 Q1012 NOSIG,M
VVTS,2/14/2012 4:30,106.6667,10.8167,84.2,69.8,62.03,M,3,0,29.85,M,4.97,M,FEW,M,M,M,2000,M,M,M,M,M,M,M,M,M,M,88.43,VVTS 140430Z VRB03KT 8000 FEW020 29/21 Q1011 NOSIG,M
VVTS,2/14/2012 5:00,106.6667,10.8167,86,69.8,58.55,M,3,0,29.83,M,6.21,M,SCT,M,M,M,2000,M,M,M,M,M,M,M,M,M,M,90.58,VVTS 140500Z VRB03KT 9999 SCT020 30/21 Q1010 NOSIG,M
VVTS,2/14/2012 5:30,106.6667,10.8167,86,71.6,62.25,340,5,0,29.83,M,6.21,M,SCT,M,M,M,2000,M,M,M,M,M,M,M,M,M,M,91.92,VVTS 140530Z 34005KT 260V020 9999 SCT020 30/22 Q1010 NOSIG,M
VVTS,2/14/2012 6:00,106.6667,10.8167,87.8,69.8,55.29,290,5,0,29.83,M,6.21,M,SCT,M,M,M,2000,M,M,M,M,M,M,M,M,M,M,92.71,VVTS 140600Z 29005KT 220V350 9999 SCT020 31/21 Q1010 NOSIG,M
VVTS,2/14/2012 6:30,106.6667,10.8167,89.6,69.8,52.23,290,5,0,29.8,M,6.21,M,SCT,M,M,M,2000,M,M,M,M,M,M,M,M,M,M,94.85,VVTS 140630Z 29005KT 230V350 9999 SCT020 32/21 Q1009 NOSIG,M
VVTS,2/14/2012 7:00,106.6667,10.8167,91.4,69.8,49.36,330,5,0,29.8,M,6.21,M,SCT,M,M,M,2000,M,M,M,M,M,M,M,M,M,M,96.99,VVTS 140700Z 33005KT 200V050 9999 SCT020 33/21 Q1009 NOSIG,M
VVTS,2/14/2012 7:30,106.6667,10.8167,89.6,69.8,52.23,310,6,0,29.77,M,6.21,M,SCT,M,M,M,2000,M,M,M,M,M,M,M,M,M,M,94.85,VVTS 140730Z 31006KT 280V010 9999 SCT020 32/21 Q1008 NOSIG,M
VVTS,2/14/2012 8:00,106.6667,10.8167,89.6,68,49.1,270,4,0,29.77,M,6.21,M,SCT,M,M,M,2000,M,M,M,M,M,M,M,M,M,M,93.47,VVTS 140800Z 27004KT 240V300 9999 SCT020 32/20 Q1008 NOSIG,M
VVTS,2/14/2012 8:30,106.6667,10.8167,89.6,69.8,52.23,M,3,0,29.77,M,6.21,M,SCT,M,M,M,2000,M,M,M,M,M,M,M,M,M,M,94.85,VVTS 140830Z VRB03KT 9999 SCT020 32/21 Q1008 NOSIG,M
VVTS,2/14/2012 9:00,106.6667,10.8167,89.6,68,49.1,310,4,0,29.77,M,6.21,M,FEW,SCT,M,M,1700,2000,M,M,M,M,M,M,M,M,M,93.47,VVTS 140900Z 31004KT 270V010 9999 FEW017TCU SCT020 32/20 Q1008 NOSIG,M
VVTS,2/14/2012 9:30,106.6667,10.8167,89.6,69.8,52.23,270,4,0,29.77,M,6.21,M,FEW,SCT,M,M,1700,2000,M,M,M,M,M,M,M,M,M,94.85,VVTS 140930Z 27004KT 170V320 9999 FEW017TCU SCT020 32/21 Q1008 NOSIG,M
VVTS,2/14/2012 10:00,106.6667,10.8167,87.8,71.6,58.78,170,8,0,29.77,M,6.21,M,FEW,SCT,M,M,1700,2000,M,M,M,M,M,M,M,M,M,94.18,VVTS 141000Z 17008KT 9999 FEW017TCU SCT020 31/22 Q1008 NOSIG,M
VVTS,2/14/2012 10:30,106.6667,10.8167,82.4,73.4,74.28,160,9,0,29.77,M,6.21,M,SCT,M,M,M,2000,M,M,M,M,M,M,M,M,M,M,88.26,VVTS 141030Z 16009KT 9999 SCT020 28/23 Q1008 NOSIG,M
VVTS,2/14/2012 11:00,106.6667,10.8167,80.6,71.6,74.11,170,10,0,29.77,M,6.21,M,SCT,M,M,M,2000,M,M,M,M,M,M,M,M,M,M,84.57,VVTS 141100Z 17010KT 9999 SCT020 27/22 Q1008 NOSIG,M
VVTS,2/14/2012 11:30,106.6667,10.8167,80.6,71.6,74.11,160,9,0,29.8,M,6.21,M,SCT,M,M,M,2000,M,M,M,M,M,M,M,M,M,M,84.57,VVTS 141130Z 16009KT 9999 SCT020 27/22 Q1009 NOSIG,M
VVTS,2/14/2012 12:00,106.6667,10.8167,78.8,69.8,73.95,170,7,0,29.8,M,6.21,M,FEW,M,M,M,2000,M,M,M,M,M,M,M,M,M,M,81.39,VVTS 141200Z 17007KT 9999 FEW020 26/21 Q1009 NOSIG,M
VVTS,2/14/2012 12:30,106.6667,10.8167,78.8,69.8,73.95,150,7,0,29.8,M,6.21,M,FEW,M,M,M,2000,M,M,M,M,M,M,M,M,M,M,81.39,VVTS 141230Z 15007KT 9999 FEW020 26/21 Q1009 NOSIG,M
VVTS,2/14/2012 13:30,106.6667,10.8167,78.8,71.6,78.62,160,6,0,29.8,M,6.21,M,FEW,M,M,M,2000,M,M,M,M,M,M,M,M,M,M,81.7,VVTS 141330Z 16006KT 9999 FEW020 26/22 Q1009 NOSIG,M
VVTS,2/14/2012 14:00,106.6667,10.8167,78.8,71.6,78.62,130,6,0,29.83,M,6.21,M,FEW,M,M,M,2000,M,M,M,M,M,M,M,M,M,M,81.7,VVTS 141400Z 13006KT 9999 FEW020 26/22 Q1010 NOSIG,M
VVTS,2/14/2012 14:30,106.6667,10.8167,78.8,71.6,78.62,150,5,0,29.83,M,6.21,M,FEW,M,M,M,2000,M,M,M,M,M,M,M,M,M,M,81.7,VVTS 141430Z 15005KT 130V190 9999 FEW020 26/22 Q1010 NOSIG,M
VVTS,2/14/2012 15:00,106.6667,10.8167,78.8,71.6,78.62,140,4,0,29.83,M,6.21,M,FEW,M,M,M,2000,M,M,M,M,M,M,M,M,M,M,81.7,VVTS 141500Z 14004KT 9999 FEW020 26/22 Q1010 NOSIG,M
VVTS,2/14/2012 15:30,106.6667,10.8167,77,71.6,83.44,160,3,0,29.83,M,6.21,M,FEW,M,M,M,2000,M,M,M,M,M,M,M,M,M,M,78.32,VVTS 141530Z 16003KT 9999 FEW020 25/22 Q1010 NOSIG,M
VVTS,2/14/2012 16:00,106.6667,10.8167,77,69.8,78.48,160,4,0,29.83,M,6.21,M,FEW,M,M,M,2000,M,M,M,M,M,M,M,M,M,M,78.09,VVTS 141600Z 16004KT 9999 FEW020 25/21 Q1010 NOSIG,M
VVTS,2/14/2012 16:30,106.6667,10.8167,77,69.8,78.48,170,4,0,29.83,M,6.21,M,FEW,M,M,M,2000,M,M,M,M,M,M,M,M,M,M,78.09,VVTS 141630Z 17004KT 9999 FEW020 25/21 Q1010 NOSIG,M
VVTS,2/14/2012 17:00,106.6667,10.8167,75.2,71.6,88.59,180,5,0,29.83,M,6.21,M,FEW,M,M,M,2000,M,M,M,M,M,M,M,M,M,M,76.58,VVTS 141700Z 18005KT 9999 FEW020 24/22 Q1010 NOSIG,M
VVTS,2/14/2012 17:30,106.6667,10.8167,75.2,71.6,88.59,160,7,0,29.8,M,6.21,M,FEW,M,M,M,2000,M,M,M,M,M,M,M,M,M,M,76.58,VVTS 141730Z 16007KT 9999 FEW020 24/22 Q1009 NOSIG,M
VVTS,2/14/2012 18:00,106.6667,10.8167,75.2,71.6,88.59,160,6,0,29.8,M,6.21,M,FEW,M,M,M,2000,M,M,M,M,M,M,M,M,M,M,76.58,VVTS 141800Z 16006KT 9999 FEW020 24/22 Q1009 NOSIG,M
VVTS,2/14/2012 18:30,106.6667,10.8167,75.2,71.6,88.59,160,6,0,29.8,M,6.21,M,FEW,M,M,M,2000,M,M,M,M,M,M,M,M,M,M,76.58,VVTS 141830Z 16006KT 9999 FEW020 24/22 Q1009 NOSIG,M
VVTS,2/14/2012 19:00,106.6667,10.8167,75.2,71.6,88.59,170,5,0,29.77,M,6.21,M,FEW,M,M,M,2000,M,M,M,M,M,M,M,M,M,M,76.58,VVTS 141900Z 17005KT 9999 FEW020 24/22 Q1008 NOSIG,M
VVTS,2/14/2012 19:30,106.6667,10.8167,75.2,71.6,88.59,160,4,0,29.77,M,6.21,M,FEW,M,M,M,2000,M,M,M,M,M,M,M,M,M,M,76.58,VVTS 141930Z 16004KT 130V200 9999 FEW020 24/22 Q1008 NOSIG,M
VVTS,2/14/2012 20:00,106.6667,10.8167,75.2,71.6,88.59,160,6,0,29.77,M,6.21,M,FEW,M,M,M,2000,M,M,M,M,M,M,M,M,M,M,76.58,VVTS 142000Z 16006KT 9999 FEW020 24/22 Q1008 NOSIG,M
VVTS,2/14/2012 20:30,106.6667,10.8167,75.2,71.6,88.59,150,5,0,29.77,M,6.21,M,FEW,M,M,M,2000,M,M,M,M,M,M,M,M,M,M,76.58,VVTS 142030Z 15005KT 9999 FEW020 24/22 Q1008 NOSIG,M
VVTS,2/14/2012 21:00,106.6667,10.8167,75.2,71.6,88.59,160,3,0,29.8,M,6.21,M,FEW,M,M,M,2000,M,M,M,M,M,M,M,M,M,M,76.58,VVTS 142100Z 16003KT 9999 FEW020 24/22 Q1009 NOSIG,M
VVTS,2/14/2012 21:30,106.6667,10.8167,75.2,71.6,88.59,160,4,0,29.8,M,6.21,M,FEW,M,M,M,2000,M,M,M,M,M,M,M,M,M,M,76.58,VVTS 142130Z 16004KT 9999 FEW020 24/22 Q1009 NOSIG,M
VVTS,2/14/2012 22:00,106.6667,10.8167,75.2,71.6,88.59,150,4,0,29.8,M,6.21,M,FEW,M,M,M,2000,M,M,M,M,M,M,M,M,M,M,76.58,VVTS 142200Z 15004KT 9999 FEW020 24/22 Q1009 NOSIG,M
VVTS,2/14/2012 22:30,106.6667,10.8167,75.2,71.6,88.59,160,4,0,29.8,M,6.21,M,FEW,M,M,M,2000,M,M,M,M,M,M,M,M,M,M,76.58,VVTS 142230Z 16004KT 9999 FEW020 24/22 Q1009 NOSIG,M
VVTS,2/14/2012 23:00,106.6667,10.8167,75.2,71.6,88.59,160,4,0,29.8,M,6.21,M,FEW,M,M,M,2000,M,M,M,M,M,M,M,M,M,M,76.58,VVTS 142300Z 16004KT 9999 FEW020 24/22 Q1009 NOSIG,M
VVTS,2/14/2012 23:30,106.6667,10.8167,75.2,71.6,88.59,150,4,0,29.83,M,6.21,M,FEW,M,M,M,2000,M,M,M,M,M,M,M,M,M,M,76.58,VVTS 142330Z 15004KT 100V170 9999 FEW020 24/22 Q1010 NOSIG,M
VVTS,2/15/2012 0:00,106.6667,10.8167,75.2,71.6,88.59,160,5,0,29.83,M,6.21,M,SCT,M,M,M,1700,M,M,M,M,M,M,M,M,M,M,76.58,VVTS 150000Z 16005KT 9999 SCT017 24/22 Q1010 NOSIG,M
VVTS,2/15/2012 0:30,106.6667,10.8167,75.2,71.6,88.59,M,3,0,29.83,M,6.21,M,SCT,M,M,M,1700,M,M,M,M,M,M,M,M,M,M,76.58,VVTS 150030Z VRB03KT 9999 SCT017 24/22 Q1010 NOSIG,M
VVTS,2/15/2012 1:00,106.6667,10.8167,78.8,73.4,83.55,M,3,0,29.83,M,3.73,M,BKN,M,M,M,1700,M,M,M,M,M,M,M,M,M,M,82.03,VVTS 150100Z VRB03KT 6000 BKN017 26/23 Q1010 NOSIG,M
VVTS,2/15/2012 1:30,106.6667,10.8167,77,73.4,88.67,20,4,0,29.83,M,4.35,M,BKN,M,M,M,1700,M,M,M,M,M,M,M,M,M,M,78.57,VVTS 150130Z 02004KT 7000 BKN017 25/23 Q1010 NOSIG,M
VVTS,2/15/2012 2:00,106.6667,10.8167,80.6,71.6,74.11,M,3,0,29.85,M,6.21,M,BKN,M,M,M,1700,M,M,M,M,M,M,M,M,M,M,84.57,VVTS 150200Z VRB03KT 9999 BKN017 27/22 Q1011 NOSIG,M
VVTS,2/15/2012 3:00,106.6667,10.8167,84.2,71.6,65.95,180,4,0,29.83,M,6.21,M,SCT,M,M,M,1700,M,M,M,M,M,M,M,M,M,M,89.6,VVTS 150300Z 18004KT 150V220 9999 SCT017 29/22 Q1010 NOSIG,M
VVTS,2/15/2012 3:30,106.6667,10.8167,86,69.8,58.55,M,3,0,29.83,M,6.21,M,SCT,M,M,M,1700,M,M,M,M,M,M,M,M,M,M,90.58,VVTS 150330Z VRB03KT 9999 SCT017 30/21 Q1010 NOSIG,M
VVTS,2/15/2012 4:00,106.6667,10.8167,86,69.8,58.55,M,3,0,29.8,M,6.21,M,SCT,M,M,M,1700,M,M,M,M,M,M,M,M,M,M,90.58,VVTS 150400Z VRB03KT 9999 SCT017 30/21 Q1009 NOSIG,M
VVTS,2/15/2012 4:30,106.6667,10.8167,86,69.8,58.55,M,3,0,29.8,M,6.21,M,SCT,M,M,M,1700,M,M,M,M,M,M,M,M,M,M,90.58,VVTS 150430Z VRB03KT 9999 SCT017 30/21 Q1009 NOSIG,M
VVTS,2/15/2012 5:00,106.6667,10.8167,87.8,71.6,58.78,M,3,0,29.77,M,4.35,M,SCT,M,M,M,1700,M,M,M,M,M,M,M,M,M,M,94.18,VVTS 150500Z VRB03KT 7000 SCT017 31/22 Q1008 NOSIG,M
VVTS,2/15/2012 5:30,106.6667,10.8167,87.8,71.6,58.78,250,5,0,29.77,M,3.73,M,BKN,M,M,M,1700,M,M,M,M,M,M,M,M,M,M,94.18,VVTS 150530Z 25005KT 6000 BKN017 31/22 Q1008 NOSIG,M
VVTS,2/15/2012 6:00,106.6667,10.8167,87.8,69.8,55.29,M,2,0,29.74,M,4.97,M,BKN,M,M,M,1700,M,M,M,M,M,M,M,M,M,M,92.71,VVTS 150600Z VRB02KT 8000 BKN017 31/21 Q1007 NOSIG,M
VVTS,2/15/2012 6:30,106.6667,10.8167,89.6,69.8,52.23,220,5,0,29.74,M,4.97,M,BKN,M,M,M,1700,M,M,M,M,M,M,M,M,M,M,94.85,VVTS 150630Z 22005KT 160V260 8000 BKN017 32/21 Q1007 NOSIG,M
VVTS,2/15/2012 7:00,106.6667,10.8167,89.6,69.8,52.23,210,5,0,29.71,M,6.21,M,BKN,M,M,M,1700,M,M,M,M,M,M,M,M,M,M,94.85,VVTS 150700Z 21005KT 170V240 9999 BKN017 32/21 Q1006 NOSIG,M
VVTS,2/15/2012 7:30,106.6667,10.8167,87.8,69.8,55.29,210,7,0,29.71,M,6.21,M,BKN,M,M,M,1700,M,M,M,M,M,M,M,M,M,M,92.71,VVTS 150730Z 21007KT 170V230 9999 BKN017 31/21 Q1006 NOSIG,M
VVTS,2/15/2012 8:00,106.6667,10.8167,87.8,71.6,58.78,200,7,0,29.68,M,6.21,M,BKN,M,M,M,1700,M,M,M,M,M,M,M,M,M,M,94.18,VVTS 150800Z 20007KT 9999 BKN017 31/22 Q1005 NOSIG,M
VVTS,2/15/2012 8:30,106.6667,10.8167,89.6,69.8,52.23,210,7,0,29.68,M,6.21,M,BKN,M,M,M,1700,M,M,M,M,M,M,M,M,M,M,94.85,VVTS 150830Z 21007KT 9999 BKN017 32/21 Q1005 NOSIG,M
VVTS,2/15/2012 9:00,106.6667,10.8167,87.8,71.6,58.78,210,7,0,29.68,M,6.21,M,SCT,M,M,M,1700,M,M,M,M,M,M,M,M,M,M,94.18,VVTS 150900Z 21007KT 170V250 9999 SCT017 31/22 Q1005 NOSIG,M
VVTS,2/15/2012 9:30,106.6667,10.8167,87.8,71.6,58.78,240,9,0,29.68,M,6.21,M,SCT,M,M,M,1700,M,M,M,M,M,M,M,M,M,M,94.18,VVTS 150930Z 24009KT 9999 SCT017 31/22 Q1005 NOSIG,M
VVTS,2/15/2012 10:00,106.6667,10.8167,86,71.6,62.25,210,9,0,29.68,M,6.21,M,BKN,M,M,M,1700,M,M,M,M,M,M,M,M,M,M,91.92,VVTS 151000Z 21009KT 9999 BKN017 30/22 Q1005 NOSIG,M
VVTS,2/15/2012 10:30,106.6667,10.8167,84.2,71.6,65.95,200,10,0,29.71,M,6.21,M,BKN,M,M,M,1700,M,M,M,M,M,M,M,M,M,M,89.6,VVTS 151030Z 20010KT 9999 BKN017 29/22 Q1006 NOSIG,M
VVTS,2/15/2012 11:00,106.6667,10.8167,82.4,71.6,69.9,160,10,0,29.71,M,6.21,M,BKN,M,M,M,1700,M,M,M,M,M,M,M,M,M,M,87.18,VVTS 151100Z 16010KT 9999 BKN017 28/22 Q1006 NOSIG,M
VVTS,2/15/2012 11:30,106.6667,10.8167,80.6,73.4,78.76,150,11,0,29.74,M,6.21,M,BKN,M,M,M,1700,M,M,M,M,M,M,M,M,M,M,85.32,VVTS 151130Z 15011KT 9999 BKN017 27/23 Q1007 NOSIG,M
VVTS,2/15/2012 12:00,106.6667,10.8167,78.8,71.6,78.62,150,10,0,29.74,M,6.21,M,FEW,M,M,M,1700,M,M,M,M,M,M,M,M,M,M,81.7,VVTS 151200Z 15010KT 9999 FEW017 26/22 Q1007 NOSIG,M
VVTS,2/15/2012 12:30,106.6667,10.8167,78.8,71.6,78.62,150,9,0,29.77,M,6.21,M,FEW,M,M,M,1700,M,M,M,M,M,M,M,M,M,M,81.7,VVTS 151230Z 15009KT 9999 FEW017 26/22 Q1008 NOSIG,M
VVTS,2/15/2012 13:00,106.6667,10.8167,78.8,71.6,78.62,160,8,0,29.77,M,6.21,M,FEW,M,M,M,1700,M,M,M,M,M,M,M,M,M,M,81.7,VVTS 151300Z 16008KT 9999 FEW017 26/22 Q1008 NOSIG,M
VVTS,2/15/2012 13:30,106.6667,10.8167,77,71.6,83.44,160,7,0,29.77,M,6.21,M,FEW,M,M,M,1700,M,M,M,M,M,M,M,M,M,M,78.32,VVTS 151330Z 16007KT 9999 FEW017 25/22 Q1008 NOSIG,M
VVTS,2/15/2012 14:00,106.6667,10.8167,77,71.6,83.44,140,6,0,29.8,M,6.21,M,FEW,M,M,M,1700,M,M,M,M,M,M,M,M,M,M,78.32,VVTS 151400Z 14006KT 100V190 9999 FEW017 25/22 Q1009 NOSIG,M
VVTS,2/15/2012 14:30,106.6667,10.8167,77,71.6,83.44,140,8,0,29.8,M,6.21,M,FEW,M,M,M,1700,M,M,M,M,M,M,M,M,M,M,78.32,VVTS 151430Z 14008KT 9999 FEW017 25/22 Q1009 NOSIG,M
VVTS,2/15/2012 15:00,106.6667,10.8167,77,71.6,83.44,150,6,0,29.8,M,6.21,M,FEW,M,M,M,1700,M,M,M,M,M,M,M,M,M,M,78.32,VVTS 151500Z 15006KT 9999 FEW017 25/22 Q1009 NOSIG,M
VVTS,2/15/2012 15:30,106.6667,10.8167,77,71.6,83.44,130,6,0,29.8,M,6.21,M,FEW,M,M,M,1700,M,M,M,M,M,M,M,M,M,M,78.32,VVTS 151530Z 13006KT 9999 FEW017 25/22 Q1009 NOSIG,M
VVTS,2/15/2012 16:00,106.6667,10.8167,77,71.6,83.44,110,7,0,29.83,M,6.21,M,FEW,M,M,M,1700,M,M,M,M,M,M,M,M,M,M,78.32,VVTS 151600Z 11007KT 9999 FEW017 25/22 Q1010 NOSIG,M
VVTS,2/15/2012 16:30,106.6667,10.8167,77,71.6,83.44,140,8,0,29.8,M,6.21,M,FEW,M,M,M,1700,M,M,M,M,M,M,M,M,M,M,78.32,VVTS 151630Z 14008KT 9999 FEW017 25/22 Q1009 NOSIG,M
VVTS,2/15/2012 17:00,106.6667,10.8167,77,71.6,83.44,120,5,0,29.8,M,6.21,M,FEW,M,M,M,1700,M,M,M,M,M,M,M,M,M,M,78.32,VVTS 151700Z 12005KT 080V200 9999 FEW017 25/22 Q1009 NOSIG,M
VVTS,2/15/2012 17:30,106.6667,10.8167,77,71.6,83.44,140,5,0,29.8,M,6.21,M,FEW,M,M,M,1700,M,M,M,M,M,M,M,M,M,M,78.32,VVTS 151730Z 14005KT 110V210 9999 FEW017 25/22 Q1009 NOSIG,M
VVTS,2/15/2012 18:00,106.6667,10.8167,77,71.6,83.44,130,5,0,29.8,M,6.21,M,FEW,M,M,M,1700,M,M,M,M,M,M,M,M,M,M,78.32,VVTS 151800Z 13005KT 9999 FEW017 25/22 Q1009 NOSIG,M
VVTS,2/15/2012 18:30,106.6667,10.8167,77,71.6,83.44,150,5,0,29.77,M,6.21,M,FEW,M,M,M,1700,M,M,M,M,M,M,M,M,M,M,78.32,VVTS 151830Z 15005KT 9999 FEW017 25/22 Q1008 NOSIG,M
VVTS,2/15/2012 19:00,106.6667,10.8167,75.2,71.6,88.59,160,5,0,29.77,M,6.21,M,FEW,M,M,M,1700,M,M,M,M,M,M,M,M,M,M,76.58,VVTS 151900Z 16005KT 9999 FEW017 24/22 Q1008 NOSIG,M
VVTS,2/15/2012 19:30,106.6667,10.8167,75.2,73.4,94.14,150,5,0,29.77,M,6.21,M,FEW,M,M,M,1700,M,M,M,M,M,M,M,M,M,M,76.84,VVTS 151930Z 15005KT 130V190 9999 FEW017 24/23 Q1008 NOSIG,M
VVTS,2/15/2012 20:00,106.6667,10.8167,75.2,73.4,94.14,160,7,0,29.77,M,6.21,M,FEW,M,M,M,1700,M,M,M,M,M,M,M,M,M,M,76.84,VVTS 152000Z 16007KT 9999 FEW017 24/23 Q1008 NOSIG,M
VVTS,2/15/2012 20:30,106.6667,10.8167,75.2,73.4,94.14,160,7,0,29.77,M,6.21,M,FEW,M,M,M,1700,M,M,M,M,M,M,M,M,M,M,76.84,VVTS 152030Z 16007KT 9999 FEW017 24/23 Q1008 NOSIG,M
VVTS,2/15/2012 21:00,106.6667,10.8167,75.2,73.4,94.14,140,6,0,29.77,M,6.21,M,FEW,SCT,M,M,1700,4000,M,M,M,M,M,M,M,M,M,76.84,VVTS 152100Z 14006KT 9999 FEW017 SCT040 24/23 Q1008 NOSIG,M
VVTS,2/15/2012 21:30,106.6667,10.8167,75.2,73.4,94.14,150,5,0,29.77,M,6.21,M,FEW,SCT,M,M,1700,4000,M,M,M,M,M,M,M,M,M,76.84,VVTS 152130Z 15005KT 9999 FEW017 SCT040 24/23 Q1008 NOSIG,M
VVTS,2/15/2012 22:00,106.6667,10.8167,75.2,73.4,94.14,150,6,0,29.77,M,6.21,M,FEW,SCT,M,M,1700,4000,M,M,M,M,M,M,M,M,M,76.84,VVTS 152200Z 15006KT 9999 FEW017 SCT040 24/23 Q1008 NOSIG,M
VVTS,2/15/2012 23:00,106.6667,10.8167,75.2,73.4,94.14,150,5,0,29.8,M,6.21,M,FEW,SCT,M,M,1700,4000,M,M,M,M,M,M,M,M,M,76.84,VVTS 152300Z 15005KT 9999 FEW017 SCT040 24/23 Q1009 NOSIG,M
VVTS,2/15/2012 23:30,106.6667,10.8167,75.2,73.4,94.14,120,4,0,29.8,M,6.21,M,FEW,M,M,M,1700,M,M,M,M,M,M,M,M,M,M,76.84,VVTS 152330Z 12004KT 090V210 9999 FEW017 24/23 Q1009 NOSIG,M
VVTS,2/16/2012 0:00,106.6667,10.8167,77,73.4,88.67,130,4,0,29.8,M,6.21,M,FEW,SCT,M,M,1700,4000,M,M,M,M,M,M,M,M,M,78.57,VVTS 160000Z 13004KT 100V170 9999 FEW017 SCT040 25/23 Q1009 NOSIG,M
VVTS,2/16/2012 0:30,106.6667,10.8167,78.8,73.4,83.55,120,4,0,29.83,M,6.21,M,SCT,SCT,M,M,1700,4000,M,M,M,M,M,M,M,M,M,82.03,VVTS 160030Z 12004KT 080V180 9999 SCT017 SCT040 26/23 Q1010 NOSIG,M
VVTS,2/16/2012 1:00,106.6667,10.8167,78.8,73.4,83.55,100,5,0,29.83,M,6.21,M,SCT,SCT,M,M,1700,4000,M,M,M,M,M,M,M,M,M,82.03,VVTS 160100Z 10005KT 9999 SCT017 SCT040 26/23 Q1010 NOSIG,M
VVTS,2/16/2012 1:30,106.6667,10.8167,78.8,73.4,83.55,120,5,0,29.85,M,6.21,M,SCT,SCT,M,M,1500,4000,M,M,M,M,M,M,M,M,M,82.03,VVTS 160130Z 12005KT 090V160 9999 SCT015 SCT040 26/23 Q1011 NOSIG,M
VVTS,2/16/2012 2:00,106.6667,10.8167,80.6,73.4,78.76,150,4,0,29.85,M,6.21,M,SCT,SCT,M,M,1500,4000,M,M,M,M,M,M,M,M,M,85.32,VVTS 160200Z 15004KT 9999 SCT015 SCT040 27/23 Q1011 NOSIG,M
VVTS,2/16/2012 2:30,106.6667,10.8167,82.4,73.4,74.28,90,5,0,29.85,M,6.21,M,SCT,SCT,M,M,1500,4000,M,M,M,M,M,M,M,M,M,88.26,VVTS 160230Z 09005KT 030V120 9999 SCT015 SCT040 28/23 Q1011 NOSIG,M
VVTS,2/16/2012 3:00,106.6667,10.8167,84.2,71.6,65.95,M,3,0,29.85,M,6.21,M,SCT,M,M,M,1700,M,M,M,M,M,M,M,M,M,M,89.6,VVTS 160300Z VRB03KT 9999 SCT017 29/22 Q1011 NOSIG,M
VVTS,2/16/2012 3:30,106.6667,10.8167,86,71.6,62.25,M,2,0,29.83,M,6.21,M,SCT,M,M,M,1700,M,M,M,M,M,M,M,M,M,M,91.92,VVTS 160330Z VRB02KT 9999 SCT017 30/22 Q1010 NOSIG,M
VVTS,2/16/2012 4:00,106.6667,10.8167,87.8,71.6,58.78,M,2,0,29.83,M,6.21,M,SCT,M,M,M,1700,M,M,M,M,M,M,M,M,M,M,94.18,VVTS 160400Z VRB02KT 9999 SCT017 31/22 Q1010 NOSIG,M
VVTS,2/16/2012 4:30,106.6667,10.8167,87.8,71.6,58.78,M,3,0,29.8,M,6.21,M,SCT,SCT,M,M,1700,4000,M,M,M,M,M,M,M,M,M,94.18,VVTS 160430Z VRB03KT 9999 SCT017 SCT040 31/22 Q1009 NOSIG,M
VVTS,2/16/2012 5:00,106.6667,10.8167,87.8,71.6,58.78,M,3,0,29.8,M,6.21,M,FEW,BKN,M,M,1700,4000,M,M,M,M,M,M,M,M,M,94.18,VVTS 160500Z VRB03KT 9999 FEW017 BKN040 31/22 Q1009 NOSIG,M
VVTS,2/16/2012 5:30,106.6667,10.8167,87.8,71.6,58.78,M,2,0,29.77,M,6.21,M,FEW,BKN,M,M,1700,4000,M,M,M,M,M,M,M,M,M,94.18,VVTS 160530Z VRB02KT 9999 FEW017 BKN040 31/22 Q1008 NOSIG,M
VVTS,2/16/2012 6:00,106.6667,10.8167,89.6,71.6,55.53,M,2,0,29.74,M,6.21,M,FEW,BKN,M,M,1700,4000,M,M,M,M,M,M,M,M,M,96.41,VVTS 160600Z VRB02KT 9999 FEW017 BKN040 32/22 Q1007 NOSIG,M
VVTS,2/16/2012 6:30,106.6667,10.8167,89.6,71.6,55.53,M,3,0,29.74,M,6.21,M,FEW,BKN,M,M,1700,4000,M,M,M,M,M,M,M,M,M,96.41,VVTS 160630Z VRB03KT 9999 FEW017 BKN040 32/22 Q1007 NOSIG,M
VVTS,2/16/2012 7:00,106.6667,10.8167,91.4,69.8,49.36,M,3,0,29.71,M,6.21,M,FEW,BKN,M,M,1700,4000,M,M,M,M,M,M,M,M,M,96.99,VVTS 160700Z VRB03KT 9999 FEW017 BKN040 33/21 Q1006 NOSIG,M
VVTS,2/16/2012 7:30,106.6667,10.8167,91.4,71.6,52.48,M,3,0,29.71,M,6.21,M,FEW,BKN,M,M,1700,4000,M,M,M,M,M,M,M,M,M,98.64,VVTS 160730Z VRB03KT 9999 FEW017 BKN040 33/22 Q1006 NOSIG,M
VVTS,2/16/2012 8:00,106.6667,10.8167,91.4,69.8,49.36,240,4,0,29.68,M,6.21,M,FEW,BKN,M,M,1700,4000,M,M,M,M,M,M,M,M,M,96.99,VVTS 160800Z 24004KT 210V300 9999 FEW017 BKN040 33/21 Q1005 NOSIG,M
VVTS,2/16/2012 8:30,106.6667,10.8167,91.4,71.6,52.48,260,4,0,29.68,M,6.21,M,SCT,M,M,M,1700,M,M,M,M,M,M,M,M,M,M,98.64,VVTS 160830Z 26004KT 210V330 9999 SCT017 33/22 Q1005 NOSIG,M
VVTS,2/16/2012 9:00,106.6667,10.8167,89.6,71.6,55.53,240,5,0,29.68,M,6.21,M,SCT,M,M,M,1700,M,M,M,M,M,M,M,M,M,M,96.41,VVTS 160900Z 24005KT 9999 SCT017 32/22 Q1005 NOSIG,M
VVTS,2/16/2012 9:30,106.6667,10.8167,87.8,73.4,62.47,190,11,0,29.68,M,6.21,M,FEW,SCT,M,M,1500,1700,M,M,M,M,M,M,M,M,M,95.86,VVTS 160930Z 19011KT 9999 FEW015TCU SCT017 31/23 Q1005 NOSIG,M
VVTS,2/16/2012 10:00,106.6667,10.8167,82.4,73.4,74.28,190,9,0,29.68,M,6.21,M,FEW,SCT,M,M,1500,1700,M,M,M,M,M,M,M,M,M,88.26,VVTS 161000Z 19009KT 9999 FEW015TCU SCT017 28/23 Q1005 NOSIG,M
VVTS,2/16/2012 10:30,106.6667,10.8167,82.4,73.4,74.28,210,9,0,29.71,M,6.21,M,FEW,SCT,M,M,1500,1700,M,M,M,M,M,M,M,M,M,88.26,VVTS 161030Z 21009KT 9999 FEW015TCU SCT017 28/23 Q1006 NOSIG,M
VVTS,2/16/2012 11:00,106.6667,10.8167,82.4,73.4,74.28,210,8,0,29.71,M,6.21,M,FEW,SCT,M,M,1500,1700,M,M,M,M,M,M,M,M,M,88.26,VVTS 161100Z 21008KT 9999 FEW015TCU SCT017 28/23 Q1006 NOSIG,M
VVTS,2/16/2012 11:30,106.6667,10.8167,82.4,75.2,78.9,170,6,0,29.71,M,6.21,M,FEW,SCT,M,M,1500,1700,M,M,TS,M,M,M,M,M,M,89.48,VVTS 161130Z 17006KT 130V200 9999 TS FEW015CB SCT017 28/24 Q1006 NOSIG,M
VVTS,2/16/2012 12:00,106.6667,10.8167,82.4,73.4,74.28,160,10,0,29.74,M,6.21,M,FEW,SCT,M,M,1500,1700,M,M,TS,M,M,M,M,M,M,88.26,VVTS 161200Z 16010KT 120V180 9999 TS FEW015CB SCT017 28/23 Q1007 NOSIG,M
VVTS,2/16/2012 12:30,106.6667,10.8167,80.6,73.4,78.76,150,9,0,29.74,M,6.21,M,FEW,SCT,M,M,1500,1700,M,M,TS,M,M,M,M,M,M,85.32,VVTS 161230Z 15009KT 130V190 9999 TS FEW015CB SCT017 27/23 Q1007 NOSIG,M
VVTS,2/16/2012 13:00,106.6667,10.8167,80.6,73.4,78.76,140,11,0,29.77,M,6.21,M,FEW,SCT,M,M,1500,1700,M,M,TS,M,M,M,M,M,M,85.32,VVTS 161300Z 14011KT 9999 TS FEW015CB SCT017 27/23 Q1008 NOSIG,M
VVTS,2/16/2012 13:30,106.6667,10.8167,80.6,73.4,78.76,150,9,0,29.77,M,6.21,M,FEW,SCT,BKN,M,1500,1700,4000,M,TS,M,M,M,M,M,M,85.32,VVTS 161330Z 15009KT 9999 TS FEW015CB SCT017 BKN040 27/23 Q1008 NOSIG,M
VVTS,2/16/2012 14:00,106.6667,10.8167,80.6,73.4,78.76,130,10,0,29.77,M,6.21,M,SCT,SCT,M,M,1500,1700,M,M,M,M,M,M,M,M,M,85.32,VVTS 161400Z 13010KT 110V200 9999 SCT015 SCT017CB 27/23 Q1008 NOSIG,M
VVTS,2/16/2012 14:30,106.6667,10.8167,80.6,71.6,74.11,130,6,0,29.8,M,6.21,M,SCT,SCT,M,M,1500,1700,M,M,TS,M,M,M,M,M,M,84.57,VVTS 161430Z 13006KT 9999 TS SCT015 SCT017CB 27/22 Q1009 TEMPO FM1435 4000 SHRA,M
VVTS,2/16/2012 15:00,106.6667,10.8167,73.4,73.4,100,100,11,0,29.8,M,1.24,M,BKN,SCT,M,M,1300,1500,M,M,TSRA,M,M,M,M,M,M,75.14,VVTS 161500Z 10011KT 2000W R07L/1400D TSRA BKN013 SCT015CB 23/23 Q1009 BECMG TL1515 5000 SHRA,M
VVTS,2/16/2012 15:30,106.6667,10.8167,75.2,75.2,100,M,2,0,29.8,M,4.97,M,BKN,SCT,M,M,1300,1500,M,M,#NAME?,M,M,M,M,M,M,77.12,VVTS 161530Z VRB02KT 8000 -TSRA BKN013 SCT015CB 24/24 Q1009 NOSIG,M
VVTS,2/16/2012 16:00,106.6667,10.8167,75.2,75.2,100,50,5,0,29.8,M,6.21,M,SCT,SCT,M,M,1500,1700,M,M,M,M,M,M,M,M,M,77.12,VVTS 161600Z 05005KT 9999 SCT015 SCT017CB 24/24 Q1009 NOSIG,M
VVTS,2/16/2012 16:30,106.6667,10.8167,75.2,75.2,100,M,3,0,29.8,M,6.21,M,SCT,SCT,M,M,1500,1700,M,M,M,M,M,M,M,M,M,77.12,VVTS 161630Z VRB03KT 9999 SCT015 SCT017CB 24/24 Q1009 NOSIG,M
VVTS,2/16/2012 17:00,106.6667,10.8167,75.2,75.2,100,310,3,0,29.77,M,6.21,M,SCT,SCT,M,M,1500,1700,M,M,M,M,M,M,M,M,M,77.12,VVTS 161700Z 31003KT 9999 SCT015 SCT017CB 24/24 Q1008 NO SIG,M
VVTS,2/16/2012 17:30,106.6667,10.8167,75.2,75.2,100,240,3,0,29.77,M,6.21,M,SCT,SCT,M,M,1500,4000,M,M,M,M,M,M,M,M,M,77.12,VVTS 161730Z 24003KT 9999 SCT015 SCT040 24/24 Q1008 NOSIG,M
VVTS,2/16/2012 18:00,106.6667,10.8167,75.2,75.2,100,220,3,0,29.77,M,4.97,M,SCT,SCT,M,M,1500,4000,M,M,M,M,M,M,M,M,M,77.12,VVTS 161800Z 22003KT 8000 SCT015 SCT040 24/24 Q1008 NOSIG,M
VVTS,2/16/2012 18:30,106.6667,10.8167,75.2,75.2,100,160,4,0,29.74,M,6.21,M,SCT,SCT,M,M,1500,4000,M,M,M,M,M,M,M,M,M,77.12,VVTS 161830Z 16004KT 9999 SCT015 SCT040 24/24 Q1007 NOSIG,M
VVTS,2/16/2012 19:00,106.6667,10.8167,75.2,75.2,100,M,3,0,29.74,M,6.21,M,SCT,SCT,M,M,1500,4000,M,M,M,M,M,M,M,M,M,77.12,VVTS 161900Z VRB03KT 9999 SCT015 SCT040 24/24 Q1007 NOSIG,M
VVTS,2/16/2012 19:30,106.6667,10.8167,75.2,75.2,100,M,2,0,29.74,M,6.21,M,SCT,SCT,M,M,1500,4000,M,M,M,M,M,M,M,M,M,77.12,VVTS 161930Z VRB02KT 9999 SCT015 SCT040 24/24 Q1007 NOSIG,M
VVTS,2/16/2012 20:00,106.6667,10.8167,77,75.2,94.19,M,3,0,29.74,M,6.21,M,SCT,SCT,M,M,1500,4000,M,M,M,M,M,M,M,M,M,78.83,VVTS 162000Z VRB03KT 9999 SCT015 SCT040 25/24 Q1007 NOSIG,M
VVTS,2/16/2012 20:30,106.6667,10.8167,77,75.2,94.19,160,2,0,29.74,M,6.21,M,SCT,SCT,M,M,1500,4000,M,M,M,M,M,M,M,M,M,78.83,VVTS 162030Z 16002KT 9999 SCT015 SCT040 25/24 Q1007 NOSIG,M
VVTS,2/16/2012 21:00,106.6667,10.8167,77,75.2,94.19,M,1,0,29.74,M,6.21,M,SCT,SCT,M,M,1500,4000,M,M,M,M,M,M,M,M,M,78.83,VVTS 162100Z VRB01KT 9999 SCT015 SCT040 25/24 Q1007 NOSIG,M
VVTS,2/16/2012 21:30,106.6667,10.8167,77,75.2,94.19,M,2,0,29.74,M,6.21,M,SCT,SCT,M,M,1500,4000,M,M,M,M,M,M,M,M,M,78.83,VVTS 162130Z VRB02KT 9999 SCT015 SCT040 25/24 Q1007 NOSIG,M
VVTS,2/16/2012 22:00,106.6667,10.8167,77,75.2,94.19,M,1,0,29.77,M,6.21,M,SCT,SCT,M,M,1500,4000,M,M,M,M,M,M,M,M,M,78.83,VVTS 162200Z VRB01KT 9999 SCT015 SCT040 25/24 Q1008 NOSIG,M
VVTS,2/17/2012 0:00,106.6667,10.8167,75.2,75.2,100,350,4,0,29.8,M,1.74,M,SCT,OVC,M,M,1500,4000,M,M,BR,M,M,M,M,M,M,77.12,VVTS 170000Z 35004KT 2800 BR SCT015 OVC040 24/24 Q1009 BECMG TL0015 6000 NSW,M
VVTS,2/17/2012 0:30,106.6667,10.8167,75.2,75.2,100,340,3,0,29.8,M,2.3,M,SCT,BKN,M,M,1500,4000,M,M,BR,M,M,M,M,M,M,77.12,VVTS 170030Z 34003KT 3700 BR SCT015 BKN040 24/24 Q1009 BECMG TL0100 5000,M
VVTS,2/17/2012 1:00,106.6667,10.8167,77,77,100,340,5,0,29.83,M,2.17,M,SCT,BKN,M,M,1500,4000,M,M,BR,M,M,M,M,M,M,77,VVTS 170100Z 34005KT 3500 BR SCT015 BKN040 25/25 Q1010 BECMG TL0200 5000,M
VVTS,2/17/2012 1:30,106.6667,10.8167,77,77,100,340,4,0,29.83,M,2.17,M,BKN,BKN,M,M,1300,4000,M,M,BR,M,M,M,M,M,M,77,VVTS 170130Z 34004KT 3500 BR BKN013 BKN040 25/25 Q1010 BECMG TL0200 5000,M
VVTS,2/17/2012 2:00,106.6667,10.8167,78.8,77,94.23,M,3,0,29.83,M,2.8,M,SCT,BKN,M,M,1500,4000,M,M,BR,M,M,M,M,M,M,82.75,VVTS 170200Z VRB03KT 4500 BR SCT015 BKN040 26/25 Q1010 BECMG TL0200 5000,M
VVTS,2/17/2012 2:30,106.6667,10.8167,80.6,75.2,83.66,M,2,0,29.83,M,3.11,M,SCT,BKN,M,M,1500,4000,M,M,BR,M,M,M,M,M,M,86.17,VVTS 170230Z VRB02KT 5000 BR SCT015 BKN040 27/24 Q1010 NOSIG,M
VVTS,2/17/2012 3:00,106.6667,10.8167,80.6,75.2,83.66,M,2,0,29.85,M,3.11,M,SCT,BKN,M,M,1500,4000,M,M,HZ,M,M,M,M,M,M,86.17,VVTS 170300Z VRB02KT 5000 HZ SCT015 BKN040 27/24 Q1011 NOSIG,M
VVTS,2/17/2012 3:30,106.6667,10.8167,82.4,75.2,78.9,M,3,0,29.83,M,3.73,M,SCT,BKN,M,M,1500,4000,M,M,M,M,M,M,M,M,M,89.48,VVTS 170330Z VRB03KT 6000 SCT015 BKN040 28/24 Q1010 NOSIG,M
VVTS,2/17/2012 4:00,106.6667,10.8167,82.4,75.2,78.9,20,4,0,29.83,M,4.97,M,SCT,BKN,M,M,1500,4000,M,M,M,M,M,M,M,M,M,89.48,VVTS 170400Z 02004KT 340V050 8000 SCT015 BKN040 28/24 Q1010 NOSIG,M
VVTS,2/17/2012 4:30,106.6667,10.8167,84.2,75.2,74.44,M,3,0,29.8,M,5.59,M,FEW,BKN,M,M,1500,4000,M,M,M,M,M,M,M,M,M,92.45,VVTS 170430Z VRB03KT 9000 FEW015 BKN040 29/24 Q1009 NOSIG,M
VVTS,2/17/2012 5:00,106.6667,10.8167,84.2,75.2,74.44,360,5,0,29.8,M,6.21,M,M,M,M,M,M,M,M,M,M,M,M,M,M,M,M,92.45,VVTS 170500Z 36005KT 320V050 9999 SCT0 29/24 Q1009 NOSIG,M
VVTS,2/17/2012 5:30,106.6667,10.8167,84.2,73.4,70.08,330,4,0,29.77,M,6.21,M,SCT,SCT,M,M,1500,4000,M,M,M,M,M,M,M,M,M,90.94,VVTS 170530Z 33004KT 270V040 9999 SCT015 SCT040 29/23 Q1008 NOSIG,M
VVTS,2/17/2012 6:00,106.6667,10.8167,87.8,73.4,62.47,340,5,0,29.77,M,6.21,M,FEW,SCT,M,M,1700,4000,M,M,M,M,M,M,M,M,M,95.86,VVTS 170600Z 34005KT 290V020 9999 FEW017 SCT040 31/23 Q1008 NOSIG,M
VVTS,2/17/2012 6:30,106.6667,10.8167,87.8,71.6,58.78,M,2,0,29.74,M,6.21,M,FEW,SCT,M,M,1500,1700,M,M,M,M,M,M,M,M,M,94.18,VVTS 170630Z VRB02KT 9999 FEW015TCU SCT017 31/22 Q1007 NOSIG,M
VVTS,2/17/2012 7:00,106.6667,10.8167,87.8,71.6,58.78,M,2,0,29.74,M,6.21,M,FEW,SCT,M,M,1500,1700,M,M,M,M,M,M,M,M,M,94.18,VVTS 170700Z VRB02KT 9999 FEW015TCU SCT017 31/22 Q1007 NOSIG,M
VVTS,2/17/2012 7:30,106.6667,10.8167,89.6,69.8,52.23,160,4,0,29.71,M,6.21,M,SCT,SCT,M,M,1500,1700,M,M,M,M,M,M,M,M,M,94.85,VVTS 170730Z 16004KT 120V210 9999 SCT015 SCT017CB 32/21 Q1006 NOSIG,M
VVTS,2/17/2012 8:00,106.6667,10.8167,84.2,73.4,70.08,170,13,0,29.71,M,3.73,M,BKN,SCT,M,M,1500,1700,M,M,VCTS,M,M,M,M,M,M,90.94,VVTS 170800Z 17013KT 6000 VCTS BKN015 SCT017CB 29/23 Q1006 TEMPO TL0815 14010G20KT 3000 TSRA,M
VVTS,2/17/2012 8:30,106.6667,10.8167,78.8,75.2,88.75,290,7,0,29.74,M,2.49,M,BKN,SCT,M,M,1500,1700,M,M,#NAME?,M,M,M,M,M,M,82.38,VVTS 170830Z 29007KT 190V010 4000 -TSRA BKN015 SCT017CB 26/24 Q1007 TEMPO TL0900 3000 TSRA,M
VVTS,2/17/2012 9:00,106.6667,10.8167,75.2,75.2,100,M,1,0,29.74,M,0.75,M,BKN,SCT,M,M,1000,1300,M,M,TSRABR,M,M,M,M,M,M,77.12,VVTS 170900Z VRB01KT 1200 R25R/0600V1100D TSRABR BKN010 SCT013CB 24/24 Q1007 BECMG TL0920 2000 TSRA,M
VVTS,2/17/2012 9:30,106.6667,10.8167,73.4,73.4,100,290,6,0,29.74,M,1.86,M,BKN,SCT,M,M,1300,1500,M,M,RABR,M,M,M,M,M,M,75.14,VVTS 170930Z 29006KT 3000 RABR BKN013 SCT015CB 23/23 Q1007 BECMG TL0945 4000 RABR,M
VVTS,2/17/2012 10:00,106.6667,10.8167,73.4,73.4,100,M,3,0,29.77,M,3.11,M,BKN,SCT,M,M,1300,1500,M,M,#NAME?,M,M,M,M,M,M,75.14,VVTS 171000Z VRB03KT 5000 -RABR BKN013 SCT015CB 23/23 Q1008 TEMPO TL1000 3000 RABR,M
VVTS,2/17/2012 10:30,106.6667,10.8167,75.2,75.2,100,210,8,0,29.77,M,1.86,M,FEW,SCT,BKN,M,1500,1700,4000,M,RABR,M,M,M,M,M,M,77.12,VVTS 171030Z 21008KT 3000W RABR FEW015CB SCT017 BKN040 24/24 Q1008 TEMPO TL1100 3000 RABR,M
VVTS,2/17/2012 11:00,106.6667,10.8167,75.2,75.2,100,150,5,0,29.77,M,4.97,M,FEW,SCT,BKN,M,1500,1700,4000,M,M,M,M,M,M,M,M,77.12,VVTS 171100Z 15005KT 110V210 8000 FEW015CB SCT017 BKN040 24/24 Q1008 NOSIG,M
VVTS,2/17/2012 11:30,106.6667,10.8167,75.2,75.2,100,190,3,0,29.77,M,6.21,M,SCT,BKN,M,M,1700,4000,M,M,M,M,M,M,M,M,M,77.12,VVTS 171130Z 19003KT 9999 SCT017 BKN040 24/24 Q1008 NOSIG,M
VVTS,2/17/2012 12:00,106.6667,10.8167,77,77,100,M,2,0,29.77,M,6.21,M,SCT,BKN,M,M,1700,4000,M,M,M,M,M,M,M,M,M,77,VVTS 171200Z VRB02KT 9999 SCT017 BKN040 25/25 Q1008 NOSIG,M
VVTS,2/17/2012 12:30,106.6667,10.8167,77,75.2,94.19,M,3,0,29.8,M,6.21,M,SCT,BKN,M,M,1700,4000,M,M,M,M,M,M,M,M,M,78.83,VVTS 171230Z VRB03KT 9999 SCT017 BKN040 25/24 Q1009 NOSIG,M
VVTS,2/17/2012 13:00,106.6667,10.8167,77,75.2,94.19,M,2,0,29.8,M,6.21,M,SCT,BKN,M,M,1700,4000,M,M,M,M,M,M,M,M,M,78.83,VVTS 171300Z VRB02KT 9999 SCT017 BKN040 25/24 Q1009 NOSIG,M
VVTS,2/17/2012 13:30,106.6667,10.8167,78.8,75.2,88.75,20,3,0,29.8,M,6.21,M,FEW,SCT,M,M,1700,4000,M,M,M,M,M,M,M,M,M,82.38,VVTS 171330Z 02003KT 9999 FEW017 SCT040 26/24 Q1009 NOSIG,M
VVTS,2/17/2012 14:00,106.6667,10.8167,77,77,100,M,3,0,29.8,M,4.35,M,FEW,SCT,M,M,1700,4000,M,M,M,M,M,M,M,M,M,77,VVTS 171400Z VRB03KT 7000 FEW017 SCT040 25/25 Q1009 NOSIG,M
VVTS,2/17/2012 14:30,106.6667,10.8167,75.2,75.2,100,340,5,0,29.83,M,4.35,M,SCT,SCT,M,M,1700,4000,M,M,M,M,M,M,M,M,M,77.12,VVTS 171430Z 34005KT 7000 SCT017 SCT040 24/24 Q1010 NOSIG,M
VVTS,2/17/2012 15:00,106.6667,10.8167,75.2,75.2,100,320,6,0,29.83,M,4.97,M,SCT,SCT,M,M,1700,4000,M,M,M,M,M,M,M,M,M,77.12,VVTS 171500Z 32006KT 8000 SCT017 SCT040 24/24 Q1010 NOSIG,M
VVTS,2/17/2012 15:30,106.6667,10.8167,75.2,75.2,100,300,3,0,29.8,M,4.97,M,SCT,M,M,M,1700,M,M,M,M,M,M,M,M,M,M,77.12,VVTS 171530Z 30003KT 8000 SCT017 24/24 Q1009 NOSIG,M
VVTS,2/17/2012 16:00,106.6667,10.8167,75.2,75.2,100,M,1,0,29.8,M,4.97,M,SCT,M,M,M,1700,M,M,M,M,M,M,M,M,M,M,77.12,VVTS 171600Z VRB01KT 8000 SCT017 24/24 Q1009 NOSIG,M
VVTS,2/17/2012 16:30,106.6667,10.8167,75.2,75.2,100,20,2,0,29.8,M,4.97,M,SCT,M,M,M,1700,M,M,M,M,M,M,M,M,M,M,77.12,VVTS 171630Z 02002KT 8000 SCT017 24/24 Q1009 NOSIG,M
VVTS,2/17/2012 17:00,106.6667,10.8167,75.2,75.2,100,M,3,0,29.8,M,3.11,M,SCT,M,M,M,1700,M,M,M,M,M,M,M,M,M,M,77.12,VVTS 171700Z VRB03KT 5000 SCT017 24/24 Q1009 NOSIG,M
VVTS,2/17/2012 17:30,106.6667,10.8167,75.2,75.2,100,360,4,0,29.8,M,4.35,M,SCT,M,M,M,1700,M,M,M,M,M,M,M,M,M,M,77.12,VVTS 171730Z 36004KT 320V030 7000 SCT017 24/24 Q1009 NOSIG,M
VVTS,2/17/2012 18:00,106.6667,10.8167,75.2,75.2,100,10,4,0,29.8,M,3.11,M,SCT,M,M,M,1700,M,M,M,M,M,M,M,M,M,M,77.12,VVTS 171800Z 01004KT 5000 SCT017 24/24 Q1009 NOSIG,M
VVTS,2/17/2012 18:30,106.6667,10.8167,75.2,75.2,100,360,4,0,29.8,M,2.98,M,SCT,BKN,M,M,1700,4000,M,M,BR,M,M,M,M,M,M,77.12,VVTS 171830Z 36004KT 330V040 4800 BR SCT017 BKN040 24/24 Q1009 NOSIG,M
VVTS,2/17/2012 19:00,106.6667,10.8167,75.2,75.2,100,M,2,0,29.8,M,3.11,M,SCT,BKN,M,M,1700,4000,M,M,BR,M,M,M,M,M,M,77.12,VVTS 171900Z VRB02KT 5000 BR SCT017 BKN040 24/24 Q1009 NOSIG,M
VVTS,2/17/2012 19:30,106.6667,10.8167,75.2,75.2,100,M,1,0,29.77,M,3.11,M,SCT,BKN,M,M,1700,4000,M,M,BR,M,M,M,M,M,M,77.12,VVTS 171930Z VRB01KT 5000 BR SCT017 BKN040 24/24 Q1008 NOSIG,M
VVTS,2/17/2012 20:00,106.6667,10.8167,75.2,75.2,100,M,1,0,29.77,M,2.36,M,SCT,BKN,M,M,1700,4000,M,M,BR,M,M,M,M,M,M,77.12,VVTS 172000Z VRB01KT 3800 BR SCT017 BKN040 24/24 Q1008 NOSIG,M
VVTS,2/17/2012 20:30,106.6667,10.8167,75.2,75.2,100,310,3,0,29.77,M,2.98,M,SCT,BKN,M,M,1700,4000,M,M,BR,M,M,M,M,M,M,77.12,VVTS 172030Z 31003KT 4800 BR SCT017 BKN040 24/24 Q1008 NOSIG,M
VVTS,2/17/2012 21:00,106.6667,10.8167,75.2,75.2,100,270,2,0,29.77,M,2.55,M,SCT,BKN,M,M,1700,4000,M,M,BR,M,M,M,M,M,M,77.12,VVTS 172100Z 27002KT 4100 BR SCT017 BKN040 24/24 Q1008 NOSIG,M
VVTS,2/17/2012 21:30,106.6667,10.8167,73.4,73.4,100,300,3,0,29.77,M,2.86,M,SCT,BKN,M,M,1700,4000,M,M,BR,M,M,M,M,M,M,75.14,VVTS 172130Z 30003KT 4600 BR SCT017 BKN040 23/23 Q1008 NOSIG,M
VVTS,2/17/2012 22:00,106.6667,10.8167,73.4,73.4,100,310,4,0,29.77,M,3.11,M,SCT,SCT,M,M,1500,4000,M,M,BR,M,M,M,M,M,M,75.14,VVTS 172200Z 31004KT 5000 BR SCT015 SCT040 23/23 Q1008 NOSIG,M
VVTS,2/17/2012 22:30,106.6667,10.8167,73.4,73.4,100,310,4,0,29.77,M,4.35,M,SCT,SCT,M,M,1500,4000,M,M,M,M,M,M,M,M,M,75.14,VVTS 172230Z 31004KT 7000 SCT015 SCT040 23/23 Q1008 NOSIG,M
VVTS,2/17/2012 23:00,106.6667,10.8167,73.4,73.4,100,330,4,0,29.77,M,6.21,M,SCT,SCT,M,M,1500,4000,M,M,M,M,M,M,M,M,M,75.14,VVTS 172300Z 33004KT 9999 SCT015 SCT040 23/23 Q1008 NOSIG,M
VVTS,2/18/2012 0:00,106.6667,10.8167,73.4,73.4,100,320,5,0,29.8,M,6.21,M,FEW,M,M,M,1700,M,M,M,M,M,M,M,M,M,M,75.14,VVTS 180000Z 32005KT 9999 FEW017 23/23 Q1009 NOSIG,M
VVTS,2/18/2012 0:30,106.6667,10.8167,75.2,71.6,88.59,340,6,0,29.8,M,6.21,M,FEW,M,M,M,2000,M,M,M,M,M,M,M,M,M,M,76.58,VVTS 180030Z 34006KT 9999 FEW020 24/22 Q1009 NOSIG,M
VVTS,2/18/2012 1:00,106.6667,10.8167,77,71.6,83.44,360,7,0,29.8,M,6.21,M,FEW,M,M,M,2000,M,M,M,M,M,M,M,M,M,M,78.32,VVTS 180100Z 36007KT 9999 FEW020 25/22 Q1009 NOSIG,M
VVTS,2/18/2012 1:30,106.6667,10.8167,78.8,69.8,73.95,10,7,0,29.83,M,6.21,M,FEW,M,M,M,2000,M,M,M,M,M,M,M,M,M,M,81.39,VVTS 180130Z 01007KT 9999 FEW020 26/21 Q1010 NOSIG,M
VVTS,2/18/2012 2:00,106.6667,10.8167,80.6,69.8,69.71,20,7,0,29.83,M,6.21,M,FEW,M,M,M,2000,M,M,M,M,M,M,M,M,M,M,83.9,VVTS 180200Z 02007KT 340V050 9999 FEW020 27/21 Q1010 NOSIG,M
VVTS,2/18/2012 2:30,106.6667,10.8167,80.6,69.8,69.71,30,7,0,29.83,M,6.21,M,FEW,M,M,M,2000,M,M,M,M,M,M,M,M,M,M,83.9,VVTS 180230Z 03007KT 9999 FEW020 27/21 Q1010 NOSIG,M
VVTS,2/18/2012 3:00,106.6667,10.8167,82.4,68,61.81,40,7,0,29.83,M,6.21,M,FEW,M,M,M,2000,M,M,M,M,M,M,M,M,M,M,85.38,VVTS 180300Z 04007KT 9999 FEW020 28/20 Q1010 NOSIG,M
VVTS,2/18/2012 3:30,106.6667,10.8167,82.4,66.2,58.08,20,5,0,29.83,M,6.21,M,FEW,M,M,M,2000,M,M,M,M,M,M,M,M,M,M,84.63,VVTS 180330Z 02005KT 330V070 9999 FEW020 28/19 Q1010 NOSIG,M
VVTS,2/18/2012 4:00,106.6667,10.8167,84.2,68,58.32,360,6,0,29.8,M,6.21,M,FEW,M,M,M,2000,M,M,M,M,M,M,M,M,M,M,87.4,VVTS 180400Z 36006KT 330V040 9999 FEW020 29/20 Q1009 NOSIG,M
VVTS,2/18/2012 4:30,106.6667,10.8167,84.2,66.2,54.8,40,5,0,29.8,M,6.21,M,FEW,M,M,M,2000,M,M,M,M,M,M,M,M,M,M,86.5,VVTS 180430Z 04005KT 310V080 9999 FEW020 29/19 Q1009 NOSIG,M
VVTS,2/18/2012 5:00,106.6667,10.8167,86,68,55.04,50,4,0,29.8,M,6.21,M,FEW,M,M,M,2000,M,M,M,M,M,M,M,M,M,M,89.41,VVTS 180500Z 05004KT 230V200 9999 FEW020 30/20 Q1009 NOSIG,M
VVTS,2/18/2012 5:30,106.6667,10.8167,87.8,66.2,48.84,10,5,0,29.77,M,6.21,M,FEW,M,M,M,2000,M,M,M,M,M,M,M,M,M,M,90.31,VVTS 180530Z 01005KT 280V100 9999 FEW020 31/19 Q1008 NOSIG,M
VVTS,2/18/2012 6:00,106.6667,10.8167,89.6,66.2,46.14,50,6,0,29.77,M,6.21,M,FEW,M,M,M,2000,M,M,M,M,M,M,M,M,M,M,92.27,VVTS 180600Z 05006KT 360V090 9999 FEW020 32/19 Q1008 NOSIG,M
VVTS,2/18/2012 6:30,106.6667,10.8167,89.6,66.2,46.14,60,7,0,29.74,M,6.21,M,FEW,M,M,M,2000,M,M,M,M,M,M,M,M,M,M,92.27,VVTS 180630Z 06007KT 340V100 9999 FEW020 32/19 Q1007 NOSIG,M
VVTS,2/18/2012 7:00,106.6667,10.8167,89.6,68,49.1,40,6,0,29.74,M,6.21,M,FEW,M,M,M,2000,M,M,M,M,M,M,M,M,M,M,93.47,VVTS 180700Z 04006KT 010V080 9999 FEW020 32/20 Q1007 NOSIG,M
VVTS,2/18/2012 7:30,106.6667,10.8167,89.6,66.2,46.14,60,6,0,29.74,M,6.21,M,SCT,M,M,M,2000,M,M,M,M,M,M,M,M,M,M,92.27,VVTS 180730Z 06006KT 260V120 9999 SCT020 32/19 Q1007 NOSIG,M
VVTS,2/18/2012 8:00,106.6667,10.8167,91.4,68,46.41,50,7,0,29.71,M,6.21,M,SCT,M,M,M,2000,M,M,M,M,M,M,M,M,M,M,95.55,VVTS 180800Z 05007KT 010V090 9999 SCT020 33/20 Q1006 NOSIG,M
VVTS,2/18/2012 8:30,106.6667,10.8167,89.6,68,49.1,20,7,0,29.71,M,6.21,M,SCT,M,M,M,2000,M,M,M,M,M,M,M,M,M,M,93.47,VVTS 180830Z 02007KT 340V080 9999 SCT020 32/20 Q1006 NOSIG,M
VVTS,2/18/2012 9:00,106.6667,10.8167,89.6,68,49.1,20,4,0,29.71,M,6.21,M,SCT,M,M,M,2000,M,M,M,M,M,M,M,M,M,M,93.47,VVTS 180900Z 02004KT 240V060 9999 SCT020 32/20 Q1006 NOSIG,M
VVTS,2/18/2012 9:30,106.6667,10.8167,89.6,68,49.1,340,5,0,29.71,M,6.21,M,SCT,M,M,M,2000,M,M,M,M,M,M,M,M,M,M,93.47,VVTS 180930Z 34005KT 290V010 9999 SCT020 32/20 Q1006 NOSIG,M
VVTS,2/18/2012 10:00,106.6667,10.8167,87.8,68,51.98,10,7,0,29.71,M,6.21,M,SCT,M,M,M,2000,M,M,M,M,M,M,M,M,M,M,91.43,VVTS 181000Z 01007KT 9999 SCT020 31/20 Q1006 NOSIG,M
VVTS,2/18/2012 10:30,106.6667,10.8167,87.8,69.8,55.29,10,6,0,29.74,M,6.21,M,SCT,SCT,M,M,1700,4000,M,M,M,M,M,M,M,M,M,92.71,VVTS 181030Z 01006KT 9999 SCT017 SCT040 31/21 Q1007 NOSIG,M
VVTS,2/18/2012 11:00,106.6667,10.8167,84.2,64.4,51.47,50,12,0,29.74,M,6.21,M,SCT,SCT,M,M,1700,4000,M,M,M,M,M,M,M,M,M,85.71,VVTS 181100Z 05012KT 9999 SCT017 SCT040 29/18 Q1007 NOSIG,M
VVTS,2/18/2012 11:30,106.6667,10.8167,84.2,64.4,51.47,50,11,0,29.77,M,6.21,M,FEW,SCT,M,M,1500,1700,M,M,M,M,M,M,M,M,M,85.71,VVTS 181130Z 05011KT 9999 FEW015TCU SCT017 29/18 Q1008 NOSIG,M
VVTS,2/18/2012 12:00,106.6667,10.8167,82.4,62.6,51.21,40,10,0,29.77,M,6.21,M,SCT,M,M,M,1700,M,M,M,M,M,M,M,M,M,M,83.41,VVTS 181200Z 04010KT 9999 SCT017 28/17 Q1008 NOSIG,M
VVTS,2/18/2012 12:30,106.6667,10.8167,80.6,60.8,50.95,30,8,0,29.8,M,6.21,M,SCT,M,M,M,1700,M,M,M,M,M,M,M,M,M,M,81.46,VVTS 181230Z 03008KT 9999 SCT017 27/16 Q1009 NOSIG,M
VVTS,2/18/2012 13:00,106.6667,10.8167,80.6,60.8,50.95,30,6,0,29.8,M,6.21,M,SCT,M,M,M,1700,M,M,M,M,M,M,M,M,M,M,81.46,VVTS 181300Z 03006KT 9999 SCT017 27/16 Q1009 NOSIG,M
VVTS,2/18/2012 13:30,106.6667,10.8167,78.8,62.6,57.6,30,5,0,29.83,M,6.21,M,SCT,M,M,M,1700,M,M,M,M,M,M,M,M,M,M,80.31,VVTS 181330Z 03005KT 9999 SCT017 26/17 Q1010 NOSIG,M
VVTS,2/18/2012 14:00,106.6667,10.8167,78.8,62.6,57.6,30,6,0,29.83,M,6.21,M,SCT,M,M,M,1700,M,M,M,M,M,M,M,M,M,M,80.31,VVTS 181400Z 03006KT 9999 SCT017 26/17 Q1010 NOSIG,M
VVTS,2/18/2012 14:30,106.6667,10.8167,77,60.8,57.36,30,5,0,29.83,M,6.21,M,SCT,M,M,M,1700,M,M,M,M,M,M,M,M,M,M,77,VVTS 181430Z 03005KT 9999 SCT017 25/16 Q1010 NOSIG,M
VVTS,2/18/2012 15:00,106.6667,10.8167,77,60.8,57.36,40,6,0,29.83,M,6.21,M,FEW,M,M,M,1700,M,M,M,M,M,M,M,M,M,M,77,VVTS 181500Z 04006KT 9999 FEW017 25/16 Q1010 NOSIG,M
VVTS,2/18/2012 15:30,106.6667,10.8167,75.2,60.8,60.9,40,6,0,29.83,M,6.21,M,FEW,M,M,M,1700,M,M,M,M,M,M,M,M,M,M,75.2,VVTS 181530Z 04006KT 9999 FEW017 24/16 Q1010 NOSIG,M
VVTS,2/18/2012 16:00,106.6667,10.8167,75.2,60.8,60.9,30,7,0,29.83,M,6.21,M,FEW,M,M,M,1700,M,M,M,M,M,M,M,M,M,M,75.2,VVTS 181600Z 03007KT 9999 FEW017 24/16 Q1010 NOSIG,M
VVTS,2/18/2012 16:30,106.6667,10.8167,75.2,60.8,60.9,10,4,0,29.83,M,6.21,M,FEW,M,M,M,1700,M,M,M,M,M,M,M,M,M,M,75.2,VVTS 181630Z 01004KT 9999 FEW017 24/16 Q1010 NOSIG,M
VVTS,2/18/2012 17:00,106.6667,10.8167,75.2,60.8,60.9,30,5,0,29.83,M,6.21,M,FEW,M,M,M,1700,M,M,M,M,M,M,M,M,M,M,75.2,VVTS 181700Z 03005KT 9999 FEW017 24/16 Q1010 NOSIG,M
VVTS,2/18/2012 17:30,106.6667,10.8167,73.4,60.8,64.69,20,4,0,29.8,M,6.21,M,FEW,M,M,M,1700,M,M,M,M,M,M,M,M,M,M,73.4,VVTS 181730Z 02004KT 9999 FEW017 23/16 Q1009 NOSIG,M
VVTS,2/18/2012 18:00,106.6667,10.8167,73.4,60.8,64.69,360,3,0,29.8,M,6.21,M,FEW,M,M,M,1700,M,M,M,M,M,M,M,M,M,M,73.4,VVTS 181800Z 36003KT 9999 FEW017 23/16 Q1009 NOSIG,M
VVTS,2/18/2012 18:30,106.6667,10.8167,73.4,60.8,64.69,10,3,0,29.8,M,6.21,M,FEW,M,M,M,1700,M,M,M,M,M,M,M,M,M,M,73.4,VVTS 181830Z 01003KT 9999 FEW017 23/16 Q1009 NOSIG,M
VVTS,2/18/2012 19:00,106.6667,10.8167,73.4,60.8,64.69,360,3,0,29.8,M,6.21,M,FEW,M,M,M,1700,M,M,M,M,M,M,M,M,M,M,73.4,VVTS 181900Z 36003KT 9999 FEW017 23/16 Q1009 NOSIG,M
VVTS,2/18/2012 19:30,106.6667,10.8167,71.6,60.8,68.75,360,4,0,29.8,M,6.21,M,FEW,M,M,M,1700,M,M,M,M,M,M,M,M,M,M,71.6,VVTS 181930Z 36004KT 9999 FEW017 22/16 Q1009 NOSIG,M
VVTS,2/18/2012 20:00,106.6667,10.8167,71.6,62.6,73.27,360,3,0,29.8,M,6.21,M,FEW,M,M,M,1700,M,M,M,M,M,M,M,M,M,M,71.6,VVTS 182000Z 36003KT 9999 FEW017 22/17 Q1009 NOSIG,M
VVTS,2/18/2012 21:00,106.6667,10.8167,71.6,62.6,73.27,360,5,0,29.8,M,6.21,M,FEW,SCT,M,M,1700,4000,M,M,M,M,M,M,M,M,M,71.6,VVTS 182100Z 36005KT 9999 FEW017 SCT040 22/17 Q1009 NOSIG,M
VVTS,2/18/2012 21:30,106.6667,10.8167,71.6,62.6,73.27,20,4,0,29.77,M,6.21,M,FEW,SCT,M,M,1700,4000,M,M,M,M,M,M,M,M,M,71.6,VVTS 182130Z 02004KT 9999 FEW017 SCT040 22/17 Q1008 NOSIG,M
VVTS,2/18/2012 22:00,106.6667,10.8167,71.6,62.6,73.27,10,4,0,29.77,M,6.21,M,FEW,SCT,M,M,1700,4000,M,M,M,M,M,M,M,M,M,71.6,VVTS 182200Z 01004KT 9999 FEW017 SCT040 22/17 Q1008 NOSIG,M
VVTS,2/18/2012 22:30,106.6667,10.8167,69.8,62.6,77.9,360,4,0,29.8,M,6.21,M,FEW,SCT,M,M,1700,4000,M,M,M,M,M,M,M,M,M,69.8,VVTS 182230Z 36004KT 9999 FEW017 SCT040 21/17 Q1009 NOSIG,M
VVTS,2/18/2012 23:00,106.6667,10.8167,69.8,62.6,77.9,360,4,0,29.8,M,6.21,M,FEW,SCT,M,M,1700,4000,M,M,M,M,M,M,M,M,M,69.8,VVTS 182300Z 36004KT 9999 FEW017 SCT040 21/17 Q1009 NOSIG,M
VVTS,2/18/2012 23:30,106.6667,10.8167,69.8,62.6,77.9,10,4,0,29.8,M,6.21,M,FEW,SCT,M,M,1700,4000,M,M,M,M,M,M,M,M,M,69.8,VVTS 182330Z 01004KT 350V060 9999 FEW017 SCT040 21/17 Q1009 NOSIG,M
VVTS,2/19/2012 0:00,106.6667,10.8167,71.6,64.4,78.04,20,5,0,29.8,M,6.21,M,FEW,SCT,M,M,1700,4000,M,M,M,M,M,M,M,M,M,71.6,VVTS 190000Z 02005KT 350V050 9999 FEW017 SCT040 22/18 Q1009 NOSIG,M
VVTS,2/19/2012 0:30,106.6667,10.8167,73.4,62.6,68.94,10,4,0,29.83,M,6.21,M,FEW,SCT,M,M,1700,4000,M,M,M,M,M,M,M,M,M,73.4,VVTS 190030Z 01004KT 350V050 9999 FEW017 SCT040 23/17 Q1010 NOSIG,M
VVTS,2/19/2012 1:00,106.6667,10.8167,75.2,64.4,69.14,30,7,0,29.83,M,6.21,M,FEW,SCT,M,M,1700,4000,M,M,M,M,M,M,M,M,M,75.2,VVTS 190100Z 03007KT 9999 FEW017 SCT040 24/18 Q1010 NOSIG,M
VVTS,2/19/2012 1:30,106.6667,10.8167,78.8,62.6,57.6,30,7,0,29.85,M,6.21,M,FEW,SCT,M,M,1700,4000,M,M,M,M,M,M,M,M,M,80.31,VVTS 190130Z 03007KT 360V060 9999 FEW017 SCT040 26/17 Q1011 NOSIG,M
VVTS,2/19/2012 2:00,106.6667,10.8167,80.6,64.4,57.84,20,7,0,29.85,M,6.21,M,FEW,SCT,M,M,1700,4000,M,M,M,M,M,M,M,M,M,82.27,VVTS 190200Z 02007KT 9999 FEW017 SCT040 27/18 Q1011 NOSIG,M
VVTS,2/19/2012 2:30,106.6667,10.8167,82.4,64.4,54.55,20,7,0,29.85,M,6.21,M,FEW,SCT,M,M,1700,4000,M,M,M,M,M,M,M,M,M,83.98,VVTS 190230Z 02007KT 330V080 9999 FEW017 SCT040 28/18 Q1011 NOSIG,M
VVTS,2/19/2012 3:00,106.6667,10.8167,82.4,66.2,58.08,M,2,0,29.85,M,6.21,M,M,M,M,M,M,M,M,M,M,M,M,M,M,M,M,84.63,VVTS 190300Z VRB02KT CAVOK 28/19 Q1011 NOSIG,M
VVTS,2/19/2012 3:30,106.6667,10.8167,84.2,66.2,54.8,340,5,0,29.85,M,6.21,M,FEW,M,M,M,2000,M,M,M,M,M,M,M,M,M,M,86.5,VVTS 190330Z 34005KT 270V070 9999 FEW020 29/19 Q1011 NOSIG,M
VVTS,2/19/2012 4:00,106.6667,10.8167,84.2,66.2,54.8,M,3,0,29.85,M,6.21,M,FEW,M,M,M,2000,M,M,M,M,M,M,M,M,M,M,86.5,VVTS 190400Z VRB03KT 9999 FEW020 29/19 Q1011 NOSIG,M
VVTS,2/19/2012 4:30,106.6667,10.8167,86,66.2,51.72,M,3,0,29.83,M,6.21,M,SCT,M,M,M,1700,M,M,M,M,M,M,M,M,M,M,88.39,VVTS 190430Z VRB03KT 9999 SCT017 30/19 Q1010 NOSIG,M
VVTS,2/19/2012 5:30,106.6667,10.8167,86,66.2,51.72,360,4,0,29.8,M,6.21,M,BKN,M,M,M,2000,M,M,M,M,M,M,M,M,M,M,88.39,VVTS 190530Z 36004KT 290V060 9999 BKN020 30/19 Q1009 NOSIG,M
VVTS,2/19/2012 6:00,106.6667,10.8167,86,64.4,48.58,40,5,0,29.8,M,6.21,M,SCT,M,M,M,2000,M,M,M,M,M,M,M,M,M,M,87.49,VVTS 190600Z 04005KT 310V130 9999 SCT020 30/18 Q1009 NOSIG,M
VVTS,2/19/2012 6:30,106.6667,10.8167,87.8,64.4,45.88,50,5,0,29.77,M,6.21,M,SCT,M,M,M,2000,M,M,M,M,M,M,M,M,M,M,89.33,VVTS 190630Z 05005KT 350V080 9999 SCT020 31/18 Q1008 NOSIG,M
VVTS,2/19/2012 7:00,106.6667,10.8167,87.8,64.4,45.88,20,4,0,29.77,M,6.21,M,SCT,M,M,M,2000,M,M,M,M,M,M,M,M,M,M,89.33,VVTS 190700Z 02004KT 320V110 9999 SCT020 31/18 Q1008 NOSIG,M
VVTS,2/19/2012 7:30,106.6667,10.8167,87.8,64.4,45.88,30,5,0,29.74,M,6.21,M,SCT,M,M,M,2000,M,M,M,M,M,M,M,M,M,M,89.33,VVTS 190730Z 03005KT 340V070 9999 SCT020 31/18 Q1007 NOSIG,M
VVTS,2/19/2012 8:00,106.6667,10.8167,86,64.4,48.58,350,7,0,29.74,M,6.21,M,BKN,M,M,M,1700,M,M,M,M,M,M,M,M,M,M,87.49,VVTS 190800Z 35007KT 330V060 9999 BKN017 30/18 Q1007 NOSIG,M
VVTS,2/19/2012 8:30,106.6667,10.8167,87.8,64.4,45.88,340,7,0,29.71,M,6.21,M,BKN,M,M,M,1700,M,M,M,M,M,M,M,M,M,M,89.33,VVTS 190830Z 34007KT 300V020 9999 BKN017 31/18 Q1006 NOSIG,M
VVTS,2/19/2012 9:00,106.6667,10.8167,87.8,64.4,45.88,350,5,0,29.71,M,6.21,M,BKN,M,M,M,1700,M,M,M,M,M,M,M,M,M,M,89.33,VVTS 190900Z 35005KT 310V030 9999 BKN017 31/18 Q1006 NOSIG,M
VVTS,2/19/2012 9:30,106.6667,10.8167,87.8,64.4,45.88,350,7,0,29.74,M,6.21,M,BKN,M,M,M,1700,M,M,M,M,M,M,M,M,M,M,89.33,VVTS 190930Z 35007KT 320V020 9999 BKN017 31/18 Q1007 NOSIG,M
VVTS,2/19/2012 10:00,106.6667,10.8167,84.2,64.4,51.47,360,7,0,29.74,M,6.21,M,SCT,M,M,M,1700,M,M,M,M,M,M,M,M,M,M,85.71,VVTS 191000Z 36007KT 330V040 9999 SCT017 29/18 Q1007 NOSIG,M
VVTS,2/19/2012 10:30,106.6667,10.8167,84.2,64.4,51.47,360,8,0,29.74,M,6.21,M,FEW,BKN,M,M,1700,4000,M,M,M,M,M,M,M,M,M,85.71,VVTS 191030Z 36008KT 320V030 9999 FEW017 BKN040 29/18 Q1007 NOSIG,M
VVTS,2/19/2012 11:00,106.6667,10.8167,82.4,64.4,54.55,340,7,0,29.74,M,6.21,M,FEW,BKN,M,M,1700,4000,M,M,M,M,M,M,M,M,M,83.98,VVTS 191100Z 34007KT 9999 FEW017 BKN040 28/18 Q1007 NOSIG,M
VVTS,2/19/2012 11:30,106.6667,10.8167,82.4,64.4,54.55,350,7,0,29.77,M,6.21,M,FEW,BKN,M,M,1700,4000,M,M,M,M,M,M,M,M,M,83.98,VVTS 191130Z 35007KT 9999 FEW017 BKN040 28/18 Q1008 NOSIG,M
VVTS,2/19/2012 12:00,106.6667,10.8167,82.4,64.4,54.55,350,8,0,29.77,M,6.21,M,FEW,BKN,M,M,1700,4000,M,M,M,M,M,M,M,M,M,83.98,VVTS 191200Z 35008KT 9999 FEW017 BKN040 28/18 Q1008 NOSIG,M
VVTS,2/19/2012 12:30,106.6667,10.8167,80.6,64.4,57.84,360,7,0,29.8,M,6.21,M,FEW,BKN,M,M,1700,4000,M,M,M,M,M,M,M,M,M,82.27,VVTS 191230Z 36007KT 9999 FEW017 BKN040 27/18 Q1009 NOSIG,M
VVTS,2/19/2012 13:00,106.6667,10.8167,80.6,64.4,57.84,10,7,0,29.8,M,6.21,M,FEW,BKN,M,M,1700,4000,M,M,M,M,M,M,M,M,M,82.27,VVTS 191300Z 01007KT 9999 FEW017 BKN040 27/18 Q1009 NOSIG,M
VVTS,2/19/2012 13:30,106.6667,10.8167,78.8,64.4,61.36,360,7,0,29.8,M,6.21,M,FEW,BKN,M,M,1700,4000,M,M,M,M,M,M,M,M,M,80.56,VVTS 191330Z 36007KT 9999 FEW017 BKN040 26/18 Q1009 NOSIG,M
VVTS,2/19/2012 14:00,106.6667,10.8167,77,64.4,65.12,10,7,0,29.83,M,6.21,M,FEW,BKN,M,M,1700,4000,M,M,M,M,M,M,M,M,M,77,VVTS 191400Z 01007KT 9999 FEW017 BKN040 25/18 Q1010 NOSIG,M
VVTS,2/19/2012 14:30,106.6667,10.8167,77,64.4,65.12,10,6,0,29.83,M,6.21,M,FEW,SCT,M,M,1700,4000,M,M,M,M,M,M,M,M,M,77,VVTS 191430Z 01006KT 350V060 9999 FEW017 SCT040 25/18 Q1010 NOSIG,M
VVTS,2/19/2012 15:00,106.6667,10.8167,75.2,64.4,69.14,10,7,0,29.83,M,6.21,M,FEW,SCT,M,M,1700,4000,M,M,M,M,M,M,M,M,M,75.2,VVTS 191500Z 01007KT 9999 FEW017 SCT040 24/18 Q1010 NOSIG,M
VVTS,2/19/2012 15:30,106.6667,10.8167,75.2,64.4,69.14,20,8,0,29.83,M,6.21,M,FEW,SCT,M,M,1700,4000,M,M,M,M,M,M,M,M,M,75.2,VVTS 191530Z 02008KT 9999 FEW017 SCT040 24/18 Q1010 NOSIG,M
VVTS,2/19/2012 16:00,106.6667,10.8167,75.2,62.6,64.91,30,7,0,29.83,M,6.21,M,FEW,M,M,M,1700,M,M,M,M,M,M,M,M,M,M,75.2,VVTS 191600Z 03007KT 9999 FEW017 24/17 Q1010 NOSIG,M
VVTS,2/19/2012 16:30,106.6667,10.8167,73.4,62.6,68.94,30,8,0,29.83,M,6.21,M,FEW,M,M,M,1700,M,M,M,M,M,M,M,M,M,M,73.4,VVTS 191630Z 03008KT 9999 FEW017 23/17 Q1010 NOSIG,M
VVTS,2/19/2012 17:00,106.6667,10.8167,73.4,62.6,68.94,40,8,0,29.83,M,6.21,M,FEW,M,M,M,1700,M,M,M,M,M,M,M,M,M,M,73.4,VVTS 191700Z 04008KT 9999 FEW017 23/17 Q1010 NOSIG,M
VVTS,2/19/2012 17:30,106.6667,10.8167,73.4,62.6,68.94,40,7,0,29.83,M,6.21,M,FEW,M,M,M,1700,M,M,M,M,M,M,M,M,M,M,73.4,VVTS 191730Z 04007KT 9999 FEW017 23/17 Q1010 NOSIG,M
VVTS,2/19/2012 18:00,106.6667,10.8167,73.4,64.4,73.44,40,6,0,29.8,M,6.21,M,FEW,M,M,M,1700,M,M,M,M,M,M,M,M,M,M,73.4,VVTS 191800Z 04006KT 9999 FEW017 23/18 Q1009 NOSIG,M
VVTS,2/19/2012 18:30,106.6667,10.8167,71.6,64.4,78.04,30,5,0,29.8,M,6.21,M,FEW,M,M,M,1700,M,M,M,M,M,M,M,M,M,M,71.6,VVTS 191830Z 03005KT 9999 FEW017 22/18 Q1009 NOSIG,M
VVTS,2/19/2012 19:00,106.6667,10.8167,71.6,64.4,78.04,30,4,0,29.8,M,6.21,M,FEW,M,M,M,1700,M,M,M,M,M,M,M,M,M,M,71.6,VVTS 191900Z 03004KT 9999 FEW017 22/18 Q1009 NOSIG,M
VVTS,2/19/2012 19:30,106.6667,10.8167,71.6,64.4,78.04,20,3,0,29.77,M,6.21,M,FEW,M,M,M,1700,M,M,M,M,M,M,M,M,M,M,71.6,VVTS 191930Z 02003KT 9999 FEW017 22/18 Q1008 NOSIG,M
VVTS,2/19/2012 20:00,106.6667,10.8167,71.6,64.4,78.04,20,4,0,29.77,M,6.21,M,FEW,M,M,M,1700,M,M,M,M,M,M,M,M,M,M,71.6,VVTS 192000Z 02004KT 9999 FEW017 22/18 Q1008 NOSIG,M
VVTS,2/19/2012 20:30,106.6667,10.8167,71.6,64.4,78.04,360,4,0,29.77,M,6.21,M,FEW,M,M,M,1700,M,M,M,M,M,M,M,M,M,M,71.6,VVTS 192030Z 36004KT 9999 FEW017 22/18 Q1008 NOSIG,M
VVTS,2/19/2012 21:00,106.6667,10.8167,71.6,64.4,78.04,20,5,0,29.77,M,6.21,M,FEW,M,M,M,1700,M,M,M,M,M,M,M,M,M,M,71.6,VVTS 192100Z 02005KT 9999 FEW017 22/18 Q1008 NOSIG,M
VVTS,2/19/2012 21:30,106.6667,10.8167,71.6,64.4,78.04,10,4,0,29.77,M,6.21,M,FEW,M,M,M,1700,M,M,M,M,M,M,M,M,M,M,71.6,VVTS 192130Z 01004KT 9999 FEW017 22/18 Q1008 NOSIG,M
VVTS,2/19/2012 22:00,106.6667,10.8167,71.6,64.4,78.04,360,7,0,29.77,M,6.21,M,FEW,M,M,M,1700,M,M,M,M,M,M,M,M,M,M,71.6,VVTS 192200Z 36007KT 9999 FEW017 22/18 Q1008 NOSIG,M
VVTS,2/19/2012 22:30,106.6667,10.8167,71.6,64.4,78.04,10,6,0,29.8,M,6.21,M,FEW,M,M,M,1700,M,M,M,M,M,M,M,M,M,M,71.6,VVTS 192230Z 01006KT 9999 FEW017 22/18 Q1009 NOSIG,M
VVTS,2/19/2012 23:00,106.6667,10.8167,71.6,64.4,78.04,10,5,0,29.8,M,6.21,M,FEW,BKN,M,M,1700,4000,M,M,M,M,M,M,M,M,M,71.6,VVTS 192300Z 01005KT 9999 FEW017 BKN040 22/18 Q1009 NOSIG,M
VVTS,2/20/2012 0:00,106.6667,10.8167,71.6,64.4,78.04,M,3,0,29.83,M,6.21,M,FEW,SCT,M,M,1700,4000,M,M,M,M,M,M,M,M,M,71.6,VVTS 200000Z VRB03KT 9999 FEW017 SCT040 22/18 Q1010 NOSIG,M
VVTS,2/20/2012 0:30,106.6667,10.8167,73.4,64.4,73.44,360,3,0,29.83,M,6.21,M,FEW,SCT,M,M,1700,4000,M,M,M,M,M,M,M,M,M,73.4,VVTS 200030Z 36003KT 9999 FEW017 SCT040 23/18 Q1010 NOSIG,M
VVTS,2/20/2012 1:00,106.6667,10.8167,75.2,64.4,69.14,360,4,0,29.83,M,6.21,M,FEW,SCT,M,M,1700,4000,M,M,M,M,M,M,M,M,M,75.2,VVTS 200100Z 36004KT 330V060 9999 FEW017 SCT040 24/18 Q1010 NOSIG,M
VVTS,2/20/2012 1:30,106.6667,10.8167,77,64.4,65.12,360,4,0,29.85,M,6.21,M,FEW,SCT,M,M,1700,4000,M,M,M,M,M,M,M,M,M,77,VVTS 200130Z 36004KT 310V070 9999 FEW017 SCT040 25/18 Q1011 NOSIG,M
VVTS,2/20/2012 2:00,106.6667,10.8167,78.8,64.4,61.36,350,4,0,29.85,M,6.21,M,FEW,SCT,M,M,1700,4000,M,M,M,M,M,M,M,M,M,80.56,VVTS 200200Z 35004KT 310V020 9999 FEW017 SCT040 26/18 Q1011 NOSIG,M
VVTS,2/20/2012 2:30,106.6667,10.8167,80.6,66.2,61.58,M,3,0,29.83,M,6.21,M,FEW,SCT,M,M,1700,4000,M,M,M,M,M,M,M,M,M,82.75,VVTS 200230Z VRB03KT 9999 FEW017 SCT040 27/19 Q1010 NOSIG,M
VVTS,2/20/2012 3:00,106.6667,10.8167,82.4,68,61.81,M,3,0,29.83,M,6.21,M,FEW,M,M,M,1700,M,M,M,M,M,M,M,M,M,M,85.38,VVTS 200300Z VRB03KT 9999 FEW017 28/20 Q1010 NOSIG,M
VVTS,2/20/2012 3:30,106.6667,10.8167,82.4,68,61.81,360,4,0,29.83,M,6.21,M,FEW,M,M,M,1700,M,M,M,M,M,M,M,M,M,M,85.38,VVTS 200330Z 36004KT 280V090 9999 FEW017 28/20 Q1010 NOSIG,M
VVTS,2/20/2012 4:00,106.6667,10.8167,86,66.2,51.72,100,4,0,29.83,M,6.21,M,FEW,M,M,M,1700,M,M,M,M,M,M,M,M,M,M,88.39,VVTS 200400Z 10004KT 040V150 9999 FEW017 30/19 Q1010 NOSIG,M
VVTS,2/20/2012 4:30,106.6667,10.8167,87.8,66.2,48.84,220,4,0,29.8,M,6.21,M,SCT,M,M,M,1700,M,M,M,M,M,M,M,M,M,M,90.31,VVTS 200430Z 22004KT 170V260 9999 SCT017 31/19 Q1009 NOSIG,M
VVTS,2/20/2012 5:00,106.6667,10.8167,87.8,66.2,48.84,270,4,0,29.77,M,6.21,M,SCT,M,M,M,2000,M,M,M,M,M,M,M,M,M,M,90.31,VVTS 200500Z 27004KT 210V050 9999 SCT020 31/19 Q1008 NOSIG,M
VVTS,2/20/2012 5:30,106.6667,10.8167,89.6,66.2,46.14,250,4,0,29.77,M,6.21,M,SCT,M,M,M,2000,M,M,M,M,M,M,M,M,M,M,92.27,VVTS 200530Z 25004KT 190V010 9999 SCT020 32/19 Q1008 NOSIG,M
VVTS,2/20/2012 6:00,106.6667,10.8167,89.6,68,49.1,M,3,0,29.74,M,6.21,M,SCT,M,M,M,2000,M,M,M,M,M,M,M,M,M,M,93.47,VVTS 200600Z VRB03KT 9999 SCT020 32/20 Q1007 NOSIG,M
VVTS,2/20/2012 6:30,106.6667,10.8167,91.4,69.8,49.36,260,5,0,29.71,M,6.21,M,SCT,M,M,M,2000,M,M,M,M,M,M,M,M,M,M,96.99,VVTS 200630Z 26005KT 210V320 9999 SCT020 33/21 Q1006 NOSIG,M
VVTS,2/20/2012 7:00,106.6667,10.8167,91.4,69.8,49.36,260,4,0,29.71,M,6.21,M,SCT,M,M,M,2000,M,M,M,M,M,M,M,M,M,M,96.99,VVTS 200700Z 26004KT 180V030 9999 SCT020 33/21 Q1006 NOSIG,M
VVTS,2/20/2012 7:30,106.6667,10.8167,89.6,69.8,52.23,300,6,0,29.68,M,6.21,M,SCT,M,M,M,2000,M,M,M,M,M,M,M,M,M,M,94.85,VVTS 200730Z 30006KT 260V330 9999 SCT020 32/21 Q1005 NOSIG,M
VVTS,2/20/2012 8:00,106.6667,10.8167,91.4,69.8,49.36,290,6,0,29.68,M,6.21,M,SCT,M,M,M,2000,M,M,M,M,M,M,M,M,M,M,96.99,VVTS 200800Z 29006KT 240V330 9999 SCT020 33/21 Q1005 NOSIG,M
VVTS,2/20/2012 8:30,106.6667,10.8167,89.6,69.8,52.23,260,6,0,29.68,M,6.21,M,SCT,M,M,M,2000,M,M,M,M,M,M,M,M,M,M,94.85,VVTS 200830Z 26006KT 230V310 9999 SCT020 32/21 Q1005 NOSIG,M
VVTS,2/20/2012 9:00,106.6667,10.8167,89.6,69.8,52.23,260,6,0,29.68,M,6.21,M,SCT,M,M,M,2000,M,M,M,M,M,M,M,M,M,M,94.85,VVTS 200900Z 26006KT 9999 SCT020 32/21 Q1005 NOSIG,M
VVTS,2/20/2012 9:30,106.6667,10.8167,89.6,69.8,52.23,260,8,0,29.68,M,6.21,M,FEW,M,M,M,2000,M,M,M,M,M,M,M,M,M,M,94.85,VVTS 200930Z 26008KT 9999 FEW020 32/21 Q1005 NOSIG,M
VVTS,2/20/2012 10:00,106.6667,10.8167,87.8,69.8,55.29,240,9,0,29.68,M,6.21,M,FEW,M,M,M,2000,M,M,M,M,M,M,M,M,M,M,92.71,VVTS 201000Z 24009KT 9999 FEW020 31/21 Q1005 NOSIG,M
VVTS,2/20/2012 10:30,106.6667,10.8167,87.8,69.8,55.29,240,8,0,29.71,M,6.21,M,FEW,BKN,M,M,2000,4000,M,M,M,M,M,M,M,M,M,92.71,VVTS 201030Z 24008KT 9999 FEW020 BKN040 31/21 Q1006 NOSIG,M
VVTS,2/20/2012 11:00,106.6667,10.8167,84.2,69.8,62.03,240,8,0,29.71,M,6.21,M,FEW,BKN,M,M,2000,4000,M,M,M,M,M,M,M,M,M,88.43,VVTS 201100Z 24008KT 9999 FEW020 BKN040 29/21 Q1006 NOSIG,M
VVTS,2/20/2012 11:30,106.6667,10.8167,84.2,71.6,65.95,250,6,0,29.71,M,6.21,M,FEW,BKN,M,M,2000,4000,M,M,M,M,M,M,M,M,M,89.6,VVTS 201130Z 25006KT 9999 FEW020 BKN040 29/22 Q1006 NOSIG,M
VVTS,2/20/2012 12:00,106.6667,10.8167,82.4,71.6,69.9,240,6,0,29.71,M,6.21,M,FEW,BKN,M,M,1700,4000,M,M,M,M,M,M,M,M,M,87.18,VVTS 201200Z 24006KT 9999 FEW017 BKN040 28/22 Q1006 NOSIG,M
VVTS,2/20/2012 12:30,106.6667,10.8167,82.4,71.6,69.9,240,4,0,29.71,M,6.21,M,FEW,BKN,M,M,1700,4000,M,M,M,M,M,M,M,M,M,87.18,VVTS 201230Z 24004KT 9999 FEW017 BKN040 28/22 Q1006 NOSIG,M
VVTS,2/20/2012 13:00,106.6667,10.8167,82.4,71.6,69.9,210,5,0,29.74,M,6.21,M,FEW,BKN,M,M,1700,4000,M,M,M,M,M,M,M,M,M,87.18,VVTS 201300Z 21005KT 170V230 9999 FEW017 BKN040 28/22 Q1007 NOSIG,M
VVTS,2/20/2012 13:30,106.6667,10.8167,82.4,69.8,65.74,160,6,0,29.74,M,6.21,M,FEW,BKN,M,M,1700,4000,M,M,M,M,M,M,M,M,M,86.22,VVTS 201330Z 16006KT 9999 FEW017 BKN040 28/21 Q1007 NOSIG,M
VVTS,2/20/2012 14:00,106.6667,10.8167,80.6,75.2,83.66,160,8,0,29.74,M,6.21,M,FEW,SCT,M,M,1700,4000,M,M,M,M,M,M,M,M,M,86.17,VVTS 201400Z 16008KT 130V200 9999 FEW017 SCT040 27/24 Q1007 NOSIG,M
VVTS,2/20/2012 15:00,106.6667,10.8167,80.6,75.2,83.66,150,7,0,29.77,M,6.21,M,FEW,SCT,M,M,1700,4000,M,M,M,M,M,M,M,M,M,86.17,VVTS 201500Z 15007KT 9999 FEW017 SCT040 27/24 Q1008 NOSIG,M
VVTS,2/20/2012 15:30,106.6667,10.8167,80.6,75.2,83.66,130,6,0,29.77,M,6.21,M,FEW,SCT,M,M,1700,4000,M,M,M,M,M,M,M,M,M,86.17,VVTS 201530Z 13006KT 9999 FEW017 SCT040 27/24 Q1008 NOSIG,M
VVTS,2/20/2012 16:00,106.6667,10.8167,80.6,75.2,83.66,150,5,0,29.77,M,6.21,M,FEW,SCT,M,M,1500,1700,M,M,M,M,M,M,M,M,M,86.17,VVTS 201600Z 15005KT 9999 FEW015TCU SCT017 27/24 Q1008 NOSIG,M
VVTS,2/20/2012 16:30,106.6667,10.8167,78.8,75.2,88.75,170,6,0,29.77,M,6.21,M,FEW,SCT,M,M,1500,1700,M,M,M,M,M,M,M,M,M,82.38,VVTS 201630Z 17006KT 9999 FEW015TCU SCT017 26/24 Q1008 NOSIG,M
VVTS,2/20/2012 17:00,106.6667,10.8167,78.8,75.2,88.75,200,6,0,29.77,M,6.21,M,SCT,SCT,M,M,1700,4000,M,M,M,M,M,M,M,M,M,82.38,VVTS 201700Z 20006KT 170V230 9999 SCT017 SCT040 26/24 Q1008 NOSIG,M
VVTS,2/20/2012 17:30,106.6667,10.8167,78.8,75.2,88.75,190,7,0,29.77,M,6.21,M,SCT,SCT,M,M,1700,4000,M,M,M,M,M,M,M,M,M,82.38,VVTS 201730Z 19007KT 9999 SCT017 SCT040 26/24 Q1008 NOSIG,M
VVTS,2/20/2012 18:00,106.6667,10.8167,78.8,75.2,88.75,180,6,0,29.74,M,6.21,M,SCT,SCT,M,M,1700,4000,M,M,M,M,M,M,M,M,M,82.38,VVTS 201800Z 18006KT 9999 SCT017 SCT040 26/24 Q1007 NOSIG,M
VVTS,2/20/2012 18:30,106.6667,10.8167,78.8,75.2,88.75,180,6,0,29.74,M,6.21,M,SCT,SCT,M,M,1700,4000,M,M,M,M,M,M,M,M,M,82.38,VVTS 201830Z 18006KT 9999 SCT017 SCT040 26/24 Q1007 NOSIG,M
VVTS,2/20/2012 19:00,106.6667,10.8167,77,75.2,94.19,170,6,0,29.74,M,6.21,M,SCT,SCT,M,M,1700,4000,M,M,M,M,M,M,M,M,M,78.83,VVTS 201900Z 17006KT 9999 SCT017 SCT040 25/24 Q1007 NOSIG,M
VVTS,2/20/2012 19:30,106.6667,10.8167,77,75.2,94.19,180,6,0,29.74,M,6.21,M,SCT,SCT,M,M,1700,4000,M,M,M,M,M,M,M,M,M,78.83,VVTS 201930Z 18006KT 9999 SCT017 SCT040 25/24 Q1007 NOSIG,M
VVTS,2/20/2012 20:00,106.6667,10.8167,77,75.2,94.19,180,7,0,29.71,M,6.21,M,SCT,SCT,M,M,1700,4000,M,M,M,M,M,M,M,M,M,78.83,VVTS 202000Z 18007KT 9999 SCT017 SCT040 25/24 Q1006 NOSIG,M
VVTS,2/20/2012 20:30,106.6667,10.8167,77,75.2,94.19,190,7,0,29.71,M,6.21,M,SCT,SCT,M,M,1700,4000,M,M,M,M,M,M,M,M,M,78.83,VVTS 202030Z 19007KT 9999 SCT017 SCT040 25/24 Q1006 NOSIG,M
VVTS,2/20/2012 21:00,106.6667,10.8167,77,75.2,94.19,200,5,0,29.71,M,6.21,M,FEW,BKN,M,M,1700,4000,M,M,M,M,M,M,M,M,M,78.83,VVTS 202100Z 20005KT 9999 FEW017 BKN040 25/24 Q1006 NOSIG,M
VVTS,2/20/2012 21:30,106.6667,10.8167,77,75.2,94.19,180,3,0,29.71,M,6.21,M,FEW,BKN,M,M,1700,4000,M,M,M,M,M,M,M,M,M,78.83,VVTS 202130Z 18003KT 9999 FEW017 BKN040 25/24 Q1006 NOSIG,M
VVTS,2/20/2012 22:00,106.6667,10.8167,77,75.2,94.19,0,0,0,29.74,M,6.21,M,FEW,BKN,M,M,1700,4000,M,M,M,M,M,M,M,M,M,78.83,VVTS 202200Z 00000KT 9999 FEW017 BKN040 25/24 Q1007 NOSIG,M
VVTS,2/20/2012 22:30,106.6667,10.8167,75.2,75.2,100,170,4,0,29.74,M,6.21,M,FEW,BKN,M,M,1700,4000,M,M,M,M,M,M,M,M,M,77.12,VVTS 202230Z 17004KT 9999 FEW017 BKN040 24/24 Q1007 NOSIG,M
VVTS,2/20/2012 23:00,106.6667,10.8167,75.2,75.2,100,180,4,0,29.74,M,6.21,M,FEW,BKN,M,M,1700,4000,M,M,M,M,M,M,M,M,M,77.12,VVTS 202300Z 18004KT 9999 FEW017 BKN040 24/24 Q1007 NOSIG,M
VVTS,2/20/2012 23:30,106.6667,10.8167,77,75.2,94.19,220,3,0,29.74,M,6.21,M,FEW,SCT,M,M,1700,4000,M,M,M,M,M,M,M,M,M,78.83,VVTS 202330Z 22003KT 9999 FEW017 SCT040 25/24 Q1007 NOSIG,M
VVTS,2/21/2012 0:00,106.6667,10.8167,77,75.2,94.19,M,3,0,29.77,M,6.21,M,FEW,SCT,M,M,1700,4000,M,M,M,M,M,M,M,M,M,78.83,VVTS 210000Z VRB03KT 9999 FEW017 SCT040 25/24 Q1008 NOSIG,M
VVTS,2/21/2012 0:30,106.6667,10.8167,78.8,75.2,88.75,220,5,0,29.77,M,6.21,M,FEW,M,M,M,1700,M,M,M,M,M,M,M,M,M,M,82.38,VVTS 210030Z 22005KT 9999 FEW017 26/24 Q1008 NOSIG,M
VVTS,2/21/2012 1:00,106.6667,10.8167,78.8,75.2,88.75,230,5,0,29.77,M,6.21,M,SCT,M,M,M,1700,M,M,M,M,M,M,M,M,M,M,82.38,VVTS 210100Z 23005KT 9999 SCT017 26/24 Q1008 NOSIG,M
VVTS,2/21/2012 1:30,106.6667,10.8167,80.6,75.2,83.66,M,3,0,29.77,M,6.21,M,BKN,M,M,M,1700,M,M,M,M,M,M,M,M,M,M,86.17,VVTS 210130Z VRB03KT 9999 BKN017 27/24 Q1008 NOSIG,M
VVTS,2/21/2012 2:00,106.6667,10.8167,84.2,73.4,70.08,230,4,0,29.8,M,6.21,M,BKN,M,M,M,1700,M,M,M,M,M,M,M,M,M,M,90.94,VVTS 210200Z 23004KT 200V270 9999 BKN017 29/23 Q1009 NOSIG,M
VVTS,2/21/2012 2:30,106.6667,10.8167,82.4,73.4,74.28,M,2,0,29.8,M,4.97,M,BKN,M,M,M,1500,M,M,M,M,M,M,M,M,M,M,88.26,VVTS 210230Z VRB02KT 8000 BKN015 28/23 Q1009 NOSIG,M
VVTS,2/21/2012 3:00,106.6667,10.8167,84.2,73.4,70.08,190,4,0,29.8,M,6.21,M,BKN,M,M,M,1500,M,M,M,M,M,M,M,M,M,M,90.94,VVTS 210300Z 19004KT 130V360 9999 BKN015 29/23 Q1009 NOSIG,M
VVTS,2/21/2012 3:30,106.6667,10.8167,84.2,73.4,70.08,M,3,0,29.77,M,6.21,M,SCT,M,M,M,1700,M,M,M,M,M,M,M,M,M,M,90.94,VVTS 210330Z VRB03KT 9999 SCT017 29/23 Q1008 NOSIG,M
VVTS,2/21/2012 4:00,106.6667,10.8167,86,73.4,66.15,M,3,0,29.77,M,6.21,M,SCT,M,M,M,1700,M,M,M,M,M,M,M,M,M,M,93.45,VVTS 210400Z VRB03KT 9999 SCT017 30/23 Q1008 NOSIG,M
VVTS,2/21/2012 4:30,106.6667,10.8167,86,71.6,62.25,M,1,0,29.77,M,6.21,M,SCT,M,M,M,1700,M,M,M,M,M,M,M,M,M,M,91.92,VVTS 210430Z VRB01KT 9999 SCT017 30/22 Q1008 NOSIG,M
VVTS,2/21/2012 5:00,106.6667,10.8167,89.6,73.4,59.01,M,3,0,29.74,M,6.21,M,SCT,M,M,M,1700,M,M,M,M,M,M,M,M,M,M,98.2,VVTS 210500Z VRB03KT 9999 SCT017 32/23 Q1007 NOSIG,M
VVTS,2/21/2012 5:30,106.6667,10.8167,87.8,73.4,62.47,M,3,0,29.74,M,6.21,M,SCT,M,M,M,1700,M,M,M,M,M,M,M,M,M,M,95.86,VVTS 210530Z VRB03KT 9999 SCT017 31/23 Q1007 NOSIG,M
VVTS,2/21/2012 6:00,106.6667,10.8167,87.8,71.6,58.78,140,6,0,29.71,M,6.21,M,BKN,M,M,M,1700,M,M,M,M,M,M,M,M,M,M,94.18,VVTS 210600Z 14006KT 110V170 9999 BKN017 31/22 Q1006 NOSIG,M
VVTS,2/21/2012 6:30,106.6667,10.8167,87.8,71.6,58.78,180,4,0,29.71,M,6.21,M,SCT,SCT,M,M,1700,4000,M,M,M,M,M,M,M,M,M,94.18,VVTS 210630Z 18004KT 090V270 9999 SCT017 SCT040 31/22 Q1006 NOSIG,M
VVTS,2/21/2012 7:00,106.6667,10.8167,87.8,71.6,58.78,M,3,0,29.68,M,6.21,M,SCT,SCT,M,M,1700,4000,M,M,M,M,M,M,M,M,M,94.18,VVTS 210700Z VRB03KT 9999 SCT017 SCT040 31/22 Q1005 NOSIG,M
VVTS,2/21/2012 7:30,106.6667,10.8167,87.8,73.4,62.47,M,3,0,29.68,M,6.21,M,FEW,SCT,BKN,M,1500,1700,4000,M,M,M,M,M,M,M,M,95.86,VVTS 210730Z VRB03KT 9999 FEW015TCU SCT017 BKN040 31/23 Q1005 NOSIG,M
VVTS,2/21/2012 8:00,106.6667,10.8167,87.8,71.6,58.78,210,6,0,29.68,M,6.21,M,FEW,SCT,BKN,M,1500,1700,4000,M,M,M,M,M,M,M,M,94.18,VVTS 210800Z 21006KT 170V240 9999 FEW015TCU SCT017 BKN040 31/22 Q1005 NOSIG,M
VVTS,2/21/2012 8:30,106.6667,10.8167,86,71.6,62.25,220,5,0,29.68,M,6.21,M,FEW,BKN,M,M,1500,1700,M,M,M,M,M,M,M,M,M,91.92,VVTS 210830Z 22005KT 9999 FEW015TCU BKN017 30/22 Q1005 NOSIG,M
VVTS,2/21/2012 9:00,106.6667,10.8167,84.2,71.6,65.95,160,6,0,29.68,M,6.21,M,SCT,SCT,M,M,1500,1700,M,M,M,M,M,M,M,M,M,89.6,VVTS 210900Z 16006KT 130V190 9999 SCT015 SCT017TCU 29/22 Q1005 NOSIG,M
VVTS,2/21/2012 9:30,106.6667,10.8167,84.2,73.4,70.08,150,7,0,29.68,M,6.21,M,SCT,SCT,M,M,1500,1700,M,M,M,M,M,M,M,M,M,90.94,VVTS 210930Z 15007KT 120V190 9999 SCT015 SCT017TCU 29/23 Q1005 NOSIG,M
VVTS,2/21/2012 10:00,106.6667,10.8167,84.2,73.4,70.08,160,5,0,29.68,M,6.21,M,SCT,SCT,M,M,1500,1700,M,M,M,M,M,M,M,M,M,90.94,VVTS 211000Z 16005KT 9999 SCT015 SCT017TCU 29/23 Q1005 NOSIG,M
VVTS,2/21/2012 10:30,106.6667,10.8167,82.4,73.4,74.28,130,5,0,29.68,M,4.97,M,SCT,SCT,M,M,1500,1700,M,M,#NAME?,M,M,M,M,M,M,88.26,VVTS 211030Z 13005KT 110V190 8000 -SHRA SCT015 SCT017CB 28/23 Q1005 TEMPO TL1100 5000 SHRA,M
VVTS,2/21/2012 11:00,106.6667,10.8167,82.4,77,83.77,110,7,0,29.71,M,4.97,M,SCT,SCT,M,M,1500,1700,M,M,#NAME?,M,M,M,M,M,M,90.85,VVTS 211100Z 11007KT 8000 -TSRA SCT015 SCT017CB 28/25 Q1006 TEMPO FM1130 TL1230 3000 TSRA,M
VVTS,2/21/2012 11:30,106.6667,10.8167,80.6,77,88.83,120,7,0,29.71,M,4.97,M,SCT,SCT,M,M,1500,1700,M,M,M,M,M,M,M,M,M,87.1,VVTS 211130Z 12007KT 100V170 8000 SCT015 SCT017CB 27/25 Q1006 TEMPO FM1130 TL1230 3000 TSRA,M
VVTS,2/21/2012 12:00,106.6667,10.8167,78.8,75.2,88.75,170,6,0,29.71,M,6.21,M,SCT,SCT,M,M,1500,1700,M,M,TS,M,M,M,M,M,M,82.38,VVTS 211200Z 17006KT 9999 TS SCT015 SCT017CB 26/24 Q1006 TEMPO FM1130 TL1230 3000 TSRA,M
VVTS,2/21/2012 12:30,106.6667,10.8167,78.8,75.2,88.75,200,5,0,29.71,M,6.21,M,SCT,SCT,M,M,1500,1700,M,M,TS,M,M,M,M,M,M,82.38,VVTS 211230Z 20005KT 9999 TS SCT015 SCT017CB 26/24 Q1006 NOSIG,M
VVTS,2/21/2012 13:00,106.6667,10.8167,78.8,75.2,88.75,200,6,0,29.74,M,6.21,M,SCT,SCT,M,M,1500,1700,M,M,TS,M,M,M,M,M,M,82.38,VVTS 211300Z 20006KT 160V240 9999 TS SCT015 SCT017CB 26/24 Q1007 NOSIG,M
VVTS,2/21/2012 13:30,106.6667,10.8167,78.8,75.2,88.75,140,4,0,29.74,M,6.21,M,SCT,SCT,M,M,1500,1700,M,M,M,M,M,M,M,M,M,82.38,VVTS 211330Z 14004KT 9999 SCT015 SCT017CB 26/24 Q1007 NOSIG,M
VVTS,2/21/2012 14:00,106.6667,10.8167,78.8,77,94.23,170,5,0,29.74,M,6.21,M,FEW,SCT,M,M,1500,1700,M,M,M,M,M,M,M,M,M,82.75,VVTS 211400Z 17005KT 9999 FEW015 SCT017CB 26/25 Q1007 NOSIG,M
VVTS,2/21/2012 14:30,106.6667,10.8167,78.8,75.2,88.75,150,3,0,29.74,M,6.21,M,FEW,SCT,M,M,1700,4000,M,M,M,M,M,M,M,M,M,82.38,VVTS 211430Z 15003KT 9999 FEW017 SCT040 26/24 Q1007 NOSIG,M
VVTS,2/21/2012 15:00,106.6667,10.8167,78.8,75.2,88.75,150,3,0,29.74,M,6.21,M,FEW,SCT,M,M,1700,4000,M,M,M,M,M,M,M,M,M,82.38,VVTS 211500Z 15003KT 9999 FEW017 SCT040 26/24 Q1007 NOSIG,M
VVTS,2/21/2012 15:30,106.6667,10.8167,78.8,75.2,88.75,150,5,0,29.74,M,6.21,M,FEW,SCT,M,M,1700,4000,M,M,M,M,M,M,M,M,M,82.38,VVTS 211530Z 15005KT 9999 FEW017 SCT040 26/24 Q1007 NOSIG,M
VVTS,2/21/2012 16:00,106.6667,10.8167,78.8,77,94.23,150,5,0,29.74,M,6.21,M,FEW,SCT,M,M,1700,4000,M,M,M,M,M,M,M,M,M,82.75,VVTS 211600Z 15005KT 9999 FEW017 SCT040 26/25 Q1007 NOSIG,M
VVTS,2/21/2012 16:30,106.6667,10.8167,78.8,78.8,100,140,5,0,29.74,M,6.21,M,FEW,SCT,M,M,1700,4000,M,M,M,M,M,M,M,M,M,83.15,VVTS 211630Z 14005KT 120V200 9999 FEW017 SCT040 26/26 Q1007 NOSIG,M
VVTS,2/21/2012 17:00,106.6667,10.8167,78.8,78.8,100,140,6,0,29.74,M,6.21,M,FEW,SCT,M,M,1700,4000,M,M,M,M,M,M,M,M,M,83.15,VVTS 211700Z 14006KT 080V170 9999 FEW017 SCT040 26/26 Q1007 NOSIG,M
VVTS,2/21/2012 17:30,106.6667,10.8167,78.8,78.8,100,140,4,0,29.74,M,6.21,M,FEW,SCT,M,M,1700,4000,M,M,M,M,M,M,M,M,M,83.15,VVTS 211730Z 14004KT 110V190 9999 FEW017 SCT040 26/26 Q1007 NOSIG,M
VVTS,2/21/2012 18:00,106.6667,10.8167,78.8,78.8,100,160,6,0,29.74,M,6.21,M,SCT,M,M,M,1700,M,M,M,M,M,M,M,M,M,M,83.15,VVTS 211800Z 16006KT 9999 SCT017 26/26 Q1007 NOSIG,M
VVTS,2/21/2012 18:30,106.6667,10.8167,78.8,78.8,100,160,4,0,29.74,M,6.21,M,BKN,M,M,M,1700,M,M,M,M,M,M,M,M,M,M,83.15,VVTS 211830Z 16004KT 140V200 9999 BKN017 26/26 Q1007 NOSIG,M
VVTS,2/21/2012 19:00,106.6667,10.8167,78.8,78.8,100,180,4,0,29.71,M,6.21,M,BKN,M,M,M,1700,M,M,M,M,M,M,M,M,M,M,83.15,VVTS 211900Z 18004KT 9999 BKN017 26/26 Q1006 NOSIG,M
VVTS,2/21/2012 20:00,106.6667,10.8167,78.8,77,94.23,170,4,0,29.71,M,6.21,M,BKN,M,M,M,1700,M,M,M,M,M,M,M,M,M,M,82.75,VVTS 212000Z 17004KT 9999 BKN017 26/25 Q1006 NOSIG,M
VVTS,2/21/2012 20:30,106.6667,10.8167,78.8,77,94.23,180,5,0,29.71,M,6.21,M,BKN,M,M,M,1700,M,M,M,M,M,M,M,M,M,M,82.75,VVTS 212030Z 18005KT 9999 BKN017 26/25 Q1006 NOSIG,M
VVTS,2/21/2012 21:00,106.6667,10.8167,78.8,75.2,88.75,190,4,0,29.71,M,6.21,M,FEW,SCT,M,M,1700,4000,M,M,M,M,M,M,M,M,M,82.38,VVTS 212100Z 19004KT 9999 FEW017 SCT040 26/24 Q1006 NOSIG,M
VVTS,2/21/2012 21:30,106.6667,10.8167,78.8,77,94.23,190,4,0,29.71,M,6.21,M,FEW,SCT,M,M,1700,4000,M,M,M,M,M,M,M,M,M,82.75,VVTS 212130Z 19004KT 9999 FEW017 SCT040 26/25 Q1006 NOSIG,M
VVTS,2/21/2012 22:00,106.6667,10.8167,78.8,77,94.23,230,2,0,29.71,M,6.21,M,FEW,SCT,M,M,1700,4000,M,M,M,M,M,M,M,M,M,82.75,VVTS 212200Z 23002KT 9999 FEW017 SCT040 26/25 Q1006 NOSIG,M
VVTS,2/21/2012 22:30,106.6667,10.8167,78.8,77,94.23,M,3,0,29.74,M,6.21,M,FEW,SCT,M,M,1500,1700,M,M,TS,M,M,M,M,M,M,82.75,VVTS 212230Z VRB03KT 9999 TS FEW015CB SCT017 26/25 Q1007 TEMPO FM2300 TL2400 5000 TSRA,M
VVTS,2/21/2012 23:00,106.6667,10.8167,78.8,77,94.23,200,5,0,29.74,M,4.97,M,SCT,SCT,M,M,1500,1700,M,M,TS,M,M,M,M,M,M,82.75,VVTS 212300Z 20005KT 160V230 8000 TS SCT015 SCT017CB 26/25 Q1007 TEMPO FM2300 TL2400 5000 TSRA,M
VVTS,2/21/2012 23:30,106.6667,10.8167,77,77,100,M,3,0,29.77,M,2.55,M,BKN,SCT,M,M,1300,1500,M,M,TSRA,M,M,M,M,M,M,77,VVTS 212330Z VRB03KT 4100 TSRA BKN013 SCT015CB 25/25 Q1008 TEMPO TL2400 3000 TSRA,M
VVTS,2/22/2012 0:00,106.6667,10.8167,77,77,100,M,2,0,29.77,M,2.73,M,BKN,SCT,M,M,1300,1500,M,M,TSRA,M,M,M,M,M,M,77,VVTS 220000Z VRB02KT 4400 TSRA BKN013 SCT015CB 25/25 Q1008 TEMPO TL2400 3000 TSRA,M
VVTS,2/22/2012 0:30,106.6667,10.8167,75.2,75.2,100,120,5,0,29.8,M,1.55,M,BKN,SCT,M,M,1000,1300,M,M,TSRA,M,M,M,M,M,M,77.12,VVTS 220030Z 12005KT 350V180 2500 R25R/1100V1500D TSRA BKN010 SCT013CB 24/24 Q1009 BECMG TL0100 5000 TSRA,M
VVTS,2/22/2012 1:00,106.6667,10.8167,75.2,75.2,100,M,3,0,29.8,M,6.21,M,BKN,SCT,M,M,1000,1300,M,M,TS,M,M,M,M,M,M,77.12,VVTS 220100Z VRB03KT 9999 TS BKN010 SCT013CB 24/24 Q1009 NOSIG,M
VVTS,2/22/2012 1:30,106.6667,10.8167,75.2,75.2,100,M,1,0,29.8,M,4.97,M,FEW,BKN,M,M,1300,1500,M,M,M,M,M,M,M,M,M,77.12,VVTS 220130Z VRB01KT 8000 FEW013CB BKN015 24/24 Q1009 NO SIG,M
VVTS,2/22/2012 2:00,106.6667,10.8167,75.2,75.2,100,M,1,0,29.8,M,4.97,M,FEW,BKN,M,M,1300,1500,M,M,M,M,M,M,M,M,M,77.12,VVTS 220200Z VRB01KT 8000 FEW013CB BKN015 24/24 Q1009 NOSIG,M
VVTS,2/22/2012 2:30,106.6667,10.8167,78.8,77,94.23,M,3,0,29.8,M,6.21,M,SCT,BKN,M,M,1500,4000,M,M,M,M,M,M,M,M,M,82.75,VVTS 220230Z VRB03KT 9999 SCT015 BKN040 26/25 Q1009 NOSIG,M
VVTS,2/22/2012 3:00,106.6667,10.8167,78.8,78.8,100,M,3,0,29.8,M,6.21,M,SCT,BKN,M,M,1500,4000,M,M,M,M,M,M,M,M,M,83.15,VVTS 220300Z VRB03KT 9999 SCT015 BKN040 26/26 Q1009 NOSIG,M
VVTS,2/22/2012 3:30,106.6667,10.8167,82.4,78.8,88.9,140,6,0,29.8,M,6.21,M,FEW,BKN,M,M,1700,4000,M,M,M,M,M,M,M,M,M,92.4,VVTS 220330Z 14006KT 100V180 9999 FEW017 BKN040 28/26 Q1009 NOSIG,M
VVTS,2/22/2012 4:00,106.6667,10.8167,84.2,77,79.04,110,6,0,29.8,M,6.21,M,SCT,SCT,M,M,1700,4000,M,M,M,M,M,M,M,M,M,94.16,VVTS 220400Z 11006KT 070V170 9999 SCT017 SCT040 29/25 Q1009 NOSIG,M
VVTS,2/22/2012 4:30,106.6667,10.8167,84.2,75.2,74.44,110,9,0,29.77,M,6.21,M,BKN,M,M,M,1500,M,M,M,M,M,M,M,M,M,M,92.45,VVTS 220430Z 11009KT 9999 BKN015 29/24 Q1008 NOSIG,M
VVTS,2/22/2012 5:00,106.6667,10.8167,87.8,75.2,66.35,140,7,0,29.77,M,6.21,M,BKN,M,M,M,1500,M,M,M,M,M,M,M,M,M,M,97.76,VVTS 220500Z 14007KT 110V200 9999 BKN015 31/24 Q1008 NOSIG,M
VVTS,2/22/2012 5:30,106.6667,10.8167,87.8,75.2,66.35,100,9,0,29.74,M,6.21,M,BKN,M,M,M,1500,M,M,M,M,M,M,M,M,M,M,97.76,VVTS 220530Z 10009KT 9999 BKN015 31/24 Q1007 NOSIG,M
VVTS,2/22/2012 6:00,106.6667,10.8167,87.8,73.4,62.47,100,11,0,29.74,M,6.21,M,BKN,M,M,M,1500,M,M,M,M,M,M,M,M,M,M,95.86,VVTS 220600Z 10011KT 9999 BKN015 31/23 Q1007 NOSIG,M
VVTS,2/22/2012 6:30,106.6667,10.8167,87.8,73.4,62.47,100,11,0,29.71,M,6.21,M,BKN,M,M,M,1500,M,M,M,M,M,M,M,M,M,M,95.86,VVTS 220630Z 10011KT 9999 BKN015 31/23 Q1006 NOSIG,M
VVTS,2/22/2012 7:00,106.6667,10.8167,87.8,75.2,66.35,120,7,0,29.71,M,6.21,M,BKN,M,M,M,1500,M,M,M,M,M,M,M,M,M,M,97.76,VVTS 220700Z 12007KT 9999 BKN015 31/24 Q1006 NOSIG,M
VVTS,2/22/2012 7:30,106.6667,10.8167,87.8,75.2,66.35,140,7,0,29.71,M,6.21,M,FEW,SCT,M,M,1500,1700,M,M,M,M,M,M,M,M,M,97.76,VVTS 220730Z 14007KT 090V180 9999 FEW015TCU SCT017 31/24 Q1006 NOSIG,M
VVTS,2/22/2012 8:00,106.6667,10.8167,86,75.2,70.27,130,10,0,29.68,M,6.21,M,BKN,M,M,M,1700,M,M,M,M,M,M,M,M,M,M,95.19,VVTS 220800Z 13010KT 9999 BKN017 30/24 Q1005 NOSIG,M
VVTS,2/22/2012 8:30,106.6667,10.8167,84.2,75.2,74.44,120,8,0,29.68,M,6.21,M,SCT,M,M,M,1700,M,M,M,M,M,M,M,M,M,M,92.45,VVTS 220830Z 12008KT 9999 SCT017 29/24 Q1005 NOSIG,M
VVTS,2/22/2012 9:00,106.6667,10.8167,86,73.4,66.15,140,7,0,29.68,M,6.21,M,SCT,M,M,M,1700,M,M,M,M,M,M,M,M,M,M,93.45,VVTS 220900Z 14007KT 110V180 9999 SCT017 30/23 Q1005 NOSIG,M
VVTS,2/22/2012 9:30,106.6667,10.8167,84.2,73.4,70.08,130,8,0,29.68,M,6.21,M,SCT,M,M,M,1700,M,M,M,M,M,M,M,M,M,M,90.94,VVTS 220930Z 13008KT 9999 SCT017 29/23 Q1005 NOSIG,M
VVTS,2/22/2012 10:00,106.6667,10.8167,84.2,75.2,74.44,140,7,0,29.68,M,6.21,M,SCT,M,M,M,1700,M,M,M,M,M,M,M,M,M,M,92.45,VVTS 221000Z 14007KT 9999 SCT017 29/24 Q1005 NOSIG,M
VVTS,2/22/2012 10:30,106.6667,10.8167,82.4,75.2,78.9,140,9,0,29.68,M,6.21,M,SCT,M,M,M,1700,M,M,M,M,M,M,M,M,M,M,89.48,VVTS 221030Z 14009KT 9999 SCT017 28/24 Q1005 NOSIG,M
VVTS,2/22/2012 11:00,106.6667,10.8167,82.4,73.4,74.28,130,7,0,29.68,M,6.21,M,SCT,M,M,M,1700,M,M,M,M,M,M,M,M,M,M,88.26,VVTS 221100Z 13007KT 110V180 9999 SCT017 28/23 Q1005 NOSIG,M
VVTS,2/22/2012 11:30,106.6667,10.8167,82.4,73.4,74.28,140,7,0,29.71,M,6.21,M,FEW,SCT,M,M,1700,4000,M,M,M,M,M,M,M,M,M,88.26,VVTS 221130Z 14007KT 100V180 9999 FEW017 SCT040 28/23 Q1006 NOSIG,M
VVTS,2/22/2012 12:00,106.6667,10.8167,80.6,73.4,78.76,130,6,0,29.71,M,6.21,M,FEW,SCT,M,M,1700,4000,M,M,M,M,M,M,M,M,M,85.32,VVTS 221200Z 13006KT 110V170 9999 FEW017 SCT040 27/23 Q1006 NOSIG,M
VVTS,2/22/2012 13:00,106.6667,10.8167,80.6,73.4,78.76,130,6,0,29.74,M,6.21,M,FEW,SCT,M,M,1700,4000,M,M,M,M,M,M,M,M,M,85.32,VVTS 221300Z 13006KT 9999 FEW017 SCT040 27/23 Q1007 NOSIG,M
VVTS,2/22/2012 13:30,106.6667,10.8167,78.8,73.4,83.55,130,8,0,29.74,M,6.21,M,FEW,SCT,M,M,1700,4000,M,M,M,M,M,M,M,M,M,82.03,VVTS 221330Z 13008KT 9999 FEW017 SCT040 26/23 Q1007 NOSIG,M
VVTS,2/22/2012 14:00,106.6667,10.8167,78.8,73.4,83.55,120,8,0,29.74,M,6.21,M,FEW,SCT,M,M,1700,4000,M,M,M,M,M,M,M,M,M,82.03,VVTS 221400Z 12008KT 090V170 9999 FEW017 SCT040 26/23 Q1007 NOSIG,M
VVTS,2/22/2012 14:30,106.6667,10.8167,78.8,73.4,83.55,110,9,0,29.74,M,6.21,M,FEW,SCT,M,M,1700,4000,M,M,M,M,M,M,M,M,M,82.03,VVTS 221430Z 11009KT 9999 FEW017 SCT040 26/23 Q1007 NOSIG,M
VVTS,2/22/2012 15:00,106.6667,10.8167,77,73.4,88.67,110,9,0,29.74,M,6.21,M,FEW,SCT,M,M,1700,4000,M,M,M,M,M,M,M,M,M,78.57,VVTS 221500Z 11009KT 9999 FEW017 SCT040 25/23 Q1007 NOSIG,M
VVTS,2/22/2012 15:30,106.6667,10.8167,77,73.4,88.67,120,7,0,29.74,M,6.21,M,FEW,M,M,M,1700,M,M,M,M,M,M,M,M,M,M,78.57,VVTS 221530Z 12007KT 9999 FEW017 25/23 Q1007 NOSIG,M
VVTS,2/22/2012 16:00,106.6667,10.8167,77,73.4,88.67,120,7,0,29.74,M,6.21,M,FEW,M,M,M,1700,M,M,M,M,M,M,M,M,M,M,78.57,VVTS 221600Z 12007KT 9999 FEW017 25/23 Q1007 NOSIG,M
VVTS,2/22/2012 16:30,106.6667,10.8167,77,73.4,88.67,130,6,0,29.74,M,6.21,M,FEW,M,M,M,1700,M,M,M,M,M,M,M,M,M,M,78.57,VVTS 221630Z 13006KT 9999 FEW017 25/23 Q1007 NOSIG,M
VVTS,2/22/2012 17:00,106.6667,10.8167,75.2,73.4,94.14,120,7,0,29.74,M,6.21,M,FEW,M,M,M,1700,M,M,M,M,M,M,M,M,M,M,76.84,VVTS 221700Z 12007KT 9999 FEW017 24/23 Q1007 NOSIG,M
VVTS,2/22/2012 17:30,106.6667,10.8167,75.2,73.4,94.14,120,8,0,29.74,M,6.21,M,FEW,M,M,M,1700,M,M,M,M,M,M,M,M,M,M,76.84,VVTS 221730Z 12008KT 100V170 9999 FEW017 24/23 Q1007 NOSIG,M
VVTS,2/22/2012 18:00,106.6667,10.8167,75.2,73.4,94.14,130,6,0,29.74,M,6.21,M,FEW,M,M,M,1700,M,M,M,M,M,M,M,M,M,M,76.84,VVTS 221800Z 13006KT 9999 FEW017 24/23 Q1007 NOSIG,M
VVTS,2/22/2012 18:30,106.6667,10.8167,75.2,73.4,94.14,130,5,0,29.74,M,6.21,M,FEW,M,M,M,1700,M,M,M,M,M,M,M,M,M,M,76.84,VVTS 221830Z 13005KT 100V160 9999 FEW017 24/23 Q1007 NOSIG,M
VVTS,2/22/2012 19:00,106.6667,10.8167,75.2,73.4,94.14,130,4,0,29.74,M,6.21,M,FEW,M,M,M,1700,M,M,M,M,M,M,M,M,M,M,76.84,VVTS 221900Z 13004KT 9999 FEW017 24/23 Q1007 NOSIG,M
VVTS,2/22/2012 19:30,106.6667,10.8167,75.2,73.4,94.14,120,4,0,29.71,M,6.21,M,FEW,M,M,M,1700,M,M,M,M,M,M,M,M,M,M,76.84,VVTS 221930Z 12004KT 9999 FEW017 24/23 Q1006 NOSIG,M
VVTS,2/22/2012 20:00,106.6667,10.8167,75.2,73.4,94.14,120,5,0,29.71,M,6.21,M,FEW,M,M,M,1700,M,M,M,M,M,M,M,M,M,M,76.84,VVTS 222000Z 12005KT 9999 FEW017 24/23 Q1006 NOSIG,M
VVTS,2/22/2012 20:30,106.6667,10.8167,75.2,73.4,94.14,130,4,0,29.71,M,6.21,M,FEW,M,M,M,1700,M,M,M,M,M,M,M,M,M,M,76.84,VVTS 222030Z 13004KT 9999 FEW017 24/23 Q1006 NOSIG,M
VVTS,2/22/2012 21:00,106.6667,10.8167,75.2,73.4,94.14,M,3,0,29.71,M,6.21,M,FEW,M,M,M,1700,M,M,M,M,M,M,M,M,M,M,76.84,VVTS 222100Z VRB03KT 9999 FEW017 24/23 Q1006 NOSIG,M
VVTS,2/22/2012 21:30,106.6667,10.8167,75.2,73.4,94.14,100,3,0,29.71,M,6.21,M,FEW,M,M,M,1700,M,M,M,M,M,M,M,M,M,M,76.84,VVTS 222130Z 10003KT 9999 FEW017 24/23 Q1006 NOSIG,M
VVTS,2/22/2012 22:00,106.6667,10.8167,75.2,73.4,94.14,110,4,0,29.74,M,6.21,M,FEW,M,M,M,1700,M,M,M,M,M,M,M,M,M,M,76.84,VVTS 222200Z 11004KT 9999 FEW017 24/23 Q1007 NOSIG,M
VVTS,2/22/2012 22:30,106.6667,10.8167,75.2,73.4,94.14,110,5,0,29.74,M,6.21,M,FEW,M,M,M,1700,M,M,M,M,M,M,M,M,M,M,76.84,VVTS 222230Z 11005KT 9999 FEW017 24/23 Q1007 NOSIG,M
VVTS,2/22/2012 23:00,106.6667,10.8167,75.2,75.2,100,120,3,0,29.74,M,6.21,M,FEW,M,M,M,1700,M,M,M,M,M,M,M,M,M,M,77.12,VVTS 222300Z 12003KT 9999 FEW017 24/24 Q1007 NOSIG,M
VVTS,2/22/2012 23:30,106.6667,10.8167,75.2,73.4,94.14,120,4,0,29.77,M,6.21,M,FEW,M,M,M,1700,M,M,M,M,M,M,M,M,M,M,76.84,VVTS 222330Z 12004KT 090V170 9999 FEW017 24/23 Q1008 NOSIG,M
VVTS,2/23/2012 0:00,106.6667,10.8167,77,75.2,94.19,90,4,0,29.77,M,6.21,M,FEW,M,M,M,1700,M,M,M,M,M,M,M,M,M,M,78.83,VVTS 230000Z 09004KT 9999 FEW017 25/24 Q1008 NOSIG,M
VVTS,2/23/2012 0:30,106.6667,10.8167,78.8,69.8,73.95,110,6,0,29.8,M,6.21,M,FEW,M,M,M,1700,M,M,M,M,M,M,M,M,M,M,81.39,VVTS 230030Z 11006KT 9999 FEW017 26/21 Q1009 NOSIG,M
VVTS,2/23/2012 1:00,106.6667,10.8167,80.6,73.4,78.76,110,7,0,29.8,M,6.21,M,SCT,M,M,M,1700,M,M,M,M,M,M,M,M,M,M,85.32,VVTS 230100Z 11007KT 060V150 9999 SCT017 27/23 Q1009 NOSIG,M
VVTS,2/23/2012 1:30,106.6667,10.8167,82.4,73.4,74.28,110,8,0,29.8,M,6.21,M,SCT,M,M,M,1700,M,M,M,M,M,M,M,M,M,M,88.26,VVTS 230130Z 11008KT 090V150 9999 SCT017 28/23 Q1009 NOSIG,M
VVTS,2/23/2012 2:00,106.6667,10.8167,84.2,73.4,70.08,120,9,0,29.8,M,6.21,M,SCT,M,M,M,1700,M,M,M,M,M,M,M,M,M,M,90.94,VVTS 230200Z 12009KT 9999 SCT017 29/23 Q1009 NOSIG,M
VVTS,2/23/2012 2:30,106.6667,10.8167,84.2,73.4,70.08,130,9,0,29.8,M,6.21,M,SCT,M,M,M,1700,M,M,M,M,M,M,M,M,M,M,90.94,VVTS 230230Z 13009KT 090V160 9999 SCT017 29/23 Q1009,M
VVTS,2/23/2012 3:00,106.6667,10.8167,86,71.6,62.25,120,10,0,29.8,M,6.21,M,SCT,M,M,M,1700,M,M,M,M,M,M,M,M,M,M,91.92,VVTS 230300Z 12010KT 090V160 9999 SCT017 30/22 Q1009 NOSIG,M
VVTS,2/23/2012 3:30,106.6667,10.8167,87.8,71.6,58.78,140,10,0,29.77,M,6.21,M,SCT,M,M,M,1700,M,M,M,M,M,M,M,M,M,M,94.18,VVTS 230330Z 14010KT 9999 SCT017 31/22 Q1008 NOSIG,M
VVTS,2/23/2012 4:00,106.6667,10.8167,87.8,71.6,58.78,130,9,0,29.77,M,6.21,M,FEW,M,M,M,2000,M,M,M,M,M,M,M,M,M,M,94.18,VVTS 230400Z 13009KT 090V170 9999 FEW020 31/22 Q1008 NOSIG,M
VVTS,2/23/2012 4:30,106.6667,10.8167,89.6,71.6,55.53,130,8,0,29.74,M,6.21,M,FEW,M,M,M,2000,M,M,M,M,M,M,M,M,M,M,96.41,VVTS 230430Z 13008KT 090V200 9999 FEW020 32/22 Q1007 NOSIG,M
VVTS,2/23/2012 5:00,106.6667,10.8167,89.6,71.6,55.53,130,7,0,29.74,M,6.21,M,FEW,M,M,M,2000,M,M,M,M,M,M,M,M,M,M,96.41,VVTS 230500Z 13007KT 090V200 9999 FEW020 32/22 Q1007 NOSIG,M
VVTS,2/23/2012 5:30,106.6667,10.8167,89.6,71.6,55.53,140,6,0,29.74,M,6.21,M,FEW,M,M,M,2000,M,M,M,M,M,M,M,M,M,M,96.41,VVTS 230530Z 14006KT 080V190 9999 FEW020 32/22 Q1007 NOSIG,M
VVTS,2/23/2012 6:00,106.6667,10.8167,91.4,71.6,52.48,160,7,0,29.71,M,6.21,M,FEW,M,M,M,2000,M,M,M,M,M,M,M,M,M,M,98.64,VVTS 230600Z 16007KT 130V210 9999 FEW020 33/22 Q1006 NOSIG,M
VVTS,2/23/2012 7:00,106.6667,10.8167,91.4,73.4,55.77,170,6,0,29.68,M,6.21,M,SCT,M,M,M,2000,M,M,M,M,M,M,M,M,M,M,100.52,VVTS 230700Z 17006KT 120V240 9999 SCT020 33/23 Q1005 NOSIG,M
VVTS,2/23/2012 7:30,106.6667,10.8167,89.6,73.4,59.01,170,9,0,29.68,M,6.21,M,SCT,M,M,M,2000,M,M,M,M,M,M,M,M,M,M,98.2,VVTS 230730Z 17009KT 120V220 9999 SCT020 32/23 Q1005 NOSIG,M
VVTS,2/23/2012 8:00,106.6667,10.8167,89.6,73.4,59.01,160,11,0,29.68,M,6.21,M,SCT,M,M,M,2000,M,M,M,M,M,M,M,M,M,M,98.2,VVTS 230800Z 16011KT 9999 SCT020 32/23 Q1005 NOSIG,M
VVTS,2/23/2012 8:30,106.6667,10.8167,87.8,73.4,62.47,160,10,0,29.68,M,6.21,M,SCT,M,M,M,2000,M,M,M,M,M,M,M,M,M,M,95.86,VVTS 230830Z 16010KT 130V200 9999 SCT020 31/23 Q1005 NOSIG,M
VVTS,2/23/2012 9:00,106.6667,10.8167,87.8,73.4,62.47,170,9,0,29.68,M,6.21,M,FEW,M,M,M,2000,M,M,M,M,M,M,M,M,M,M,95.86,VVTS 230900Z 17009KT 130V200 9999 FEW020 31/23 Q1005 NOSIG,M
VVTS,2/23/2012 9:30,106.6667,10.8167,86,73.4,66.15,180,8,0,29.68,M,6.21,M,FEW,M,M,M,2000,M,M,M,M,M,M,M,M,M,M,93.45,VVTS 230930Z 18008KT 130V220 9999 FEW020 30/23 Q1005 NOSIG,M
VVTS,2/23/2012 10:00,106.6667,10.8167,84.2,73.4,70.08,170,8,0,29.68,M,6.21,M,FEW,M,M,M,2000,M,M,M,M,M,M,M,M,M,M,90.94,VVTS 231000Z 17008KT 150V210 9999 FEW020 29/23 Q1005 NOSIG,M
VVTS,2/23/2012 10:30,106.6667,10.8167,82.4,73.4,74.28,170,9,0,29.68,M,6.21,M,FEW,M,M,M,2000,M,M,M,M,M,M,M,M,M,M,88.26,VVTS 231030Z 17009KT 9999 FEW020 28/23 Q1005 NOSIG,M
VVTS,2/23/2012 11:00,106.6667,10.8167,80.6,73.4,78.76,170,9,0,29.68,M,6.21,M,FEW,M,M,M,2000,M,M,M,M,M,M,M,M,M,M,85.32,VVTS 231100Z 17009KT 140V200 9999 FEW020 27/23 Q1005 NOSIG,M
VVTS,2/23/2012 11:30,106.6667,10.8167,80.6,73.4,78.76,170,11,0,29.68,M,6.21,M,FEW,M,M,M,1700,M,M,M,M,M,M,M,M,M,M,85.32,VVTS 231130Z 17011KT 130V200 9999 FEW017 27/23 Q1005 NOSIG,M
VVTS,2/23/2012 12:00,106.6667,10.8167,78.8,73.4,83.55,160,11,0,29.71,M,6.21,M,SCT,M,M,M,1700,M,M,M,M,M,M,M,M,M,M,82.03,VVTS 231200Z 16011KT 9999 SCT017 26/23 Q1006 NOSIG,M
VVTS,2/23/2012 12:30,106.6667,10.8167,78.8,73.4,83.55,160,9,0,29.71,M,6.21,M,SCT,M,M,M,1700,M,M,M,M,M,M,M,M,M,M,82.03,VVTS 231230Z 16009KT 9999 SCT017 26/23 Q1006 NOSIG,M
VVTS,2/23/2012 13:00,106.6667,10.8167,78.8,73.4,83.55,160,7,0,29.74,M,6.21,M,FEW,M,M,M,1700,M,M,M,M,M,M,M,M,M,M,82.03,VVTS 231300Z 16007KT 140V210 9999 FEW017 26/23 Q1007 NOSIG,M
VVTS,2/23/2012 13:30,106.6667,10.8167,78.8,75.2,88.75,150,9,0,29.74,M,6.21,M,FEW,M,M,M,1700,M,M,M,M,M,M,M,M,M,M,82.38,VVTS 231330Z 15009KT 9999 FEW017 26/24 Q1007 NOSIG,M
VVTS,2/23/2012 14:00,106.6667,10.8167,78.8,73.4,83.55,150,7,0,29.74,M,6.21,M,FEW,M,M,M,1700,M,M,M,M,M,M,M,M,M,M,82.03,VVTS 231400Z 15007KT 120V190 9999 FEW017 26/23 Q1007 NOSIG,M
VVTS,2/23/2012 14:30,106.6667,10.8167,78.8,73.4,83.55,150,9,0,29.77,M,6.21,M,FEW,M,M,M,1700,M,M,M,M,M,M,M,M,M,M,82.03,VVTS 231430Z 15009KT 9999 FEW017 26/23 Q1008 NOSIG,M
VVTS,2/23/2012 15:00,106.6667,10.8167,78.8,73.4,83.55,150,7,0,29.77,M,6.21,M,FEW,M,M,M,1700,M,M,M,M,M,M,M,M,M,M,82.03,VVTS 231500Z 15007KT 9999 FEW017 26/23 Q1008 NOSIG,M
VVTS,2/23/2012 15:30,106.6667,10.8167,78.8,73.4,83.55,140,7,0,29.77,M,6.21,M,FEW,M,M,M,1700,M,M,M,M,M,M,M,M,M,M,82.03,VVTS 231530Z 14007KT 090V200 9999 FEW017 26/23 Q1008 NOSIG,M
VVTS,2/23/2012 16:00,106.6667,10.8167,78.8,73.4,83.55,150,6,0,29.77,M,6.21,M,FEW,M,M,M,1700,M,M,M,M,M,M,M,M,M,M,82.03,VVTS 231600Z 15006KT 110V170 9999 FEW017 26/23 Q1008 NOSIG,M
VVTS,2/23/2012 16:30,106.6667,10.8167,77,73.4,88.67,150,4,0,29.77,M,6.21,M,FEW,M,M,M,1700,M,M,M,M,M,M,M,M,M,M,78.57,VVTS 231630Z 15004KT 9999 FEW017 25/23 Q1008 NOSIG,M
VVTS,2/23/2012 17:00,106.6667,10.8167,77,73.4,88.67,160,5,0,29.77,M,6.21,M,FEW,M,M,M,1700,M,M,M,M,M,M,M,M,M,M,78.57,VVTS 231700Z 16005KT 130V190 9999 FEW017 25/23 Q1008 NOSIG,M
VVTS,2/23/2012 17:30,106.6667,10.8167,77,73.4,88.67,150,6,0,29.77,M,6.21,M,FEW,M,M,M,1700,M,M,M,M,M,M,M,M,M,M,78.57,VVTS 231730Z 15006KT 120V200 9999 FEW017 25/23 Q1008 NOSIG,M
VVTS,2/23/2012 18:00,106.6667,10.8167,77,73.4,88.67,130,3,0,29.74,M,6.21,M,FEW,M,M,M,1700,M,M,M,M,M,M,M,M,M,M,78.57,VVTS 231800Z 13003KT 9999 FEW017 25/23 Q1007 NOSIG,M
VVTS,2/23/2012 18:30,106.6667,10.8167,77,73.4,88.67,130,2,0,29.74,M,6.21,M,FEW,M,M,M,1700,M,M,M,M,M,M,M,M,M,M,78.57,VVTS 231830Z 13002KT 9999 FEW017 25/23 Q1007 NOSIG,M
VVTS,2/23/2012 19:00,106.6667,10.8167,77,73.4,88.67,130,6,0,29.74,M,6.21,M,FEW,M,M,M,1700,M,M,M,M,M,M,M,M,M,M,78.57,VVTS 231900Z 13006KT 9999 FEW017 25/23 Q1007 NOSIG,M
VVTS,2/23/2012 19:30,106.6667,10.8167,77,75.2,94.19,140,4,0,29.74,M,6.21,M,FEW,M,M,M,1700,M,M,M,M,M,M,M,M,M,M,78.83,VVTS 231930Z 14004KT 9999 FEW017 25/24 Q1007 NOSIG,M
VVTS,2/23/2012 20:00,106.6667,10.8167,77,75.2,94.19,150,6,0,29.71,M,6.21,M,FEW,M,M,M,1700,M,M,M,M,M,M,M,M,M,M,78.83,VVTS 232000Z 15006KT 9999 FEW017 25/24 Q1006 NOSIG,M
VVTS,2/23/2012 20:30,106.6667,10.8167,75.2,73.4,94.14,130,4,0,29.71,M,6.21,M,FEW,M,M,M,1700,M,M,M,M,M,M,M,M,M,M,76.84,VVTS 232030Z 13004KT 9999 FEW017 24/23 Q1006 NOSIG,M
VVTS,2/23/2012 21:00,106.6667,10.8167,75.2,73.4,94.14,110,3,0,29.71,M,6.21,M,FEW,M,M,M,1700,M,M,M,M,M,M,M,M,M,M,76.84,VVTS 232100Z 11003KT 9999 FEW017 24/23 Q1006 NOSIG,M
VVTS,2/23/2012 21:30,106.6667,10.8167,75.2,73.4,94.14,120,4,0,29.71,M,6.21,M,FEW,M,M,M,1700,M,M,M,M,M,M,M,M,M,M,76.84,VVTS 232130Z 12004KT 9999 FEW017 24/23 Q1006 NOSIG,M
VVTS,2/23/2012 22:00,106.6667,10.8167,75.2,75.2,100,100,5,0,29.71,M,6.21,M,FEW,M,M,M,1700,M,M,M,M,M,M,M,M,M,M,77.12,VVTS 232200Z 10005KT 9999 FEW017 24/24 Q1006 NOSIG,M
VVTS,2/23/2012 22:30,106.6667,10.8167,75.2,75.2,100,110,5,0,29.74,M,6.21,M,FEW,M,M,M,1700,M,M,M,M,M,M,M,M,M,M,77.12,VVTS 232230Z 11005KT 9999 FEW017 24/24 Q1007 NOSIG,M
VVTS,2/23/2012 23:00,106.6667,10.8167,75.2,75.2,100,M,2,0,29.74,M,6.21,M,FEW,M,M,M,1700,M,M,M,M,M,M,M,M,M,M,77.12,VVTS 232300Z VRB02KT 9999 FEW017 24/24 Q1007 NOSIG,M
VVTS,2/23/2012 23:30,106.6667,10.8167,75.2,75.2,100,M,3,0,29.74,M,6.21,M,FEW,M,M,M,1700,M,M,M,M,M,M,M,M,M,M,77.12,VVTS 232330Z VRB03KT 9999 FEW017 24/24 Q1007 NOSIG,M
VVTS,2/24/2012 0:00,106.6667,10.8167,77,75.2,94.19,110,4,0,29.77,M,6.21,M,FEW,M,M,M,1700,M,M,M,M,M,M,M,M,M,M,78.83,VVTS 240000Z 11004KT 9999 FEW017 25/24 Q1008 NOSIG,M
VVTS,2/24/2012 0:30,106.6667,10.8167,78.8,75.2,88.75,120,6,0,29.77,M,6.21,M,SCT,M,M,M,1700,M,M,M,M,M,M,M,M,M,M,82.38,VVTS 240030Z 12006KT 090V150 9999 SCT017 26/24 Q1008 NOSIG,M
VVTS,2/24/2012 1:00,106.6667,10.8167,80.6,73.4,78.76,140,6,0,29.77,M,6.21,M,SCT,M,M,M,1700,M,M,M,M,M,M,M,M,M,M,85.32,VVTS 240100Z 14006KT 090V180 9999 SCT017 27/23 Q1008 NOSIG,M
VVTS,2/24/2012 1:30,106.6667,10.8167,82.4,73.4,74.28,130,6,0,29.8,M,6.21,M,SCT,M,M,M,1700,M,M,M,M,M,M,M,M,M,M,88.26,VVTS 240130Z 13006KT 080V180 9999 SCT017 28/23 Q1009 NOSIG,M
VVTS,2/24/2012 2:00,106.6667,10.8167,84.2,73.4,70.08,110,5,0,29.8,M,6.21,M,SCT,M,M,M,1700,M,M,M,M,M,M,M,M,M,M,90.94,VVTS 240200Z 11005KT 070V170 9999 SCT017 29/23 Q1009 NOSIG,M
VVTS,2/24/2012 2:30,106.6667,10.8167,84.2,73.4,70.08,130,4,0,29.8,M,6.21,M,SCT,M,M,M,1700,M,M,M,M,M,M,M,M,M,M,90.94,VVTS 240230Z 13004KT 090V200 9999 SCT017 29/23 Q1009 NOSIG,M
VVTS,2/24/2012 3:00,106.6667,10.8167,86,73.4,66.15,150,5,0,29.8,M,6.21,M,SCT,M,M,M,1700,M,M,M,M,M,M,M,M,M,M,93.45,VVTS 240300Z 15005KT 090V210 9999 SCT017 30/23 Q1009 NOSIG,M
VVTS,2/24/2012 3:30,106.6667,10.8167,86,73.4,66.15,140,4,0,29.8,M,6.21,M,SCT,M,M,M,1700,M,M,M,M,M,M,M,M,M,M,93.45,VVTS 240330Z 14004KT 080V210 9999 SCT017 30/23 Q1009 NOSIG,M
VVTS,2/24/2012 4:00,106.6667,10.8167,87.8,71.6,58.78,130,5,0,29.77,M,6.21,M,SCT,M,M,M,1700,M,M,M,M,M,M,M,M,M,M,94.18,VVTS 240400Z 13005KT 090V170 9999 SCT017 31/22 Q1008 NOSIG,M
VVTS,2/24/2012 4:30,106.6667,10.8167,89.6,71.6,55.53,M,3,0,29.77,M,6.21,M,SCT,M,M,M,1700,M,M,M,M,M,M,M,M,M,M,96.41,VVTS 240430Z VRB03KT 9999 SCT017 32/22 Q1008 NOSIG,M
VVTS,2/24/2012 5:00,106.6667,10.8167,89.6,71.6,55.53,160,5,0,29.77,M,6.21,M,SCT,M,M,M,2000,M,M,M,M,M,M,M,M,M,M,96.41,VVTS 240500Z 16005KT 340V290 9999 SCT020 32/22 Q1008 NOSIG,M
VVTS,2/24/2012 5:30,106.6667,10.8167,89.6,71.6,55.53,170,6,0,29.74,M,6.21,M,SCT,M,M,M,2000,M,M,M,M,M,M,M,M,M,M,96.41,VVTS 240530Z 17006KT 100V220 9999 SCT020 32/22 Q1007 NOSIG,M
VVTS,2/24/2012 6:00,106.6667,10.8167,91.4,71.6,52.48,150,7,0,29.71,M,6.21,M,SCT,M,M,M,2000,M,M,M,M,M,M,M,M,M,M,98.64,VVTS 240600Z 15007KT 100V200 9999 SCT020 33/22 Q1006 NOSIG,M
VVTS,2/24/2012 6:30,106.6667,10.8167,91.4,71.6,52.48,190,4,0,29.71,M,6.21,M,SCT,M,M,M,2000,M,M,M,M,M,M,M,M,M,M,98.64,VVTS 240630Z 19004KT 010V010 9999 SCT020 33/22 Q1006 NOSIG,M
VVTS,2/24/2012 7:00,106.6667,10.8167,91.4,73.4,55.77,170,8,0,29.68,M,6.21,M,SCT,M,M,M,2000,M,M,M,M,M,M,M,M,M,M,100.52,VVTS 240700Z 17008KT 9999 SCT020 33/23 Q1005 NOSIG,M
VVTS,2/24/2012 7:30,106.6667,10.8167,91.4,71.6,52.48,150,6,0,29.68,M,6.21,M,SCT,M,M,M,2000,M,M,M,M,M,M,M,M,M,M,98.64,VVTS 240730Z 15006KT 350V220 9999 SCT020 33/22 Q1005 NOSIG,M
VVTS,2/24/2012 8:00,106.6667,10.8167,91.4,73.4,55.77,180,7,0,29.65,M,6.21,M,SCT,M,M,M,2000,M,M,M,M,M,M,M,M,M,M,100.52,VVTS 240800Z 18007KT 150V210 9999 SCT020 33/23 Q1004 NOSIG,M
VVTS,2/24/2012 8:30,106.6667,10.8167,89.6,73.4,59.01,160,9,0,29.65,M,6.21,M,SCT,M,M,M,2000,M,M,M,M,M,M,M,M,M,M,98.2,VVTS 240830Z 16009KT 9999 SCT020 32/23 Q1004 NOSIG,M
VVTS,2/24/2012 9:00,106.6667,10.8167,89.6,73.4,59.01,170,9,0,29.65,M,6.21,M,FEW,M,M,M,2000,M,M,M,M,M,M,M,M,M,M,98.2,VVTS 240900Z 17009KT 130V200 9999 FEW020 32/23 Q1004 NOSIG,M
VVTS,2/24/2012 9:30,106.6667,10.8167,87.8,73.4,62.47,170,9,0,29.65,M,6.21,M,FEW,M,M,M,2000,M,M,M,M,M,M,M,M,M,M,95.86,VVTS 240930Z 17009KT 150V210 9999 FEW020 31/23 Q1004 NOSIG,M
VVTS,2/24/2012 10:00,106.6667,10.8167,86,73.4,66.15,160,9,0,29.65,M,6.21,M,FEW,M,M,M,2000,M,M,M,M,M,M,M,M,M,M,93.45,VVTS 241000Z 16009KT 9999 FEW020 30/23 Q1004 NOSIG,M
VVTS,2/24/2012 10:30,106.6667,10.8167,84.2,73.4,70.08,150,8,0,29.68,M,6.21,M,FEW,M,M,M,2000,M,M,M,M,M,M,M,M,M,M,90.94,VVTS 241030Z 15008KT 120V190 9999 FEW020 29/23 Q1005 NOSIG,M
VVTS,2/24/2012 11:00,106.6667,10.8167,82.4,73.4,74.28,150,9,0,29.65,M,6.21,M,FEW,M,M,M,2000,M,M,M,M,M,M,M,M,M,M,88.26,VVTS 241100Z 15009KT 9999 FEW020 28/23 Q1004 NOSIG,M
VVTS,2/24/2012 11:30,106.6667,10.8167,82.4,73.4,74.28,160,7,0,29.68,M,6.21,M,FEW,M,M,M,2000,M,M,M,M,M,M,M,M,M,M,88.26,VVTS 241130Z 16007KT 9999 FEW020 28/23 Q1005 NOSIG,M
VVTS,2/24/2012 12:00,106.6667,10.8167,80.6,73.4,78.76,170,7,0,29.68,M,6.21,M,FEW,M,M,M,1700,M,M,M,M,M,M,M,M,M,M,85.32,VVTS 241200Z 17007KT 9999 FEW017 27/23 Q1005 NOSIG,M
VVTS,2/24/2012 12:30,106.6667,10.8167,80.6,75.2,83.66,150,5,0,29.68,M,6.21,M,FEW,M,M,M,1700,M,M,M,M,M,M,M,M,M,M,86.17,VVTS 241230Z 15005KT 120V200 9999 FEW017 27/24 Q1005 NOSIG,M
VVTS,2/24/2012 13:00,106.6667,10.8167,80.6,75.2,83.66,160,5,0,29.71,M,6.21,M,FEW,M,M,M,1700,M,M,M,M,M,M,M,M,M,M,86.17,VVTS 241300Z 16005KT 9999 FEW017 27/24 Q1006 NOSIG,M
VVTS,2/24/2012 13:30,106.6667,10.8167,80.6,75.2,83.66,150,8,0,29.71,M,6.21,M,FEW,M,M,M,1700,M,M,M,M,M,M,M,M,M,M,86.17,VVTS 241330Z 15008KT 9999 FEW017 27/24 Q1006 NOSIG,M
VVTS,2/24/2012 14:00,106.6667,10.8167,78.8,75.2,88.75,160,6,0,29.71,M,6.21,M,FEW,M,M,M,1700,M,M,M,M,M,M,M,M,M,M,82.38,VVTS 241400Z 16006KT 130V210 9999 FEW017 26/24 Q1006 NOSIG,M
VVTS,2/24/2012 15:00,106.6667,10.8167,78.8,75.2,88.75,140,7,0,29.74,M,6.21,M,FEW,M,M,M,1700,M,M,M,M,M,M,M,M,M,M,82.38,VVTS 241500Z 14007KT 110V170 9999 FEW017 26/24 Q1007 NOSIG,M
VVTS,2/24/2012 15:30,106.6667,10.8167,78.8,75.2,88.75,150,7,0,29.74,M,6.21,M,FEW,M,M,M,1700,M,M,M,M,M,M,M,M,M,M,82.38,VVTS 241530Z 15007KT 9999 FEW017 26/24 Q1007 NOSIG,M
VVTS,2/24/2012 16:00,106.6667,10.8167,78.8,75.2,88.75,140,6,0,29.74,M,6.21,M,FEW,M,M,M,1700,M,M,M,M,M,M,M,M,M,M,82.38,VVTS 241600Z 14006KT 9999 FEW017 26/24 Q1007 NOSIG,M
VVTS,2/24/2012 16:30,106.6667,10.8167,78.8,75.2,88.75,150,7,0,29.74,M,6.21,M,FEW,M,M,M,1700,M,M,M,M,M,M,M,M,M,M,82.38,VVTS 241630Z 15007KT 9999 FEW017 26/24 Q1007 NOSIG,M
VVTS,2/24/2012 17:30,106.6667,10.8167,78.8,75.2,88.75,140,6,0,29.71,M,6.21,M,FEW,M,M,M,1700,M,M,M,M,M,M,M,M,M,M,82.38,VVTS 241730Z 14006KT 120V200 9999 FEW017 26/24 Q1006 NOSIG,M
VVTS,2/24/2012 18:00,106.6667,10.8167,78.8,75.2,88.75,130,5,0,29.71,M,6.21,M,FEW,M,M,M,1700,M,M,M,M,M,M,M,M,M,M,82.38,VVTS 241800Z 13005KT 9999 FEW017 26/24 Q1006 NOSIG,M
VVTS,2/24/2012 18:30,106.6667,10.8167,78.8,75.2,88.75,140,7,0,29.71,M,6.21,M,FEW,M,M,M,1700,M,M,M,M,M,M,M,M,M,M,82.38,VVTS 241830Z 14007KT 9999 FEW017 26/24 Q1006 NOSIG,M
VVTS,2/24/2012 19:00,106.6667,10.8167,78.8,75.2,88.75,130,6,0,29.71,M,6.21,M,FEW,M,M,M,1700,M,M,M,M,M,M,M,M,M,M,82.38,VVTS 241900Z 13006KT 100V180 9999 FEW017 26/24 Q1006 NOSIG,M
VVTS,2/24/2012 19:30,106.6667,10.8167,77,75.2,94.19,130,6,0,29.68,M,6.21,M,FEW,M,M,M,1700,M,M,M,M,M,M,M,M,M,M,78.83,VVTS 241930Z 13006KT 9999 FEW017 25/24 Q1005 NOSIG,M
VVTS,2/24/2012 20:00,106.6667,10.8167,77,75.2,94.19,110,5,0,29.68,M,6.21,M,FEW,M,M,M,1700,M,M,M,M,M,M,M,M,M,M,78.83,VVTS 242000Z 11005KT 9999 FEW017 25/24 Q1005 NOSIG,M
VVTS,2/24/2012 20:30,106.6667,10.8167,77,75.2,94.19,110,5,0,29.68,M,6.21,M,FEW,M,M,M,1700,M,M,M,M,M,M,M,M,M,M,78.83,VVTS 242030Z 11005KT 9999 FEW017 25/24 Q1005 NOSIG,M
VVTS,2/24/2012 21:00,106.6667,10.8167,77,75.2,94.19,110,5,0,29.68,M,6.21,M,FEW,M,M,M,1700,M,M,M,M,M,M,M,M,M,M,78.83,VVTS 242100Z 11005KT 9999 FEW017 25/24 Q1005 NOSIG,M
VVTS,2/24/2012 21:30,106.6667,10.8167,77,75.2,94.19,110,5,0,29.68,M,6.21,M,SCT,M,M,M,1700,M,M,M,M,M,M,M,M,M,M,78.83,VVTS 242130Z 11005KT 9999 SCT017 25/24 Q1005 NOSIG,M
VVTS,2/24/2012 22:00,106.6667,10.8167,75.2,75.2,100,80,4,0,29.68,M,6.21,M,SCT,M,M,M,1700,M,M,M,M,M,M,M,M,M,M,77.12,VVTS 242200Z 08004KT 9999 SCT017 24/24 Q1005 NOSIG,M
VVTS,2/24/2012 22:30,106.6667,10.8167,75.2,75.2,100,80,3,0,29.68,M,4.97,M,SCT,M,M,M,1700,M,M,M,M,M,M,M,M,M,M,77.12,VVTS 242230Z 08003KT 8000 SCT017 24/24 Q1005 NOSIG,M
VVTS,2/24/2012 23:00,106.6667,10.8167,75.2,75.2,100,80,4,0,29.71,M,6.21,M,SCT,M,M,M,1700,M,M,M,M,M,M,M,M,M,M,77.12,VVTS 242300Z 08004KT 9999 SCT017 24/24 Q1006 BECMG TL2400 4000 BR,M
VVTS,2/24/2012 23:30,106.6667,10.8167,75.2,75.2,100,90,4,0,29.71,M,5.59,M,SCT,M,M,M,1700,M,M,M,M,M,M,M,M,M,M,77.12,VVTS 242330Z 09004KT 9000 SCT017 24/24 Q1006 BECMG TL2400 4000 BR,M
VVTS,2/25/2012 0:00,106.6667,10.8167,77,75.2,94.19,100,5,0,29.71,M,6.21,M,SCT,M,M,M,1700,M,M,M,M,M,M,M,M,M,M,78.83,VVTS 250000Z 10005KT 9999 SCT017 25/24 Q1006 NOSIG,M
VVTS,2/25/2012 0:30,106.6667,10.8167,78.8,75.2,88.75,90,5,0,29.74,M,6.21,M,FEW,M,M,M,1700,M,M,M,M,M,M,M,M,M,M,82.38,VVTS 250030Z 09005KT 9999 FEW017 26/24 Q1007 NOSIG,M
VVTS,2/25/2012 1:30,106.6667,10.8167,82.4,75.2,78.9,110,5,0,29.74,M,6.21,M,SCT,M,M,M,1700,M,M,M,M,M,M,M,M,M,M,89.48,VVTS 250130Z 11005KT 070V140 9999 SCT017 28/24 Q1007 NOSIG,M
VVTS,2/25/2012 2:00,106.6667,10.8167,82.4,75.2,78.9,140,7,0,29.74,M,6.21,M,SCT,M,M,M,1700,M,M,M,M,M,M,M,M,M,M,89.48,VVTS 250200Z 14007KT 100V180 9999 SCT017 28/24 Q1007 NOSIG,M
VVTS,2/25/2012 2:30,106.6667,10.8167,84.2,75.2,74.44,120,7,0,29.77,M,6.21,M,SCT,M,M,M,1700,M,M,M,M,M,M,M,M,M,M,92.45,VVTS 250230Z 12007KT 080V190 9999 SCT017 29/24 Q1008 NOSIG,M
VVTS,2/25/2012 3:00,106.6667,10.8167,86,73.4,66.15,150,7,0,29.77,M,6.21,M,SCT,M,M,M,1700,M,M,M,M,M,M,M,M,M,M,93.45,VVTS 250300Z 15007KT 090V180 9999 SCT017 30/23 Q1008 NOSIG,M
VVTS,2/25/2012 3:30,106.6667,10.8167,86,73.4,66.15,110,6,0,29.74,M,6.21,M,SCT,M,M,M,1700,M,M,M,M,M,M,M,M,M,M,93.45,VVTS 250330Z 11006KT 080V170 9999 SCT017 30/23 Q1007 NOSIG,M
VVTS,2/25/2012 4:00,106.6667,10.8167,87.8,73.4,62.47,130,7,0,29.74,M,6.21,M,SCT,M,M,M,1700,M,M,M,M,M,M,M,M,M,M,95.86,VVTS 250400Z 13007KT 100V170 9999 SCT017 31/23 Q1007 NOSIG,M
VVTS,2/25/2012 4:30,106.6667,10.8167,89.6,73.4,59.01,170,6,0,29.74,M,6.21,M,SCT,M,M,M,1700,M,M,M,M,M,M,M,M,M,M,98.2,VVTS 250430Z 17006KT 130V200 9999 SCT017 32/23 Q1007 NOSIG,M
VVTS,2/25/2012 5:00,106.6667,10.8167,87.8,73.4,62.47,140,6,0,29.71,M,6.21,M,SCT,M,M,M,1700,M,M,M,M,M,M,M,M,M,M,95.86,VVTS 250500Z 14006KT 090V270 9999 SCT017 31/23 Q1006 NOSIG,M
VVTS,2/25/2012 5:30,106.6667,10.8167,89.6,73.4,59.01,160,4,0,29.71,M,6.21,M,SCT,M,M,M,1700,M,M,M,M,M,M,M,M,M,M,98.2,VVTS 250530Z 16004KT 120V200 9999 SCT017 32/23 Q1006 NOSIG,M
VVTS,2/25/2012 6:00,106.6667,10.8167,89.6,73.4,59.01,190,6,0,29.68,M,6.21,M,SCT,M,M,M,1700,M,M,M,M,M,M,M,M,M,M,98.2,VVTS 250600Z 19006KT 150V230 9999 SCT017 32/23 Q1005 NOSIG,M
VVTS,2/25/2012 6:30,106.6667,10.8167,89.6,73.4,59.01,160,6,0,29.68,M,6.21,M,SCT,M,M,M,1700,M,M,M,M,M,M,M,M,M,M,98.2,VVTS 250630Z 16006KT 090V300 9999 SCT017 32/23 Q1005 NOSIG,M
VVTS,2/25/2012 7:00,106.6667,10.8167,89.6,75.2,62.68,180,9,0,29.65,M,6.21,M,SCT,M,M,M,1700,M,M,M,M,M,M,M,M,M,M,100.23,VVTS 250700Z 18009KT 9999 SCT017 32/24 Q1004 NOSIG,M
VVTS,2/25/2012 7:30,106.6667,10.8167,89.6,73.4,59.01,170,11,0,29.65,M,6.21,M,BKN,M,M,M,1700,M,M,M,M,M,M,M,M,M,M,98.2,VVTS 250730Z 17011KT 130V200 9999 BKN017 32/23 Q1004 NOSIG,M
VVTS,2/25/2012 8:00,106.6667,10.8167,87.8,75.2,66.35,160,11,0,29.65,M,6.21,M,BKN,M,M,M,1700,M,M,M,M,M,M,M,M,M,M,97.76,VVTS 250800Z 16011KT 9999 BKN017 31/24 Q1004 NOSIG,M
VVTS,2/25/2012 8:30,106.6667,10.8167,87.8,75.2,66.35,160,11,0,29.65,M,6.21,M,SCT,M,M,M,1700,M,M,M,M,M,M,M,M,M,M,97.76,VVTS 250830Z 16011KT 9999 SCT017 31/24 Q1004 NOSIG,M
VVTS,2/25/2012 9:00,106.6667,10.8167,86,75.2,70.27,160,10,0,29.65,M,6.21,M,SCT,M,M,M,1700,M,M,M,M,M,M,M,M,M,M,95.19,VVTS 250900Z 16010KT 120V190 9999 SCT017 30/24 Q1004 NOSIG,M
VVTS,2/25/2012 9:30,106.6667,10.8167,84.2,75.2,74.44,170,10,0,29.65,M,6.21,M,SCT,M,M,M,1700,M,M,M,M,M,M,M,M,M,M,92.45,VVTS 250930Z 17010KT 140V210 9999 SCT017 29/24 Q1004 NOSIG,M
VVTS,2/25/2012 10:00,106.6667,10.8167,84.2,75.2,74.44,180,10,0,29.65,M,6.21,M,SCT,M,M,M,1700,M,M,M,M,M,M,M,M,M,M,92.45,VVTS 251000Z 18010KT 140V200 9999 SCT017 29/24 Q1004 NOSIG,M
VVTS,2/25/2012 10:30,106.6667,10.8167,82.4,75.2,78.9,150,10,0,29.68,M,6.21,M,SCT,M,M,M,1700,M,M,M,M,M,M,M,M,M,M,89.48,VVTS 251030Z 15010KT 120V190 9999 SCT017 28/24 Q1005 NOSIG,M
VVTS,2/25/2012 11:00,106.6667,10.8167,82.4,73.4,74.28,150,11,0,29.68,M,6.21,M,SCT,M,M,M,1700,M,M,M,M,M,M,M,M,M,M,88.26,VVTS 251100Z 15011KT 9999 SCT017 28/23 Q1005 NOSIG,M
VVTS,2/25/2012 11:30,106.6667,10.8167,82.4,73.4,74.28,150,10,0,29.68,M,6.21,M,SCT,M,M,M,1700,M,M,M,M,M,M,M,M,M,M,88.26,VVTS 251130Z 15010KT 9999 SCT017 28/23 Q1005 NOSIG,M
VVTS,2/25/2012 12:00,106.6667,10.8167,80.6,73.4,78.76,150,7,0,29.68,M,6.21,M,FEW,M,M,M,1700,M,M,M,M,M,M,M,M,M,M,85.32,VVTS 251200Z 15007KT 9999 FEW017 27/23 Q1005 NOSIG,M
VVTS,2/25/2012 12:30,106.6667,10.8167,80.6,73.4,78.76,150,7,0,29.71,M,6.21,M,FEW,M,M,M,1700,M,M,M,M,M,M,M,M,M,M,85.32,VVTS 251230Z 15007KT 120V190 9999 FEW017 27/23 Q1006 NOSIG,M
VVTS,2/25/2012 13:00,106.6667,10.8167,80.6,75.2,83.66,150,7,0,29.74,M,6.21,M,FEW,M,M,M,1700,M,M,M,M,M,M,M,M,M,M,86.17,VVTS 251300Z 15007KT 9999 FEW017 27/24 Q1007 NOSIG,M
VVTS,2/25/2012 13:30,106.6667,10.8167,80.6,75.2,83.66,150,6,0,29.74,M,6.21,M,SCT,M,M,M,1700,M,M,M,M,M,M,M,M,M,M,86.17,VVTS 251330Z 15006KT 110V190 9999 SCT017 27/24 Q1007 NOSIG,M
VVTS,2/25/2012 14:00,106.6667,10.8167,78.8,75.2,88.75,130,5,0,29.74,M,6.21,M,SCT,M,M,M,1700,M,M,M,M,M,M,M,M,M,M,82.38,VVTS 251400Z 13005KT 090V190 9999 SCT017 26/24 Q1007 NOSIG,M
VVTS,2/25/2012 14:30,106.6667,10.8167,78.8,75.2,88.75,110,4,0,29.74,M,6.21,M,SCT,M,M,M,1700,M,M,M,M,M,M,M,M,M,M,82.38,VVTS 251430Z 11004KT 9999 SCT017 26/24 Q1007 NOSIG,M
VVTS,2/25/2012 15:00,106.6667,10.8167,78.8,75.2,88.75,100,4,0,29.74,M,6.21,M,SCT,M,M,M,1700,M,M,M,M,M,M,M,M,M,M,82.38,VVTS 251500Z 10004KT 9999 SCT017 26/24 Q1007 NOSIG,M
VVTS,2/25/2012 15:30,106.6667,10.8167,78.8,75.2,88.75,120,6,0,29.74,M,6.21,M,SCT,M,M,M,1700,M,M,M,M,M,M,M,M,M,M,82.38,VVTS 251530Z 12006KT 9999 SCT017 26/24 Q1007 NOSIG,M
VVTS,2/25/2012 16:30,106.6667,10.8167,78.8,75.2,88.75,120,7,0,29.74,M,6.21,M,SCT,M,M,M,1700,M,M,M,M,M,M,M,M,M,M,82.38,VVTS 251630Z 12007KT 9999 SCT017 26/24 Q1007 NOSIG,M
VVTS,2/25/2012 17:00,106.6667,10.8167,78.8,75.2,88.75,130,6,0,29.74,M,6.21,M,SCT,M,M,M,1700,M,M,M,M,M,M,M,M,M,M,82.38,VVTS 251700Z 13006KT 090V180 9999 SCT017 26/24 Q1007 NOSIG,M
VVTS,2/25/2012 17:30,106.6667,10.8167,78.8,75.2,88.75,130,7,0,29.71,M,6.21,M,SCT,M,M,M,1700,M,M,M,M,M,M,M,M,M,M,82.38,VVTS 251730Z 13007KT 9999 SCT017 26/24 Q1006 NOSIG,M
VVTS,2/25/2012 18:00,106.6667,10.8167,78.8,75.2,88.75,130,6,0,29.71,M,6.21,M,SCT,M,M,M,1700,M,M,M,M,M,M,M,M,M,M,82.38,VVTS 251800Z 13006KT 9999 SCT017 26/24 Q1006 NOSIG,M
VVTS,2/25/2012 18:30,106.6667,10.8167,78.8,75.2,88.75,130,4,0,29.71,M,6.21,M,SCT,M,M,M,1700,M,M,M,M,M,M,M,M,M,M,82.38,VVTS 251830Z 13004KT 100V170 9999 SCT017 26/24 Q1006 NOSIG,M
VVTS,2/25/2012 19:00,106.6667,10.8167,78.8,75.2,88.75,M,3,0,29.71,M,6.21,M,SCT,M,M,M,1700,M,M,M,M,M,M,M,M,M,M,82.38,VVTS 251900Z VRB03KT 9999 SCT017 26/24 Q1006 NOSIG,M
VVTS,2/25/2012 19:30,106.6667,10.8167,77,75.2,94.19,110,3,0,29.71,M,6.21,M,SCT,M,M,M,1700,M,M,M,M,M,M,M,M,M,M,78.83,VVTS 251930Z 11003KT 9999 SCT017 25/24 Q1006 NOSIG,M
VVTS,2/25/2012 20:00,106.6667,10.8167,77,75.2,94.19,M,1,0,29.71,M,6.21,M,FEW,M,M,M,1700,M,M,M,M,M,M,M,M,M,M,78.83,VVTS 252000Z VRB01KT 9999 FEW017 25/24 Q1006 NOSIG,M
VVTS,2/25/2012 20:30,106.6667,10.8167,77,75.2,94.19,120,4,0,29.71,M,6.21,M,FEW,M,M,M,1700,M,M,M,M,M,M,M,M,M,M,78.83,VVTS 252030Z 12004KT 9999 FEW017 25/24 Q1006 NOSIG,M
VVTS,2/25/2012 21:00,106.6667,10.8167,77,75.2,94.19,120,5,0,29.71,M,6.21,M,FEW,SCT,M,M,1700,4000,M,M,M,M,M,M,M,M,M,78.83,VVTS 252100Z 12005KT 9999 FEW017 SCT040 25/24 Q1006 NOSIG,M
VVTS,2/25/2012 21:30,106.6667,10.8167,78.8,75.2,88.75,130,6,0,29.71,M,6.21,M,FEW,SCT,M,M,1700,4000,M,M,M,M,M,M,M,M,M,82.38,VVTS 252130Z 13006KT 9999 FEW017 SCT040 26/24 Q1006 NOSIG,M
VVTS,2/25/2012 22:00,106.6667,10.8167,78.8,75.2,88.75,130,6,0,29.71,M,6.21,M,FEW,SCT,M,M,1700,4000,M,M,M,M,M,M,M,M,M,82.38,VVTS 252200Z 13006KT 9999 FEW017 SCT040 26/24 Q1006 NOSIG,M
VVTS,2/25/2012 22:30,106.6667,10.8167,77,75.2,94.19,120,5,0,29.71,M,6.21,M,FEW,SCT,M,M,1700,4000,M,M,M,M,M,M,M,M,M,78.83,VVTS 252230Z 12005KT 9999 FEW017 SCT040 25/24 Q1006 NOSIG,M
VVTS,2/25/2012 23:00,106.6667,10.8167,77,75.2,94.19,130,4,0,29.71,M,6.21,M,FEW,SCT,M,M,1700,4000,M,M,M,M,M,M,M,M,M,78.83,VVTS 252300Z 13004KT 110V170 9999 FEW017 SCT040 25/24 Q1006 NOSIG,M
VVTS,2/25/2012 23:30,106.6667,10.8167,77,75.2,94.19,M,2,0,29.74,M,6.21,M,FEW,SCT,M,M,1700,4000,M,M,M,M,M,M,M,M,M,78.83,VVTS 252330Z VRB02KT 9999 FEW017 SCT040 25/24 Q1007 NOSIG,M
VVTS,2/26/2012 0:00,106.6667,10.8167,78.8,75.2,88.75,110,5,0,29.74,M,6.21,M,FEW,M,M,M,1700,M,M,M,M,M,M,M,M,M,M,82.38,VVTS 260000Z 11005KT 9999 FEW017 26/24 Q1007 NOSIG,M
VVTS,2/26/2012 0:30,106.6667,10.8167,80.6,75.2,83.66,120,5,0,29.74,M,6.21,M,FEW,M,M,M,2000,M,M,M,M,M,M,M,M,M,M,86.17,VVTS 260030Z 12005KT 080V160 9999 FEW020 27/24 Q1007 NOSIG,M
VVTS,2/26/2012 1:00,106.6667,10.8167,80.6,75.2,83.66,100,8,0,29.77,M,6.21,M,SCT,M,M,M,2000,M,M,M,M,M,M,M,M,M,M,86.17,VVTS 260100Z 10008KT 9999 SCT020 27/24 Q1008 NOSIG,M
VVTS,2/26/2012 1:30,106.6667,10.8167,82.4,75.2,78.9,130,8,0,29.77,M,6.21,M,SCT,M,M,M,1700,M,M,M,M,M,M,M,M,M,M,89.48,VVTS 260130Z 13008KT 9999 SCT017 28/24 Q1008 NOSIG,M
VVTS,2/26/2012 2:00,106.6667,10.8167,84.2,75.2,74.44,140,8,0,29.8,M,6.21,M,SCT,M,M,M,1700,M,M,M,M,M,M,M,M,M,M,92.45,VVTS 260200Z 14008KT 090V190 9999 SCT017 29/24 Q1009 NOSIG,M
VVTS,2/26/2012 2:30,106.6667,10.8167,84.2,73.4,70.08,130,7,0,29.8,M,6.21,M,SCT,M,M,M,1700,M,M,M,M,M,M,M,M,M,M,90.94,VVTS 260230Z 13007KT 100V180 9999 SCT017 29/23 Q1009 NOSIG,M
VVTS,2/26/2012 3:00,106.6667,10.8167,86,73.4,66.15,110,6,0,29.8,M,6.21,M,BKN,M,M,M,1700,M,M,M,M,M,M,M,M,M,M,93.45,VVTS 260300Z 11006KT 070V150 9999 BKN017 30/23 Q1009 NOSIG,M
VVTS,2/26/2012 3:30,106.6667,10.8167,84.2,73.4,70.08,130,6,0,29.8,M,6.21,M,BKN,M,M,M,1700,M,M,M,M,M,M,M,M,M,M,90.94,VVTS 260330Z 13006KT 080V170 9999 BKN017 29/23 Q1009 NOSIG,M
VVTS,2/26/2012 4:00,106.6667,10.8167,87.8,73.4,62.47,130,4,0,29.77,M,6.21,M,BKN,M,M,M,1700,M,M,M,M,M,M,M,M,M,M,95.86,VVTS 260400Z 13004KT 100V160 9999 BKN017 31/23 Q1008 NOSIG,M
VVTS,2/26/2012 4:30,106.6667,10.8167,87.8,73.4,62.47,130,6,0,29.77,M,6.21,M,BKN,M,M,M,1700,M,M,M,M,M,M,M,M,M,M,95.86,VVTS 260430Z 13006KT 080V190 9999 BKN017 31/23 Q1008 NOSIG,M
VVTS,2/26/2012 5:00,106.6667,10.8167,89.6,73.4,59.01,140,5,0,29.74,M,6.21,M,BKN,M,M,M,1700,M,M,M,M,M,M,M,M,M,M,98.2,VVTS 260500Z 14005KT 070V190 9999 BKN017 32/23 Q1007 NOSIG,M
VVTS,2/26/2012 5:30,106.6667,10.8167,87.8,73.4,62.47,130,7,0,29.74,M,6.21,M,BKN,M,M,M,1700,M,M,M,M,M,M,M,M,M,M,95.86,VVTS 260530Z 13007KT 110V180 9999 BKN017 31/23 Q1007 NOSIG,M
VVTS,2/26/2012 6:00,106.6667,10.8167,89.6,73.4,59.01,150,7,0,29.71,M,6.21,M,BKN,M,M,M,1700,M,M,M,M,M,M,M,M,M,M,98.2,VVTS 260600Z 15007KT 110V200 9999 BKN017 32/23 Q1006 NOSIG,M
VVTS,2/26/2012 6:30,106.6667,10.8167,89.6,71.6,55.53,160,8,0,29.71,M,6.21,M,BKN,M,M,M,1700,M,M,M,M,M,M,M,M,M,M,96.41,VVTS 260630Z 16008KT 120V200 9999 BKN017 32/22 Q1006 NOSIG,M
VVTS,2/26/2012 7:00,106.6667,10.8167,89.6,73.4,59.01,140,8,0,29.68,M,M,M,M,M,M,M,M,M,M,M,M,M,M,M,M,M,M,98.2,VVTS 260700Z 14008KT 100V170 9KN017 32/23 Q1005 NOSIG,M
VVTS,2/26/2012 7:30,106.6667,10.8167,89.6,73.4,59.01,150,9,0,29.68,M,6.21,M,BKN,M,M,M,1700,M,M,M,M,M,M,M,M,M,M,98.2,VVTS 260730Z 15009KT 120V180 9999 BKN017 32/23 Q1005 NOSIG,M
VVTS,2/26/2012 8:00,106.6667,10.8167,89.6,73.4,59.01,140,9,0,29.68,M,6.21,M,BKN,M,M,M,1700,M,M,M,M,M,M,M,M,M,M,98.2,VVTS 260800Z 14009KT 120V190 9999 BKN017 32/23 Q1005 NOSIG,M
VVTS,2/26/2012 8:30,106.6667,10.8167,89.6,73.4,59.01,160,9,0,29.68,M,6.21,M,BKN,M,M,M,1700,M,M,M,M,M,M,M,M,M,M,98.2,VVTS 260830Z 16009KT 9999 BKN017 32/23 Q1005 NOSIG,M
VVTS,2/26/2012 9:00,106.6667,10.8167,87.8,73.4,62.47,160,10,0,29.68,M,6.21,M,SCT,M,M,M,1700,M,M,M,M,M,M,M,M,M,M,95.86,VVTS 260900Z 16010KT 9999 SCT017 31/23 Q1005 NOSIG,M
VVTS,2/26/2012 9:30,106.6667,10.8167,87.8,71.6,58.78,150,8,0,29.68,M,6.21,M,SCT,M,M,M,1700,M,M,M,M,M,M,M,M,M,M,94.18,VVTS 260930Z 15008KT 9999 SCT017 31/22 Q1005 NOSIG,M
VVTS,2/26/2012 10:00,106.6667,10.8167,86,73.4,66.15,170,10,0,29.68,M,6.21,M,SCT,M,M,M,1700,M,M,M,M,M,M,M,M,M,M,93.45,VVTS 261000Z 17010KT 9999 SCT017 30/23 Q1005 NOSIG,M
VVTS,2/26/2012 10:30,106.6667,10.8167,84.2,73.4,70.08,160,10,0,29.68,M,6.21,M,SCT,M,M,M,1700,M,M,M,M,M,M,M,M,M,M,90.94,VVTS 261030Z 16010KT 9999 SCT017 29/23 Q1005 NOSIG,M
VVTS,2/26/2012 11:00,106.6667,10.8167,82.4,73.4,74.28,160,8,0,29.68,M,6.21,M,SCT,M,M,M,1700,M,M,M,M,M,M,M,M,M,M,88.26,VVTS 261100Z 16008KT 9999 SCT017 28/23 Q1005 NOSIG,M
VVTS,2/26/2012 11:30,106.6667,10.8167,82.4,73.4,74.28,160,10,0,29.71,M,6.21,M,SCT,M,M,M,1700,M,M,M,M,M,M,M,M,M,M,88.26,VVTS 261130Z 16010KT 9999 SCT017 28/23 Q1006 NOSIG,M
VVTS,2/26/2012 12:00,106.6667,10.8167,80.6,73.4,78.76,160,9,0,29.71,M,6.21,M,SCT,M,M,M,1700,M,M,M,M,M,M,M,M,M,M,85.32,VVTS 261200Z 16009KT 9999 SCT017 27/23 Q1006 NOSIG,M
VVTS,2/26/2012 12:30,106.6667,10.8167,80.6,75.2,83.66,140,8,0,29.71,M,6.21,M,SCT,M,M,M,1700,M,M,M,M,M,M,M,M,M,M,86.17,VVTS 261230Z 14008KT 110V190 9999 SCT017 27/24 Q1006 NOSIG,M
VVTS,2/26/2012 13:00,106.6667,10.8167,80.6,73.4,78.76,130,8,0,29.74,M,6.21,M,SCT,M,M,M,1700,M,M,M,M,M,M,M,M,M,M,85.32,VVTS 261300Z 13008KT 100V170 9999 SCT017 27/23 Q1007 NOSIG,M
VVTS,2/26/2012 13:30,106.6667,10.8167,80.6,73.4,78.76,130,8,0,29.74,M,6.21,M,SCT,M,M,M,1700,M,M,M,M,M,M,M,M,M,M,85.32,VVTS 261330Z 13008KT 100V160 9999 SCT017 27/23 Q1007 NOSIG,M
VVTS,2/26/2012 14:00,106.6667,10.8167,80.6,73.4,78.76,130,8,0,29.77,M,6.21,M,SCT,M,M,M,1700,M,M,M,M,M,M,M,M,M,M,85.32,VVTS 261400Z 13008KT 100V170 9999 SCT017 27/23 Q1008 NOSIG,M
VVTS,2/26/2012 14:30,106.6667,10.8167,78.8,73.4,83.55,130,7,0,29.77,M,6.21,M,SCT,M,M,M,1700,M,M,M,M,M,M,M,M,M,M,82.03,VVTS 261430Z 13007KT 9999 SCT017 26/23 Q1008 NOSIG,M
VVTS,2/26/2012 15:00,106.6667,10.8167,78.8,73.4,83.55,130,7,0,29.77,M,6.21,M,FEW,M,M,M,1700,M,M,M,M,M,M,M,M,M,M,82.03,VVTS 261500Z 13007KT 9999 FEW017 26/23 Q1008 NOSIG,M
VVTS,2/26/2012 15:30,106.6667,10.8167,78.8,73.4,83.55,130,9,0,29.77,M,6.21,M,FEW,M,M,M,1700,M,M,M,M,M,M,M,M,M,M,82.03,VVTS 261530Z 13009KT 9999 FEW017 26/23 Q1008 NOSIG,M
VVTS,2/26/2012 16:00,106.6667,10.8167,78.8,73.4,83.55,130,8,0,29.77,M,6.21,M,FEW,M,M,M,1700,M,M,M,M,M,M,M,M,M,M,82.03,VVTS 261600Z 13008KT 9999 FEW017 26/23 Q1008 NOSIG,M
VVTS,2/26/2012 16:30,106.6667,10.8167,78.8,73.4,83.55,120,8,0,29.77,M,6.21,M,FEW,M,M,M,1700,M,M,M,M,M,M,M,M,M,M,82.03,VVTS 261630Z 12008KT 9999 FEW017 26/23 Q1008 NOSIG,M
VVTS,2/26/2012 17:30,106.6667,10.8167,78.8,73.4,83.55,130,7,0,29.74,M,6.21,M,FEW,M,M,M,1700,M,M,M,M,M,M,M,M,M,M,82.03,VVTS 261730Z 13007KT 110V170 9999 FEW017 26/23 Q1007 NOSIG,M
VVTS,2/26/2012 18:00,106.6667,10.8167,78.8,73.4,83.55,120,9,0,29.74,M,6.21,M,FEW,M,M,M,1700,M,M,M,M,M,M,M,M,M,M,82.03,VVTS 261800Z 12009KT 9999 FEW017 26/23 Q1007 NOSIG,M
VVTS,2/26/2012 18:30,106.6667,10.8167,78.8,73.4,83.55,120,8,0,29.71,M,6.21,M,FEW,M,M,M,1700,M,M,M,M,M,M,M,M,M,M,82.03,VVTS 261830Z 12008KT 9999 FEW017 26/23 Q1006 NOSIG,M
VVTS,2/26/2012 19:00,106.6667,10.8167,78.8,73.4,83.55,120,8,0,29.71,M,6.21,M,FEW,M,M,M,1700,M,M,M,M,M,M,M,M,M,M,82.03,VVTS 261900Z 12008KT 9999 FEW017 26/23 Q1006 NOSIG,M
VVTS,2/26/2012 19:30,106.6667,10.8167,78.8,73.4,83.55,110,10,0,29.71,M,6.21,M,FEW,M,M,M,1700,M,M,M,M,M,M,M,M,M,M,82.03,VVTS 261930Z 11010KT 9999 FEW017 26/23 Q1006 NOSIG,M
VVTS,2/26/2012 20:00,106.6667,10.8167,77,73.4,88.67,110,8,0,29.71,M,6.21,M,FEW,M,M,M,1700,M,M,M,M,M,M,M,M,M,M,78.57,VVTS 262000Z 11008KT 9999 FEW017 25/23 Q1006 NOSIG,M
VVTS,2/26/2012 20:30,106.6667,10.8167,77,73.4,88.67,110,9,0,29.71,M,6.21,M,FEW,M,M,M,1700,M,M,M,M,M,M,M,M,M,M,78.57,VVTS 262030Z 11009KT 9999 FEW017 25/23 Q1006 NOSIG,M
VVTS,2/26/2012 21:00,106.6667,10.8167,77,73.4,88.67,110,8,0,29.71,M,6.21,M,FEW,M,M,M,1700,M,M,M,M,M,M,M,M,M,M,78.57,VVTS 262100Z 11008KT 9999 FEW017 25/23 Q1006 NOSIG,M
VVTS,2/26/2012 21:30,106.6667,10.8167,77,73.4,88.67,100,8,0,29.71,M,6.21,M,FEW,M,M,M,1700,M,M,M,M,M,M,M,M,M,M,78.57,VVTS 262130Z 10008KT 9999 FEW017 25/23 Q1006 NOSIG,M
VVTS,2/26/2012 22:00,106.6667,10.8167,75.2,71.6,88.59,100,5,0,29.74,M,6.21,M,FEW,M,M,M,1700,M,M,M,M,M,M,M,M,M,M,76.58,VVTS 262200Z 10005KT 9999 FEW017 24/22 Q1007 NOSIG,M
VVTS,2/26/2012 22:30,106.6667,10.8167,75.2,71.6,88.59,90,8,0,29.74,M,6.21,M,FEW,M,M,M,1700,M,M,M,M,M,M,M,M,M,M,76.58,VVTS 262230Z 09008KT 9999 FEW017 24/22 Q1007 NOSIG,M
VVTS,2/26/2012 23:00,106.6667,10.8167,75.2,71.6,88.59,80,5,0,29.77,M,6.21,M,FEW,M,M,M,1700,M,M,M,M,M,M,M,M,M,M,76.58,VVTS 262300Z 08005KT 9999 FEW017 24/22 Q1008 NOSIG,M
VVTS,2/26/2012 23:30,106.6667,10.8167,75.2,73.4,94.14,70,4,0,29.77,M,6.21,M,FEW,SCT,M,M,1700,4000,M,M,M,M,M,M,M,M,M,76.84,VVTS 262330Z 07004KT 9999 FEW017 SCT040 24/23 Q1008 NOSIG,M
VVTS,2/27/2012 0:00,106.6667,10.8167,77,73.4,88.67,60,4,0,29.8,M,6.21,M,FEW,BKN,M,M,1700,4000,M,M,M,M,M,M,M,M,M,78.57,VVTS 270000Z 06004KT 9999 FEW017 BKN040 25/23 Q1009 NOSIG,M
VVTS,2/27/2012 0:30,106.6667,10.8167,78.8,73.4,83.55,60,5,0,29.8,M,6.21,M,FEW,BKN,M,M,1700,4000,M,M,M,M,M,M,M,M,M,82.03,VVTS 270030Z 06005KT 9999 FEW017 BKN040 26/23 Q1009 NOSIG,M
VVTS,2/27/2012 1:00,106.6667,10.8167,78.8,71.6,78.62,70,6,0,29.83,M,6.21,M,FEW,BKN,M,M,1700,4000,M,M,M,M,M,M,M,M,M,81.7,VVTS 270100Z 07006KT 9999 FEW017 BKN040 26/22 Q1010 NOSIG,M
VVTS,2/27/2012 1:30,106.6667,10.8167,80.6,71.6,74.11,100,8,0,29.83,M,6.21,M,FEW,BKN,M,M,1700,4000,M,M,M,M,M,M,M,M,M,84.57,VVTS 270130Z 10008KT 9999 FEW017 BKN040 27/22 Q1010 NOSIG,M
VVTS,2/27/2012 2:00,106.6667,10.8167,82.4,71.6,69.9,90,9,0,29.85,M,6.21,M,FEW,SCT,M,M,1700,4000,M,M,M,M,M,M,M,M,M,87.18,VVTS 270200Z 09009KT 9999 FEW017 SCT040 28/22 Q1011 NOSIG,M
VVTS,2/27/2012 2:30,106.6667,10.8167,84.2,73.4,70.08,80,12,0,29.85,M,6.21,M,FEW,SCT,M,M,1700,4000,M,M,M,M,M,M,M,M,M,90.94,VVTS 270230Z 08012KT 9999 FEW017 SCT040 29/23 Q1011 NOSIG,M
VVTS,2/27/2012 3:00,106.6667,10.8167,84.2,71.6,65.95,90,6,0,29.83,M,6.21,M,SCT,M,M,M,1700,M,M,M,M,M,M,M,M,M,M,89.6,VVTS 270300Z 09006KT 050V130 9999 SCT017 29/22 Q1010 NOSIG,M
VVTS,2/27/2012 3:30,106.6667,10.8167,86,71.6,62.25,80,7,0,29.83,M,6.21,M,SCT,M,M,M,1700,M,M,M,M,M,M,M,M,M,M,91.92,VVTS 270330Z 08007KT 040V120 9999 SCT017 30/22 Q1010 NOSIG,M
VVTS,2/27/2012 4:00,106.6667,10.8167,86,71.6,62.25,M,2,0,29.83,M,6.21,M,SCT,M,M,M,1700,M,M,M,M,M,M,M,M,M,M,91.92,VVTS 270400Z VRB02KT 9999 SCT017 30/22 Q1010 NOSIG,M
VVTS,2/27/2012 4:30,106.6667,10.8167,89.6,71.6,55.53,80,4,0,29.8,M,6.21,M,SCT,M,M,M,1700,M,M,M,M,M,M,M,M,M,M,96.41,VVTS 270430Z 08004KT 9999 SCT017 32/22 Q1009 NOSIG,M
VVTS,2/27/2012 5:00,106.6667,10.8167,89.6,71.6,55.53,M,M,0,29.8,M,6.21,M,SCT,M,M,M,1700,M,M,M,M,M,M,M,M,M,M,96.41,VVTS 270500Z 9999 SCT017 32/22 Q1009 NOSIG,M
VVTS,2/27/2012 5:30,106.6667,10.8167,87.8,71.6,58.78,M,2,0,29.77,M,6.21,M,SCT,M,M,M,1700,M,M,M,M,M,M,M,M,M,M,94.18,VVTS 270530Z VRB02KT 9999 SCT017 31/22 Q1008 NOSIG,M
VVTS,2/27/2012 6:00,106.6667,10.8167,89.6,71.6,55.53,M,2,0,29.74,M,6.21,M,SCT,M,M,M,1700,M,M,M,M,M,M,M,M,M,M,96.41,VVTS 270600Z VRB02KT 9999 SCT017 32/22 Q1007 NOSIG,M
VVTS,2/27/2012 6:30,106.6667,10.8167,89.6,68,49.1,M,3,0,29.74,M,6.21,M,SCT,M,M,M,1700,M,M,M,M,M,M,M,M,M,M,93.47,VVTS 270630Z VRB03KT 9999 SCT017 32/20 Q1007 NOSIG,M
VVTS,2/27/2012 7:00,106.6667,10.8167,93.2,64.4,38.73,50,4,0,29.71,M,6.21,M,SCT,M,M,M,1700,M,M,M,M,M,M,M,M,M,M,95.2,VVTS 270700Z 05004KT 280V130 9999 SCT017 34/18 Q1006 NOSIG,M
VVTS,2/27/2012 7:30,106.6667,10.8167,93.2,64.4,38.73,M,3,0,29.71,M,6.21,M,SCT,M,M,M,1700,M,M,M,M,M,M,M,M,M,M,95.2,VVTS 270730Z VRB03KT 9999 SCT017 34/18 Q1006 NOSIG,M
VVTS,2/27/2012 8:00,106.6667,10.8167,91.4,69.8,49.36,170,9,0,29.68,M,6.21,M,SCT,M,M,M,1700,M,M,M,M,M,M,M,M,M,M,96.99,VVTS 270800Z 17009KT 140V200 9999 SCT017 33/21 Q1005 NOSIG,M
VVTS,2/27/2012 8:30,106.6667,10.8167,89.6,69.8,52.23,160,8,0,29.68,M,6.21,M,SCT,M,M,M,2000,M,M,M,M,M,M,M,M,M,M,94.85,VVTS 270830Z 16008KT 110V200 9999 SCT020 32/21 Q1005 NOSIG,M
VVTS,2/27/2012 9:00,106.6667,10.8167,89.6,66.2,46.14,150,9,0,29.68,M,6.21,M,FEW,M,M,M,2000,M,M,M,M,M,M,M,M,M,M,92.27,VVTS 270900Z 15009KT 110V190 9999 FEW020 32/19 Q1005 NOSIG,M
VVTS,2/27/2012 10:00,106.6667,10.8167,87.8,69.8,55.29,150,10,0,29.68,M,6.21,M,FEW,M,M,M,2000,M,M,M,M,M,M,M,M,M,M,92.71,VVTS 271000Z 15010KT 9999 FEW020 31/21 Q1005 NOSIG,M
VVTS,2/27/2012 10:30,106.6667,10.8167,84.2,68,58.32,150,11,0,29.71,M,6.21,M,FEW,M,M,M,2000,M,M,M,M,M,M,M,M,M,M,87.4,VVTS 271030Z 15011KT 9999 FEW020 29/20 Q1006 NOSIG,M
VVTS,2/27/2012 11:00,106.6667,10.8167,84.2,66.2,54.8,160,9,0,29.71,M,6.21,M,FEW,M,M,M,2000,M,M,M,M,M,M,M,M,M,M,86.5,VVTS 271100Z 16009KT 9999 FEW020 29/19 Q1006 NOSIG,M
VVTS,2/27/2012 11:30,106.6667,10.8167,82.4,68,61.81,150,7,0,29.71,M,6.21,M,FEW,M,M,M,2000,M,M,M,M,M,M,M,M,M,M,85.38,VVTS 271130Z 15007KT 9999 FEW020 28/20 Q1006 NOSIG,M
VVTS,2/27/2012 12:00,106.6667,10.8167,82.4,69.8,65.74,150,7,0,29.71,M,6.21,M,FEW,M,M,M,2000,M,M,M,M,M,M,M,M,M,M,86.22,VVTS 271200Z 15007KT 120V190 9999 FEW020 28/21 Q1006 NOSIG,M
VVTS,2/27/2012 12:30,106.6667,10.8167,80.6,69.8,69.71,150,9,0,29.74,M,6.21,M,FEW,M,M,M,2000,M,M,M,M,M,M,M,M,M,M,83.9,VVTS 271230Z 15009KT 120V200 9999 FEW020 27/21 Q1007 NOSIG,M
VVTS,2/27/2012 13:00,106.6667,10.8167,80.6,69.8,69.71,150,8,0,29.74,M,6.21,M,FEW,M,M,M,2000,M,M,M,M,M,M,M,M,M,M,83.9,VVTS 271300Z 15008KT 120V200 9999 FEW020 27/21 Q1007 NOSIG,M
VVTS,2/27/2012 13:30,106.6667,10.8167,80.6,66.2,61.58,120,9,0,29.74,M,6.21,M,FEW,M,M,M,2000,M,M,M,M,M,M,M,M,M,M,82.75,VVTS 271330Z 12009KT 9999 FEW020 27/19 Q1007 NOSIG,M
VVTS,2/27/2012 14:00,106.6667,10.8167,80.6,68,65.54,130,10,0,29.74,M,6.21,M,FEW,M,M,M,2000,M,M,M,M,M,M,M,M,M,M,83.29,VVTS 271400Z 13010KT 110V180 9999 FEW020 27/20 Q1007 NOSIG,M
VVTS,2/27/2012 14:30,106.6667,10.8167,80.6,68,65.54,130,10,0,29.74,M,6.21,M,FEW,M,M,M,2000,M,M,M,M,M,M,M,M,M,M,83.29,VVTS 271430Z 13010KT 9999 FEW020 27/20 Q1007 NOSIG,M
VVTS,2/27/2012 15:00,106.6667,10.8167,78.8,69.8,73.95,130,10,0,29.74,M,6.21,M,FEW,M,M,M,2000,M,M,M,M,M,M,M,M,M,M,81.39,VVTS 271500Z 13010KT 9999 FEW020 26/21 Q1007 NOSIG,M
VVTS,2/27/2012 15:30,106.6667,10.8167,78.8,69.8,73.95,120,9,0,29.74,M,6.21,M,FEW,M,M,M,1700,M,M,M,M,M,M,M,M,M,M,81.39,VVTS 271530Z 12009KT 9999 FEW017 26/21 Q1007 NOSIG,M
VVTS,2/27/2012 16:00,106.6667,10.8167,78.8,69.8,73.95,110,9,0,29.74,M,6.21,M,FEW,M,M,M,1700,M,M,M,M,M,M,M,M,M,M,81.39,VVTS 271600Z 11009KT 9999 FEW017 26/21 Q1007 NOSIG,M
VVTS,2/27/2012 16:30,106.6667,10.8167,78.8,69.8,73.95,110,7,0,29.74,M,6.21,M,FEW,M,M,M,1700,M,M,M,M,M,M,M,M,M,M,81.39,VVTS 271630Z 11007KT 9999 FEW017 26/21 Q1007 NOSIG,M
VVTS,2/27/2012 17:00,106.6667,10.8167,78.8,69.8,73.95,110,9,0,29.74,M,6.21,M,FEW,M,M,M,1700,M,M,M,M,M,M,M,M,M,M,81.39,VVTS 271700Z 11009KT 020V140 9999 FEW017 26/21 Q1007 NOSIG,M
VVTS,2/27/2012 17:30,106.6667,10.8167,78.8,69.8,73.95,110,6,0,29.74,M,6.21,M,FEW,M,M,M,1700,M,M,M,M,M,M,M,M,M,M,81.39,VVTS 271730Z 11006KT 080V170 9999 FEW017 26/21 Q1007 NOSIG,M
VVTS,2/27/2012 18:00,106.6667,10.8167,77,69.8,78.48,120,5,0,29.71,M,6.21,M,FEW,M,M,M,1700,M,M,M,M,M,M,M,M,M,M,78.09,VVTS 271800Z 12005KT 100V160 9999 FEW017 25/21 Q1006 NOSIG,M
VVTS,2/27/2012 18:30,106.6667,10.8167,77,69.8,78.48,120,7,0,29.71,M,6.21,M,FEW,M,M,M,1700,M,M,M,M,M,M,M,M,M,M,78.09,VVTS 271830Z 12007KT 9999 FEW017 25/21 Q1006 NOSIG,M
VVTS,2/27/2012 19:00,106.6667,10.8167,75.2,69.8,83.32,130,7,0,29.71,M,6.21,M,FEW,M,M,M,1700,M,M,M,M,M,M,M,M,M,M,76.34,VVTS 271900Z 13007KT 9999 FEW017 24/21 Q1006 NOSIG,M
VVTS,2/27/2012 19:30,106.6667,10.8167,75.2,69.8,83.32,130,7,0,29.71,M,6.21,M,FEW,M,M,M,1700,M,M,M,M,M,M,M,M,M,M,76.34,VVTS 271930Z 13007KT 9999 FEW017 24/21 Q1006 NOSIG,M
VVTS,2/27/2012 20:00,106.6667,10.8167,75.2,69.8,83.32,110,5,0,29.71,M,6.21,M,FEW,M,M,M,1700,M,M,M,M,M,M,M,M,M,M,76.34,VVTS 272000Z 11005KT 080V140 9999 FEW017 24/21 Q1006 NOSIG,M
VVTS,2/27/2012 20:30,106.6667,10.8167,75.2,69.8,83.32,130,4,0,29.71,M,6.21,M,FEW,M,M,M,1700,M,M,M,M,M,M,M,M,M,M,76.34,VVTS 272030Z 13004KT 9999 FEW017 24/21 Q1006 NOSIG,M
VVTS,2/27/2012 21:00,106.6667,10.8167,75.2,69.8,83.32,110,4,0,29.71,M,6.21,M,FEW,M,M,M,1700,M,M,M,M,M,M,M,M,M,M,76.34,VVTS 272100Z 11004KT 090V160 9999 FEW017 24/21 Q1006 NOSIG,M
VVTS,2/27/2012 21:30,106.6667,10.8167,75.2,69.8,83.32,M,3,0,29.71,M,6.21,M,FEW,M,M,M,1700,M,M,M,M,M,M,M,M,M,M,76.34,VVTS 272130Z VRB03KT 9999 FEW017 24/21 Q1006 NOSIG,M
VVTS,2/27/2012 22:00,106.6667,10.8167,73.4,69.8,88.51,M,2,0,29.71,M,6.21,M,FEW,M,M,M,1700,M,M,M,M,M,M,M,M,M,M,74.6,VVTS 272200Z VRB02KT 9999 FEW017 23/21 Q1006 NOSIG,M
VVTS,2/27/2012 22:30,106.6667,10.8167,71.6,69.8,94.06,40,2,0,29.74,M,6.21,M,FEW,M,M,M,1700,M,M,M,M,M,M,M,M,M,M,72.88,VVTS 272230Z 04002KT 9999 FEW017 22/21 Q1007 NOSIG,M
VVTS,2/27/2012 23:00,106.6667,10.8167,71.6,71.6,100,50,3,0,29.74,M,6.21,M,FEW,M,M,M,1700,M,M,M,M,M,M,M,M,M,M,73.16,VVTS 272300Z 05003KT 9999 FEW017 22/22 Q1007 NOSIG,M
VVTS,2/27/2012 23:30,106.6667,10.8167,71.6,71.6,100,100,4,0,29.74,M,6.21,M,FEW,M,M,M,1700,M,M,M,M,M,M,M,M,M,M,73.16,VVTS 272330Z 10004KT 060V130 9999 FEW017 22/22 Q1007 NOSIG,M
VVTS,2/28/2012 0:00,106.6667,10.8167,75.2,71.6,88.59,100,7,0,29.77,M,6.21,M,FEW,M,M,M,1700,M,M,M,M,M,M,M,M,M,M,76.58,VVTS 280000Z 10007KT 9999 FEW017 24/22 Q1008 NOSIG,M
VVTS,2/28/2012 0:30,106.6667,10.8167,78.8,71.6,78.62,100,6,0,29.77,M,6.21,M,FEW,M,M,M,1700,M,M,M,M,M,M,M,M,M,M,81.7,VVTS 280030Z 10006KT 050V130 9999 FEW017 26/22 Q1008 NOSIG,M
VVTS,2/28/2012 1:00,106.6667,10.8167,80.6,69.8,69.71,70,5,0,29.77,M,6.21,M,FEW,M,M,M,1700,M,M,M,M,M,M,M,M,M,M,83.9,VVTS 280100Z 07005KT 030V110 9999 FEW017 27/21 Q1008 NOSIG,M
VVTS,2/28/2012 1:30,106.6667,10.8167,82.4,69.8,65.74,90,4,0,29.8,M,6.21,M,FEW,M,M,M,1700,M,M,M,M,M,M,M,M,M,M,86.22,VVTS 280130Z 09004KT 060V140 9999 FEW017 28/21 Q1009 NOSIG,M
VVTS,2/28/2012 2:00,106.6667,10.8167,82.4,69.8,65.74,130,7,0,29.8,M,6.21,M,FEW,M,M,M,1700,M,M,M,M,M,M,M,M,M,M,86.22,VVTS 280200Z 13007KT 100V160 9999 FEW017 28/21 Q1009 NOSIG,M
VVTS,2/28/2012 2:30,106.6667,10.8167,84.2,69.8,62.03,130,7,0,29.8,M,6.21,M,FEW,M,M,M,1700,M,M,M,M,M,M,M,M,M,M,88.43,VVTS 280230Z 13007KT 090V180 9999 FEW017 29/21 Q1009 NOSIG,M
VVTS,2/28/2012 3:00,106.6667,10.8167,84.2,68,58.32,140,5,0,29.8,M,6.21,M,FEW,M,M,M,1700,M,M,M,M,M,M,M,M,M,M,87.4,VVTS 280300Z 14005KT 090V180 9999 FEW017 29/20 Q1009 NOSIG,M
VVTS,2/28/2012 3:30,106.6667,10.8167,87.8,69.8,55.29,130,8,0,29.8,M,6.21,M,FEW,M,M,M,1700,M,M,M,M,M,M,M,M,M,M,92.71,VVTS 280330Z 13008KT 090V160 9999 FEW017 31/21 Q1009 NOSIG,M
VVTS,2/28/2012 4:00,106.6667,10.8167,87.8,66.2,48.84,100,8,0,29.77,M,6.21,M,FEW,M,M,M,1700,M,M,M,M,M,M,M,M,M,M,90.31,VVTS 280400Z 10008KT 070V130 9999 FEW017 31/19 Q1008 NOSIG,M
VVTS,2/28/2012 4:30,106.6667,10.8167,87.8,66.2,48.84,160,5,0,29.77,M,6.21,M,FEW,M,M,M,1700,M,M,M,M,M,M,M,M,M,M,90.31,VVTS 280430Z 16005KT 110V230 9999 FEW017 31/19 Q1008 NOSIG,M
VVTS,2/28/2012 5:00,106.6667,10.8167,89.6,66.2,46.14,M,3,0,29.74,M,6.21,M,SCT,M,M,M,2000,M,M,M,M,M,M,M,M,M,M,92.27,VVTS 280500Z VRB03KT 9999 SCT020 32/19 Q1007 NOSIG,M
VVTS,2/28/2012 5:30,106.6667,10.8167,91.4,66.2,43.61,160,6,0,29.74,M,6.21,M,SCT,M,M,M,2000,M,M,M,M,M,M,M,M,M,M,94.29,VVTS 280530Z 16006KT 120V200 9999 SCT020 33/19 Q1007 NOSIG,M
VVTS,2/28/2012 6:00,106.6667,10.8167,91.4,66.2,43.61,M,2,0,29.71,M,6.21,M,SCT,M,M,M,2000,M,M,M,M,M,M,M,M,M,M,94.29,VVTS 280600Z VRB02KT 9999 SCT020 33/19 Q1006 NOSIG,M
VVTS,2/28/2012 6:30,106.6667,10.8167,91.4,66.2,43.61,130,4,0,29.71,M,6.21,M,SCT,M,M,M,2000,M,M,M,M,M,M,M,M,M,M,94.29,VVTS 280630Z 13004KT 040V250 9999 SCT020 33/19 Q1006 NOSIG,M
VVTS,2/28/2012 7:00,106.6667,10.8167,91.4,66.2,43.61,M,3,0,29.68,M,6.21,M,SCT,M,M,M,2000,M,M,M,M,M,M,M,M,M,M,94.29,VVTS 280700Z VRB03KT 9999 SCT020 33/19 Q1005 NOSIG,M
VVTS,2/28/2012 7:30,106.6667,10.8167,91.4,68,46.41,M,2,0,29.68,M,6.21,M,SCT,M,M,M,2000,M,M,M,M,M,M,M,M,M,M,95.55,VVTS 280730Z VRB02KT 9999 SCT020 33/20 Q1005 NOSIG,M
VVTS,2/28/2012 8:00,106.6667,10.8167,89.6,69.8,52.23,170,8,0,29.68,M,6.21,M,SCT,M,M,M,2000,M,M,M,M,M,M,M,M,M,M,94.85,VVTS 280800Z 17008KT 140V200 9999 SCT020 32/21 Q1005 NOSIG,M
VVTS,2/28/2012 8:30,106.6667,10.8167,89.6,69.8,52.23,170,9,0,29.68,M,6.21,M,SCT,M,M,M,2000,M,M,M,M,M,M,M,M,M,M,94.85,VVTS 280830Z 17009KT 9999 SCT020 32/21 Q1005 NOSIG,M
VVTS,2/28/2012 9:00,106.6667,10.8167,87.8,69.8,55.29,160,10,0,29.68,M,6.21,M,FEW,M,M,M,2000,M,M,M,M,M,M,M,M,M,M,92.71,VVTS 280900Z 16010KT 9999 FEW020 31/21 Q1005 NOSIG,M
VVTS,2/28/2012 10:00,106.6667,10.8167,84.2,69.8,62.03,150,9,0,29.68,M,6.21,M,FEW,M,M,M,2000,M,M,M,M,M,M,M,M,M,M,88.43,VVTS 281000Z 15009KT 120V190 9999 FEW020 29/21 Q1005 NOSIG,M
VVTS,2/28/2012 10:30,106.6667,10.8167,84.2,69.8,62.03,150,10,0,29.71,M,6.21,M,FEW,M,M,M,2000,M,M,M,M,M,M,M,M,M,M,88.43,VVTS 281030Z 15010KT 9999 FEW020 29/21 Q1006 NOSIG,M
VVTS,2/28/2012 11:00,106.6667,10.8167,82.4,66.2,58.08,160,8,0,29.71,M,6.21,M,FEW,M,M,M,2000,M,M,M,M,M,M,M,M,M,M,84.63,VVTS 281100Z 16008KT 130V200 9999 FEW020 28/19 Q1006 NOSIG,M
VVTS,2/28/2012 11:30,106.6667,10.8167,80.6,68,65.54,160,6,0,29.71,M,6.21,M,FEW,M,M,M,2000,M,M,M,M,M,M,M,M,M,M,83.29,VVTS 281130Z 16006KT 130V200 9999 FEW020 27/20 Q1006 NOSIG,M
VVTS,2/28/2012 12:00,106.6667,10.8167,80.6,69.8,69.71,140,6,0,29.71,M,6.21,M,FEW,M,M,M,2000,M,M,M,M,M,M,M,M,M,M,83.9,VVTS 281200Z 14006KT 9999 FEW020 27/21 Q1006 NOSIG,M
VVTS,2/28/2012 12:30,106.6667,10.8167,80.6,69.8,69.71,130,6,0,29.74,M,6.21,M,FEW,M,M,M,2000,M,M,M,M,M,M,M,M,M,M,83.9,VVTS 281230Z 13006KT 9999 FEW020 27/21 Q1007 NOSIG,M
VVTS,2/28/2012 13:00,106.6667,10.8167,80.6,69.8,69.71,130,7,0,29.74,M,6.21,M,FEW,M,M,M,2000,M,M,M,M,M,M,M,M,M,M,83.9,VVTS 281300Z 13007KT 100V170 9999 FEW020 27/21 Q1007 NOSIG,M
VVTS,2/28/2012 13:30,106.6667,10.8167,78.8,69.8,73.95,120,7,0,29.74,M,6.21,M,FEW,M,M,M,2000,M,M,M,M,M,M,M,M,M,M,81.39,VVTS 281330Z 12007KT 100V160 9999 FEW020 26/21 Q1007 NOSIG,M
VVTS,2/28/2012 14:00,106.6667,10.8167,78.8,68,69.52,130,6,0,29.77,M,6.21,M,FEW,M,M,M,2000,M,M,M,M,M,M,M,M,M,M,81.1,VVTS 281400Z 13006KT 110V200 9999 FEW020 26/20 Q1008 NOSIG,M
VVTS,2/28/2012 14:30,106.6667,10.8167,78.8,69.8,73.95,120,8,0,29.77,M,6.21,M,FEW,M,M,M,2000,M,M,M,M,M,M,M,M,M,M,81.39,VVTS 281430Z 12008KT 9999 FEW020 26/21 Q1008 NOSIG,M
VVTS,2/28/2012 15:00,106.6667,10.8167,78.8,69.8,73.95,130,9,0,29.77,M,6.21,M,FEW,M,M,M,2000,M,M,M,M,M,M,M,M,M,M,81.39,VVTS 281500Z 13009KT 9999 FEW020 26/21 Q1008 NOSIG,M
VVTS,2/28/2012 16:30,106.6667,10.8167,78.8,69.8,73.95,140,9,0,29.77,M,6.21,M,FEW,M,M,M,2000,M,M,M,M,M,M,M,M,M,M,81.39,VVTS 281630Z 14009KT 9999 FEW020 26/21 Q1008 NOSIG,M
VVTS,2/28/2012 17:00,106.6667,10.8167,78.8,68,69.52,140,9,0,29.77,M,6.21,M,FEW,M,M,M,2000,M,M,M,M,M,M,M,M,M,M,81.1,VVTS 281700Z 14009KT 9999 FEW020 26/20 Q1008 NOSIG,M
VVTS,2/28/2012 17:30,106.6667,10.8167,78.8,69.8,73.95,150,6,0,29.74,M,6.21,M,FEW,M,M,M,2000,M,M,M,M,M,M,M,M,M,M,81.39,VVTS 281730Z 15006KT 120V190 9999 FEW020 26/21 Q1007 NOSIG,M
VVTS,2/28/2012 18:00,106.6667,10.8167,77,71.6,83.44,160,5,0,29.74,M,6.21,M,FEW,M,M,M,1700,M,M,M,M,M,M,M,M,M,M,78.32,VVTS 281800Z 16005KT 9999 FEW017 25/22 Q1007 NOSIG,M
VVTS,2/28/2012 18:30,106.6667,10.8167,77,71.6,83.44,140,4,0,29.74,M,6.21,M,FEW,M,M,M,1700,M,M,M,M,M,M,M,M,M,M,78.32,VVTS 281830Z 14004KT 100V180 9999 FEW017 25/22 Q1007 NOSIG,M
VVTS,2/28/2012 19:00,106.6667,10.8167,77,69.8,78.48,130,6,0,29.74,M,6.21,M,FEW,M,M,M,1700,M,M,M,M,M,M,M,M,M,M,78.09,VVTS 281900Z 13006KT 110V170 9999 FEW017 25/21 Q1007 NOSIG,M
VVTS,2/28/2012 19:30,106.6667,10.8167,77,69.8,78.48,120,5,0,29.74,M,6.21,M,FEW,M,M,M,1700,M,M,M,M,M,M,M,M,M,M,78.09,VVTS 281930Z 12005KT 9999 FEW017 25/21 Q1007 NOSIG,M
VVTS,2/28/2012 20:00,106.6667,10.8167,77,69.8,78.48,130,5,0,29.74,M,6.21,M,FEW,M,M,M,1700,M,M,M,M,M,M,M,M,M,M,78.09,VVTS 282000Z 13005KT 9999 FEW017 25/21 Q1007 NOSIG,M
VVTS,2/28/2012 20:30,106.6667,10.8167,M,M,M,130,5,0,M,M,6.21,M,FEW,M,M,M,1700,M,M,M,M,M,M,M,M,M,M,M,VVTS 282030Z 13005KT 9999 FEW017 25/21SIG,M
VVTS,2/28/2012 21:00,106.6667,10.8167,77,69.8,78.48,130,5,0,29.74,M,6.21,M,FEW,M,M,M,1700,M,M,M,M,M,M,M,M,M,M,78.09,VVTS 282100Z 13005KT 9999 FEW017 25/21 Q1007 NOSIG,M
VVTS,2/28/2012 21:30,106.6667,10.8167,77,69.8,78.48,110,4,0,29.74,M,6.21,M,FEW,M,M,M,1700,M,M,M,M,M,M,M,M,M,M,78.09,VVTS 282130Z 11004KT 9999 FEW017 25/21 Q1007 NOSIG,M
VVTS,2/28/2012 22:00,106.6667,10.8167,77,69.8,78.48,120,4,0,29.74,M,6.21,M,FEW,M,M,M,1700,M,M,M,M,M,M,M,M,M,M,78.09,VVTS 282200Z 12004KT 020V140 9999 FEW017 25/21 Q1007 NOSIG,M
VVTS,2/28/2012 22:30,106.6667,10.8167,75.2,69.8,83.32,130,3,0,29.74,M,6.21,M,FEW,M,M,M,1700,M,M,M,M,M,M,M,M,M,M,76.34,VVTS 282230Z 13003KT 9999 FEW017 24/21 Q1007 NOSIG,M
VVTS,2/28/2012 23:00,106.6667,10.8167,75.2,69.8,83.32,M,2,0,29.74,M,6.21,M,FEW,M,M,M,1700,M,M,M,M,M,M,M,M,M,M,76.34,VVTS 282300Z VRB02KT 9999 FEW017 24/21 Q1007 NOSIG,M
VVTS,2/29/2012 0:00,106.6667,10.8167,77,69.8,78.48,120,4,0,29.77,M,6.21,M,FEW,SCT,M,M,1700,4000,M,M,M,M,M,M,M,M,M,78.09,VVTS 290000Z 12004KT 9999 FEW017 SCT040 25/21 Q1008 NOSIG,M
VVTS,2/29/2012 0:30,106.6667,10.8167,78.8,69.8,73.95,120,5,0,29.77,M,6.21,M,FEW,BKN,M,M,1700,4000,M,M,M,M,M,M,M,M,M,81.39,VVTS 290030Z 12005KT 9999 FEW017 BKN040 26/21 Q1008 NOSIG,M
VVTS,2/29/2012 1:00,106.6667,10.8167,82.4,69.8,65.74,80,6,0,29.8,M,6.21,M,FEW,BKN,M,M,1700,4000,M,M,M,M,M,M,M,M,M,86.22,VVTS 290100Z 08006KT 9999 FEW017 BKN040 28/21 Q1009 NOSIG,M
VVTS,2/29/2012 1:30,106.6667,10.8167,84.2,69.8,62.03,70,5,0,29.8,M,6.21,M,FEW,BKN,M,M,1700,4000,M,M,M,M,M,M,M,M,M,88.43,VVTS 290130Z 07005KT 050V140 9999 FEW017 BKN040 29/21 Q1009 NOSIG,M
VVTS,2/29/2012 2:00,106.6667,10.8167,82.4,68,61.81,90,8,0,29.8,M,6.21,M,FEW,SCT,M,M,1700,4000,M,M,M,M,M,M,M,M,M,85.38,VVTS 290200Z 09008KT 9999 FEW017 SCT040 28/20 Q1009 NOSIG,M
VVTS,2/29/2012 2:30,106.6667,10.8167,84.2,68,58.32,90,8,0,29.8,M,6.21,M,FEW,SCT,M,M,1700,4000,M,M,M,M,M,M,M,M,M,87.4,VVTS 290230Z 09008KT 9999 FEW017 SCT040 29/20 Q1009 NOSIG,M
VVTS,2/29/2012 3:00,106.6667,10.8167,84.2,69.8,62.03,120,23,0,29.8,M,6.21,M,FEW,SCT,M,M,1700,4000,M,M,M,M,M,M,M,M,M,88.43,VVTS 290300Z 12023KT 9999 FEW017 SCT040 29/21 Q1009 NOSIG,M
VVTS,2/29/2012 3:30,106.6667,10.8167,87.8,69.8,55.29,90,10,0,29.8,M,6.21,M,FEW,SCT,M,M,1700,4000,M,M,M,M,M,M,M,M,M,92.71,VVTS 290330Z 09010KT 9999 FEW017 SCT040 31/21 Q1009 NOSIG,M
VVTS,2/29/2012 4:00,106.6667,10.8167,89.6,69.8,52.23,110,6,0,29.8,M,6.21,M,FEW,M,M,M,1700,M,M,M,M,M,M,M,M,M,M,94.85,VVTS 290400Z 11006KT 030V190 9999 FEW017 32/21 Q1009 NOSIG,M
VVTS,2/29/2012 4:30,106.6667,10.8167,91.4,69.8,49.36,80,6,0,29.77,M,6.21,M,FEW,M,M,M,1700,M,M,M,M,M,M,M,M,M,M,96.99,VVTS 290430Z 08006KT 010V120 9999 FEW017 33/21 Q1008 NOSIG,M
VVTS,2/29/2012 5:00,106.6667,10.8167,93.2,68,43.88,100,5,0,29.74,M,6.21,M,FEW,M,M,M,1700,M,M,M,M,M,M,M,M,M,M,97.67,VVTS 290500Z 10005KT 020V160 9999 FEW017 34/20 Q1007 NOSIG,M
VVTS,2/29/2012 5:30,106.6667,10.8167,91.4,66.2,43.61,100,5,0,29.74,M,6.21,M,SCT,M,M,M,1700,M,M,M,M,M,M,M,M,M,M,94.29,VVTS 290530Z 10005KT 010V190 9999 SCT017 33/19 Q1007 NOSIG,M
VVTS,2/29/2012 6:00,106.6667,10.8167,93.2,66.2,41.23,90,5,0,29.71,M,6.21,35,SCT,M,M,M,2000,M,M,M,M,M,M,M,M,M,M,96.35,VVTS 290600Z 09005G35KT 300V240 9999 SCT020 34/19 Q1006 NOSIG,M
VVTS,2/29/2012 6:30,106.6667,10.8167,93.2,66.2,41.23,140,5,0,29.71,M,6.21,M,SCT,M,M,M,2000,M,M,M,M,M,M,M,M,M,M,96.35,VVTS 290630Z 14005KT 070V190 9999 SCT020 34/19 Q1006 NOSIG,M
VVTS,2/29/2012 7:00,106.6667,10.8167,93.2,64.4,38.73,120,4,0,29.68,M,6.21,M,SCT,M,M,M,2000,M,M,M,M,M,M,M,M,M,M,95.2,VVTS 290700Z 12004KT 050V200 9999 SCT020 34/18 Q1005 NOSIG,M
VVTS,2/29/2012 7:30,106.6667,10.8167,95,64.4,36.63,140,5,0,29.68,M,6.21,M,SCT,M,M,M,2000,M,M,M,M,M,M,M,M,M,M,97.26,VVTS 290730Z 14005KT 100V170 9999 SCT020 35/18 Q1005 NOSIG,M
VVTS,2/29/2012 8:00,106.6667,10.8167,93.2,69.8,46.67,180,10,0,29.68,M,6.21,M,SCT,M,M,M,2000,M,M,M,M,M,M,M,M,M,M,99.17,VVTS 290800Z 18010KT 9999 SCT020 34/21 Q1005 NOSIG,M
VVTS,2/29/2012 8:30,106.6667,10.8167,91.4,69.8,49.36,160,9,0,29.68,M,6.21,M,SCT,M,M,M,2000,M,M,M,M,M,M,M,M,M,M,96.99,VVTS 290830Z 16009KT 120V200 9999 SCT020 33/21 Q1005 NOSIG,M
VVTS,2/29/2012 9:00,106.6667,10.8167,91.4,69.8,49.36,150,8,0,29.68,M,6.21,M,FEW,M,M,M,2000,M,M,M,M,M,M,M,M,M,M,96.99,VVTS 290900Z 15008KT 110V190 9999 FEW020 33/21 Q1005 NOSIG,M
VVTS,2/29/2012 9:30,106.6667,10.8167,91.4,69.8,49.36,160,8,0,29.68,M,6.21,M,FEW,M,M,M,2000,M,M,M,M,M,M,M,M,M,M,96.99,VVTS 290930Z 16008KT 9999 FEW020 33/21 Q1005 NOSIG,M
VVTS,2/29/2012 10:00,106.6667,10.8167,89.6,69.8,52.23,160,9,0,29.68,M,6.21,M,FEW,M,M,M,2000,M,M,M,M,M,M,M,M,M,M,94.85,VVTS 291000Z 16009KT 130V200 9999 FEW020 32/21 Q1005 NOSIG,M
VVTS,2/29/2012 10:30,106.6667,10.8167,87.8,71.6,58.78,160,8,0,29.68,M,6.21,M,FEW,M,M,M,2000,M,M,M,M,M,M,M,M,M,M,94.18,VVTS 291030Z 16008KT 9999 FEW020 31/22 Q1005 NOSIG,M
VVTS,2/29/2012 11:00,106.6667,10.8167,86,69.8,58.55,170,8,0,29.68,M,6.21,M,FEW,M,M,M,2000,M,M,M,M,M,M,M,M,M,M,90.58,VVTS 291100Z 17008KT 140V210 9999 FEW020 30/21 Q1005 NOSIG,M
VVTS,2/29/2012 11:30,106.6667,10.8167,84.2,71.6,65.95,150,8,0,29.68,M,6.21,M,FEW,M,M,M,1700,M,M,M,M,M,M,M,M,M,M,89.6,VVTS 291130Z 15008KT 120V190 9999 FEW017 29/22 Q1005 NOSIG,M
VVTS,2/29/2012 12:00,106.6667,10.8167,84.2,71.6,65.95,140,6,0,29.71,M,6.21,M,FEW,M,M,M,1700,M,M,M,M,M,M,M,M,M,M,89.6,VVTS 291200Z 14006KT 110V180 9999 FEW017 29/22 Q1006 NOSIG,M
VVTS,2/29/2012 12:30,106.6667,10.8167,84.2,71.6,65.95,130,7,0,29.71,M,6.21,M,FEW,M,M,M,1700,M,M,M,M,M,M,M,M,M,M,89.6,VVTS 291230Z 13007KT 9999 FEW017 29/22 Q1006 NOSIG,M
VVTS,2/29/2012 13:00,106.6667,10.8167,82.4,69.8,65.74,130,8,0,29.74,M,6.21,M,FEW,M,M,M,1700,M,M,M,M,M,M,M,M,M,M,86.22,VVTS 291300Z 13008KT 9999 FEW017 28/21 Q1007 NOSIG,M
VVTS,2/29/2012 13:30,106.6667,10.8167,82.4,69.8,65.74,130,6,0,29.74,M,6.21,M,FEW,M,M,M,1700,M,M,M,M,M,M,M,M,M,M,86.22,VVTS 291330Z 13006KT 9999 FEW017 28/21 Q1007 NOSIG,M
VVTS,2/29/2012 14:00,106.6667,10.8167,82.4,69.8,65.74,130,7,0,29.77,M,6.21,M,FEW,M,M,M,1700,M,M,M,M,M,M,M,M,M,M,86.22,VVTS 291400Z 13007KT 9999 FEW017 28/21 Q1008 NOSIG,M
VVTS,2/29/2012 14:30,106.6667,10.8167,82.4,71.6,69.9,130,10,0,29.77,M,6.21,M,FEW,M,M,M,1700,M,M,M,M,M,M,M,M,M,M,87.18,VVTS 291430Z 13010KT 9999 FEW017 28/22 Q1008 NOSIG,M
VVTS,2/29/2012 15:00,106.6667,10.8167,82.4,71.6,69.9,140,8,0,29.77,M,6.21,M,FEW,M,M,M,1700,M,M,M,M,M,M,M,M,M,M,87.18,VVTS 291500Z 14008KT 9999 FEW017 28/22 Q1008 NOSIG,M
VVTS,2/29/2012 15:30,106.6667,10.8167,80.6,71.6,74.11,140,6,0,29.77,M,6.21,M,FEW,M,M,M,1700,M,M,M,M,M,M,M,M,M,M,84.57,VVTS 291530Z 14006KT 110V180 9999 FEW017 27/22 Q1008 NOSIG,M
VVTS,2/29/2012 16:00,106.6667,10.8167,80.6,71.6,74.11,130,8,0,29.77,M,6.21,M,FEW,M,M,M,1700,M,M,M,M,M,M,M,M,M,M,84.57,VVTS 291600Z 13008KT 9999 FEW017 27/22 Q1008 NOSIG,M
VVTS,2/29/2012 16:30,106.6667,10.8167,80.6,71.6,74.11,130,8,0,29.77,M,6.21,M,FEW,M,M,M,1700,M,M,M,M,M,M,M,M,M,M,84.57,VVTS 291630Z 13008KT 9999 FEW017 27/22 Q1008 NOSIG,M
VVTS,2/29/2012 17:00,106.6667,10.8167,80.6,71.6,74.11,130,8,0,29.77,M,6.21,M,FEW,M,M,M,1700,M,M,M,M,M,M,M,M,M,M,84.57,VVTS 291700Z 13008KT 100V160 9999 FEW017 27/22 Q1008 NOSIG,M
VVTS,2/29/2012 17:30,106.6667,10.8167,80.6,71.6,74.11,130,6,0,29.77,M,6.21,M,FEW,M,M,M,1700,M,M,M,M,M,M,M,M,M,M,84.57,VVTS 291730Z 13006KT 090V200 9999 FEW017 27/22 Q1008 NOSIG,M
VVTS,2/29/2012 18:00,106.6667,10.8167,80.6,71.6,74.11,130,6,0,29.77,M,6.21,M,FEW,M,M,M,1700,M,M,M,M,M,M,M,M,M,M,84.57,VVTS 291800Z 13006KT 9999 FEW017 27/22 Q1008 NOSIG,M
VVTS,2/29/2012 18:30,106.6667,10.8167,80.6,71.6,74.11,110,6,0,29.74,M,6.21,M,FEW,M,M,M,1700,M,M,M,M,M,M,M,M,M,M,84.57,VVTS 291830Z 11006KT 9999 FEW017 27/22 Q1007 NOSIG,M
VVTS,2/29/2012 19:00,106.6667,10.8167,78.8,71.6,78.62,M,3,0,29.74,M,6.21,M,FEW,M,M,M,1700,M,M,M,M,M,M,M,M,M,M,81.7,VVTS 291900Z VRB03KT 9999 FEW017 26/22 Q1007 NOSIG,M
VVTS,2/29/2012 19:30,106.6667,10.8167,78.8,71.6,78.62,100,2,0,29.74,M,6.21,M,FEW,M,M,M,1700,M,M,M,M,M,M,M,M,M,M,81.7,VVTS 291930Z 10002KT 9999 FEW017 26/22 Q1007 NOSIG,M
VVTS,2/29/2012 20:00,106.6667,10.8167,78.8,71.6,78.62,90,4,0,29.74,M,6.21,M,FEW,M,M,M,1700,M,M,M,M,M,M,M,M,M,M,81.7,VVTS 292000Z 09004KT 070V130 9999 FEW017 26/22 Q1007 NOSIG,M
VVTS,2/29/2012 20:30,106.6667,10.8167,75.2,71.6,88.59,90,3,0,29.74,M,6.21,M,FEW,M,M,M,1700,M,M,M,M,M,M,M,M,M,M,76.58,VVTS 292030Z 09003KT 9999 FEW017 24/22 Q1007 NOSIG,M
VVTS,2/29/2012 21:00,106.6667,10.8167,75.2,71.6,88.59,M,2,0,29.74,M,6.21,M,FEW,M,M,M,1700,M,M,M,M,M,M,M,M,M,M,76.58,VVTS 292100Z VRB02KT 9999 FEW017 24/22 Q1007 NOSIG,M
VVTS,2/29/2012 21:30,106.6667,10.8167,75.2,71.6,88.59,0,0,0,29.77,M,6.21,M,FEW,M,M,M,1700,M,M,M,M,M,M,M,M,M,M,76.58,VVTS 292130Z 00000KT 9999 FEW017 24/22 Q1008 NOSIG,M
VVTS,2/29/2012 22:00,106.6667,10.8167,75.2,71.6,88.59,50,1,0,29.77,M,6.21,M,FEW,M,M,M,1700,M,M,M,M,M,M,M,M,M,M,76.58,VVTS 292200Z 05001KT 9999 FEW017 24/22 Q1008 NOSIG,M
VVTS,2/29/2012 22:30,106.6667,10.8167,75.2,73.4,94.14,10,4,0,29.77,M,6.21,M,FEW,M,M,M,1700,M,M,M,M,M,M,M,M,M,M,76.84,VVTS 292230Z 01004KT 9999 FEW017 24/23 Q1008 NOSIG,M
VVTS,2/29/2012 23:00,106.6667,10.8167,75.2,73.4,94.14,10,5,0,29.77,M,5.59,M,FEW,SCT,M,M,1700,4000,M,M,M,M,M,M,M,M,M,76.84,VVTS 292300Z 01005KT 9000 FEW017 SCT040 24/23 Q1008 NOSIG,M
VVTS,2/29/2012 23:30,106.6667,10.8167,75.2,75.2,100,10,4,0,29.8,M,3.73,M,FEW,SCT,M,M,1700,4000,M,M,M,M,M,M,M,M,M,77.12,VVTS 292330Z 01004KT 330V050 6000 FEW017 SCT040 24/24 Q1009 NOSIG,M
VVTS,3/1/2012 0:00,106.6667,10.8167,75.2,75.2,100,10,5,0,29.8,M,3.11,M,FEW,M,M,M,1700,M,M,M,BR,M,M,M,M,M,M,77.12,VVTS 010000Z 01005KT 5000 BR FEW017 24/24 Q1009 NOSIG,M
VVTS,3/1/2012 0:30,106.6667,10.8167,77,75.2,94.19,360,5,0,29.8,M,3.11,M,FEW,M,M,M,1700,M,M,M,BR,M,M,M,M,M,M,78.83,VVTS 010030Z 36005KT 5000 BR FEW017 25/24 Q1009 NOSIG,M
VVTS,3/1/2012 1:00,106.6667,10.8167,M,M,M,M,3,0,29.83,M,3.73,M,M,M,M,M,M,M,M,M,M,M,M,M,M,M,M,M,VVTS 010100Z VRB03KT 6004 Q1010 NOSIG,M
VVTS,3/1/2012 1:30,106.6667,10.8167,80.6,75.2,83.66,350,6,0,29.83,M,3.73,M,FEW,M,M,M,1700,M,M,M,M,M,M,M,M,M,M,86.17,VVTS 010130Z 35006KT 290V020 6000 FEW017 27/24 Q1010 NOSIG,M
VVTS,3/1/2012 2:00,106.6667,10.8167,82.4,75.2,78.9,350,7,0,29.83,M,4.97,M,FEW,M,M,M,1700,M,M,M,M,M,M,M,M,M,M,89.48,VVTS 010200Z 35007KT 8000 FEW017 28/24 Q1010 NOSIG,M
VVTS,3/1/2012 2:30,106.6667,10.8167,84.2,75.2,74.44,350,5,0,29.83,M,5.59,M,FEW,M,M,M,1700,M,M,M,M,M,M,M,M,M,M,92.45,VVTS 010230Z 35005KT 300V030 9000 FEW017 29/24 Q1010 NOSIG,M
VVTS,3/1/2012 3:00,106.6667,10.8167,84.2,73.4,70.08,350,6,0,29.83,M,6.21,M,SCT,M,M,M,2000,M,M,M,M,M,M,M,M,M,M,90.94,VVTS 010300Z 35006KT 310V050 9999 SCT020 29/23 Q1010 NOSIG,M
VVTS,3/1/2012 3:30,106.6667,10.8167,87.8,75.2,66.35,30,6,0,29.8,M,6.21,M,SCT,M,M,M,2000,M,M,M,M,M,M,M,M,M,M,97.76,VVTS 010330Z 03006KT 350V090 9999 SCT020 31/24 Q1009 NOSIG,M
VVTS,3/1/2012 4:00,106.6667,10.8167,87.8,73.4,62.47,M,3,0,29.8,M,6.21,M,SCT,M,M,M,2000,M,M,M,M,M,M,M,M,M,M,95.86,VVTS 010400Z VRB03KT 9999 SCT020 31/23 Q1009 NOSIG,M
VVTS,3/1/2012 4:30,106.6667,10.8167,89.6,73.4,59.01,10,5,0,29.77,M,6.21,M,SCT,M,M,M,2000,M,M,M,M,M,M,M,M,M,M,98.2,VVTS 010430Z 01005KT 310V090 9999 SCT020 32/23 Q1008 NOSIG,M
VVTS,3/1/2012 5:00,106.6667,10.8167,87.8,73.4,62.47,10,4,0,29.77,M,6.21,M,SCT,M,M,M,2000,M,M,M,M,M,M,M,M,M,M,95.86,VVTS 010500Z 01004KT 310V060 9999 SCT020 31/23 Q1008 NOSIG,M
VVTS,3/1/2012 5:30,106.6667,10.8167,89.6,73.4,59.01,340,4,0,29.74,M,6.21,M,SCT,M,M,M,2000,M,M,M,M,M,M,M,M,M,M,98.2,VVTS 010530Z 34004KT 290V010 9999 SCT020 32/23 Q1007 NOSIG,M
VVTS,3/1/2012 6:00,106.6667,10.8167,89.6,73.4,59.01,50,4,0,29.71,M,6.21,M,BKN,M,M,M,1700,M,M,M,M,M,M,M,M,M,M,98.2,VVTS 010600Z 05004KT 010V090 9999 BKN017 32/23 Q1006 NOSIG,M
VVTS,3/1/2012 6:30,106.6667,10.8167,89.6,71.6,55.53,M,2,0,29.71,M,6.21,M,BKN,M,M,M,1700,M,M,M,M,M,M,M,M,M,M,96.41,VVTS 010630Z VRB02KT 9999 BKN017 32/22 Q1006 NOSIG,M
VVTS,3/1/2012 7:00,106.6667,10.8167,91.4,71.6,52.48,M,3,0,29.68,M,6.21,M,BKN,M,M,M,1700,M,M,M,M,M,M,M,M,M,M,98.64,VVTS 010700Z VRB03KT 9999 BKN017 33/22 Q1005 NOSIG,M
VVTS,3/1/2012 7:30,106.6667,10.8167,91.4,69.8,49.36,M,3,0,29.68,M,6.21,M,BKN,M,M,M,1700,M,M,M,M,M,M,M,M,M,M,96.99,VVTS 010730Z VRB03KT 9999 BKN017 33/21 Q1005 NOSIG,M
VVTS,3/1/2012 8:00,106.6667,10.8167,91.4,71.6,52.48,170,12,0,29.68,M,6.21,M,FEW,SCT,M,M,1500,1700,M,M,M,M,M,M,M,M,M,98.64,VVTS 010800Z 17012KT 9999 FEW015TCU SCT017 33/22 Q1005 NOSIG,M
VVTS,3/1/2012 8:30,106.6667,10.8167,89.6,71.6,55.53,160,9,0,29.65,M,6.21,M,FEW,SCT,M,M,1500,1700,M,M,M,M,M,M,M,M,M,96.41,VVTS 010830Z 16009KT 130V200 9999 FEW015TCU SCT017 32/22 Q1004 NOSIG,M
VVTS,3/1/2012 9:00,106.6667,10.8167,91.4,69.8,49.36,160,9,0,29.65,M,6.21,M,FEW,SCT,M,M,1500,1700,M,M,M,M,M,M,M,M,M,96.99,VVTS 010900Z 16009KT 120V190 9999 FEW015CB SCT017 33/21 Q1004 NOSIG,M
VVTS,3/1/2012 9:30,106.6667,10.8167,89.6,71.6,55.53,150,9,0,29.68,M,6.21,M,FEW,SCT,M,M,1500,1700,M,M,M,M,M,M,M,M,M,96.41,VVTS 010930Z 15009KT 9999 FEW015CB SCT017 32/22 Q1005 NOSIG,M
VVTS,3/1/2012 10:00,106.6667,10.8167,84.2,73.4,70.08,150,4,0,29.68,M,4.97,M,FEW,SCT,M,M,1500,1700,M,M,#NAME?,M,M,M,M,M,M,90.94,VVTS 011000Z 15004KT 090V190 8000 -SHRA FEW015CB SCT017 29/23 Q1005 TEMPO TL1005 5000 TSRA,M
VVTS,3/1/2012 10:30,106.6667,10.8167,84.2,71.6,65.95,160,8,0,29.68,M,6.21,M,SCT,SCT,M,M,1700,4000,M,M,M,M,M,M,M,M,M,89.6,VVTS 011030Z 16008KT 9999 SCT017 SCT040 29/22 Q1005 NOSIG,M
VVTS,3/1/2012 11:00,106.6667,10.8167,84.2,69.8,62.03,150,7,0,29.68,M,6.21,M,FEW,SCT,M,M,1500,1700,M,M,M,M,M,M,M,M,M,88.43,VVTS 011100Z 15007KT 9999 FEW015TCU SCT017 29/21 Q1005 NOSIG,M
VVTS,3/1/2012 11:30,106.6667,10.8167,84.2,69.8,62.03,140,6,0,29.71,M,6.21,M,SCT,M,M,M,1700,M,M,M,M,M,M,M,M,M,M,88.43,VVTS 011130Z 14006KT 110V190 9999 SCT017 29/21 Q1006 NOSIG,M
VVTS,3/1/2012 12:00,106.6667,10.8167,84.2,69.8,62.03,130,9,0,29.71,M,6.21,M,SCT,M,M,M,1700,M,M,M,M,M,M,M,M,M,M,88.43,VVTS 011200Z 13009KT 9999 SCT017 29/21 Q1006 NOSIG,M
VVTS,3/1/2012 12:30,106.6667,10.8167,84.2,69.8,62.03,130,8,0,29.71,M,6.21,M,SCT,M,M,M,1700,M,M,M,M,M,M,M,M,M,M,88.43,VVTS 011230Z 13008KT 9999 SCT017 29/21 Q1006 NOSIG,M
VVTS,3/1/2012 13:00,106.6667,10.8167,82.4,69.8,65.74,130,7,0,29.74,M,6.21,M,SCT,M,M,M,1700,M,M,M,M,M,M,M,M,M,M,86.22,VVTS 011300Z 13007KT 9999 SCT017 28/21 Q1007 NOSIG,M
VVTS,3/1/2012 13:30,106.6667,10.8167,82.4,71.6,69.9,120,6,0,29.74,M,6.21,M,SCT,M,M,M,1700,M,M,M,M,M,M,M,M,M,M,87.18,VVTS 011330Z 12006KT 090V190 9999 SCT017 28/22 Q1007 NOSIG,M
VVTS,3/1/2012 14:00,106.6667,10.8167,82.4,71.6,69.9,120,6,0,29.74,M,6.21,M,FEW,M,M,M,1700,M,M,M,M,M,M,M,M,M,M,87.18,VVTS 011400Z 12006KT 080V170 9999 FEW017 28/22 Q1007,M
VVTS,3/1/2012 14:30,106.6667,10.8167,80.6,71.6,74.11,120,9,0,29.74,M,6.21,M,FEW,M,M,M,1700,M,M,M,M,M,M,M,M,M,M,84.57,VVTS 011430Z 12009KT 9999 FEW017 27/22 Q1007 NOSIG,M
VVTS,3/1/2012 15:00,106.6667,10.8167,80.6,71.6,74.11,120,7,0,29.74,M,6.21,M,FEW,M,M,M,1700,M,M,M,M,M,M,M,M,M,M,84.57,VVTS 011500Z 12007KT 090V150 9999 FEW017 27/22 Q1007 NOSIG,M
VVTS,3/1/2012 15:30,106.6667,10.8167,80.6,69.8,69.71,120,8,0,29.74,M,6.21,M,FEW,M,M,M,1700,M,M,M,M,M,M,M,M,M,M,83.9,VVTS 011530Z 12008KT 090V150 9999 FEW017 27/21 Q1007 NOSIG,M
VVTS,3/1/2012 16:00,106.6667,10.8167,80.6,69.8,69.71,120,7,0,29.74,M,6.21,M,FEW,M,M,M,1700,M,M,M,M,M,M,M,M,M,M,83.9,VVTS 011600Z 12007KT 9999 FEW017 27/21 Q1007 NOSIG,M
VVTS,3/1/2012 16:30,106.6667,10.8167,80.6,69.8,69.71,100,5,0,29.74,M,6.21,M,FEW,M,M,M,1700,M,M,M,M,M,M,M,M,M,M,83.9,VVTS 011630Z 10005KT 9999 FEW017 27/21 Q1007 NOSIG,M
VVTS,3/1/2012 17:00,106.6667,10.8167,80.6,69.8,69.71,110,5,0,29.74,M,6.21,M,FEW,M,M,M,1700,M,M,M,M,M,M,M,M,M,M,83.9,VVTS 011700Z 11005KT 9999 FEW017 27/21 Q1007 NOSIG,M
VVTS,3/1/2012 17:30,106.6667,10.8167,80.6,69.8,69.71,100,5,0,29.74,M,6.21,M,FEW,M,M,M,1700,M,M,M,M,M,M,M,M,M,M,83.9,VVTS 011730Z 10005KT 9999 FEW017 27/21 Q1007 NOSIG,M
VVTS,3/1/2012 18:00,106.6667,10.8167,78.8,69.8,73.95,130,5,0,29.71,M,6.21,M,FEW,M,M,M,1700,M,M,M,M,M,M,M,M,M,M,81.39,VVTS 011800Z 13005KT 9999 FEW017 26/21 Q1006 NOSIG,M
VVTS,3/1/2012 18:30,106.6667,10.8167,80.6,69.8,69.71,130,5,0,29.71,M,6.21,M,FEW,M,M,M,1700,M,M,M,M,M,M,M,M,M,M,83.9,VVTS 011830Z 13005KT 9999 FEW017 27/21 Q1006 NOSIG,M
VVTS,3/1/2012 19:00,106.6667,10.8167,78.8,69.8,73.95,120,5,0,29.71,M,6.21,M,FEW,M,M,M,1700,M,M,M,M,M,M,M,M,M,M,81.39,VVTS 011900Z 12005KT 9999 FEW017 26/21 Q1006 NOSIG,M
VVTS,3/1/2012 19:30,106.6667,10.8167,77,69.8,78.48,90,5,0,29.71,M,6.21,M,FEW,M,M,M,1700,M,M,M,M,M,M,M,M,M,M,78.09,VVTS 011930Z 09005KT 9999 FEW017 25/21 Q1006 NOSIG,M
VVTS,3/1/2012 20:00,106.6667,10.8167,75.2,69.8,83.32,100,4,0,29.68,M,6.21,M,FEW,M,M,M,1700,M,M,M,M,M,M,M,M,M,M,76.34,VVTS 012000Z 10004KT 9999 FEW017 24/21 Q1005 NOSIG,M
VVTS,3/1/2012 20:30,106.6667,10.8167,78.8,69.8,73.95,90,9,0,29.68,M,6.21,M,FEW,M,M,M,1700,M,M,M,M,M,M,M,M,M,M,81.39,VVTS 012030Z 09009KT 9999 FEW017 26/21 Q1005 NOSIG,M
VVTS,3/1/2012 21:00,106.6667,10.8167,77,69.8,78.48,90,5,0,29.68,M,6.21,M,FEW,M,M,M,1700,M,M,M,M,M,M,M,M,M,M,78.09,VVTS 012100Z 09005KT 9999 FEW017 25/21 Q1005 NOSIG,M
VVTS,3/1/2012 21:30,106.6667,10.8167,75.2,69.8,83.32,100,3,0,29.71,M,6.21,M,FEW,SCT,M,M,1700,4000,M,M,M,M,M,M,M,M,M,76.34,VVTS 012130Z 10003KT 9999 FEW017 SCT040 24/21 Q1006 NOSIG,M
VVTS,3/1/2012 22:00,106.6667,10.8167,77,69.8,78.48,100,4,0,29.71,M,6.21,M,FEW,SCT,M,M,1700,4000,M,M,M,M,M,M,M,M,M,78.09,VVTS 012200Z 10004KT 070V130 9999 FEW017 SCT040 25/21 Q1006 NOSIG,M
VVTS,3/1/2012 22:30,106.6667,10.8167,75.2,69.8,83.32,60,4,0,29.71,M,6.21,M,FEW,SCT,M,M,1700,4000,M,M,M,M,M,M,M,M,M,76.34,VVTS 012230Z 06004KT 9999 FEW017 SCT040 24/21 Q1006 NOSIG,M
VVTS,3/1/2012 23:00,106.6667,10.8167,75.2,69.8,83.32,60,4,0,29.74,M,6.21,M,FEW,SCT,M,M,1700,4000,M,M,M,M,M,M,M,M,M,76.34,VVTS 012300Z 06004KT 9999 FEW017 SCT040 24/21 Q1007 NOSIG,M
VVTS,3/1/2012 23:30,106.6667,10.8167,75.2,71.6,88.59,30,3,0,29.74,M,6.21,M,FEW,M,M,M,1700,M,M,M,M,M,M,M,M,M,M,76.58,VVTS 012330Z 03003KT 9999 FEW017 24/22 Q1007 NOSIG,M
VVTS,3/2/2012 0:00,106.6667,10.8167,78.8,71.6,78.62,20,3,0,29.74,M,6.21,M,FEW,M,M,M,1700,M,M,M,M,M,M,M,M,M,M,81.7,VVTS 020000Z 02003KT 9999 FEW017 26/22 Q1007 NOSIG,M
VVTS,3/2/2012 0:30,106.6667,10.8167,80.6,69.8,69.71,40,3,0,29.77,M,6.21,M,FEW,M,M,M,1700,M,M,M,M,M,M,M,M,M,M,83.9,VVTS 020030Z 04003KT 9999 FEW017 27/21 Q1008 NOSIG,M
VVTS,3/2/2012 1:00,106.6667,10.8167,82.4,69.8,65.74,M,3,0,29.77,M,6.21,M,FEW,M,M,M,1700,M,M,M,M,M,M,M,M,M,M,86.22,VVTS 020100Z VRB03KT 9999 FEW017 28/21 Q1008 NOSIG,M
VVTS,3/2/2012 1:30,106.6667,10.8167,84.2,69.8,62.03,M,3,0,29.8,M,6.21,M,FEW,M,M,M,1700,M,M,M,M,M,M,M,M,M,M,88.43,VVTS 020130Z VRB03KT 9999 FEW017 29/21 Q1009 NOSIG,M
VVTS,3/2/2012 2:00,106.6667,10.8167,84.2,69.8,62.03,M,3,0,29.8,M,5.59,M,SCT,M,M,M,1700,M,M,M,M,M,M,M,M,M,M,88.43,VVTS 020200Z VRB03KT 9000 SCT017 29/21 Q1009 NOSIG,M
VVTS,3/2/2012 2:30,106.6667,10.8167,87.8,69.8,55.29,60,5,0,29.8,M,6.21,M,FEW,M,M,M,2000,M,M,M,M,M,M,M,M,M,M,92.71,VVTS 020230Z 06005KT 030V100 9999 FEW020 31/21 Q1009 NOSIG,M
VVTS,3/2/2012 3:00,106.6667,10.8167,89.6,68,49.1,70,6,0,29.8,M,6.21,M,FEW,M,M,M,2000,M,M,M,M,M,M,M,M,M,M,93.47,VVTS 020300Z 07006KT 020V150 9999 FEW020 32/20 Q1009 NOSIG,M
VVTS,3/2/2012 3:30,106.6667,10.8167,89.6,68,49.1,100,7,0,29.77,M,6.21,M,FEW,M,M,M,2000,M,M,M,M,M,M,M,M,M,M,93.47,VVTS 020330Z 10007KT 040V140 9999 FEW020 32/20 Q1008 NOSIG,M
VVTS,3/2/2012 4:00,106.6667,10.8167,93.2,68,43.88,120,6,0,29.77,M,6.21,M,SCT,M,M,M,2000,M,M,M,M,M,M,M,M,M,M,97.67,VVTS 020400Z 12006KT 080V160 9999 SCT020 34/20 Q1008 NOSIG,M
VVTS,3/2/2012 4:30,106.6667,10.8167,93.2,66.2,41.23,70,7,0,29.77,M,6.21,M,SCT,M,M,M,2000,M,M,M,M,M,M,M,M,M,M,96.35,VVTS 020430Z 07007KT 360V130 9999 SCT020 34/19 Q1008 NOSIG,M
VVTS,3/2/2012 5:00,106.6667,10.8167,93.2,64.4,38.73,140,7,0,29.74,M,6.21,M,SCT,M,M,M,2000,M,M,M,M,M,M,M,M,M,M,95.2,VVTS 020500Z 14007KT 020V290 9999 SCT020 34/18 Q1007 NOSIG,M
VVTS,3/2/2012 5:30,106.6667,10.8167,95,64.4,36.63,110,8,0,29.74,M,6.21,M,SCT,M,M,M,2000,M,M,M,M,M,M,M,M,M,M,97.26,VVTS 020530Z 11008KT 050V200 9999 SCT020 35/18 Q1007 NOSIG,M
VVTS,3/2/2012 6:00,106.6667,10.8167,96.8,64.4,34.66,110,7,0,29.71,M,6.21,M,SCT,M,M,M,2000,M,M,M,M,M,M,M,M,M,M,99.37,VVTS 020600Z 11007KT 070V150 9999 SCT020 36/18 Q1006 NOSIG,M
VVTS,3/2/2012 6:30,106.6667,10.8167,95,64.4,36.63,150,7,0,29.71,M,6.21,M,SCT,M,M,M,2000,M,M,M,M,M,M,M,M,M,M,97.26,VVTS 020630Z 15007KT 100V200 9999 SCT020 35/18 Q1006 NOSIG,M
VVTS,3/2/2012 7:00,106.6667,10.8167,93.2,68,43.88,150,7,0,29.68,M,6.21,17,SCT,M,M,M,2000,M,M,M,M,M,M,M,M,M,M,97.67,VVTS 020700Z 15007G17KT 020V210 9999 SCT020 34/20 Q1005 NOSIG,M
VVTS,3/2/2012 7:30,106.6667,10.8167,95,68,41.5,170,10,0,29.68,M,6.21,M,SCT,M,M,M,2000,M,M,M,M,M,M,M,M,M,M,99.82,VVTS 020730Z 17010KT 110V210 9999 SCT020 35/20 Q1005 NOSIG,M
VVTS,3/2/2012 8:00,106.6667,10.8167,93.2,69.8,46.67,170,12,0,29.68,M,6.21,M,SCT,M,M,M,2000,M,M,M,M,M,M,M,M,M,M,99.17,VVTS 020800Z 17012KT 9999 SCT020 34/21 Q1005 NOSIG,M
VVTS,3/2/2012 8:30,106.6667,10.8167,93.2,69.8,46.67,170,12,0,29.68,M,6.21,M,FEW,M,M,M,2000,M,M,M,M,M,M,M,M,M,M,99.17,VVTS 020830Z 17012KT 9999 FEW020 34/21 Q1005 NOSIG,M
VVTS,3/2/2012 9:00,106.6667,10.8167,91.4,69.8,49.36,170,14,0,29.68,M,6.21,M,FEW,M,M,M,2000,M,M,M,M,M,M,M,M,M,M,96.99,VVTS 020900Z 17014KT 9999 FEW020 33/21 Q1005 NOSIG,M
VVTS,3/2/2012 9:30,106.6667,10.8167,91.4,69.8,49.36,150,11,0,29.68,M,6.21,M,FEW,M,M,M,2000,M,M,M,M,M,M,M,M,M,M,96.99,VVTS 020930Z 15011KT 9999 FEW020 33/21 Q1005 NOSIG,M
VVTS,3/2/2012 10:00,106.6667,10.8167,89.6,69.8,52.23,160,12,0,29.68,M,6.21,M,FEW,M,M,M,2000,M,M,M,M,M,M,M,M,M,M,94.85,VVTS 021000Z 16012KT 9999 FEW020 32/21 Q1005 NOSIG,M
VVTS,3/2/2012 10:30,106.6667,10.8167,87.8,69.8,55.29,150,12,0,29.68,M,6.21,M,FEW,M,M,M,2000,M,M,M,M,M,M,M,M,M,M,92.71,VVTS 021030Z 15012KT 9999 FEW020 31/21 Q1005 NOSIG,M
VVTS,3/2/2012 11:00,106.6667,10.8167,86,68,55.04,140,13,0,29.68,M,6.21,M,FEW,M,M,M,2000,M,M,M,M,M,M,M,M,M,M,89.41,VVTS 021100Z 14013KT 9999 FEW020 30/20 Q1005 NOSIG,M
VVTS,3/2/2012 11:30,106.6667,10.8167,84.2,68,58.32,120,9,0,29.68,M,6.21,M,FEW,M,M,M,2000,M,M,M,M,M,M,M,M,M,M,87.4,VVTS 021130Z 12009KT 9999 FEW020 29/20 Q1005 NOSIG,M
VVTS,3/2/2012 12:00,106.6667,10.8167,84.2,66.2,54.8,120,14,0,29.68,M,6.21,M,FEW,M,M,M,2000,M,M,M,M,M,M,M,M,M,M,86.5,VVTS 021200Z 12014KT 9999 FEW020 29/19 Q1005 NOSIG,M
VVTS,3/2/2012 12:30,106.6667,10.8167,82.4,66.2,58.08,120,14,0,29.71,M,6.21,M,FEW,M,M,M,2000,M,M,M,M,M,M,M,M,M,M,84.63,VVTS 021230Z 12014KT 9999 FEW020 28/19 Q1006 NOSIG,M
VVTS,3/2/2012 13:00,106.6667,10.8167,82.4,68,61.81,130,13,0,29.71,M,6.21,M,FEW,M,M,M,2000,M,M,M,M,M,M,M,M,M,M,85.38,VVTS 021300Z 13013KT 9999 FEW020 28/20 Q1006 NOSIG,M
VVTS,3/2/2012 13:30,106.6667,10.8167,82.4,66.2,58.08,130,13,0,29.71,M,6.21,M,FEW,M,M,M,2000,M,M,M,M,M,M,M,M,M,M,84.63,VVTS 021330Z 13013KT 9999 FEW020 28/19 Q1006 NOSIG,M
VVTS,3/2/2012 14:00,106.6667,10.8167,82.4,66.2,58.08,120,10,0,29.74,M,6.21,M,FEW,M,M,M,2000,M,M,M,M,M,M,M,M,M,M,84.63,VVTS 021400Z 12010KT 9999 FEW020 28/19 Q1007 NOSIG,M
VVTS,3/2/2012 14:30,106.6667,10.8167,80.6,68,65.54,120,11,0,29.74,M,6.21,M,FEW,M,M,M,2000,M,M,M,M,M,M,M,M,M,M,83.29,VVTS 021430Z 12011KT 090V150 9999 FEW020 27/20 Q1007 NOSIG,M
VVTS,3/2/2012 15:00,106.6667,10.8167,80.6,68,65.54,120,13,0,29.74,M,6.21,M,FEW,M,M,M,2000,M,M,M,M,M,M,M,M,M,M,83.29,VVTS 021500Z 12013KT 9999 FEW020 27/20 Q1007 NOSIG,M
VVTS,3/2/2012 15:30,106.6667,10.8167,80.6,68,65.54,120,13,0,29.77,M,6.21,M,FEW,M,M,M,2000,M,M,M,M,M,M,M,M,M,M,83.29,VVTS 021530Z 12013KT 9999 FEW020 27/20 Q1008 NOSIG,M
VVTS,3/2/2012 16:00,106.6667,10.8167,80.6,68,65.54,120,12,0,29.77,M,6.21,M,FEW,M,M,M,2000,M,M,M,M,M,M,M,M,M,M,83.29,VVTS 021600Z 12012KT 9999 FEW020 27/20 Q1008 NOSIG,M
VVTS,3/2/2012 16:30,106.6667,10.8167,80.6,68,65.54,120,9,0,29.74,M,6.21,M,FEW,M,M,M,2000,M,M,M,M,M,M,M,M,M,M,83.29,VVTS 021630Z 12009KT 100V160 9999 FEW020 27/20 Q1007 NOSIG,M
VVTS,3/2/2012 17:00,106.6667,10.8167,80.6,68,65.54,120,7,0,29.74,M,6.21,M,FEW,M,M,M,2000,M,M,M,M,M,M,M,M,M,M,83.29,VVTS 021700Z 12007KT 9999 FEW020 27/20 Q1007 NOSIG,M
VVTS,3/2/2012 17:30,106.6667,10.8167,78.8,68,69.52,120,10,0,29.74,M,6.21,M,FEW,M,M,M,2000,M,M,M,M,M,M,M,M,M,M,81.1,VVTS 021730Z 12010KT 9999 FEW020 26/20 Q1007 NOSIG,M
VVTS,3/2/2012 18:00,106.6667,10.8167,78.8,68,69.52,130,10,0,29.74,M,6.21,M,FEW,M,M,M,2000,M,M,M,M,M,M,M,M,M,M,81.1,VVTS 021800Z 13010KT 9999 FEW020 26/20 Q1007 NOSIG,M
VVTS,3/2/2012 18:30,106.6667,10.8167,78.8,68,69.52,120,9,0,29.71,M,6.21,M,FEW,M,M,M,2000,M,M,M,M,M,M,M,M,M,M,81.1,VVTS 021830Z 12009KT 9999 FEW020 26/20 Q1006 NOSIG,M
VVTS,3/2/2012 20:00,106.6667,10.8167,78.8,68,69.52,110,8,0,29.71,M,6.21,M,FEW,M,M,M,2000,M,M,M,M,M,M,M,M,M,M,81.1,VVTS 022000Z 11008KT 9999 FEW020 26/20 Q1006 NOSIG,M
VVTS,3/2/2012 20:30,106.6667,10.8167,78.8,68,69.52,110,7,0,29.71,M,6.21,M,FEW,M,M,M,2000,M,M,M,M,M,M,M,M,M,M,81.1,VVTS 022030Z 11007KT 9999 FEW020 26/20 Q1006 NOSIG,M
VVTS,3/2/2012 21:00,106.6667,10.8167,78.8,68,69.52,120,6,0,29.71,M,6.21,M,FEW,M,M,M,2000,M,M,M,M,M,M,M,M,M,M,81.1,VVTS 022100Z 12006KT 9999 FEW020 26/20 Q1006 NOSIG,M
VVTS,3/2/2012 21:30,106.6667,10.8167,78.8,68,69.52,120,5,0,29.71,M,6.21,M,FEW,M,M,M,2000,M,M,M,M,M,M,M,M,M,M,81.1,VVTS 022130Z 12005KT 9999 FEW020 26/20 Q1006 NOSIG,M
VVTS,3/2/2012 22:00,106.6667,10.8167,78.8,68,69.52,120,5,0,29.71,M,6.21,M,FEW,M,M,M,2000,M,M,M,M,M,M,M,M,M,M,81.1,VVTS 022200Z 12005KT 9999 FEW020 26/20 Q1006 NOSIG,M
VVTS,3/2/2012 22:30,106.6667,10.8167,78.8,68,69.52,120,5,0,29.71,M,6.21,M,FEW,M,M,M,2000,M,M,M,M,M,M,M,M,M,M,81.1,VVTS 022230Z 12005KT 9999 FEW020 26/20 Q1006 NOSIG,M
VVTS,3/2/2012 23:00,106.6667,10.8167,78.8,66.2,65.33,120,2,0,29.74,M,6.21,M,FEW,M,M,M,1700,M,M,M,M,M,M,M,M,M,M,80.82,VVTS 022300Z 12002KT 9999 FEW017 26/19 Q1007 NOSIG,M
VVTS,3/2/2012 23:30,106.6667,10.8167,75.2,68,78.34,110,4,0,29.74,M,6.21,M,FEW,M,M,M,1700,M,M,M,M,M,M,M,M,M,M,75.2,VVTS 022330Z 11004KT 9999 FEW017 24/20 Q1007 NOSIG,M
VVTS,3/3/2012 0:00,106.6667,10.8167,78.8,69.8,73.95,40,2,0,29.77,M,6.21,M,FEW,M,M,M,2000,M,M,M,M,M,M,M,M,M,M,81.39,VVTS 030000Z 04002KT 9999 FEW020 26/21 Q1008 NOSIG,M
VVTS,3/3/2012 0:30,106.6667,10.8167,80.6,69.8,69.71,70,4,0,29.77,M,6.21,M,FEW,M,M,M,2000,M,M,M,M,M,M,M,M,M,M,83.9,VVTS 030030Z 07004KT 050V120 9999 FEW020 27/21 Q1008 NOSIG,M
VVTS,3/3/2012 1:00,106.6667,10.8167,82.4,66.2,58.08,60,4,0,29.77,M,6.21,M,FEW,M,M,M,2000,M,M,M,M,M,M,M,M,M,M,84.63,VVTS 030100Z 06004KT 9999 FEW020 28/19 Q1008 NOSIG,M
VVTS,3/3/2012 1:30,106.6667,10.8167,84.2,66.2,54.8,80,4,0,29.77,M,6.21,M,FEW,M,M,M,2000,M,M,M,M,M,M,M,M,M,M,86.5,VVTS 030130Z 08004KT 040V110 9999 FEW020 29/19 Q1008 NOSIG,M
VVTS,3/3/2012 2:00,106.6667,10.8167,86,66.2,51.72,110,8,0,29.8,M,6.21,M,FEW,M,M,M,2000,M,M,M,M,M,M,M,M,M,M,88.39,VVTS 030200Z 11008KT 9999 FEW020 30/19 Q1009 NOSIG,M
VVTS,3/3/2012 2:30,106.6667,10.8167,89.6,66.2,46.14,100,9,0,29.8,M,6.21,M,FEW,M,M,M,2000,M,M,M,M,M,M,M,M,M,M,92.27,VVTS 030230Z 10009KT 9999 FEW020 32/19 Q1009 NOSIG,M
VVTS,3/3/2012 3:00,106.6667,10.8167,89.6,68,49.1,100,7,0,29.8,M,6.21,M,FEW,M,M,M,2000,M,M,M,M,M,M,M,M,M,M,93.47,VVTS 030300Z 10007KT 040V140 9999 FEW020 32/20 Q1009 NOSIG,M
VVTS,3/3/2012 3:30,106.6667,10.8167,91.4,68,46.41,100,9,0,29.77,M,6.21,M,FEW,M,M,M,2000,M,M,M,M,M,M,M,M,M,M,95.55,VVTS 030330Z 10009KT 060V140 9999 FEW020 33/20 Q1008 NOSIG,M
VVTS,3/3/2012 4:00,106.6667,10.8167,93.2,69.8,46.67,80,10,0,29.77,M,6.21,M,FEW,M,M,M,2000,M,M,M,M,M,M,M,M,M,M,99.17,VVTS 030400Z 08010KT 9999 FEW020 34/21 Q1008 NOSIG,M
VVTS,3/3/2012 4:30,106.6667,10.8167,93.2,69.8,46.67,80,10,0,29.74,M,6.21,M,FEW,M,M,M,2000,M,M,M,M,M,M,M,M,M,M,99.17,VVTS 030430Z 08010KT 9999 FEW020 34/21 Q1007 NOSIG,M
VVTS,3/3/2012 5:00,106.6667,10.8167,95,68,41.5,130,10,0,29.74,M,6.21,M,FEW,M,M,M,2000,M,M,M,M,M,M,M,M,M,M,99.82,VVTS 030500Z 13010KT 100V170 9999 FEW020 35/20 Q1007 NOSIG,M
VVTS,3/3/2012 5:30,106.6667,10.8167,93.2,68,43.88,110,8,0,29.71,M,6.21,M,FEW,M,M,M,2000,M,M,M,M,M,M,M,M,M,M,97.67,VVTS 030530Z 11008KT 9999 FEW020 34/20 Q1006 NOSIG,M
VVTS,3/3/2012 6:00,106.6667,10.8167,95,66.2,39,120,7,0,29.71,M,6.21,M,SCT,M,M,M,2000,M,M,M,M,M,M,M,M,M,M,98.46,VVTS 030600Z 12007KT 080V160 9999 SCT020 35/19 Q1006 NOSIG,M
VVTS,3/3/2012 6:30,106.6667,10.8167,93.2,66.2,41.23,130,9,0,29.68,M,6.21,M,SCT,M,M,M,2000,M,M,M,M,M,M,M,M,M,M,96.35,VVTS 030630Z 13009KT 060V180 9999 SCT020 34/19 Q1005 NOSIG,M
VVTS,3/3/2012 7:00,106.6667,10.8167,95,69.8,44.14,130,9,0,29.68,M,6.21,M,SCT,M,M,M,2000,M,M,M,M,M,M,M,M,M,M,101.37,VVTS 030700Z 13009KT 090V180 9999 SCT020 35/21 Q1005 NOSIG,M
VVTS,3/3/2012 7:30,106.6667,10.8167,93.2,68,43.88,150,8,0,29.65,M,6.21,M,SCT,M,M,M,2000,M,M,M,M,M,M,M,M,M,M,97.67,VVTS 030730Z 15008KT 110V200 9999 SCT020 34/20 Q1004 NOSIG,M
VVTS,3/3/2012 8:00,106.6667,10.8167,93.2,68,43.88,150,8,0,29.65,M,6.21,M,SCT,M,M,M,2000,M,M,M,M,M,M,M,M,M,M,97.67,VVTS 030800Z 15008KT 110V180 9999 SCT020 34/20 Q1004 NOSIG,M
VVTS,3/3/2012 8:30,106.6667,10.8167,93.2,69.8,46.67,140,11,0,29.65,M,6.21,M,SCT,M,M,M,2000,M,M,M,M,M,M,M,M,M,M,99.17,VVTS 030830Z 14011KT 110V170 9999 SCT020 34/21 Q1004 NOSIG,M
VVTS,3/3/2012 9:00,106.6667,10.8167,93.2,66.2,41.23,140,12,0,29.65,M,6.21,M,SCT,M,M,M,2000,M,M,M,M,M,M,M,M,M,M,96.35,VVTS 030900Z 14012KT 9999 SCT020 34/19 Q1004 NOSIG,M
VVTS,3/3/2012 9:30,106.6667,10.8167,91.4,66.2,43.61,140,12,0,29.65,M,6.21,M,SCT,M,M,M,2000,M,M,M,M,M,M,M,M,M,M,94.29,VVTS 030930Z 14012KT 110V170 9999 SCT020 33/19 Q1004 NOSIG,M
VVTS,3/3/2012 10:00,106.6667,10.8167,89.6,68,49.1,130,12,0,29.68,M,6.21,M,FEW,M,M,M,2000,M,M,M,M,M,M,M,M,M,M,93.47,VVTS 031000Z 13012KT 9999 FEW020 32/20 Q1005 NOSIG,M
VVTS,3/3/2012 10:30,106.6667,10.8167,89.6,66.2,46.14,140,14,0,29.68,M,6.21,M,FEW,M,M,M,2000,M,M,M,M,M,M,M,M,M,M,92.27,VVTS 031030Z 14014KT 9999 FEW020 32/19 Q1005 NOSIG,M
VVTS,3/3/2012 11:00,106.6667,10.8167,87.8,66.2,48.84,130,12,0,29.68,M,6.21,M,FEW,SCT,M,M,2000,4000,M,M,M,M,M,M,M,M,M,90.31,VVTS 031100Z 13012KT 9999 FEW020 SCT040 31/19 Q1005 NOSIG,M
VVTS,3/3/2012 11:30,106.6667,10.8167,84.2,68,58.32,130,12,0,29.71,M,6.21,M,FEW,SCT,M,M,2000,4000,M,M,M,M,M,M,M,M,M,87.4,VVTS 031130Z 13012KT 100V170 9999 FEW020 SCT040 29/20 Q1006 NOSIG,M
VVTS,3/3/2012 12:00,106.6667,10.8167,84.2,69.8,62.03,120,11,0,29.71,M,6.21,M,FEW,SCT,M,M,2000,4000,M,M,M,M,M,M,M,M,M,88.43,VVTS 031200Z 12011KT 090V160 9999 FEW020 SCT040 29/21 Q1006 NOSIG,M
VVTS,3/3/2012 12:30,106.6667,10.8167,82.4,69.8,65.74,120,9,0,29.74,M,6.21,M,FEW,SCT,M,M,2000,4000,M,M,M,M,M,M,M,M,M,86.22,VVTS 031230Z 12009KT 090V160 9999 FEW020 SCT040 28/21 Q1007 NOSIG,M
VVTS,3/3/2012 13:00,106.6667,10.8167,82.4,69.8,65.74,120,12,0,29.74,M,6.21,M,FEW,SCT,M,M,2000,4000,M,M,M,M,M,M,M,M,M,86.22,VVTS 031300Z 12012KT 9999 FEW020 SCT040 28/21 Q1007 NOSIG,M
VVTS,3/3/2012 13:30,106.6667,10.8167,80.6,71.6,74.11,120,13,0,29.74,M,6.21,M,FEW,SCT,M,M,2000,4000,M,M,M,M,M,M,M,M,M,84.57,VVTS 031330Z 12013KT 090V160 9999 FEW020 SCT040 27/22 Q1007 NOSIG,M
VVTS,3/3/2012 14:00,106.6667,10.8167,80.6,71.6,74.11,140,11,0,29.77,M,6.21,M,FEW,SCT,M,M,2000,4000,M,M,M,M,M,M,M,M,M,84.57,VVTS 031400Z 14011KT 9999 FEW020 SCT040 27/22 Q1008 NOSIG,M
VVTS,3/3/2012 14:30,106.6667,10.8167,80.6,73.4,78.76,120,10,0,29.77,M,6.21,M,FEW,SCT,M,M,2000,4000,M,M,M,M,M,M,M,M,M,85.32,VVTS 031430Z 12010KT 080V140 9999 FEW020 SCT040 27/23 Q1008 NOSIG,M
VVTS,3/3/2012 15:00,106.6667,10.8167,78.8,73.4,83.55,130,14,0,29.77,M,6.21,M,FEW,SCT,M,M,2000,4000,M,M,M,M,M,M,M,M,M,82.03,VVTS 031500Z 13014KT 9999 FEW020 SCT040 26/23 Q1008 NOSIG,M
VVTS,3/3/2012 15:30,106.6667,10.8167,78.8,73.4,83.55,130,10,0,29.77,M,6.21,M,FEW,SCT,M,M,2000,4000,M,M,M,M,M,M,M,M,M,82.03,VVTS 031530Z 13010KT 9999 FEW020 SCT040 26/23 Q1008 NOSIG,M
VVTS,3/3/2012 16:00,106.6667,10.8167,78.8,73.4,83.55,130,10,0,29.77,M,6.21,M,FEW,M,M,M,2000,M,M,M,M,M,M,M,M,M,M,82.03,VVTS 031600Z 13010KT 9999 FEW020 26/23 Q1008 NOSIG,M
VVTS,3/3/2012 16:30,106.6667,10.8167,78.8,73.4,83.55,120,11,0,29.77,M,6.21,M,FEW,M,M,M,2000,M,M,M,M,M,M,M,M,M,M,82.03,VVTS 031630Z 12011KT 9999 FEW020 26/23 Q1008 NOSIG,M
VVTS,3/3/2012 17:30,106.6667,10.8167,78.8,73.4,83.55,130,14,0,29.77,M,6.21,M,FEW,M,M,M,2000,M,M,M,M,M,M,M,M,M,M,82.03,VVTS 031730Z 13014KT 9999 FEW020 26/23 Q1008 NOSIG,M
VVTS,3/3/2012 18:00,106.6667,10.8167,78.8,73.4,83.55,120,11,0,29.77,M,6.21,M,FEW,M,M,M,2000,M,M,M,M,M,M,M,M,M,M,82.03,VVTS 031800Z 12011KT 100V160 9999 FEW020 26/23 Q1008 NOSIG,M
VVTS,3/3/2012 18:30,106.6667,10.8167,78.8,73.4,83.55,130,9,0,29.74,M,6.21,M,FEW,M,M,M,2000,M,M,M,M,M,M,M,M,M,M,82.03,VVTS 031830Z 13009KT 9999 FEW020 26/23 Q1007 NOSIG,M
VVTS,3/3/2012 19:00,106.6667,10.8167,78.8,73.4,83.55,120,10,0,29.74,M,6.21,M,FEW,M,M,M,2000,M,M,M,M,M,M,M,M,M,M,82.03,VVTS 031900Z 12010KT 9999 FEW020 26/23 Q1007 NOSIG,M
VVTS,3/3/2012 19:30,106.6667,10.8167,78.8,73.4,83.55,130,10,0,29.74,M,6.21,M,FEW,M,M,M,2000,M,M,M,M,M,M,M,M,M,M,82.03,VVTS 031930Z 13010KT 9999 FEW020 26/23 Q1007 NOSIG,M
VVTS,3/3/2012 20:00,106.6667,10.8167,78.8,71.6,78.62,120,10,0,29.74,M,6.21,M,FEW,M,M,M,2000,M,M,M,M,M,M,M,M,M,M,81.7,VVTS 032000Z 12010KT 9999 FEW020 26/22 Q1007 NOSIG,M
VVTS,3/3/2012 20:30,106.6667,10.8167,78.8,71.6,78.62,120,9,0,29.74,M,6.21,M,FEW,M,M,M,2000,M,M,M,M,M,M,M,M,M,M,81.7,VVTS 032030Z 12009KT 9999 FEW020 26/22 Q1007 NOSIG,M
VVTS,3/3/2012 21:00,106.6667,10.8167,78.8,71.6,78.62,120,12,0,29.74,M,6.21,M,FEW,M,M,M,2000,M,M,M,M,M,M,M,M,M,M,81.7,VVTS 032100Z 12012KT 9999 FEW020 26/22 Q1007 NOSIG,M
VVTS,3/3/2012 21:30,106.6667,10.8167,78.8,71.6,78.62,120,11,0,29.74,M,6.21,M,FEW,M,M,M,2000,M,M,M,M,M,M,M,M,M,M,81.7,VVTS 032130Z 12011KT 9999 FEW020 26/22 Q1007 NOSIG,M
VVTS,3/3/2012 22:00,106.6667,10.8167,78.8,71.6,78.62,120,10,0,29.74,M,6.21,M,FEW,M,M,M,2000,M,M,M,M,M,M,M,M,M,M,81.7,VVTS 032200Z 12010KT 9999 FEW020 26/22 Q1007 NOSIG,M
VVTS,3/3/2012 22:30,106.6667,10.8167,77,71.6,83.44,120,10,0,29.77,M,6.21,M,FEW,M,M,M,2000,M,M,M,M,M,M,M,M,M,M,78.32,VVTS 032230Z 12010KT 090V160 9999 FEW020 25/22 Q1008 NOSIG,M
VVTS,3/3/2012 23:30,106.6667,10.8167,77,73.4,88.67,110,7,0,29.77,M,6.21,M,FEW,SCT,M,M,1700,4000,M,M,M,M,M,M,M,M,M,78.57,VVTS 032330Z 11007KT 9999 FEW017 SCT040 25/23 Q1008 NOSIG,M
VVTS,3/4/2012 0:00,106.6667,10.8167,78.8,71.6,78.62,110,7,0,29.8,M,6.21,M,FEW,SCT,M,M,1700,4000,M,M,M,M,M,M,M,M,M,81.7,VVTS 040000Z 11007KT 9999 FEW017 SCT040 26/22 Q1009 NOSIG,M
VVTS,3/4/2012 0:30,106.6667,10.8167,78.8,71.6,78.62,120,6,0,29.8,M,6.21,M,FEW,SCT,M,M,1700,4000,M,M,M,M,M,M,M,M,M,81.7,VVTS 040030Z 12006KT 9999 FEW017 SCT040 26/22 Q1009 NOSIG,M
VVTS,3/4/2012 1:00,106.6667,10.8167,78.8,71.6,78.62,120,5,0,29.8,M,6.21,M,FEW,SCT,M,M,1700,4000,M,M,M,M,M,M,M,M,M,81.7,VVTS 040100Z 12005KT 9999 FEW017 SCT040 26/22 Q1009 NOSIG,M
VVTS,3/4/2012 1:30,106.6667,10.8167,80.6,71.6,74.11,110,5,0,29.83,M,6.21,M,FEW,SCT,M,M,1700,4000,M,M,M,M,M,M,M,M,M,84.57,VVTS 040130Z 11005KT 9999 FEW017 SCT040 27/22 Q1010 NOSIG,M
VVTS,3/4/2012 2:00,106.6667,10.8167,82.4,71.6,69.9,110,9,0,29.83,M,6.21,M,FEW,SCT,M,M,1700,4000,M,M,M,M,M,M,M,M,M,87.18,VVTS 040200Z 11009KT 9999 FEW017 SCT040 28/22 Q1010 NOSIG,M
VVTS,3/4/2012 2:30,106.6667,10.8167,84.2,71.6,65.95,100,9,0,29.83,M,6.21,M,FEW,SCT,M,M,1700,4000,M,M,M,M,M,M,M,M,M,89.6,VVTS 040230Z 10009KT 9999 FEW017 SCT040 29/22 Q1010 NOSIG,M
VVTS,3/4/2012 3:00,106.6667,10.8167,87.8,69.8,55.29,110,10,0,29.83,M,6.21,M,SCT,M,M,M,1700,M,M,M,M,M,M,M,M,M,M,92.71,VVTS 040300Z 11010KT 070V140 9999 SCT017 31/21 Q1010 NOSIG,M
VVTS,3/4/2012 3:30,106.6667,10.8167,89.6,69.8,52.23,130,11,0,29.83,M,6.21,M,SCT,M,M,M,1700,M,M,M,M,M,M,M,M,M,M,94.85,VVTS 040330Z 13011KT 9999 SCT017 32/21 Q1010 NOSIG,M
VVTS,3/4/2012 4:00,106.6667,10.8167,89.6,69.8,52.23,110,9,0,29.8,M,6.21,M,SCT,M,M,M,1700,M,M,M,M,M,M,M,M,M,M,94.85,VVTS 040400Z 11009KT 080V160 9999 SCT017 32/21 Q1009 NOSIG,M
VVTS,3/4/2012 4:30,106.6667,10.8167,91.4,69.8,49.36,120,9,0,29.8,M,6.21,M,SCT,M,M,M,1700,M,M,M,M,M,M,M,M,M,M,96.99,VVTS 040430Z 12009KT 090V160 9999 SCT017 33/21 Q1009 NOSIG,M
VVTS,3/4/2012 5:30,106.6667,10.8167,93.2,66.2,41.23,140,8,0,29.77,M,6.21,M,SCT,M,M,M,1700,M,M,M,M,M,M,M,M,M,M,96.35,VVTS 040530Z 14008KT 110V190 9999 SCT017 34/19 Q1008 NOSIG,M
VVTS,3/4/2012 6:00,106.6667,10.8167,93.2,68,43.88,130,7,0,29.74,M,6.21,M,SCT,M,M,M,1700,M,M,M,M,M,M,M,M,M,M,97.67,VVTS 040600Z 13007KT 360V220 9999 SCT017 34/20 Q1007 NOSIG,M
VVTS,3/4/2012 6:30,106.6667,10.8167,93.2,64.4,38.73,140,8,0,29.71,M,6.21,M,SCT,M,M,M,1700,M,M,M,M,M,M,M,M,M,M,95.2,VVTS 040630Z 14008KT 9999 SCT017 34/18 Q1006 NOSIG,M
VVTS,3/4/2012 7:00,106.6667,10.8167,91.4,68,46.41,180,8,0,29.71,M,6.21,M,SCT,M,M,M,2000,M,M,M,M,M,M,M,M,M,M,95.55,VVTS 040700Z 18008KT 9999 SCT020 33/20 Q1006 NOSIG,M
VVTS,3/4/2012 7:30,106.6667,10.8167,91.4,66.2,43.61,170,10,0,29.71,M,6.21,M,SCT,M,M,M,2000,M,M,M,M,M,M,M,M,M,M,94.29,VVTS 040730Z 17010KT 130V210 9999 SCT020 33/19 Q1006 NOSIG,M
VVTS,3/4/2012 8:00,106.6667,10.8167,91.4,69.8,49.36,160,9,0,29.68,M,6.21,M,SCT,M,M,M,2000,M,M,M,M,M,M,M,M,M,M,96.99,VVTS 040800Z 16009KT 110V210 9999 SCT020 33/21 Q1005 NOSIG,M
VVTS,3/4/2012 8:30,106.6667,10.8167,91.4,66.2,43.61,150,9,0,29.68,M,6.21,M,SCT,M,M,M,2000,M,M,M,M,M,M,M,M,M,M,94.29,VVTS 040830Z 15009KT 9999 SCT020 33/19 Q1005 NOSIG,M
VVTS,3/4/2012 9:00,106.6667,10.8167,89.6,68,49.1,160,10,0,29.68,M,6.21,M,FEW,M,M,M,2000,M,M,M,M,M,M,M,M,M,M,93.47,VVTS 040900Z 16010KT 9999 FEW020 32/20 Q1005 NOSIG,M
VVTS,3/4/2012 9:30,106.6667,10.8167,87.8,66.2,48.84,180,10,0,29.71,M,6.21,M,FEW,M,M,M,2000,M,M,M,M,M,M,M,M,M,M,90.31,VVTS 040930Z 18010KT 9999 FEW020 31/19 Q1006 NOSIG,M
VVTS,3/4/2012 10:00,106.6667,10.8167,87.8,68,51.98,180,11,0,29.71,M,6.21,M,FEW,M,M,M,2000,M,M,M,M,M,M,M,M,M,M,91.43,VVTS 041000Z 18011KT 9999 FEW020 31/20 Q1006 NOSIG,M
VVTS,3/4/2012 10:30,106.6667,10.8167,84.2,69.8,62.03,160,10,0,29.71,M,6.21,M,FEW,M,M,M,2000,M,M,M,M,M,M,M,M,M,M,88.43,VVTS 041030Z 16010KT 9999 FEW020 29/21 Q1006 NOSIG,M
VVTS,3/4/2012 11:00,106.6667,10.8167,82.4,69.8,65.74,160,8,0,29.71,M,6.21,M,FEW,M,M,M,2000,M,M,M,M,M,M,M,M,M,M,86.22,VVTS 041100Z 16008KT 120V190 9999 FEW020 28/21 Q1006 NOSIG,M
VVTS,3/4/2012 11:30,106.6667,10.8167,82.4,69.8,65.74,160,7,0,29.71,M,6.21,M,FEW,M,M,M,2000,M,M,M,M,M,M,M,M,M,M,86.22,VVTS 041130Z 16007KT 130V200 9999 FEW020 28/21 Q1006 NOSIG,M
VVTS,3/4/2012 12:00,106.6667,10.8167,82.4,71.6,69.9,150,9,0,29.71,M,6.21,M,FEW,M,M,M,2000,M,M,M,M,M,M,M,M,M,M,87.18,VVTS 041200Z 15009KT 9999 FEW020 28/22 Q1006 NOSIG,M
VVTS,3/4/2012 12:30,106.6667,10.8167,82.4,71.6,69.9,150,6,0,29.74,M,6.21,M,FEW,M,M,M,2000,M,M,M,M,M,M,M,M,M,M,87.18,VVTS 041230Z 15006KT 110V170 9999 FEW020 28/22 Q1007 NOSIG,M
VVTS,3/4/2012 13:00,106.6667,10.8167,82.4,71.6,69.9,130,7,0,29.74,M,6.21,M,FEW,M,M,M,2000,M,M,M,M,M,M,M,M,M,M,87.18,VVTS 041300Z 13007KT 090V200 9999 FEW020 28/22 Q1007 NOSIG,M
VVTS,3/4/2012 13:30,106.6667,10.8167,82.4,71.6,69.9,120,8,0,29.77,M,6.21,M,FEW,M,M,M,2000,M,M,M,M,M,M,M,M,M,M,87.18,VVTS 041330Z 12008KT 090V160 9999 FEW020 28/22 Q1008 NOSIG,M
VVTS,3/4/2012 14:00,106.6667,10.8167,80.6,71.6,74.11,130,8,0,29.77,M,6.21,M,FEW,M,M,M,2000,M,M,M,M,M,M,M,M,M,M,84.57,VVTS 041400Z 13008KT 100V190 9999 FEW020 27/22 Q1008 NOSIG,M
VVTS,3/4/2012 14:30,106.6667,10.8167,80.6,73.4,78.76,120,7,0,29.77,M,6.21,M,FEW,M,M,M,2000,M,M,M,M,M,M,M,M,M,M,85.32,VVTS 041430Z 12007KT 9999 FEW020 27/23 Q1008 NOSIG,M
VVTS,3/4/2012 15:00,106.6667,10.8167,80.6,73.4,78.76,130,6,0,29.8,M,6.21,M,FEW,M,M,M,2000,M,M,M,M,M,M,M,M,M,M,85.32,VVTS 041500Z 13006KT 100V170 9999 FEW020 27/23 Q1009 NOSIG,M
VVTS,3/4/2012 15:30,106.6667,10.8167,78.8,73.4,83.55,110,6,0,29.8,M,6.21,M,FEW,M,M,M,2000,M,M,M,M,M,M,M,M,M,M,82.03,VVTS 041530Z 11006KT 9999 FEW020 26/23 Q1009 NOSIG,M
VVTS,3/4/2012 16:00,106.6667,10.8167,78.8,73.4,83.55,120,5,0,29.8,M,6.21,M,FEW,M,M,M,2000,M,M,M,M,M,M,M,M,M,M,82.03,VVTS 041600Z 12005KT 100V160 9999 FEW020 26/23 Q1009 NOSIG,M
VVTS,3/4/2012 16:30,106.6667,10.8167,78.8,73.4,83.55,110,8,0,29.77,M,6.21,M,FEW,M,M,M,2000,M,M,M,M,M,M,M,M,M,M,82.03,VVTS 041630Z 11008KT 9999 FEW020 26/23 Q1008 NOSIG,M
VVTS,3/4/2012 17:00,106.6667,10.8167,78.8,73.4,83.55,120,8,0,29.77,M,6.21,M,FEW,M,M,M,2000,M,M,M,M,M,M,M,M,M,M,82.03,VVTS 041700Z 12008KT 9999 FEW020 26/23 Q1008 NOSIG,M
VVTS,3/4/2012 17:30,106.6667,10.8167,78.8,73.4,83.55,130,8,0,29.77,M,6.21,M,FEW,M,M,M,2000,M,M,M,M,M,M,M,M,M,M,82.03,VVTS 041730Z 13008KT 9999 FEW020 26/23 Q1008 NOSIG,M
VVTS,3/4/2012 18:00,106.6667,10.8167,78.8,73.4,83.55,120,10,0,29.77,M,6.21,M,FEW,M,M,M,2000,M,M,M,M,M,M,M,M,M,M,82.03,VVTS 041800Z 12010KT 9999 FEW020 26/23 Q1008 NOSIG,M
VVTS,3/4/2012 18:30,106.6667,10.8167,78.8,73.4,83.55,120,9,0,29.74,M,6.21,M,FEW,M,M,M,2000,M,M,M,M,M,M,M,M,M,M,82.03,VVTS 041830Z 12009KT 9999 FEW020 26/23 Q1007 NOSIG,M
VVTS,3/4/2012 19:00,106.6667,10.8167,78.8,73.4,83.55,140,8,0,29.74,M,6.21,M,FEW,M,M,M,2000,M,M,M,M,M,M,M,M,M,M,82.03,VVTS 041900Z 14008KT 9999 FEW020 26/23 Q1007 NOSIG,M
VVTS,3/4/2012 19:30,106.6667,10.8167,78.8,73.4,83.55,120,8,0,29.74,M,6.21,M,FEW,M,M,M,2000,M,M,M,M,M,M,M,M,M,M,82.03,VVTS 041930Z 12008KT 9999 FEW020 26/23 Q1007 NOSIG,M
VVTS,3/4/2012 20:00,106.6667,10.8167,78.8,73.4,83.55,120,8,0,29.71,M,6.21,M,FEW,M,M,M,2000,M,M,M,M,M,M,M,M,M,M,82.03,VVTS 042000Z 12008KT 9999 FEW020 26/23 Q1006 NOSIG,M
VVTS,3/4/2012 21:00,106.6667,10.8167,78.8,73.4,83.55,110,8,0,29.71,M,6.21,M,FEW,M,M,M,2000,M,M,M,M,M,M,M,M,M,M,82.03,VVTS 042100Z 11008KT 9999 FEW020 26/23 Q1006 NOSIG,M
VVTS,3/4/2012 21:30,106.6667,10.8167,77,73.4,88.67,110,8,0,29.71,M,6.21,M,FEW,M,M,M,2000,M,M,M,M,M,M,M,M,M,M,78.57,VVTS 042130Z 11008KT 9999 FEW020 25/23 Q1006 NOSIG,M
VVTS,3/4/2012 22:00,106.6667,10.8167,77,73.4,88.67,110,6,0,29.71,M,6.21,M,FEW,M,M,M,2000,M,M,M,M,M,M,M,M,M,M,78.57,VVTS 042200Z 11006KT 9999 FEW020 25/23 Q1006 NOSIG,M
VVTS,3/4/2012 23:00,106.6667,10.8167,77,73.4,88.67,120,9,0,29.74,M,6.21,M,FEW,M,M,M,2000,M,M,M,M,M,M,M,M,M,M,78.57,VVTS 042300Z 12009KT 9999 FEW020 25/23 Q1007 NOSIG,M
VVTS,3/4/2012 23:30,106.6667,10.8167,77,73.4,88.67,110,8,0,29.74,M,6.21,M,FEW,M,M,M,2000,M,M,M,M,M,M,M,M,M,M,78.57,VVTS 042330Z 11008KT 9999 FEW020 25/23 Q1007 NOSIG,M
VVTS,3/5/2012 0:00,106.6667,10.8167,77,73.4,88.67,120,6,0,29.74,M,6.21,M,FEW,M,M,M,2000,M,M,M,M,M,M,M,M,M,M,78.57,VVTS 050000Z 12006KT 9999 FEW020 25/23 Q1007 NOSIG,M
VVTS,3/5/2012 0:30,106.6667,10.8167,80.6,73.4,78.76,110,10,0,29.77,M,6.21,M,FEW,M,M,M,2000,M,M,M,M,M,M,M,M,M,M,85.32,VVTS 050030Z 11010KT 9999 FEW020 27/23 Q1008 NOSIG,M
VVTS,3/5/2012 1:00,106.6667,10.8167,82.4,71.6,69.9,100,9,0,29.77,M,6.21,M,FEW,M,M,M,2000,M,M,M,M,M,M,M,M,M,M,87.18,VVTS 050100Z 10009KT 9999 FEW020 28/22 Q1008 NOSIG,M
VVTS,3/5/2012 1:30,106.6667,10.8167,84.2,71.6,65.95,80,9,0,29.77,M,6.21,M,FEW,M,M,M,2000,M,M,M,M,M,M,M,M,M,M,89.6,VVTS 050130Z 08009KT 9999 FEW020 29/22 Q1008 NOSIG,M
VVTS,3/5/2012 2:00,106.6667,10.8167,84.2,71.6,65.95,90,8,0,29.77,M,6.21,M,FEW,M,M,M,2000,M,M,M,M,M,M,M,M,M,M,89.6,VVTS 050200Z 09008KT 9999 FEW020 29/22 Q1008 NOSIG,M
VVTS,3/5/2012 2:30,106.6667,10.8167,86,71.6,62.25,110,7,0,29.77,M,6.21,M,FEW,M,M,M,2000,M,M,M,M,M,M,M,M,M,M,91.92,VVTS 050230Z 11007KT 9999 FEW020 30/22 Q1008 NOSIG,M
VVTS,3/5/2012 3:00,106.6667,10.8167,89.6,69.8,52.23,90,6,0,29.77,M,6.21,M,FEW,M,M,M,2000,M,M,M,M,M,M,M,M,M,M,94.85,VVTS 050300Z 09006KT 020V140 9999 FEW020 32/21 Q1008 NOSIG,M
VVTS,3/5/2012 3:30,106.6667,10.8167,89.6,69.8,52.23,110,7,0,29.77,M,6.21,M,FEW,M,M,M,2000,M,M,M,M,M,M,M,M,M,M,94.85,VVTS 050330Z 11007KT 070V140 9999 FEW020 32/21 Q1008 NOSIG,M
VVTS,3/5/2012 4:00,106.6667,10.8167,91.4,71.6,52.48,60,6,0,29.74,M,6.21,M,FEW,M,M,M,2000,M,M,M,M,M,M,M,M,M,M,98.64,VVTS 050400Z 06006KT 010V120 9999 FEW020 33/22 Q1007 NOSIG,M
VVTS,3/5/2012 4:30,106.6667,10.8167,91.4,71.6,52.48,90,7,0,29.71,M,6.21,M,SCT,M,M,M,2000,M,M,M,M,M,M,M,M,M,M,98.64,VVTS 050430Z 09007KT 9999 SCT020 33/22 Q1006 NOSIG,M
VVTS,3/5/2012 5:00,106.6667,10.8167,91.4,71.6,52.48,60,5,0,29.71,M,6.21,M,SCT,M,M,M,2000,M,M,M,M,M,M,M,M,M,M,98.64,VVTS 050500Z 06005KT 360V130 9999 SCT020 33/22 Q1006 NOSIG,M
VVTS,3/5/2012 5:30,106.6667,10.8167,91.4,69.8,49.36,110,9,0,29.68,M,6.21,M,SCT,M,M,M,2000,M,M,M,M,M,M,M,M,M,M,96.99,VVTS 050530Z 11009KT 9999 SCT020 33/21 Q1005 NOSIG,M
VVTS,3/5/2012 6:00,106.6667,10.8167,93.2,69.8,46.67,50,4,0,29.65,M,6.21,M,SCT,M,M,M,2000,M,M,M,M,M,M,M,M,M,M,99.17,VVTS 050600Z 05004KT 340V110 9999 SCT020 34/21 Q1004 NOSIG,M
VVTS,3/5/2012 6:30,106.6667,10.8167,95,68,41.5,80,4,0,29.65,M,6.21,M,SCT,M,M,M,2000,M,M,M,M,M,M,M,M,M,M,99.82,VVTS 050630Z 08004KT 250V210 9999 SCT020 35/20 Q1004 NOSIG,M
VVTS,3/5/2012 7:00,106.6667,10.8167,95,68,41.5,M,3,0,29.62,M,6.21,M,SCT,M,M,M,2000,M,M,M,M,M,M,M,M,M,M,99.82,VVTS 050700Z VRB03KT 9999 SCT020 35/20 Q1003 NOSIG,M
VVTS,3/5/2012 7:30,106.6667,10.8167,96.8,69.8,41.77,160,8,0,29.62,M,6.21,M,SCT,M,M,M,2000,M,M,M,M,M,M,M,M,M,M,103.6,VVTS 050730Z 16008KT 110V210 9999 SCT020 36/21 Q1003 NOSIG,M
VVTS,3/5/2012 8:00,106.6667,10.8167,93.2,73.4,52.73,160,13,0,29.62,M,6.21,M,SCT,M,M,M,2000,M,M,M,M,M,M,M,M,M,M,102.82,VVTS 050800Z 16013KT 9999 SCT020 34/23 Q1003 NOSIG,M
VVTS,3/5/2012 8:30,106.6667,10.8167,91.4,73.4,55.77,150,15,0,29.62,M,6.21,M,SCT,M,M,M,2000,M,M,M,M,M,M,M,M,M,M,100.52,VVTS 050830Z 15015KT 9999 SCT020 33/23 Q1003 NOSIG,M
VVTS,3/5/2012 9:00,106.6667,10.8167,87.8,71.6,58.78,150,16,0,29.62,M,6.21,M,FEW,SCT,M,M,1700,2000,M,M,M,M,M,M,M,M,M,94.18,VVTS 050900Z 15016KT 9999 FEW017TCU SCT020 31/22 Q1003 NOSIG,M
VVTS,3/5/2012 9:30,106.6667,10.8167,86,73.4,66.15,160,15,0,29.65,M,6.21,M,FEW,SCT,M,M,1700,2000,M,M,M,M,M,M,M,M,M,93.45,VVTS 050930Z 16015KT 9999 FEW017TCU SCT020 30/23 Q1004 NOSIG,M
VVTS,3/5/2012 10:00,106.6667,10.8167,84.2,71.6,65.95,160,13,0,29.65,M,6.21,M,SCT,M,M,M,2000,M,M,M,M,M,M,M,M,M,M,89.6,VVTS 051000Z 16013KT 9999 SCT020 29/22 Q1004 NOSIG,M
VVTS,3/5/2012 10:30,106.6667,10.8167,84.2,73.4,70.08,160,13,0,29.65,M,6.21,M,SCT,M,M,M,2000,M,M,M,M,M,M,M,M,M,M,90.94,VVTS 051030Z 16013KT 9999 SCT020 29/23 Q1004 NOSIG,M
VVTS,3/5/2012 11:00,106.6667,10.8167,82.4,73.4,74.28,140,12,0,29.65,M,6.21,M,SCT,M,M,M,2000,M,M,M,M,M,M,M,M,M,M,88.26,VVTS 051100Z 14012KT 9999 SCT020 28/23 Q1004 NOSIG,M
VVTS,3/5/2012 11:30,106.6667,10.8167,82.4,73.4,74.28,140,12,0,29.65,M,6.21,M,SCT,M,M,M,2000,M,M,M,M,M,M,M,M,M,M,88.26,VVTS 051130Z 14012KT 9999 SCT020 28/23 Q1004 NOSIG,M
VVTS,3/5/2012 12:00,106.6667,10.8167,82.4,73.4,74.28,140,9,0,29.68,M,6.21,M,SCT,M,M,M,2000,M,M,M,M,M,M,M,M,M,M,88.26,VVTS 051200Z 14009KT 110V170 9999 SCT020 28/23 Q1005 NOSIG,M
VVTS,3/5/2012 12:30,106.6667,10.8167,80.6,73.4,78.76,130,10,0,29.68,M,6.21,M,SCT,M,M,M,2000,M,M,M,M,M,M,M,M,M,M,85.32,VVTS 051230Z 13010KT 090V180 9999 SCT020 27/23 Q1005 NOSIG,M
VVTS,3/5/2012 13:00,106.6667,10.8167,80.6,73.4,78.76,130,9,0,29.71,M,6.21,M,SCT,M,M,M,2000,M,M,M,M,M,M,M,M,M,M,85.32,VVTS 051300Z 13009KT 110V190 9999 SCT020 27/23 Q1006 NOSIG,M
VVTS,3/5/2012 13:30,106.6667,10.8167,80.6,73.4,78.76,120,7,0,29.71,M,6.21,M,SCT,M,M,M,2000,M,M,M,M,M,M,M,M,M,M,85.32,VVTS 051330Z 12007KT 090V180 9999 SCT020 27/23 Q1006 NOSIG,M
VVTS,3/5/2012 14:00,106.6667,10.8167,80.6,73.4,78.76,120,8,0,29.71,M,6.21,M,FEW,SCT,M,M,1700,4000,M,M,M,M,M,M,M,M,M,85.32,VVTS 051400Z 12008KT 090V160 9999 FEW017 SCT040 27/23 Q1006 NOSIG,M
VVTS,3/5/2012 14:30,106.6667,10.8167,80.6,73.4,78.76,110,8,0,29.71,M,6.21,M,FEW,SCT,M,M,1700,4000,M,M,M,M,M,M,M,M,M,85.32,VVTS 051430Z 11008KT 080V150 9999 FEW017 SCT040 27/23 Q1006 NOSIG,M
VVTS,3/5/2012 15:00,106.6667,10.8167,80.6,73.4,78.76,120,7,0,29.74,M,6.21,M,FEW,SCT,M,M,1700,4000,M,M,M,M,M,M,M,M,M,85.32,VVTS 051500Z 12007KT 090V160 9999 FEW017 SCT040 27/23 Q1007 NOSIG,M
VVTS,3/5/2012 15:30,106.6667,10.8167,80.6,73.4,78.76,120,5,0,29.74,M,6.21,M,FEW,SCT,M,M,1700,4000,M,M,M,M,M,M,M,M,M,85.32,VVTS 051530Z 12005KT 090V170 9999 FEW017 SCT040 27/23 Q1007 NOSIG,M
VVTS,3/5/2012 16:00,106.6667,10.8167,80.6,73.4,78.76,130,7,0,29.74,M,6.21,M,FEW,SCT,M,M,1700,4000,M,M,M,M,M,M,M,M,M,85.32,VVTS 051600Z 13007KT 010V150 9999 FEW017 SCT040 27/23 Q1007 NOSIG,M
VVTS,3/5/2012 17:00,106.6667,10.8167,78.8,73.4,83.55,120,7,0,29.74,M,6.21,M,FEW,SCT,M,M,1700,4000,M,M,M,M,M,M,M,M,M,82.03,VVTS 051700Z 12007KT 080V150 9999 FEW017 SCT040 26/23 Q1007 NOSIG,M
VVTS,3/5/2012 17:30,106.6667,10.8167,78.8,73.4,83.55,120,7,0,29.74,M,6.21,M,FEW,SCT,M,M,1700,4000,M,M,M,M,M,M,M,M,M,82.03,VVTS 051730Z 12007KT 090V190 9999 FEW017 SCT040 26/23 Q1007 NOSIG,M
VVTS,3/5/2012 18:00,106.6667,10.8167,78.8,73.4,83.55,130,6,0,29.71,M,6.21,M,FEW,SCT,M,M,1700,4000,M,M,M,M,M,M,M,M,M,82.03,VVTS 051800Z 13006KT 9999 FEW017 SCT040 26/23 Q1006 NOSIG,M
VVTS,3/5/2012 18:30,106.6667,10.8167,78.8,73.4,83.55,120,6,0,29.71,M,6.21,M,FEW,SCT,M,M,1700,4000,M,M,M,M,M,M,M,M,M,82.03,VVTS 051830Z 12006KT 9999 FEW017 SCT040 26/23 Q1006 NOSIG,M
VVTS,3/5/2012 19:00,106.6667,10.8167,78.8,73.4,83.55,120,4,0,29.71,M,6.21,M,FEW,SCT,M,M,1700,4000,M,M,M,M,M,M,M,M,M,82.03,VVTS 051900Z 12004KT 9999 FEW017 SCT040 26/23 Q1006 NOSIG,M
VVTS,3/5/2012 19:30,106.6667,10.8167,78.8,75.2,88.75,140,4,0,29.71,M,6.21,M,FEW,SCT,M,M,1700,4000,M,M,M,M,M,M,M,M,M,82.38,VVTS 051930Z 14004KT 9999 FEW017 SCT040 26/24 Q1006 NOSIG,M
VVTS,3/5/2012 20:00,106.6667,10.8167,78.8,75.2,88.75,130,2,0,29.71,M,6.21,M,FEW,SCT,M,M,1700,4000,M,M,M,M,M,M,M,M,M,82.38,VVTS 052000Z 13002KT 9999 FEW017 SCT040 26/24 Q1006 NOSIG,M
VVTS,3/5/2012 20:30,106.6667,10.8167,78.8,73.4,83.55,M,1,0,29.71,M,6.21,M,FEW,SCT,M,M,1700,4000,M,M,M,M,M,M,M,M,M,82.03,VVTS 052030Z VRB01KT 9999 FEW017 SCT040 26/23 Q1006 NOSIG,M
VVTS,3/5/2012 21:00,106.6667,10.8167,78.8,75.2,88.75,120,4,0,29.71,M,6.21,M,FEW,SCT,M,M,1700,4000,M,M,M,M,M,M,M,M,M,82.38,VVTS 052100Z 12004KT 090V150 9999 FEW017 SCT040 26/24 Q1006 NOSIG,M
VVTS,3/5/2012 21:30,106.6667,10.8167,78.8,75.2,88.75,120,5,0,29.71,M,6.21,M,FEW,SCT,M,M,1700,4000,M,M,M,M,M,M,M,M,M,82.38,VVTS 052130Z 12005KT 080V140 9999 FEW017 SCT040 26/24 Q1006 NOSIG,M
VVTS,3/5/2012 22:00,106.6667,10.8167,78.8,75.2,88.75,100,4,0,29.71,M,6.21,M,FEW,SCT,M,M,1700,4000,M,M,M,M,M,M,M,M,M,82.38,VVTS 052200Z 10004KT 9999 FEW017 SCT040 26/24 Q1006 NOSIG,M
VVTS,3/5/2012 22:30,106.6667,10.8167,77,75.2,94.19,70,4,0,29.71,M,6.21,M,FEW,SCT,M,M,1700,4000,M,M,M,M,M,M,M,M,M,78.83,VVTS 052230Z 07004KT 9999 FEW017 SCT040 25/24 Q1006 NOSIG,M
VVTS,3/5/2012 23:00,106.6667,10.8167,77,75.2,94.19,M,3,0,29.74,M,6.21,M,FEW,SCT,M,M,1700,4000,M,M,M,M,M,M,M,M,M,78.83,VVTS 052300Z VRB03KT 9999 FEW017 SCT040 25/24 Q1007 NOSIG,M
VVTS,3/5/2012 23:30,106.6667,10.8167,78.8,75.2,88.75,100,4,0,29.74,M,6.21,M,FEW,M,M,M,1700,M,M,M,M,M,M,M,M,M,M,82.38,VVTS 052330Z 10004KT 9999 FEW017 26/24 Q1007 NOSIG,M
VVTS,3/6/2012 0:00,106.6667,10.8167,78.8,75.2,88.75,100,7,0,29.74,M,6.21,M,FEW,M,M,M,1700,M,M,M,M,M,M,M,M,M,M,82.38,VVTS 060000Z 10007KT 9999 FEW017 26/24 Q1007 NOSIG,M
VVTS,3/6/2012 0:30,106.6667,10.8167,80.6,75.2,83.66,110,6,0,29.77,M,6.21,M,SCT,M,M,M,1700,M,M,M,M,M,M,M,M,M,M,86.17,VVTS 060030Z 11006KT 070V140 9999 SCT017 27/24 Q1008 NOSIG,M
VVTS,3/6/2012 1:00,106.6667,10.8167,82.4,75.2,78.9,110,10,0,29.77,M,6.21,M,SCT,M,M,M,1700,M,M,M,M,M,M,M,M,M,M,89.48,VVTS 060100Z 11010KT 9999 SCT017 28/24 Q1008 NOSIG,M
VVTS,3/6/2012 1:30,106.6667,10.8167,84.2,73.4,70.08,120,9,0,29.77,M,6.21,M,SCT,M,M,M,1700,M,M,M,M,M,M,M,M,M,M,90.94,VVTS 060130Z 12009KT 9999 SCT017 29/23 Q1008 NOSIG,M
VVTS,3/6/2012 2:00,106.6667,10.8167,86,73.4,66.15,120,9,0,29.77,M,6.21,M,SCT,M,M,M,1700,M,M,M,M,M,M,M,M,M,M,93.45,VVTS 060200Z 12009KT 9999 SCT017 30/23 Q1008 NOSIG,M
VVTS,3/6/2012 2:30,106.6667,10.8167,87.8,73.4,62.47,120,8,0,29.8,M,6.21,M,SCT,M,M,M,1700,M,M,M,M,M,M,M,M,M,M,95.86,VVTS 060230Z 12008KT 9999 SCT017 31/23 Q1009 NOSIG,M
VVTS,3/6/2012 3:00,106.6667,10.8167,87.8,73.4,62.47,150,8,0,29.8,M,6.21,M,SCT,M,M,M,1700,M,M,M,M,M,M,M,M,M,M,95.86,VVTS 060300Z 15008KT 110V170 9999 SCT017 31/23 Q1009 NOSIG,M
VVTS,3/6/2012 3:30,106.6667,10.8167,87.8,73.4,62.47,140,6,0,29.77,M,6.21,M,SCT,M,M,M,1700,M,M,M,M,M,M,M,M,M,M,95.86,VVTS 060330Z 14006KT 080V180 9999 SCT017 31/23 Q1008 NOSIG,M
VVTS,3/6/2012 4:00,106.6667,10.8167,89.6,73.4,59.01,130,6,0,29.77,M,6.21,M,SCT,M,M,M,1700,M,M,M,M,M,M,M,M,M,M,98.2,VVTS 060400Z 13006KT 090V150 9999 SCT017 32/23 Q1008 NOSIG,M
VVTS,3/6/2012 4:30,106.6667,10.8167,89.6,71.6,55.53,120,6,0,29.77,M,6.21,M,SCT,M,M,M,1700,M,M,M,M,M,M,M,M,M,M,96.41,VVTS 060430Z 12006KT 080V180 9999 SCT017 32/22 Q1008 NOSIG,M
VVTS,3/6/2012 5:00,106.6667,10.8167,91.4,73.4,55.77,180,5,0,29.74,M,6.21,M,SCT,M,M,M,1700,M,M,M,M,M,M,M,M,M,M,100.52,VVTS 060500Z 18005KT 120V270 9999 SCT017 33/23 Q1007 NOSIG,M
VVTS,3/6/2012 5:30,106.6667,10.8167,93.2,71.6,49.62,170,6,0,29.71,M,6.21,M,SCT,M,M,M,1700,M,M,M,M,M,M,M,M,M,M,100.88,VVTS 060530Z 17006KT 130V210 9999 SCT017 34/22 Q1006 NOSIG,M
VVTS,3/6/2012 6:00,106.6667,10.8167,93.2,71.6,49.62,150,5,0,29.71,M,6.21,M,SCT,M,M,M,1700,M,M,M,M,M,M,M,M,M,M,100.88,VVTS 060600Z 15005KT 090V220 9999 SCT017 34/22 Q1006 NOSIG,M
VVTS,3/6/2012 6:30,106.6667,10.8167,93.2,71.6,49.62,120,6,0,29.68,M,6.21,M,SCT,M,M,M,1700,M,M,M,M,M,M,M,M,M,M,100.88,VVTS 060630Z 12006KT 070V190 9999 SCT017 34/22 Q1005 NOSIG,M
VVTS,3/6/2012 7:00,106.6667,10.8167,91.4,71.6,52.48,160,9,0,29.65,M,6.21,M,SCT,M,M,M,1700,M,M,M,M,M,M,M,M,M,M,98.64,VVTS 060700Z 16009KT 110V220 9999 SCT017 33/22 Q1004 NOSIG,M
VVTS,3/6/2012 7:30,106.6667,10.8167,93.2,71.6,49.62,160,8,0,29.65,M,6.21,M,SCT,M,M,M,1700,M,M,M,M,M,M,M,M,M,M,100.88,VVTS 060730Z 16008KT 130V210 9999 SCT017 34/22 Q1004 NOSIG,M
VVTS,3/6/2012 8:00,106.6667,10.8167,91.4,71.6,52.48,120,8,0,29.62,M,6.21,M,SCT,M,M,M,1700,M,M,M,M,M,M,M,M,M,M,98.64,VVTS 060800Z 12008KT 9999 SCT017 33/22 Q1003 NOSIG,M
VVTS,3/6/2012 8:30,106.6667,10.8167,91.4,69.8,49.36,150,9,0,29.62,M,6.21,M,SCT,M,M,M,1700,M,M,M,M,M,M,M,M,M,M,96.99,VVTS 060830Z 15009KT 120V200 9999 SCT017 33/21 Q1003 NOSIG,M
VVTS,3/6/2012 9:00,106.6667,10.8167,89.6,69.8,52.23,150,9,0,29.62,M,6.21,M,FEW,M,M,M,2000,M,M,M,M,M,M,M,M,M,M,94.85,VVTS 060900Z 15009KT 120V200 9999 FEW020 32/21 Q1003 NOSIG,M
VVTS,3/6/2012 9:30,106.6667,10.8167,89.6,68,49.1,160,9,0,29.62,M,6.21,M,FEW,M,M,M,2000,M,M,M,M,M,M,M,M,M,M,93.47,VVTS 060930Z 16009KT 120V200 9999 FEW020 32/20 Q1003 NOSIG,M
VVTS,3/6/2012 10:00,106.6667,10.8167,87.8,71.6,58.78,160,8,0,29.62,M,6.21,M,FEW,M,M,M,2000,M,M,M,M,M,M,M,M,M,M,94.18,VVTS 061000Z 16008KT 120V190 9999 FEW020 31/22 Q1003 NOSIG,M
VVTS,3/6/2012 10:30,106.6667,10.8167,86,71.6,62.25,150,10,0,29.65,M,6.21,M,FEW,M,M,M,2000,M,M,M,M,M,M,M,M,M,M,91.92,VVTS 061030Z 15010KT 120V180 9999 FEW020 30/22 Q1004 NOSIG,M
VVTS,3/6/2012 11:00,106.6667,10.8167,84.2,71.6,65.95,140,9,0,29.65,M,6.21,M,FEW,M,M,M,2000,M,M,M,M,M,M,M,M,M,M,89.6,VVTS 061100Z 14009KT 120V180 9999 FEW020 29/22 Q1004 NOSIG,M
VVTS,3/6/2012 11:30,106.6667,10.8167,84.2,71.6,65.95,130,10,0,29.65,M,6.21,M,FEW,M,M,M,2000,M,M,M,M,M,M,M,M,M,M,89.6,VVTS 061130Z 13010KT 100V160 9999 FEW020 29/22 Q1004 NOSIG,M
VVTS,3/6/2012 12:00,106.6667,10.8167,82.4,73.4,74.28,140,8,0,29.65,M,6.21,M,FEW,M,M,M,2000,M,M,M,M,M,M,M,M,M,M,88.26,VVTS 061200Z 14008KT 9999 FEW020 28/23 Q1004 NOSIG,M
VVTS,3/6/2012 12:30,106.6667,10.8167,82.4,71.6,69.9,140,8,0,29.68,M,6.21,M,FEW,M,M,M,2000,M,M,M,M,M,M,M,M,M,M,87.18,VVTS 061230Z 14008KT 100V180 9999 FEW020 28/22 Q1005 NOSIG,M
VVTS,3/6/2012 13:00,106.6667,10.8167,82.4,73.4,74.28,150,9,0,29.68,M,6.21,M,FEW,M,M,M,2000,M,M,M,M,M,M,M,M,M,M,88.26,VVTS 061300Z 15009KT 9999 FEW020 28/23 Q1005 NOSIG,M
VVTS,3/6/2012 13:30,106.6667,10.8167,80.6,73.4,78.76,150,9,0,29.68,M,6.21,M,FEW,M,M,M,2000,M,M,M,M,M,M,M,M,M,M,85.32,VVTS 061330Z 15009KT 9999 FEW020 27/23 Q1005 NOSIG,M
VVTS,3/6/2012 14:00,106.6667,10.8167,80.6,73.4,78.76,140,9,0,29.71,M,6.21,M,FEW,M,M,M,2000,M,M,M,M,M,M,M,M,M,M,85.32,VVTS 061400Z 14009KT 110V170 9999 FEW020 27/23 Q1006 NOSIG,M
VVTS,3/6/2012 14:30,106.6667,10.8167,80.6,75.2,83.66,140,9,0,29.71,M,6.21,M,FEW,M,M,M,2000,M,M,M,M,M,M,M,M,M,M,86.17,VVTS 061430Z 14009KT 9999 FEW020 27/24 Q1006 NOSIG,M
VVTS,3/6/2012 15:00,106.6667,10.8167,80.6,73.4,78.76,140,9,0,29.71,M,6.21,M,FEW,M,M,M,1700,M,M,M,M,M,M,M,M,M,M,85.32,VVTS 061500Z 14009KT 9999 FEW017 27/23 Q1006 NOSIG,M
VVTS,3/6/2012 15:30,106.6667,10.8167,80.6,75.2,83.66,150,7,0,29.71,M,6.21,M,FEW,M,M,M,1700,M,M,M,M,M,M,M,M,M,M,86.17,VVTS 061530Z 15007KT 9999 FEW017 27/24 Q1006 NOSIG,M
VVTS,3/6/2012 16:00,106.6667,10.8167,80.6,75.2,83.66,150,5,0,29.71,M,6.21,M,FEW,M,M,M,1700,M,M,M,M,M,M,M,M,M,M,86.17,VVTS 061600Z 15005KT 120V180 9999 FEW017 27/24 Q1006 NOSIG,M
VVTS,3/6/2012 16:30,106.6667,10.8167,80.6,75.2,83.66,160,6,0,29.71,M,6.21,M,FEW,M,M,M,1700,M,M,M,M,M,M,M,M,M,M,86.17,VVTS 061630Z 16006KT 9999 FEW017 27/24 Q1006 NOSIG,M
VVTS,3/6/2012 17:00,106.6667,10.8167,78.8,75.2,88.75,160,8,0,29.71,M,6.21,M,FEW,M,M,M,1700,M,M,M,M,M,M,M,M,M,M,82.38,VVTS 061700Z 16008KT 9999 FEW017 26/24 Q1006 NOSIG,M
VVTS,3/6/2012 17:30,106.6667,10.8167,78.8,75.2,88.75,160,4,0,29.71,M,6.21,M,FEW,M,M,M,1700,M,M,M,M,M,M,M,M,M,M,82.38,VVTS 061730Z 16004KT 120V190 9999 FEW017 26/24 Q1006 NOSIG,M
VVTS,3/6/2012 18:00,106.6667,10.8167,78.8,75.2,88.75,160,4,0,29.71,M,6.21,M,SCT,M,M,M,1700,M,M,M,M,M,M,M,M,M,M,82.38,VVTS 061800Z 16004KT 9999 SCT017 26/24 Q1006 NOSIG,M
VVTS,3/6/2012 18:30,106.6667,10.8167,78.8,75.2,88.75,160,5,0,29.68,M,6.21,M,SCT,M,M,M,1700,M,M,M,M,M,M,M,M,M,M,82.38,VVTS 061830Z 16005KT 9999 SCT017 26/24 Q1005 NOSIG,M
VVTS,3/6/2012 19:00,106.6667,10.8167,78.8,75.2,88.75,150,5,0,29.68,M,6.21,M,SCT,M,M,M,1700,M,M,M,M,M,M,M,M,M,M,82.38,VVTS 061900Z 15005KT 9999 SCT017 26/24 Q1005 NOSIG,M
VVTS,3/6/2012 19:30,106.6667,10.8167,78.8,75.2,88.75,150,6,0,29.68,M,6.21,M,SCT,M,M,M,1700,M,M,M,M,M,M,M,M,M,M,82.38,VVTS 061930Z 15006KT 9999 SCT017 26/24 Q1005 NOSIG,M
VVTS,3/6/2012 20:00,106.6667,10.8167,78.8,75.2,88.75,130,5,0,29.65,M,6.21,M,SCT,M,M,M,1700,M,M,M,M,M,M,M,M,M,M,82.38,VVTS 062000Z 13005KT 9999 SCT017 26/24 Q1004 NOSIG,M
VVTS,3/6/2012 20:30,106.6667,10.8167,78.8,75.2,88.75,130,4,0,29.65,M,6.21,M,SCT,M,M,M,1700,M,M,M,M,M,M,M,M,M,M,82.38,VVTS 062030Z 13004KT 090V160 9999 SCT017 26/24 Q1004 NOSIG,M
VVTS,3/6/2012 21:00,106.6667,10.8167,78.8,75.2,88.75,130,4,0,29.68,M,6.21,M,SCT,M,M,M,1700,M,M,M,M,M,M,M,M,M,M,82.38,VVTS 062100Z 13004KT 9999 SCT017 26/24 Q1005 NOSIG,M
VVTS,3/6/2012 21:30,106.6667,10.8167,78.8,75.2,88.75,140,6,0,29.68,M,6.21,M,SCT,M,M,M,1700,M,M,M,M,M,M,M,M,M,M,82.38,VVTS 062130Z 14006KT 9999 SCT017 26/24 Q1005 NOSIG,M
VVTS,3/6/2012 22:00,106.6667,10.8167,78.8,75.2,88.75,130,5,0,29.68,M,6.21,M,SCT,M,M,M,1700,M,M,M,M,M,M,M,M,M,M,82.38,VVTS 062200Z 13005KT 9999 SCT017 26/24 Q1005 NOSIG,M
VVTS,3/6/2012 22:30,106.6667,10.8167,78.8,75.2,88.75,100,4,0,29.71,M,6.21,M,SCT,M,M,M,1700,M,M,M,M,M,M,M,M,M,M,82.38,VVTS 062230Z 10004KT 9999 SCT017 26/24 Q1006 NOSIG,M
VVTS,3/6/2012 23:00,106.6667,10.8167,78.8,75.2,88.75,100,5,0,29.71,M,6.21,M,SCT,M,M,M,1700,M,M,M,M,M,M,M,M,M,M,82.38,VVTS 062300Z 10005KT 060V140 9999 SCT017 26/24 Q1006 NOSIG,M
VVTS,3/6/2012 23:30,106.6667,10.8167,78.8,75.2,88.75,100,6,0,29.71,M,6.21,M,SCT,M,M,M,1700,M,M,M,M,M,M,M,M,M,M,82.38,VVTS 062330Z 10006KT 9999 SCT017 26/24 Q1006 NOSIG,M
VVTS,3/7/2012 0:00,106.6667,10.8167,78.8,75.2,88.75,90,7,0,29.74,M,6.21,M,FEW,M,M,M,2000,M,M,M,M,M,M,M,M,M,M,82.38,VVTS 070000Z 09007KT 9999 FEW020 26/24 Q1007 NOSIG,M
VVTS,3/7/2012 0:30,106.6667,10.8167,80.6,75.2,83.66,90,8,0,29.74,M,6.21,M,FEW,M,M,M,2000,M,M,M,M,M,M,M,M,M,M,86.17,VVTS 070030Z 09008KT 9999 FEW020 27/24 Q1007 NOSIG,M
VVTS,3/7/2012 1:00,106.6667,10.8167,82.4,75.2,78.9,110,7,0,29.74,M,6.21,M,SCT,M,M,M,2000,M,M,M,M,M,M,M,M,M,M,89.48,VVTS 070100Z 11007KT 9999 SCT020 28/24 Q1007 NOSIG,M
VVTS,3/7/2012 1:30,106.6667,10.8167,84.2,75.2,74.44,100,9,0,29.77,M,6.21,M,SCT,M,M,M,2000,M,M,M,M,M,M,M,M,M,M,92.45,VVTS 070130Z 10009KT 080V150 9999 SCT020 29/24 Q1008 NOSIG,M
VVTS,3/7/2012 2:00,106.6667,10.8167,86,75.2,70.27,120,7,0,29.77,M,6.21,M,SCT,M,M,M,2000,M,M,M,M,M,M,M,M,M,M,95.19,VVTS 070200Z 12007KT 9999 SCT020 30/24 Q1008 NOSIG,M
VVTS,3/7/2012 2:30,106.6667,10.8167,86,75.2,70.27,110,6,0,29.74,M,6.21,M,SCT,M,M,M,2000,M,M,M,M,M,M,M,M,M,M,95.19,VVTS 070230Z 11006KT 060V140 9999 SCT020 30/24 Q1007 NOSIG,M
VVTS,3/7/2012 3:00,106.6667,10.8167,86,73.4,66.15,130,6,0,29.74,M,6.21,M,SCT,M,M,M,2000,M,M,M,M,M,M,M,M,M,M,93.45,VVTS 070300Z 13006KT 090V180 9999 SCT020 30/23 Q1007 NOSIG,M
VVTS,3/7/2012 3:30,106.6667,10.8167,87.8,73.4,62.47,120,5,0,29.74,M,6.21,M,SCT,M,M,M,2000,M,M,M,M,M,M,M,M,M,M,95.86,VVTS 070330Z 12005KT 080V190 9999 SCT020 31/23 Q1007 NOSIG,M
VVTS,3/7/2012 4:00,106.6667,10.8167,89.6,73.4,59.01,110,7,0,29.74,M,6.21,M,SCT,M,M,M,2000,M,M,M,M,M,M,M,M,M,M,98.2,VVTS 070400Z 11007KT 070V150 9999 SCT020 32/23 Q1007 NOSIG,M
VVTS,3/7/2012 4:30,106.6667,10.8167,89.6,73.4,59.01,130,7,0,29.71,M,6.21,M,SCT,M,M,M,2000,M,M,M,M,M,M,M,M,M,M,98.2,VVTS 070430Z 13007KT 080V190 9999 SCT020 32/23 Q1006 NOSIG,M
VVTS,3/7/2012 5:00,106.6667,10.8167,91.4,73.4,55.77,150,7,0,29.71,M,6.21,M,SCT,M,M,M,2000,M,M,M,M,M,M,M,M,M,M,100.52,VVTS 070500Z 15007KT 110V190 9999 SCT020 33/23 Q1006 NOSIG,M
VVTS,3/7/2012 5:30,106.6667,10.8167,91.4,71.6,52.48,160,7,0,29.68,M,6.21,M,SCT,M,M,M,2000,M,M,M,M,M,M,M,M,M,M,98.64,VVTS 070530Z 16007KT 100V210 9999 SCT020 33/22 Q1005 NOSIG,M
VVTS,3/7/2012 6:00,106.6667,10.8167,91.4,71.6,52.48,80,7,0,29.65,M,6.21,M,SCT,M,M,M,2000,M,M,M,M,M,M,M,M,M,M,98.64,VVTS 070600Z 08007KT 040V130 9999 SCT020 33/22 Q1004 NOSIG,M
VVTS,3/7/2012 6:30,106.6667,10.8167,93.2,71.6,49.62,160,8,0,29.65,M,6.21,M,SCT,M,M,M,2000,M,M,M,M,M,M,M,M,M,M,100.88,VVTS 070630Z 16008KT 110V190 9999 SCT020 34/22 Q1004 NOSIG,M
VVTS,3/7/2012 7:00,106.6667,10.8167,89.6,73.4,59.01,170,10,0,29.62,M,6.21,M,FEW,SCT,M,M,1700,2000,M,M,M,M,M,M,M,M,M,98.2,VVTS 070700Z 17010KT 140V200 9999 FEW017TCU SCT020 32/23 Q1003 NOSIG,M
VVTS,3/7/2012 7:30,106.6667,10.8167,91.4,75.2,59.24,150,9,0,29.62,M,6.21,M,FEW,SCT,M,M,1700,2000,M,M,M,M,M,M,M,M,M,102.65,VVTS 070730Z 15009KT 9999 FEW017TCU SCT020 33/24 Q1003 NOSIG,M
VVTS,3/7/2012 8:00,106.6667,10.8167,91.4,73.4,55.77,140,10,0,29.62,M,6.21,M,FEW,SCT,M,M,1700,2000,M,M,M,M,M,M,M,M,M,100.52,VVTS 070800Z 14010KT 100V200 9999 FEW017CB SCT020 33/23 Q1003 NOSIG,M
VVTS,3/7/2012 8:30,106.6667,10.8167,91.4,75.2,59.24,160,11,0,29.59,M,6.21,M,FEW,SCT,M,M,1700,2000,M,M,TS,M,M,M,M,M,M,102.65,VVTS 070830Z 16011KT 100V200 9999 TS FEW017CB SCT020 33/24 Q1002 NOSIG,M
VVTS,3/7/2012 9:00,106.6667,10.8167,89.6,73.4,59.01,170,11,0,29.62,M,6.21,M,FEW,SCT,M,M,1700,2000,M,M,TS,M,M,M,M,M,M,98.2,VVTS 070900Z 17011KT 9999 TS FEW017CB SCT020 32/23 Q1003 NOSIG,M
VVTS,3/7/2012 9:30,106.6667,10.8167,89.6,73.4,59.01,170,11,0,29.62,M,6.21,M,FEW,M,M,M,2000,M,M,M,M,M,M,M,M,M,M,98.2,VVTS 070930Z 17011KT 130V210 9999 FEW020 32/23 Q1003 NOSIG,M
VVTS,3/7/2012 10:00,106.6667,10.8167,87.8,71.6,58.78,150,11,0,29.62,M,6.21,M,FEW,M,M,M,2000,M,M,M,M,M,M,M,M,M,M,94.18,VVTS 071000Z 15011KT 9999 FEW020 31/22 Q1003 NOSIG,M
VVTS,3/7/2012 10:30,106.6667,10.8167,84.2,73.4,70.08,160,10,0,29.62,M,6.21,M,FEW,M,M,M,2000,M,M,M,M,M,M,M,M,M,M,90.94,VVTS 071030Z 16010KT 9999 FEW020 29/23 Q1003 NOSIG,M
VVTS,3/7/2012 11:00,106.6667,10.8167,84.2,73.4,70.08,140,12,0,29.62,M,6.21,M,FEW,M,M,M,2000,M,M,M,M,M,M,M,M,M,M,90.94,VVTS 071100Z 14012KT 120V190 9999 FEW020 29/23 Q1003 NOSIG,M
VVTS,3/7/2012 11:30,106.6667,10.8167,82.4,73.4,74.28,130,11,0,29.65,M,6.21,M,FEW,M,M,M,2000,M,M,M,M,M,M,M,M,M,M,88.26,VVTS 071130Z 13011KT 100V170 9999 FEW020 28/23 Q1004 NOSIG,M
VVTS,3/7/2012 12:00,106.6667,10.8167,82.4,73.4,74.28,130,10,0,29.65,M,6.21,M,FEW,M,M,M,2000,M,M,M,M,M,M,M,M,M,M,88.26,VVTS 071200Z 13010KT 9999 FEW020 28/23 Q1004 NOSIG,M
VVTS,3/7/2012 12:30,106.6667,10.8167,82.4,73.4,74.28,140,9,0,29.65,M,6.21,M,FEW,M,M,M,2000,M,M,M,M,M,M,M,M,M,M,88.26,VVTS 071230Z 14009KT 9999 FEW020 28/23 Q1004 NOSIG,M
VVTS,3/7/2012 13:00,106.6667,10.8167,80.6,73.4,78.76,130,9,0,29.68,M,6.21,M,FEW,M,M,M,2000,M,M,M,M,M,M,M,M,M,M,85.32,VVTS 071300Z 13009KT 100V160 9999 FEW020 27/23 Q1005 NOSIG,M
VVTS,3/7/2012 13:30,106.6667,10.8167,80.6,73.4,78.76,120,10,0,29.68,M,6.21,M,FEW,M,M,M,2000,M,M,M,M,M,M,M,M,M,M,85.32,VVTS 071330Z 12010KT 9999 FEW020 27/23 Q1005 NOSIG,M
VVTS,3/7/2012 14:00,106.6667,10.8167,80.6,75.2,83.66,120,9,0,29.71,M,6.21,M,FEW,M,M,M,1700,M,M,M,M,M,M,M,M,M,M,86.17,VVTS 071400Z 12009KT 090V180 9999 FEW017 27/24 Q1006 NOSIG,M
VVTS,3/7/2012 15:00,106.6667,10.8167,80.6,75.2,83.66,100,6,0,29.71,M,6.21,M,FEW,M,M,M,1700,M,M,M,M,M,M,M,M,M,M,86.17,VVTS 071500Z 10006KT 9999 FEW017 27/24 Q1006 NOSIG,M
VVTS,3/7/2012 15:30,106.6667,10.8167,80.6,75.2,83.66,110,6,0,29.71,M,6.21,M,FEW,M,M,M,1700,M,M,M,M,M,M,M,M,M,M,86.17,VVTS 071530Z 11006KT 9999 FEW017 27/24 Q1006 NOSIG,M
VVTS,3/7/2012 16:00,106.6667,10.8167,78.8,75.2,88.75,110,8,0,29.71,M,6.21,M,FEW,M,M,M,1700,M,M,M,M,M,M,M,M,M,M,82.38,VVTS 071600Z 11008KT 9999 FEW017 26/24 Q1006 NOSIG,M
VVTS,3/7/2012 16:30,106.6667,10.8167,78.8,75.2,88.75,110,7,0,29.71,M,6.21,M,FEW,M,M,M,1700,M,M,M,M,M,M,M,M,M,M,82.38,VVTS 071630Z 11007KT 9999 FEW017 26/24 Q1006 NOSIG,M
VVTS,3/7/2012 17:00,106.6667,10.8167,78.8,75.2,88.75,110,7,0,29.71,M,6.21,M,FEW,M,M,M,1700,M,M,M,M,M,M,M,M,M,M,82.38,VVTS 071700Z 11007KT 9999 FEW017 26/24 Q1006 NOSIG,M
VVTS,3/7/2012 17:30,106.6667,10.8167,78.8,75.2,88.75,110,8,0,29.71,M,6.21,M,FEW,M,M,M,1700,M,M,M,M,M,M,M,M,M,M,82.38,VVTS 071730Z 11008KT 070V140 9999 FEW017 26/24 Q1006 NOSIG,M
VVTS,3/7/2012 18:00,106.6667,10.8167,78.8,75.2,88.75,100,8,0,29.68,M,6.21,M,FEW,M,M,M,1700,M,M,M,M,M,M,M,M,M,M,82.38,VVTS 071800Z 10008KT 9999 FEW017 26/24 Q1005 NOSIG,M
VVTS,3/7/2012 18:30,106.6667,10.8167,78.8,75.2,88.75,110,8,0,29.68,M,6.21,M,FEW,M,M,M,1700,M,M,M,M,M,M,M,M,M,M,82.38,VVTS 071830Z 11008KT 9999 FEW017 26/24 Q1005 NOSIG,M
VVTS,3/7/2012 19:00,106.6667,10.8167,78.8,75.2,88.75,120,7,0,29.68,M,6.21,M,FEW,M,M,M,1700,M,M,M,M,M,M,M,M,M,M,82.38,VVTS 071900Z 12007KT 080V170 9999 FEW017 26/24 Q1005 NOSIG,M
VVTS,3/7/2012 19:30,106.6667,10.8167,78.8,75.2,88.75,120,7,0,29.68,M,6.21,M,FEW,M,M,M,1700,M,M,M,M,M,M,M,M,M,M,82.38,VVTS 071930Z 12007KT 9999 FEW017 26/24 Q1005 NOSIG,M
VVTS,3/7/2012 20:00,106.6667,10.8167,78.8,75.2,88.75,120,9,0,29.65,M,6.21,M,FEW,M,M,M,1700,M,M,M,M,M,M,M,M,M,M,82.38,VVTS 072000Z 12009KT 9999 FEW017 26/24 Q1004 NOSIG,M
VVTS,3/7/2012 20:30,106.6667,10.8167,78.8,75.2,88.75,130,6,0,29.68,M,6.21,M,FEW,M,M,M,1700,M,M,M,M,M,M,M,M,M,M,82.38,VVTS 072030Z 13006KT 9999 FEW017 26/24 Q1005 NOSIG,M
VVTS,3/7/2012 21:00,106.6667,10.8167,78.8,75.2,88.75,130,6,0,29.68,M,6.21,M,FEW,M,M,M,1700,M,M,M,M,M,M,M,M,M,M,82.38,VVTS 072100Z 13006KT 9999 FEW017 26/24 Q1005 NOSIG,M
VVTS,3/7/2012 21:30,106.6667,10.8167,78.8,75.2,88.75,110,6,0,29.68,M,6.21,M,FEW,M,M,M,1700,M,M,M,M,M,M,M,M,M,M,82.38,VVTS 072130Z 11006KT 9999 FEW017 26/24 Q1005 NOSIG,M
VVTS,3/7/2012 22:00,106.6667,10.8167,78.8,77,94.23,120,6,0,29.68,M,6.21,M,FEW,M,M,M,1700,M,M,M,M,M,M,M,M,M,M,82.75,VVTS 072200Z 12006KT 9999 FEW017 26/25 Q1005 NOSIG,M
VVTS,3/7/2012 22:30,106.6667,10.8167,78.8,75.2,88.75,100,6,0,29.68,M,6.21,M,FEW,M,M,M,1700,M,M,M,M,M,M,M,M,M,M,82.38,VVTS 072230Z 10006KT 9999 FEW017 26/24 Q1005 NOSIG,M
VVTS,3/7/2012 23:00,106.6667,10.8167,78.8,75.2,88.75,110,7,0,29.71,M,6.21,M,FEW,M,M,M,1700,M,M,M,M,M,M,M,M,M,M,82.38,VVTS 072300Z 11007KT 9999 FEW017 26/24 Q1006 NOSIG,M
VVTS,3/7/2012 23:30,106.6667,10.8167,78.8,75.2,88.75,130,5,0,29.71,M,6.21,M,FEW,M,M,M,1700,M,M,M,M,M,M,M,M,M,M,82.38,VVTS 072330Z 13005KT 100V170 9999 FEW017 26/24 Q1006 NOSIG,M
VVTS,3/8/2012 0:00,106.6667,10.8167,78.8,75.2,88.75,130,6,0,29.71,M,6.21,M,FEW,M,M,M,1700,M,M,M,M,M,M,M,M,M,M,82.38,VVTS 080000Z 13006KT 9999 FEW017 26/24 Q1006 NOSIG,M
VVTS,3/8/2012 0:30,106.6667,10.8167,80.6,75.2,83.66,140,6,0,29.74,M,6.21,M,FEW,M,M,M,1700,M,M,M,M,M,M,M,M,M,M,86.17,VVTS 080030Z 14006KT 100V180 9999 FEW017 27/24 Q1007 NOSIG,M
VVTS,3/8/2012 1:00,106.6667,10.8167,82.4,75.2,78.9,120,5,0,29.74,M,6.21,M,FEW,SCT,M,M,1700,4000,M,M,M,M,M,M,M,M,M,89.48,VVTS 080100Z 12005KT 080V150 9999 FEW017 SCT040 28/24 Q1007 NOSIG,M
VVTS,3/8/2012 1:30,106.6667,10.8167,82.4,73.4,74.28,120,5,0,29.74,M,6.21,M,FEW,SCT,M,M,1700,4000,M,M,M,M,M,M,M,M,M,88.26,VVTS 080130Z 12005KT 080V210 9999 FEW017 SCT040 28/23 Q1007 NOSIG,M
VVTS,3/8/2012 2:00,106.6667,10.8167,84.2,75.2,74.44,130,8,0,29.74,M,6.21,M,FEW,SCT,M,M,1700,4000,M,M,M,M,M,M,M,M,M,92.45,VVTS 080200Z 13008KT 090V160 9999 FEW017 SCT040 29/24 Q1007 NOSIG,M
VVTS,3/8/2012 2:30,106.6667,10.8167,87.8,73.4,62.47,110,7,0,29.77,M,6.21,M,SCT,M,M,M,2000,M,M,M,M,M,M,M,M,M,M,95.86,VVTS 080230Z 11007KT 070V150 9999 SCT020 31/23 Q1008 NOSIG,M
VVTS,3/8/2012 3:00,106.6667,10.8167,87.8,73.4,62.47,130,7,0,29.74,M,6.21,M,SCT,M,M,M,2000,M,M,M,M,M,M,M,M,M,M,95.86,VVTS 080300Z 13007KT 050V200 9999 SCT020 31/23 Q1007 NOSIG,M
VVTS,3/8/2012 3:30,106.6667,10.8167,89.6,73.4,59.01,100,8,0,29.74,M,6.21,M,SCT,M,M,M,2000,M,M,M,M,M,M,M,M,M,M,98.2,VVTS 080330Z 10008KT 080V170 9999 SCT020 32/23 Q1007 NOSIG,M
VVTS,3/8/2012 4:00,106.6667,10.8167,89.6,73.4,59.01,140,8,0,29.74,M,6.21,M,SCT,M,M,M,2000,M,M,M,M,M,M,M,M,M,M,98.2,VVTS 080400Z 14008KT 100V190 9999 SCT020 32/23 Q1007 NOSIG,M
VVTS,3/8/2012 4:30,106.6667,10.8167,89.6,71.6,55.53,150,7,0,29.71,M,6.21,M,SCT,M,M,M,2000,M,M,M,M,M,M,M,M,M,M,96.41,VVTS 080430Z 15007KT 9999 SCT020 32/22 Q1006 NOSIG,M
VVTS,3/8/2012 5:00,106.6667,10.8167,91.4,71.6,52.48,160,7,0,29.71,M,6.21,M,SCT,M,M,M,2000,M,M,M,M,M,M,M,M,M,M,98.64,VVTS 080500Z 16007KT 100V200 9999 SCT020 33/22 Q1006 NOSIG,M
VVTS,3/8/2012 5:30,106.6667,10.8167,93.2,71.6,49.62,170,9,0,29.68,M,6.21,M,SCT,M,M,M,2000,M,M,M,M,M,M,M,M,M,M,100.88,VVTS 080530Z 17009KT 130V190 9999 SCT020 34/22 Q1005 NOSIG,M
VVTS,3/8/2012 6:00,106.6667,10.8167,93.2,71.6,49.62,180,10,0,29.68,M,6.21,M,SCT,M,M,M,1700,M,M,M,M,M,M,M,M,M,M,100.88,VVTS 080600Z 18010KT 9999 SCT017 34/22 Q1005 NOSIG,M
VVTS,3/8/2012 6:30,106.6667,10.8167,93.2,73.4,52.73,160,9,0,29.65,M,6.21,M,FEW,SCT,M,M,1500,1700,M,M,M,M,M,M,M,M,M,102.82,VVTS 080630Z 16009KT 100V220 9999 FEW015TCU SCT017 34/23 Q1004 NOSIG,M
VVTS,3/8/2012 7:00,106.6667,10.8167,91.4,73.4,55.77,160,10,0,29.65,M,6.21,M,FEW,SCT,M,M,1500,1700,M,M,M,M,M,M,M,M,M,100.52,VVTS 080700Z 16010KT 120V190 9999 FEW015TCU SCT017 33/23 Q1004 NOSIG,M
VVTS,3/8/2012 7:30,106.6667,10.8167,91.4,73.4,55.77,170,13,0,29.62,M,6.21,M,FEW,SCT,M,M,1500,1700,M,M,M,M,M,M,M,M,M,100.52,VVTS 080730Z 17013KT 9999 FEW015CB SCT017 33/23 Q1003 NOSIG,M
VVTS,3/8/2012 8:00,106.6667,10.8167,91.4,73.4,55.77,170,13,0,29.62,M,6.21,M,FEW,SCT,M,M,1500,1700,M,M,M,M,M,M,M,M,M,100.52,VVTS 080800Z 17013KT 9999 FEW015CB SCT017 33/23 Q1003 NOSIG,M
VVTS,3/8/2012 8:30,106.6667,10.8167,91.4,73.4,55.77,140,10,0,29.65,M,6.21,M,FEW,SCT,M,M,1500,1700,M,M,M,M,M,M,M,M,M,100.52,VVTS 080830Z 14010KT 100V190 9999 FEW015CB SCT017 33/23 Q1004 NOSIG,M
VVTS,3/8/2012 9:00,106.6667,10.8167,89.6,73.4,59.01,130,7,0,29.65,M,6.21,M,FEW,SCT,M,M,1500,1700,M,M,M,M,M,M,M,M,M,98.2,VVTS 080900Z 13007KT 100V180 9999 FEW015CB SCT017 32/23 Q1004 NOSIG,M
VVTS,3/8/2012 9:30,106.6667,10.8167,84.2,73.4,70.08,M,3,0,29.62,M,6.21,M,SCT,M,M,M,1700,M,M,M,M,M,M,M,M,M,M,90.94,VVTS 080930Z VRB03KT 9999 SCT017 29/23 Q1003 NOSIG,M
VVTS,3/8/2012 10:00,106.6667,10.8167,86,73.4,66.15,140,9,0,29.62,M,6.21,M,SCT,M,M,M,1700,M,M,M,M,M,M,M,M,M,M,93.45,VVTS 081000Z 14009KT 100V180 9999 SCT017 30/23 Q1003 NOSIG,M
VVTS,3/8/2012 10:30,106.6667,10.8167,84.2,73.4,70.08,140,9,0,29.65,M,6.21,M,SCT,M,M,M,1700,M,M,M,M,M,M,M,M,M,M,90.94,VVTS 081030Z 14009KT 110V170 9999 SCT017 29/23 Q1004 NOSIG,M
VVTS,3/8/2012 11:00,106.6667,10.8167,84.2,75.2,74.44,140,9,0,29.65,M,6.21,M,SCT,M,M,M,1700,M,M,M,M,M,M,M,M,M,M,92.45,VVTS 081100Z 14009KT 9999 SCT017 29/24 Q1004 NOSIG,M
VVTS,3/8/2012 11:30,106.6667,10.8167,82.4,75.2,78.9,150,9,0,29.65,M,6.21,M,SCT,M,M,M,1700,M,M,M,M,M,M,M,M,M,M,89.48,VVTS 081130Z 15009KT 9999 SCT017 28/24 Q1004 NOSIG,M
VVTS,3/8/2012 12:00,106.6667,10.8167,82.4,73.4,74.28,150,8,0,29.68,M,6.21,M,FEW,M,M,M,1700,M,M,M,M,M,M,M,M,M,M,88.26,VVTS 081200Z 15008KT 9999 FEW017 28/23 Q1005 NOSIG,M
VVTS,3/8/2012 12:30,106.6667,10.8167,82.4,73.4,74.28,120,8,0,29.71,M,6.21,M,FEW,M,M,M,1700,M,M,M,M,M,M,M,M,M,M,88.26,VVTS 081230Z 12008KT 100V190 9999 FEW017 28/23 Q1006 NOSIG,M
VVTS,3/8/2012 13:30,106.6667,10.8167,82.4,75.2,78.9,130,7,0,29.74,M,6.21,M,FEW,M,M,M,1700,M,M,M,M,M,M,M,M,M,M,89.48,VVTS 081330Z 13007KT 100V170 9999 FEW017 28/24 Q1007 NOSIG,M
VVTS,3/8/2012 14:00,106.6667,10.8167,80.6,75.2,83.66,130,5,0,29.74,M,6.21,M,FEW,M,M,M,1700,M,M,M,M,M,M,M,M,M,M,86.17,VVTS 081400Z 13005KT 090V180 9999 FEW017 27/24 Q1007 NOSIG,M
VVTS,3/8/2012 14:30,106.6667,10.8167,80.6,75.2,83.66,130,6,0,29.74,M,6.21,M,FEW,M,M,M,1700,M,M,M,M,M,M,M,M,M,M,86.17,VVTS 081430Z 13006KT 9999 FEW017 27/24 Q1007 NOSIG,M
VVTS,3/8/2012 15:00,106.6667,10.8167,80.6,75.2,83.66,130,7,0,29.74,M,6.21,M,FEW,M,M,M,1700,M,M,M,M,M,M,M,M,M,M,86.17,VVTS 081500Z 13007KT 9999 FEW017 27/24 Q1007 NOSIG,M
VVTS,3/8/2012 15:30,106.6667,10.8167,80.6,75.2,83.66,110,6,0,29.77,M,6.21,M,FEW,M,M,M,1700,M,M,M,M,M,M,M,M,M,M,86.17,VVTS 081530Z 11006KT 9999 FEW017 27/24 Q1008 NOSIG,M
VVTS,3/8/2012 16:00,106.6667,10.8167,80.6,75.2,83.66,110,4,0,29.77,M,6.21,M,FEW,M,M,M,1700,M,M,M,M,M,M,M,M,M,M,86.17,VVTS 081600Z 11004KT 9999 FEW017 27/24 Q1008 NOSIG,M
VVTS,3/8/2012 16:30,106.6667,10.8167,80.6,75.2,83.66,130,3,0,29.74,M,6.21,M,FEW,M,M,M,1700,M,M,M,M,M,M,M,M,M,M,86.17,VVTS 081630Z 13003KT 9999 FEW017 27/24 Q1007 NOSIG,M
VVTS,3/8/2012 17:00,106.6667,10.8167,80.6,75.2,83.66,110,4,0,29.74,M,6.21,M,FEW,M,M,M,1700,M,M,M,M,M,M,M,M,M,M,86.17,VVTS 081700Z 11004KT 070V210 9999 FEW017 27/24 Q1007 NOSIG,M
VVTS,3/8/2012 17:30,106.6667,10.8167,80.6,75.2,83.66,130,5,0,29.74,M,6.21,M,FEW,M,M,M,1700,M,M,M,M,M,M,M,M,M,M,86.17,VVTS 081730Z 13005KT 110V180 9999 FEW017 27/24 Q1007 NOSIG,M
VVTS,3/8/2012 18:00,106.6667,10.8167,80.6,75.2,83.66,110,4,0,29.74,M,6.21,M,FEW,M,M,M,1700,M,M,M,M,M,M,M,M,M,M,86.17,VVTS 081800Z 11004KT 9999 FEW017 27/24 Q1007 NOSIG,M
VVTS,3/8/2012 18:30,106.6667,10.8167,78.8,75.2,88.75,110,5,0,29.71,M,6.21,M,FEW,M,M,M,1700,M,M,M,M,M,M,M,M,M,M,82.38,VVTS 081830Z 11005KT 9999 FEW017 26/24 Q1006 NOSIG,M
VVTS,3/8/2012 19:00,106.6667,10.8167,78.8,75.2,88.75,130,5,0,29.71,M,6.21,M,FEW,M,M,M,1700,M,M,M,M,M,M,M,M,M,M,82.38,VVTS 081900Z 13005KT 110V170 9999 FEW017 26/24 Q1006 NOSIG,M
VVTS,3/8/2012 19:30,106.6667,10.8167,78.8,75.2,88.75,110,4,0,29.71,M,6.21,M,FEW,M,M,M,1700,M,M,M,M,M,M,M,M,M,M,82.38,VVTS 081930Z 11004KT 9999 FEW017 26/24 Q1006 NOSIG,M
VVTS,3/8/2012 20:00,106.6667,10.8167,78.8,75.2,88.75,60,3,0,29.71,M,6.21,M,FEW,M,M,M,1700,M,M,M,M,M,M,M,M,M,M,82.38,VVTS 082000Z 06003KT 9999 FEW017 26/24 Q1006 NOSIG,M
VVTS,3/8/2012 20:30,106.6667,10.8167,77,75.2,94.19,50,4,0,29.68,M,6.21,M,FEW,M,M,M,1700,M,M,M,M,M,M,M,M,M,M,78.83,VVTS 082030Z 05004KT 9999 FEW017 25/24 Q1005 NOSIG,M
VVTS,3/8/2012 21:00,106.6667,10.8167,75.2,75.2,100,70,3,0,29.68,M,6.21,M,FEW,M,M,M,1700,M,M,M,M,M,M,M,M,M,M,77.12,VVTS 082100Z 07003KT 9999 FEW017 24/24 Q1005 NOSIG,M
VVTS,3/8/2012 21:30,106.6667,10.8167,77,77,100,100,4,0,29.68,M,6.21,M,FEW,M,M,M,1700,M,M,M,M,M,M,M,M,M,M,77,VVTS 082130Z 10004KT 9999 FEW017 25/25 Q1005 NOSIG,M
VVTS,3/8/2012 22:00,106.6667,10.8167,77,75.2,94.19,100,3,0,29.68,M,6.21,M,FEW,M,M,M,1700,M,M,M,M,M,M,M,M,M,M,78.83,VVTS 082200Z 10003KT 9999 FEW017 25/24 Q1005 NOSIG,M
VVTS,3/8/2012 23:00,106.6667,10.8167,78.8,77,94.23,90,5,0,29.71,M,6.21,M,FEW,SCT,M,M,1700,4000,M,M,M,M,M,M,M,M,M,82.75,VVTS 082300Z 09005KT 9999 FEW017 SCT040 26/25 Q1006 NOSIG,M
VVTS,3/8/2012 23:30,106.6667,10.8167,78.8,77,94.23,80,4,0,29.71,M,6.21,M,SCT,M,M,M,1700,M,M,M,M,M,M,M,M,M,M,82.75,VVTS 082330Z 08004KT 060V120 9999 SCT017 26/25 Q1006 NOSIG,M
VVTS,3/9/2012 0:00,106.6667,10.8167,78.8,77,94.23,100,6,0,29.74,M,6.21,M,SCT,M,M,M,1700,M,M,M,M,M,M,M,M,M,M,82.75,VVTS 090000Z 10006KT 070V130 9999 SCT017 26/25 Q1007 NOSIG,M
VVTS,3/9/2012 0:30,106.6667,10.8167,80.6,77,88.83,90,6,0,29.74,M,6.21,M,SCT,M,M,M,1700,M,M,M,M,M,M,M,M,M,M,87.1,VVTS 090030Z 09006KT 9999 SCT017 27/25 Q1007 NOSIG,M
VVTS,3/9/2012 1:00,106.6667,10.8167,82.4,75.2,78.9,100,6,0,29.74,M,6.21,M,SCT,M,M,M,1700,M,M,M,M,M,M,M,M,M,M,89.48,VVTS 090100Z 10006KT 060V130 9999 SCT017 28/24 Q1007 NOSIG,M
VVTS,3/9/2012 1:30,106.6667,10.8167,84.2,75.2,74.44,100,8,0,29.77,M,6.21,M,SCT,M,M,M,1700,M,M,M,M,M,M,M,M,M,M,92.45,VVTS 090130Z 10008KT 9999 SCT017 29/24 Q1008 NOSIG,M
VVTS,3/9/2012 2:00,106.6667,10.8167,86,73.4,66.15,90,8,0,29.77,M,6.21,M,SCT,M,M,M,1700,M,M,M,M,M,M,M,M,M,M,93.45,VVTS 090200Z 09008KT 050V120 9999 SCT017 30/23 Q1008 NOSIG,M
VVTS,3/9/2012 2:30,106.6667,10.8167,87.8,71.6,58.78,100,8,0,29.77,M,6.21,M,FEW,M,M,M,2000,M,M,M,M,M,M,M,M,M,M,94.18,VVTS 090230Z 10008KT 050V160 9999 FEW020 31/22 Q1008 NOSIG,M
VVTS,3/9/2012 3:00,106.6667,10.8167,87.8,73.4,62.47,110,7,0,29.77,M,6.21,M,FEW,M,M,M,2000,M,M,M,M,M,M,M,M,M,M,95.86,VVTS 090300Z 11007KT 040V200 9999 FEW020 31/23 Q1008 NOSIG,M
VVTS,3/9/2012 3:30,106.6667,10.8167,89.6,69.8,52.23,130,5,0,29.77,M,6.21,M,FEW,M,M,M,2000,M,M,M,M,M,M,M,M,M,M,94.85,VVTS 090330Z 13005KT 050V200 9999 FEW020 32/21 Q1008 NOSIG,M
VVTS,3/9/2012 4:00,106.6667,10.8167,91.4,71.6,52.48,130,5,0,29.77,M,6.21,M,SCT,M,M,M,2000,M,M,M,M,M,M,M,M,M,M,98.64,VVTS 090400Z 13005KT 070V210 9999 SCT020 33/22 Q1008 NOSIG,M
VVTS,3/9/2012 4:30,106.6667,10.8167,91.4,69.8,49.36,140,6,0,29.74,M,6.21,M,SCT,M,M,M,2000,M,M,M,M,M,M,M,M,M,M,96.99,VVTS 090430Z 14006KT 070V180 9999 SCT020 33/21 Q1007 NOSIG,M
VVTS,3/9/2012 5:00,106.6667,10.8167,89.6,71.6,55.53,130,5,0,29.74,M,6.21,M,SCT,M,M,M,2000,M,M,M,M,M,M,M,M,M,M,96.41,VVTS 090500Z 13005KT 080V200 9999 SCT020 32/22 Q1007 NOSIG,M
VVTS,3/9/2012 5:30,106.6667,10.8167,91.4,69.8,49.36,110,5,0,29.71,M,6.21,M,BKN,M,M,M,1700,M,M,M,M,M,M,M,M,M,M,96.99,VVTS 090530Z 11005KT 020V190 9999 BKN017 33/21 Q1006 NOSIG,M
VVTS,3/9/2012 6:00,106.6667,10.8167,91.4,69.8,49.36,110,6,0,29.71,M,6.21,M,BKN,M,M,M,1700,M,M,M,M,M,M,M,M,M,M,96.99,VVTS 090600Z 11006KT 070V150 9999 BKN017 33/21 Q1006 NOSIG,M
VVTS,3/9/2012 6:30,106.6667,10.8167,93.2,69.8,46.67,M,3,0,29.68,M,6.21,M,BKN,M,M,M,1700,M,M,M,M,M,M,M,M,M,M,99.17,VVTS 090630Z VRB03KT 9999 BKN017 34/21 Q1005 NOSIG,M
VVTS,3/9/2012 7:30,106.6667,10.8167,91.4,69.8,49.36,90,4,0,29.65,M,6.21,M,BKN,M,M,M,1700,M,M,M,M,M,M,M,M,M,M,96.99,VVTS 090730Z 09004KT 040V180 9999 BKN017 33/21 Q1004 NOSIG,M
VVTS,3/9/2012 8:00,106.6667,10.8167,93.2,71.6,49.62,160,6,0,29.65,M,6.21,M,FEW,SCT,M,M,1700,2000,M,M,M,M,M,M,M,M,M,100.88,VVTS 090800Z 16006KT 100V190 9999 FEW017TCU SCT020 34/22 Q1004 NOSIG,M
VVTS,3/9/2012 8:30,106.6667,10.8167,91.4,71.6,52.48,140,8,0,29.62,M,6.21,M,FEW,SCT,M,M,1700,2000,M,M,M,M,M,M,M,M,M,98.64,VVTS 090830Z 14008KT 110V180 9999 FEW017TCU SCT020 33/22 Q1003 NOSIG,M
VVTS,3/9/2012 9:00,106.6667,10.8167,89.6,71.6,55.53,130,8,0,29.62,M,6.21,M,FEW,SCT,M,M,1700,2000,M,M,M,M,M,M,M,M,M,96.41,VVTS 090900Z 13008KT 090V170 9999 FEW017TCU SCT020 32/22 Q1003 NOSIG,M
VVTS,3/9/2012 9:30,106.6667,10.8167,89.6,73.4,59.01,140,10,0,29.65,M,6.21,M,FEW,SCT,M,M,1700,2000,M,M,M,M,M,M,M,M,M,98.2,VVTS 090930Z 14010KT 120V190 9999 FEW017TCU SCT020 32/23 Q1004 NOSIG,M
VVTS,3/9/2012 10:00,106.6667,10.8167,87.8,71.6,58.78,150,10,0,29.65,M,6.21,M,SCT,M,M,M,1700,M,M,M,M,M,M,M,M,M,M,94.18,VVTS 091000Z 15010KT 9999 SCT017 31/22 Q1004 NOSIG,M
VVTS,3/9/2012 10:30,106.6667,10.8167,86,73.4,66.15,160,11,0,29.65,M,6.21,M,SCT,M,M,M,1700,M,M,M,M,M,M,M,M,M,M,93.45,VVTS 091030Z 16011KT 110V180 9999 SCT017 30/23 Q1004 NOSIG,M
VVTS,3/9/2012 11:00,106.6667,10.8167,84.2,69.8,62.03,140,9,0,29.65,M,6.21,M,SCT,M,M,M,2000,M,M,M,M,M,M,M,M,M,M,88.43,VVTS 091100Z 14009KT 110V170 9999 SCT020 29/21 Q1004 NOSIG,M
VVTS,3/9/2012 11:30,106.6667,10.8167,84.2,73.4,70.08,150,10,0,29.68,M,6.21,M,SCT,M,M,M,2000,M,M,M,M,M,M,M,M,M,M,90.94,VVTS 091130Z 15010KT 110V180 9999 SCT020 29/23 Q1005 NOSIG,M
VVTS,3/9/2012 12:00,106.6667,10.8167,82.4,71.6,69.9,130,12,0,29.68,M,6.21,M,SCT,M,M,M,2000,M,M,M,M,M,M,M,M,M,M,87.18,VVTS 091200Z 13012KT 9999 SCT020 28/22 Q1005 NOSIG,M
VVTS,3/9/2012 12:30,106.6667,10.8167,82.4,71.6,69.9,130,9,0,29.71,M,6.21,M,SCT,M,M,M,2000,M,M,M,M,M,M,M,M,M,M,87.18,VVTS 091230Z 13009KT 9999 SCT020 28/22 Q1006 NOSIG,M
VVTS,3/9/2012 13:00,106.6667,10.8167,82.4,71.6,69.9,130,10,0,29.71,M,6.21,M,SCT,M,M,M,2000,M,M,M,M,M,M,M,M,M,M,87.18,VVTS 091300Z 13010KT 9999 SCT020 28/22 Q1006 NOSIG,M
VVTS,3/9/2012 13:30,106.6667,10.8167,82.4,71.6,69.9,120,8,0,29.71,M,6.21,M,FEW,M,M,M,2000,M,M,M,M,M,M,M,M,M,M,87.18,VVTS 091330Z 12008KT 9999 FEW020 28/22 Q1006 NOSIG,M
VVTS,3/9/2012 14:00,106.6667,10.8167,80.6,71.6,74.11,130,10,0,29.71,M,6.21,M,FEW,M,M,M,2000,M,M,M,M,M,M,M,M,M,M,84.57,VVTS 091400Z 13010KT 9999 FEW020 27/22 Q1006 NOSIG,M
VVTS,3/9/2012 14:30,106.6667,10.8167,80.6,73.4,78.76,120,11,0,29.74,M,6.21,M,FEW,M,M,M,2000,M,M,M,M,M,M,M,M,M,M,85.32,VVTS 091430Z 12011KT 100V160 9999 FEW020 27/23 Q1007 NOSIG,M
VVTS,3/9/2012 15:00,106.6667,10.8167,80.6,73.4,78.76,120,10,0,29.74,M,6.21,M,FEW,M,M,M,2000,M,M,M,M,M,M,M,M,M,M,85.32,VVTS 091500Z 12010KT 9999 FEW020 27/23 Q1007 NOSIG,M
VVTS,3/9/2012 15:30,106.6667,10.8167,80.6,73.4,78.76,120,9,0,29.74,M,6.21,M,FEW,M,M,M,2000,M,M,M,M,M,M,M,M,M,M,85.32,VVTS 091530Z 12009KT 9999 FEW020 27/23 Q1007 NOSIG,M
VVTS,3/9/2012 16:00,106.6667,10.8167,80.6,73.4,78.76,140,10,0,29.74,M,6.21,M,FEW,M,M,M,2000,M,M,M,M,M,M,M,M,M,M,85.32,VVTS 091600Z 14010KT 9999 FEW020 27/23 Q1007 NOSIG,M
VVTS,3/9/2012 16:30,106.6667,10.8167,80.6,73.4,78.76,120,9,0,29.74,M,6.21,M,FEW,M,M,M,2000,M,M,M,M,M,M,M,M,M,M,85.32,VVTS 091630Z 12009KT 9999 FEW020 27/23 Q1007 NOSIG,M
VVTS,3/9/2012 17:00,106.6667,10.8167,80.6,73.4,78.76,130,7,0,29.74,M,6.21,M,FEW,M,M,M,2000,M,M,M,M,M,M,M,M,M,M,85.32,VVTS 091700Z 13007KT 110V170 9999 FEW020 27/23 Q1007 NOSIG,M
VVTS,3/9/2012 17:30,106.6667,10.8167,80.6,73.4,78.76,140,10,0,29.74,M,6.21,M,FEW,M,M,M,2000,M,M,M,M,M,M,M,M,M,M,85.32,VVTS 091730Z 14010KT 9999 FEW020 27/23 Q1007 NOSIG,M
VVTS,3/9/2012 18:00,106.6667,10.8167,80.6,73.4,78.76,130,8,0,29.71,M,6.21,M,FEW,M,M,M,2000,M,M,M,M,M,M,M,M,M,M,85.32,VVTS 091800Z 13008KT 9999 FEW020 27/23 Q1006 NOSIG,M
VVTS,3/9/2012 18:30,106.6667,10.8167,78.8,73.4,83.55,120,9,0,29.71,M,6.21,M,FEW,M,M,M,2000,M,M,M,M,M,M,M,M,M,M,82.03,VVTS 091830Z 12009KT 9999 FEW020 26/23 Q1006 NOSIG,M
VVTS,3/9/2012 19:00,106.6667,10.8167,78.8,75.2,88.75,130,8,0,29.71,M,6.21,M,FEW,M,M,M,2000,M,M,M,M,M,M,M,M,M,M,82.38,VVTS 091900Z 13008KT 9999 FEW020 26/24 Q1006 NOSIG,M
VVTS,3/9/2012 19:30,106.6667,10.8167,78.8,75.2,88.75,140,10,0,29.71,M,6.21,M,FEW,M,M,M,2000,M,M,M,M,M,M,M,M,M,M,82.38,VVTS 091930Z 14010KT 9999 FEW020 26/24 Q1006 NOSIG,M
VVTS,3/9/2012 20:00,106.6667,10.8167,78.8,75.2,88.75,140,12,0,29.68,M,6.21,M,FEW,M,M,M,2000,M,M,M,M,M,M,M,M,M,M,82.38,VVTS 092000Z 14012KT 9999 FEW020 26/24 Q1005 NOSIG,M
VVTS,3/9/2012 20:30,106.6667,10.8167,78.8,75.2,88.75,130,8,0,29.68,M,6.21,M,FEW,M,M,M,2000,M,M,M,M,M,M,M,M,M,M,82.38,VVTS 092030Z 13008KT 9999 FEW020 26/24 Q1005 NOSIG,M
VVTS,3/9/2012 21:00,106.6667,10.8167,78.8,73.4,83.55,130,11,0,29.68,M,6.21,M,FEW,M,M,M,2000,M,M,M,M,M,M,M,M,M,M,82.03,VVTS 092100Z 13011KT 9999 FEW020 26/23 Q1005 NOSIG,M
VVTS,3/9/2012 21:30,106.6667,10.8167,78.8,73.4,83.55,120,9,0,29.71,M,6.21,M,FEW,M,M,M,2000,M,M,M,M,M,M,M,M,M,M,82.03,VVTS 092130Z 12009KT 9999 FEW020 26/23 Q1006 NOSIG,M
VVTS,3/9/2012 22:00,106.6667,10.8167,78.8,73.4,83.55,120,8,0,29.71,M,6.21,M,FEW,M,M,M,2000,M,M,M,M,M,M,M,M,M,M,82.03,VVTS 092200Z 12008KT 9999 FEW020 26/23 Q1006 NOSIG,M
VVTS,3/9/2012 22:30,106.6667,10.8167,78.8,73.4,83.55,120,6,0,29.71,M,6.21,M,FEW,M,M,M,2000,M,M,M,M,M,M,M,M,M,M,82.03,VVTS 092230Z 12006KT 9999 FEW020 26/23 Q1006 NOSIG,M
VVTS,3/9/2012 23:00,106.6667,10.8167,78.8,73.4,83.55,120,7,0,29.74,M,6.21,M,FEW,M,M,M,2000,M,M,M,M,M,M,M,M,M,M,82.03,VVTS 092300Z 12007KT 9999 FEW020 26/23 Q1007 NOSIG,M
VVTS,3/9/2012 23:30,106.6667,10.8167,78.8,71.6,78.62,120,7,0,29.74,M,6.21,M,FEW,SCT,M,M,2000,4000,M,M,M,M,M,M,M,M,M,81.7,VVTS 092330Z 12007KT 9999 FEW020 SCT040 26/22 Q1007 NOSIG,M
VVTS,3/10/2012 0:00,106.6667,10.8167,80.6,71.6,74.11,120,9,0,29.74,M,6.21,M,FEW,M,M,M,2000,M,M,M,M,M,M,M,M,M,M,84.57,VVTS 100000Z 12009KT 9999 FEW020 27/22 Q1007 NOSIG,M
VVTS,3/10/2012 0:30,106.6667,10.8167,82.4,71.6,69.9,110,12,0,29.74,M,6.21,M,FEW,M,M,M,2000,M,M,M,M,M,M,M,M,M,M,87.18,VVTS 100030Z 11012KT 9999 FEW020 28/22 Q1007 NOSIG,M
VVTS,3/10/2012 1:00,106.6667,10.8167,84.2,69.8,62.03,90,14,0,29.77,M,6.21,M,FEW,M,M,M,2000,M,M,M,M,M,M,M,M,M,M,88.43,VVTS 100100Z 09014KT 9999 FEW020 29/21 Q1008 NOSIG,M
VVTS,3/10/2012 1:30,106.6667,10.8167,86,69.8,58.55,100,14,0,29.77,M,6.21,M,FEW,M,M,M,2000,M,M,M,M,M,M,M,M,M,M,90.58,VVTS 100130Z 10014KT 9999 FEW020 30/21 Q1008 NOSIG,M
VVTS,3/10/2012 2:00,106.6667,10.8167,87.8,69.8,55.29,100,16,0,29.77,M,6.21,M,FEW,M,M,M,2000,M,M,M,M,M,M,M,M,M,M,92.71,VVTS 100200Z 10016KT 9999 FEW020 31/21 Q1008 NOSIG,M
VVTS,3/10/2012 2:30,106.6667,10.8167,89.6,69.8,52.23,110,10,0,29.8,M,6.21,M,FEW,M,M,M,2000,M,M,M,M,M,M,M,M,M,M,94.85,VVTS 100230Z 11010KT 9999 FEW020 32/21 Q1009 NOSIG,M
VVTS,3/10/2012 3:00,106.6667,10.8167,89.6,69.8,52.23,100,10,0,29.8,M,6.21,M,FEW,M,M,M,2000,M,M,M,M,M,M,M,M,M,M,94.85,VVTS 100300Z 10010KT 040V140 9999 FEW020 32/21 Q1009 NOSIG,M
VVTS,3/10/2012 3:30,106.6667,10.8167,91.4,69.8,49.36,90,13,0,29.8,M,6.21,M,SCT,M,M,M,2000,M,M,M,M,M,M,M,M,M,M,96.99,VVTS 100330Z 09013KT 9999 SCT020 33/21 Q1009 NOSIG,M
VVTS,3/10/2012 4:00,106.6667,10.8167,91.4,66.2,43.61,90,12,0,29.77,M,6.21,M,SCT,M,M,M,2000,M,M,M,M,M,M,M,M,M,M,94.29,VVTS 100400Z 09012KT 9999 SCT020 33/19 Q1008 NOSIG,M
VVTS,3/10/2012 4:30,106.6667,10.8167,93.2,66.2,41.23,90,10,0,29.77,M,6.21,M,SCT,M,M,M,2000,M,M,M,M,M,M,M,M,M,M,96.35,VVTS 100430Z 09010KT 9999 SCT020 34/19 Q1008 NOSIG,M
VVTS,3/10/2012 5:00,106.6667,10.8167,93.2,66.2,41.23,90,10,0,29.74,M,6.21,M,SCT,M,M,M,2000,M,M,M,M,M,M,M,M,M,M,96.35,VVTS 100500Z 09010KT 9999 SCT020 34/19 Q1007 NOSIG,M
VVTS,3/10/2012 5:30,106.6667,10.8167,96.8,66.2,36.9,110,12,0,29.74,M,6.21,M,SCT,M,M,M,2000,M,M,M,M,M,M,M,M,M,M,100.6,VVTS 100530Z 11012KT 070V140 9999 SCT020 36/19 Q1007 NOSIG,M
VVTS,3/10/2012 6:00,106.6667,10.8167,95,64.4,36.63,110,9,0,29.71,M,6.21,M,SCT,M,M,M,2000,M,M,M,M,M,M,M,M,M,M,97.26,VVTS 100600Z 11009KT 080V150 9999 SCT020 35/18 Q1006 NOSIG,M
VVTS,3/10/2012 6:30,106.6667,10.8167,95,64.4,36.63,100,6,0,29.71,M,6.21,M,SCT,M,M,M,1700,M,M,M,M,M,M,M,M,M,M,97.26,VVTS 100630Z 10006KT 040V190 9999 SCT017 35/18 Q1006 NOSIG,M
VVTS,3/10/2012 7:00,106.6667,10.8167,91.4,69.8,49.36,180,13,0,29.71,M,6.21,M,SCT,M,M,M,1700,M,M,M,M,M,M,M,M,M,M,96.99,VVTS 100700Z 18013KT 9999 SCT017 33/21 Q1006 NOSIG,M
VVTS,3/10/2012 7:30,106.6667,10.8167,93.2,71.6,49.62,180,11,0,29.68,M,6.21,M,SCT,M,M,M,1700,M,M,M,M,M,M,M,M,M,M,100.88,VVTS 100730Z 18011KT 9999 SCT017 34/22 Q1005 NOSIG,M
VVTS,3/10/2012 8:00,106.6667,10.8167,91.4,71.6,52.48,160,10,0,29.68,M,6.21,M,SCT,M,M,M,1700,M,M,M,M,M,M,M,M,M,M,98.64,VVTS 100800Z 16010KT 9999 SCT017 33/22 Q1005 NOSIG,M
VVTS,3/10/2012 8:30,106.6667,10.8167,89.6,69.8,52.23,160,9,0,29.68,M,6.21,M,FEW,SCT,M,M,1500,1700,M,M,M,M,M,M,M,M,M,94.85,VVTS 100830Z 16009KT 110V200 9999 FEW015TCU SCT017 32/21 Q1005 NOSIG,M
VVTS,3/10/2012 9:00,106.6667,10.8167,91.4,71.6,52.48,150,8,0,29.68,M,6.21,M,FEW,SCT,M,M,1500,1700,M,M,#NAME?,M,M,M,M,M,M,98.64,VVTS 100900Z 15008KT 120V190 9999 -SHRA FEW015CB SCT017 33/22 Q1005 TEMPO FM0900 TL0920 5000 TSRA,M
VVTS,3/10/2012 9:30,106.6667,10.8167,82.4,75.2,78.9,110,7,0,29.71,M,2.49,M,SCT,SCT,M,M,1500,1700,M,M,#NAME?,M,M,M,M,M,M,89.48,VVTS 100930Z 11007KT 070V140 4000 R25R/1400N -SHRA SCT015 SCT017CB 28/24 Q1006 TEMPO TL0930 5000 SHRA,M
VVTS,3/10/2012 10:30,106.6667,10.8167,84.2,73.4,70.08,150,9,0,29.68,M,6.21,M,FEW,SCT,M,M,1700,4000,M,M,M,M,M,M,M,M,M,90.94,VVTS 101030Z 15009KT 130V200 9999 FEW017 SCT040 29/23 Q1005 NOSIG,M
VVTS,3/10/2012 11:00,106.6667,10.8167,84.2,66.2,54.8,130,10,0,29.68,M,6.21,M,FEW,SCT,M,M,1700,4000,M,M,M,M,M,M,M,M,M,86.5,VVTS 101100Z 13010KT 9999 FEW017 SCT040 29/19 Q1005 NOSIG,M
VVTS,3/10/2012 11:30,106.6667,10.8167,84.2,66.2,54.8,130,9,0,29.68,M,6.21,M,FEW,SCT,M,M,1700,4000,M,M,M,M,M,M,M,M,M,86.5,VVTS 101130Z 13009KT 9999 FEW017 SCT040 29/19 Q1005 NOSIG,M
VVTS,3/10/2012 12:00,106.6667,10.8167,84.2,66.2,54.8,130,9,0,29.71,M,6.21,M,FEW,SCT,M,M,1700,4000,M,M,M,M,M,M,M,M,M,86.5,VVTS 101200Z 13009KT 9999 FEW017 SCT040 29/19 Q1006 NOSIG,M
VVTS,3/10/2012 12:30,106.6667,10.8167,82.4,66.2,58.08,130,10,0,29.71,M,6.21,M,FEW,SCT,M,M,1700,4000,M,M,M,M,M,M,M,M,M,84.63,VVTS 101230Z 13010KT 9999 FEW017 SCT040 28/19 Q1006 NOSIG,M
VVTS,3/10/2012 13:00,106.6667,10.8167,82.4,68,61.81,120,8,0,29.71,M,6.21,M,FEW,SCT,M,M,1700,4000,M,M,M,M,M,M,M,M,M,85.38,VVTS 101300Z 12008KT 100V180 9999 FEW017 SCT040 28/20 Q1006 NOSIG,M
VVTS,3/10/2012 13:30,106.6667,10.8167,82.4,68,61.81,130,6,0,29.74,M,6.21,M,FEW,SCT,M,M,1700,4000,M,M,M,M,M,M,M,M,M,85.38,VVTS 101330Z 13006KT 9999 FEW017 SCT040 28/20 Q1007 NOSIG,M
VVTS,3/10/2012 14:00,106.6667,10.8167,82.4,68,61.81,120,6,0,29.74,M,6.21,M,FEW,SCT,M,M,1700,4000,M,M,M,M,M,M,M,M,M,85.38,VVTS 101400Z 12006KT 100V180 9999 FEW017 SCT040 28/20 Q1007 NOSIG,M
VVTS,3/10/2012 14:30,106.6667,10.8167,82.4,68,61.81,110,7,0,29.74,M,6.21,M,FEW,SCT,M,M,1700,4000,M,M,M,M,M,M,M,M,M,85.38,VVTS 101430Z 11007KT 9999 FEW017 SCT040 28/20 Q1007 NOSIG,M
VVTS,3/10/2012 15:00,106.6667,10.8167,82.4,68,61.81,100,7,0,29.77,M,6.21,M,FEW,SCT,M,M,1700,4000,M,M,M,M,M,M,M,M,M,85.38,VVTS 101500Z 10007KT 9999 FEW017 SCT040 28/20 Q1008 NOSIG,M
VVTS,3/10/2012 15:30,106.6667,10.8167,80.6,68,65.54,100,7,0,29.77,M,6.21,M,FEW,SCT,M,M,1700,4000,M,M,M,M,M,M,M,M,M,83.29,VVTS 101530Z 10007KT 9999 FEW017 SCT040 27/20 Q1008 NOSIG,M
VVTS,3/10/2012 16:00,106.6667,10.8167,80.6,68,65.54,110,14,0,29.77,M,6.21,M,FEW,SCT,M,M,1700,4000,M,M,M,M,M,M,M,M,M,83.29,VVTS 101600Z 11014KT 9999 FEW017 SCT040 27/20 Q1008 NOSIG,M
VVTS,3/10/2012 16:30,106.6667,10.8167,80.6,68,65.54,100,11,0,29.77,M,6.21,M,FEW,SCT,M,M,1700,4000,M,M,M,M,M,M,M,M,M,83.29,VVTS 101630Z 10011KT 9999 FEW017 SCT040 27/20 Q1008 NOSIG,M
VVTS,3/10/2012 17:00,106.6667,10.8167,80.6,66.2,61.58,100,10,0,29.77,M,6.21,M,FEW,SCT,M,M,1700,4000,M,M,M,M,M,M,M,M,M,82.75,VVTS 101700Z 10010KT 9999 FEW017 SCT040 27/19 Q1008 NOSIG,M
VVTS,3/10/2012 17:30,106.6667,10.8167,80.6,68,65.54,90,10,0,29.77,M,6.21,M,FEW,SCT,M,M,1700,4000,M,M,M,M,M,M,M,M,M,83.29,VVTS 101730Z 09010KT 9999 FEW017 SCT040 27/20 Q1008 NOSIG,M
VVTS,3/10/2012 18:00,106.6667,10.8167,78.8,68,69.52,70,6,0,29.77,M,6.21,M,FEW,SCT,M,M,1700,4000,M,M,M,M,M,M,M,M,M,81.1,VVTS 101800Z 07006KT 9999 FEW017 SCT040 26/20 Q1008 NOSIG,M
VVTS,3/10/2012 18:30,106.6667,10.8167,77,69.8,78.48,70,5,0,29.77,M,6.21,M,FEW,SCT,M,M,1700,4000,M,M,M,M,M,M,M,M,M,78.09,VVTS 101830Z 07005KT 9999 FEW017 SCT040 25/21 Q1008 NOSIG,M
VVTS,3/10/2012 19:00,106.6667,10.8167,75.2,69.8,83.32,40,3,0,29.77,M,6.21,M,FEW,SCT,M,M,1700,4000,M,M,M,M,M,M,M,M,M,76.34,VVTS 101900Z 04003KT 9999 FEW017 SCT040 24/21 Q1008 NOSIG,M
VVTS,3/10/2012 19:30,106.6667,10.8167,77,69.8,78.48,60,2,0,29.77,M,6.21,M,FEW,SCT,M,M,1700,4000,M,M,M,M,M,M,M,M,M,78.09,VVTS 101930Z 06002KT 9999 FEW017 SCT040 25/21 Q1008 NOSIG,M
VVTS,3/10/2012 20:00,106.6667,10.8167,75.2,69.8,83.32,90,4,0,29.77,M,6.21,M,FEW,SCT,M,M,1700,4000,M,M,M,M,M,M,M,M,M,76.34,VVTS 102000Z 09004KT 9999 FEW017 SCT040 24/21 Q1008 NOSIG,M
VVTS,3/10/2012 20:30,106.6667,10.8167,75.2,69.8,83.32,80,4,0,29.77,M,6.21,M,FEW,SCT,M,M,1700,4000,M,M,M,M,M,M,M,M,M,76.34,VVTS 102030Z 08004KT 9999 FEW017 SCT040 24/21 Q1008 NOSIG,M
VVTS,3/10/2012 21:30,106.6667,10.8167,75.2,69.8,83.32,360,1,0,29.77,M,6.21,M,FEW,SCT,M,M,1700,4000,M,M,M,M,M,M,M,M,M,76.34,VVTS 102130Z 36001KT 9999 FEW017 SCT040 24/21 Q1008 NOSIG,M
VVTS,3/10/2012 22:00,106.6667,10.8167,73.4,69.8,88.51,60,1,0,29.77,M,6.21,M,FEW,SCT,M,M,1700,4000,M,M,M,M,M,M,M,M,M,74.6,VVTS 102200Z 06001KT 9999 FEW017 SCT040 23/21 Q1008 NOSIG,M
VVTS,3/10/2012 22:30,106.6667,10.8167,73.4,69.8,88.51,M,1,0,29.8,M,6.21,M,FEW,SCT,M,M,1700,4000,M,M,M,M,M,M,M,M,M,74.6,VVTS 102230Z VRB01KT 9999 FEW017 SCT040 23/21 Q1009 NOSIG,M
VVTS,3/10/2012 23:30,106.6667,10.8167,73.4,69.8,88.51,70,1,0,29.8,M,6.21,M,FEW,M,M,M,1700,M,M,M,M,M,M,M,M,M,M,74.6,VVTS 102330Z 07001KT 9999 FEW017 23/21 Q1009 NOSIG,M
VVTS,3/11/2012 0:00,106.6667,10.8167,75.2,73.4,94.14,M,1,0,29.83,M,4.97,M,FEW,M,M,M,1700,M,M,M,M,M,M,M,M,M,M,76.84,VVTS 110000Z VRB01KT 8000 FEW017 24/23 Q1010 NOSIG,M
VVTS,3/11/2012 0:30,106.6667,10.8167,80.6,71.6,74.11,70,5,0,29.83,M,6.21,M,FEW,M,M,M,2000,M,M,M,M,M,M,M,M,M,M,84.57,VVTS 110030Z 07005KT 9999 FEW020 27/22 Q1010 NOSIG,M
VVTS,3/11/2012 1:00,106.6667,10.8167,82.4,69.8,65.74,M,2,0,29.83,M,5.59,M,FEW,M,M,M,2000,M,M,M,M,M,M,M,M,M,M,86.22,VVTS 110100Z VRB02KT 9000 FEW020 28/21 Q1010 NOSIG,M
VVTS,3/11/2012 1:30,106.6667,10.8167,84.2,69.8,62.03,60,5,0,29.83,M,6.21,M,FEW,M,M,M,2000,M,M,M,M,M,M,M,M,M,M,88.43,VVTS 110130Z 06005KT 030V090 9999 FEW020 29/21 Q1010 NOSIG,M
VVTS,3/11/2012 2:00,106.6667,10.8167,86,69.8,58.55,60,5,0,29.83,M,6.21,M,FEW,M,M,M,2000,M,M,M,M,M,M,M,M,M,M,90.58,VVTS 110200Z 06005KT 010V090 9999 FEW020 30/21 Q1010 NOSIG,M
VVTS,3/11/2012 2:30,106.6667,10.8167,87.8,69.8,55.29,50,7,0,29.83,M,6.21,M,FEW,M,M,M,2000,M,M,M,M,M,M,M,M,M,M,92.71,VVTS 110230Z 05007KT 020V100 9999 FEW020 31/21 Q1010 NOSIG,M
VVTS,3/11/2012 3:00,106.6667,10.8167,89.6,69.8,52.23,60,5,0,29.83,M,6.21,M,FEW,M,M,M,2000,M,M,M,M,M,M,M,M,M,M,94.85,VVTS 110300Z 06005KT 020V110 9999 FEW020 32/21 Q1010 NOSIG,M
VVTS,3/11/2012 3:30,106.6667,10.8167,89.6,68,49.1,90,10,0,29.83,M,6.21,M,FEW,M,M,M,2000,M,M,M,M,M,M,M,M,M,M,93.47,VVTS 110330Z 09010KT 040V120 9999 FEW020 32/20 Q1010 NOSIG,M
VVTS,3/11/2012 4:00,106.6667,10.8167,91.4,68,46.41,110,14,0,29.8,M,6.21,M,FEW,M,M,M,2000,M,M,M,M,M,M,M,M,M,M,95.55,VVTS 110400Z 11014KT 9999 FEW020 33/20 Q1009 NOSIG,M
VVTS,3/11/2012 4:30,106.6667,10.8167,91.4,68,46.41,100,8,0,29.8,M,6.21,M,SCT,M,M,M,2000,M,M,M,M,M,M,M,M,M,M,95.55,VVTS 110430Z 10008KT 020V130 9999 SCT020 33/20 Q1009 NOSIG,M
VVTS,3/11/2012 5:00,106.6667,10.8167,93.2,66.2,41.23,100,9,0,29.77,M,6.21,M,SCT,M,M,M,2000,M,M,M,M,M,M,M,M,M,M,96.35,VVTS 110500Z 10009KT 050V140 9999 SCT020 34/19 Q1008 NOSIG,M
VVTS,3/11/2012 5:30,106.6667,10.8167,95,66.2,39,100,9,0,29.77,M,6.21,M,SCT,M,M,M,2000,M,M,M,M,M,M,M,M,M,M,98.46,VVTS 110530Z 10009KT 060V150 9999 SCT020 35/19 Q1008 NOSIG,M
VVTS,3/11/2012 6:00,106.6667,10.8167,93.2,64.4,38.73,80,8,0,29.74,M,6.21,M,SCT,M,M,M,2000,M,M,M,M,M,M,M,M,M,M,95.2,VVTS 110600Z 08008KT 340V130 9999 SCT020 34/18 Q1007 NOSIG,M
VVTS,3/11/2012 6:30,106.6667,10.8167,96.8,66.2,36.9,100,13,0,29.74,M,6.21,52,SCT,M,M,M,2000,M,M,M,M,M,M,M,M,M,M,100.6,VVTS 110630Z 10013G52KT 050V280 9999 SCT020 36/19 Q1007 NOSIG,M
VVTS,3/11/2012 7:30,106.6667,10.8167,96.8,64.4,34.66,60,9,0,29.71,M,6.21,M,SCT,M,M,M,2000,M,M,M,M,M,M,M,M,M,M,99.37,VVTS 110730Z 06009KT 360V080 9999 SCT020 36/18 Q1006 NOSIG,M
VVTS,3/11/2012 8:00,106.6667,10.8167,93.2,69.8,46.67,170,11,0,29.71,M,6.21,M,SCT,M,M,M,2000,M,M,M,M,M,M,M,M,M,M,99.17,VVTS 110800Z 17011KT 9999 SCT020 34/21 Q1006 NOSIG,M
VVTS,3/11/2012 8:30,106.6667,10.8167,93.2,69.8,46.67,160,11,0,29.71,M,6.21,M,SCT,M,M,M,2000,M,M,M,M,M,M,M,M,M,M,99.17,VVTS 110830Z 16011KT 9999 SCT020 34/21 Q1006 NOSIG,M
VVTS,3/11/2012 9:00,106.6667,10.8167,93.2,71.6,49.62,150,9,0,29.71,M,6.21,M,SCT,M,M,M,2000,M,M,M,M,M,M,M,M,M,M,100.88,VVTS 110900Z 15009KT 120V190 9999 SCT020 34/22 Q1006 NOSIG,M
VVTS,3/11/2012 9:30,106.6667,10.8167,91.4,71.6,52.48,160,9,0,29.71,M,6.21,M,SCT,M,M,M,2000,M,M,M,M,M,M,M,M,M,M,98.64,VVTS 110930Z 16009KT 9999 SCT020 33/22 Q1006 NOSIG,M
VVTS,3/11/2012 10:00,106.6667,10.8167,89.6,69.8,52.23,180,9,0,29.71,M,6.21,M,FEW,M,M,M,2000,M,M,M,M,M,M,M,M,M,M,94.85,VVTS 111000Z 18009KT 130V210 9999 FEW020 32/21 Q1006 NOSIG,M
VVTS,3/11/2012 10:30,106.6667,10.8167,89.6,69.8,52.23,140,10,0,29.71,M,6.21,M,FEW,M,M,M,2000,M,M,M,M,M,M,M,M,M,M,94.85,VVTS 111030Z 14010KT 100V160 9999 FEW020 32/21 Q1006 NOSIG,M
VVTS,3/11/2012 11:00,106.6667,10.8167,87.8,71.6,58.78,130,10,0,29.71,M,6.21,M,FEW,M,M,M,2000,M,M,M,M,M,M,M,M,M,M,94.18,VVTS 111100Z 13010KT 100V180 9999 FEW020 31/22 Q1006 NOSIG,M
VVTS,3/11/2012 11:30,106.6667,10.8167,86,69.8,58.55,130,9,0,29.71,M,6.21,M,FEW,M,M,M,2000,M,M,M,M,M,M,M,M,M,M,90.58,VVTS 111130Z 13009KT 9999 FEW020 30/21 Q1006 NOSIG,M
VVTS,3/11/2012 12:00,106.6667,10.8167,84.2,69.8,62.03,130,10,0,29.74,M,6.21,M,FEW,M,M,M,2000,M,M,M,M,M,M,M,M,M,M,88.43,VVTS 111200Z 13010KT 100V170 9999 FEW020 29/21 Q1007 NOSIG,M
VVTS,3/11/2012 12:30,106.6667,10.8167,84.2,69.8,62.03,120,11,0,29.74,M,6.21,M,FEW,M,M,M,2000,M,M,M,M,M,M,M,M,M,M,88.43,VVTS 111230Z 12011KT 100V160 9999 FEW020 29/21 Q1007 NOSIG,M
VVTS,3/11/2012 13:00,106.6667,10.8167,84.2,69.8,62.03,110,10,0,29.74,M,6.21,M,FEW,M,M,M,2000,M,M,M,M,M,M,M,M,M,M,88.43,VVTS 111300Z 11010KT 080V170 9999 FEW020 29/21 Q1007 NOSIG,M
VVTS,3/11/2012 13:30,106.6667,10.8167,84.2,69.8,62.03,130,9,0,29.77,M,6.21,M,FEW,M,M,M,2000,M,M,M,M,M,M,M,M,M,M,88.43,VVTS 111330Z 13009KT 9999 FEW020 29/21 Q1008 NOSIG,M
VVTS,3/11/2012 14:00,106.6667,10.8167,82.4,69.8,65.74,130,8,0,29.77,M,6.21,M,FEW,M,M,M,2000,M,M,M,M,M,M,M,M,M,M,86.22,VVTS 111400Z 13008KT 9999 FEW020 28/21 Q1008 NOSIG,M
VVTS,3/11/2012 14:30,106.6667,10.8167,82.4,69.8,65.74,120,9,0,29.8,M,6.21,M,FEW,M,M,M,2000,M,M,M,M,M,M,M,M,M,M,86.22,VVTS 111430Z 12009KT 9999 FEW020 28/21 Q1009 NOSIG,M
VVTS,3/11/2012 15:00,106.6667,10.8167,82.4,69.8,65.74,110,8,0,29.8,M,6.21,M,FEW,M,M,M,2000,M,M,M,M,M,M,M,M,M,M,86.22,VVTS 111500Z 11008KT 9999 FEW020 28/21 Q1009 NOSIG,M
VVTS,3/11/2012 15:30,106.6667,10.8167,82.4,69.8,65.74,100,8,0,29.8,M,6.21,M,FEW,M,M,M,2000,M,M,M,M,M,M,M,M,M,M,86.22,VVTS 111530Z 10008KT 9999 FEW020 28/21 Q1009 NOSIG,M
VVTS,3/11/2012 16:00,106.6667,10.8167,82.4,69.8,65.74,110,10,0,29.8,M,6.21,M,FEW,M,M,M,2000,M,M,M,M,M,M,M,M,M,M,86.22,VVTS 111600Z 11010KT 9999 FEW020 28/21 Q1009 NOSIG,M
VVTS,3/11/2012 16:30,106.6667,10.8167,82.4,69.8,65.74,110,8,0,29.8,M,6.21,M,FEW,M,M,M,2000,M,M,M,M,M,M,M,M,M,M,86.22,VVTS 111630Z 11008KT 9999 FEW020 28/21 Q1009 NOSIG,M
VVTS,3/11/2012 17:00,106.6667,10.8167,82.4,68,61.81,110,4,0,29.8,M,6.21,M,FEW,M,M,M,2000,M,M,M,M,M,M,M,M,M,M,85.38,VVTS 111700Z 11004KT 9999 FEW020 28/20 Q1009 NOSIG,M
VVTS,3/11/2012 17:30,106.6667,10.8167,82.4,68,61.81,90,6,0,29.8,M,6.21,M,FEW,SCT,M,M,1700,4000,M,M,M,M,M,M,M,M,M,85.38,VVTS 111730Z 09006KT 9999 FEW017 SCT040 28/20 Q1009 NOSIG,M
VVTS,3/11/2012 18:00,106.6667,10.8167,80.6,69.8,69.71,70,5,0,29.8,M,6.21,M,FEW,SCT,M,M,1700,4000,M,M,M,M,M,M,M,M,M,83.9,VVTS 111800Z 07005KT 9999 FEW017 SCT040 27/21 Q1009 NOSIG,M
VVTS,3/11/2012 18:30,106.6667,10.8167,80.6,68,65.54,80,7,0,29.8,M,6.21,M,FEW,SCT,M,M,1700,4000,M,M,M,M,M,M,M,M,M,83.29,VVTS 111830Z 08007KT 9999 FEW017 SCT040 27/20 Q1009 NOSIG,M
VVTS,3/11/2012 19:00,106.6667,10.8167,82.4,66.2,58.08,70,7,0,29.8,M,6.21,M,FEW,SCT,M,M,1700,4000,M,M,M,M,M,M,M,M,M,84.63,VVTS 111900Z 07007KT 9999 FEW017 SCT040 28/19 Q1009 NOSIG,M
VVTS,3/11/2012 19:30,106.6667,10.8167,80.6,66.2,61.58,80,5,0,29.8,M,6.21,M,FEW,SCT,M,M,1700,4000,M,M,M,M,M,M,M,M,M,82.75,VVTS 111930Z 08005KT 9999 FEW017 SCT040 27/19 Q1009 NOSIG,M
VVTS,3/11/2012 20:00,106.6667,10.8167,78.8,66.2,65.33,50,4,0,29.8,M,6.21,M,FEW,SCT,M,M,1700,4000,M,M,M,M,M,M,M,M,M,80.82,VVTS 112000Z 05004KT 9999 FEW017 SCT040 26/19 Q1009 NOSIG,M
VVTS,3/11/2012 20:30,106.6667,10.8167,78.8,68,69.52,60,2,0,29.8,M,6.21,M,FEW,SCT,M,M,1700,4000,M,M,M,M,M,M,M,M,M,81.1,VVTS 112030Z 06002KT 9999 FEW017 SCT040 26/20 Q1009 NOSIG,M
VVTS,3/11/2012 21:00,106.6667,10.8167,78.8,68,69.52,40,1,0,29.8,M,6.21,M,FEW,SCT,M,M,1700,4000,M,M,M,M,M,M,M,M,M,81.1,VVTS 112100Z 04001KT 9999 FEW017 SCT040 26/20 Q1009 NOSIG,M
VVTS,3/11/2012 21:30,106.6667,10.8167,78.8,66.2,65.33,60,3,0,29.8,M,6.21,M,FEW,SCT,M,M,1700,4000,M,M,M,M,M,M,M,M,M,80.82,VVTS 112130Z 06003KT 9999 FEW017 SCT040 26/19 Q1009 NOSIG,M
VVTS,3/11/2012 22:00,106.6667,10.8167,78.8,66.2,65.33,50,2,0,29.83,M,6.21,M,FEW,SCT,M,M,1700,4000,M,M,M,M,M,M,M,M,M,80.82,VVTS 112200Z 05002KT 9999 FEW017 SCT040 26/19 Q1010 NOSIG,M
VVTS,3/11/2012 22:30,106.6667,10.8167,78.8,66.2,65.33,20,2,0,29.83,M,6.21,M,FEW,SCT,M,M,1700,4000,M,M,M,M,M,M,M,M,M,80.82,VVTS 112230Z 02002KT 9999 FEW017 SCT040 26/19 Q1010 NOSIG,M
VVTS,3/11/2012 23:30,106.6667,10.8167,78.8,73.4,83.55,300,4,0,29.85,M,6.21,M,SCT,SCT,M,M,1700,4000,M,M,M,M,M,M,M,M,M,82.03,VVTS 112330Z 30004KT 9999 SCT017 SCT040 26/23 Q1011 NOSIG,M
VVTS,3/12/2012 0:00,106.6667,10.8167,78.8,73.4,83.55,320,4,0,29.85,M,6.21,M,FEW,M,M,M,1700,M,M,M,M,M,M,M,M,M,M,82.03,VVTS 120000Z 32004KT 9999 FEW017 26/23 Q1011 NOSIG,M
VVTS,3/12/2012 0:30,106.6667,10.8167,80.6,73.4,78.76,290,1,0,29.85,M,6.21,M,FEW,M,M,M,1700,M,M,M,M,M,M,M,M,M,M,85.32,VVTS 120030Z 29001KT 9999 FEW017 27/23 Q1011 NOSIG,M
VVTS,3/12/2012 1:00,106.6667,10.8167,82.4,73.4,74.28,M,2,0,29.88,M,6.21,M,FEW,M,M,M,1700,M,M,M,M,M,M,M,M,M,M,88.26,VVTS 120100Z VRB02KT 9999 FEW017 28/23 Q1012 NOSIG,M
VVTS,3/12/2012 1:30,106.6667,10.8167,84.2,73.4,70.08,M,1,0,29.88,M,6.21,M,FEW,M,M,M,2000,M,M,M,M,M,M,M,M,M,M,90.94,VVTS 120130Z VRB01KT 9999 FEW020 29/23 Q1012 NOSIG,M
VVTS,3/12/2012 2:00,106.6667,10.8167,86,71.6,62.25,M,1,0,29.88,M,6.21,M,FEW,M,M,M,2000,M,M,M,M,M,M,M,M,M,M,91.92,VVTS 120200Z VRB01KT 9999 FEW020 30/22 Q1012 NOSIG,M
VVTS,3/12/2012 2:30,106.6667,10.8167,87.8,71.6,58.78,M,2,0,29.88,M,6.21,M,FEW,M,M,M,2000,M,M,M,M,M,M,M,M,M,M,94.18,VVTS 120230Z VRB02KT 9999 FEW020 31/22 Q1012 NOSIG,M
VVTS,3/12/2012 3:00,106.6667,10.8167,89.6,66.2,46.14,M,3,0,29.88,M,6.21,M,FEW,M,M,M,2000,M,M,M,M,M,M,M,M,M,M,92.27,VVTS 120300Z VRB03KT 9999 FEW020 32/19 Q1012 NOSIG,M
VVTS,3/12/2012 3:30,106.6667,10.8167,91.4,64.4,40.96,60,8,0,29.88,M,6.21,M,FEW,M,M,M,2000,M,M,M,M,M,M,M,M,M,M,93.19,VVTS 120330Z 06008KT 9999 FEW020 33/18 Q1012 NOSIG,M
VVTS,3/12/2012 4:00,106.6667,10.8167,91.4,64.4,40.96,110,7,0,29.88,M,6.21,M,FEW,M,M,M,2000,M,M,M,M,M,M,M,M,M,M,93.19,VVTS 120400Z 11007KT 060V190 9999 FEW020 33/18 Q1012 NOSIG,M
VVTS,3/12/2012 4:30,106.6667,10.8167,91.4,64.4,40.96,60,8,0,29.85,M,6.21,M,FEW,M,M,M,2000,M,M,M,M,M,M,M,M,M,M,93.19,VVTS 120430Z 06008KT 9999 FEW020 33/18 Q1011 NOSIG,M
VVTS,3/12/2012 5:00,106.6667,10.8167,93.2,64.4,38.73,70,5,0,29.85,M,6.21,M,FEW,M,M,M,2000,M,M,M,M,M,M,M,M,M,M,95.2,VVTS 120500Z 07005KT 330V140 9999 FEW020 34/18 Q1011 NOSIG,M
VVTS,3/12/2012 5:30,106.6667,10.8167,93.2,64.4,38.73,90,6,0,29.83,M,6.21,21,SCT,M,M,M,2000,M,M,M,M,M,M,M,M,M,M,95.2,VVTS 120530Z 09006G21KT 350V140 9999 SCT020 34/18 Q1010 NOSIG,M
VVTS,3/12/2012 6:00,106.6667,10.8167,96.8,64.4,34.66,110,10,0,29.83,M,6.21,M,SCT,M,M,M,2000,M,M,M,M,M,M,M,M,M,M,99.37,VVTS 120600Z 11010KT 9999 SCT020 36/18 Q1010 NOSIG,M
VVTS,3/12/2012 6:30,106.6667,10.8167,95,62.6,34.39,90,7,0,29.8,M,6.21,M,SCT,M,M,M,2000,M,M,M,M,M,M,M,M,M,M,96.22,VVTS 120630Z 09007KT 9999 SCT020 35/17 Q1009 NOSIG,M
VVTS,3/12/2012 7:00,106.6667,10.8167,95,66.2,39,90,6,0,29.8,M,6.21,M,BKN,M,M,M,2000,M,M,M,M,M,M,M,M,M,M,98.46,VVTS 120700Z 09006KT 9999 BKN020 35/19 Q1009 NOSIG,M
VVTS,3/12/2012 7:30,106.6667,10.8167,93.2,64.4,38.73,M,2,0,29.77,M,6.21,M,BKN,M,M,M,2000,M,M,M,M,M,M,M,M,M,M,95.2,VVTS 120730Z VRB02KT 9999 BKN020 34/18 Q1008 NOSIG,M
VVTS,3/12/2012 8:00,106.6667,10.8167,93.2,64.4,38.73,360,7,0,29.77,M,6.21,M,BKN,M,M,M,2000,M,M,M,M,M,M,M,M,M,M,95.2,VVTS 120800Z 36007KT 9999 BKN020 34/18 Q1008 NOSIG,M
VVTS,3/12/2012 8:30,106.6667,10.8167,93.2,64.4,38.73,230,4,0,29.77,M,6.21,M,BKN,M,M,M,2000,M,M,M,M,M,M,M,M,M,M,95.2,VVTS 120830Z 23004KT 110V010 9999 BKN020 34/18 Q1008 NOSIG,M
VVTS,3/12/2012 9:00,106.6667,10.8167,93.2,64.4,38.73,220,5,0,29.77,M,6.21,M,BKN,M,M,M,2000,M,M,M,M,M,M,M,M,M,M,95.2,VVTS 120900Z 22005KT 9999 BKN020 34/18 Q1008 NOSIG,M
VVTS,3/12/2012 9:30,106.6667,10.8167,91.4,69.8,49.36,180,10,0,29.77,M,6.21,M,BKN,M,M,M,2000,M,M,M,M,M,M,M,M,M,M,96.99,VVTS 120930Z 18010KT 9999 BKN020 33/21 Q1008 NOSIG,M
VVTS,3/12/2012 10:00,106.6667,10.8167,87.8,69.8,55.29,170,9,0,29.77,M,6.21,M,BKN,M,M,M,2000,M,M,M,M,M,M,M,M,M,M,92.71,VVTS 121000Z 17009KT 9999 BKN020 31/21 Q1008 NOSIG,M
VVTS,3/12/2012 10:30,106.6667,10.8167,87.8,68,51.98,160,7,0,29.8,M,6.21,M,BKN,M,M,M,2000,M,M,M,M,M,M,M,M,M,M,91.43,VVTS 121030Z 16007KT 120V180 9999 BKN020 31/20 Q1009 NOSIG,M
VVTS,3/12/2012 11:00,106.6667,10.8167,87.8,68,51.98,160,5,0,29.8,M,6.21,M,SCT,M,M,M,1700,M,M,M,M,M,M,M,M,M,M,91.43,VVTS 121100Z 16005KT 9999 SCT017 31/20 Q1009 NOSIG,M
VVTS,3/12/2012 11:30,106.6667,10.8167,84.2,69.8,62.03,170,6,0,29.8,M,6.21,M,FEW,SCT,M,M,1700,4000,M,M,M,M,M,M,M,M,M,88.43,VVTS 121130Z 17006KT 9999 FEW017 SCT040 29/21 Q1009 NOSIG,M
VVTS,3/12/2012 12:00,106.6667,10.8167,84.2,69.8,62.03,150,5,0,29.8,M,6.21,M,FEW,SCT,M,M,1700,4000,M,M,M,M,M,M,M,M,M,88.43,VVTS 121200Z 15005KT 9999 FEW017 SCT040 29/21 Q1009 NOSIG,M
VVTS,3/12/2012 12:30,106.6667,10.8167,84.2,68,58.32,150,5,0,29.83,M,6.21,M,FEW,SCT,M,M,1700,4000,M,M,M,M,M,M,M,M,M,87.4,VVTS 121230Z 15005KT 9999 FEW017 SCT040 29/20 Q1010 NOSIG,M
VVTS,3/12/2012 13:00,106.6667,10.8167,84.2,68,58.32,140,4,0,29.83,M,6.21,M,FEW,SCT,M,M,1700,4000,M,M,M,M,M,M,M,M,M,87.4,VVTS 121300Z 14004KT 110V180 9999 FEW017 SCT040 29/20 Q1010 NOSIG,M
VVTS,3/12/2012 13:30,106.6667,10.8167,84.2,66.2,54.8,140,5,0,29.83,M,6.21,M,FEW,SCT,M,M,1700,4000,M,M,M,M,M,M,M,M,M,86.5,VVTS 121330Z 14005KT 9999 FEW017 SCT040 29/19 Q1010 NOSIG,M
VVTS,3/12/2012 14:30,106.6667,10.8167,84.2,66.2,54.8,130,7,0,29.85,M,6.21,M,FEW,SCT,M,M,1700,4000,M,M,M,M,M,M,M,M,M,86.5,VVTS 121430Z 13007KT 9999 FEW017 SCT040 29/19 Q1011 NOSIG,M
VVTS,3/12/2012 15:00,106.6667,10.8167,82.4,66.2,58.08,130,7,0,29.85,M,6.21,M,FEW,SCT,M,M,1700,4000,M,M,M,M,M,M,M,M,M,84.63,VVTS 121500Z 13007KT 9999 FEW017 SCT040 28/19 Q1011 NOSIG,M
VVTS,3/12/2012 15:30,106.6667,10.8167,82.4,68,61.81,140,6,0,29.85,M,6.21,M,FEW,SCT,M,M,1700,4000,M,M,M,M,M,M,M,M,M,85.38,VVTS 121530Z 14006KT 100V180 9999 FEW017 SCT040 28/20 Q1011 NOSIG,M
VVTS,3/12/2012 16:00,106.6667,10.8167,82.4,69.8,65.74,140,4,0,29.85,M,6.21,M,FEW,SCT,M,M,1700,4000,M,M,M,M,M,M,M,M,M,86.22,VVTS 121600Z 14004KT 040V170 9999 FEW017 SCT040 28/21 Q1011 NOSIG,M
VVTS,3/12/2012 16:30,106.6667,10.8167,82.4,68,61.81,120,6,0,29.85,M,6.21,M,FEW,SCT,M,M,1700,4000,M,M,M,M,M,M,M,M,M,85.38,VVTS 121630Z 12006KT 9999 FEW017 SCT040 28/20 Q1011 NOSIG,M
VVTS,3/12/2012 17:00,106.6667,10.8167,82.4,68,61.81,100,7,0,29.85,M,6.21,M,FEW,SCT,M,M,1700,4000,M,M,M,M,M,M,M,M,M,85.38,VVTS 121700Z 10007KT 080V140 9999 FEW017 SCT040 28/20 Q1011 NOSIG,M
VVTS,3/12/2012 17:30,106.6667,10.8167,80.6,69.8,69.71,90,6,0,29.85,M,6.21,M,FEW,SCT,M,M,1700,4000,M,M,M,M,M,M,M,M,M,83.9,VVTS 121730Z 09006KT 060V130 9999 FEW017 SCT040 27/21 Q1011 NOSIG,M
VVTS,3/12/2012 18:00,106.6667,10.8167,80.6,69.8,69.71,80,4,0,29.85,M,6.21,M,FEW,SCT,M,M,1700,4000,M,M,M,M,M,M,M,M,M,83.9,VVTS 121800Z 08004KT 050V120 9999 FEW017 SCT040 27/21 Q1011 NOSIG,M
VVTS,3/12/2012 18:30,106.6667,10.8167,77,69.8,78.48,60,4,0,29.85,M,6.21,M,FEW,SCT,M,M,1700,4000,M,M,M,M,M,M,M,M,M,78.09,VVTS 121830Z 06004KT 9999 FEW017 SCT040 25/21 Q1011 NOSIG,M
VVTS,3/12/2012 19:30,106.6667,10.8167,77,71.6,83.44,70,3,0,29.83,M,6.21,M,FEW,SCT,M,M,1700,4000,M,M,M,M,M,M,M,M,M,78.32,VVTS 121930Z 07003KT 9999 FEW017 SCT040 25/22 Q1010 NOSIG,M
VVTS,3/12/2012 20:00,106.6667,10.8167,75.2,71.6,88.59,70,2,0,29.83,M,6.21,M,FEW,SCT,M,M,1700,4000,M,M,M,M,M,M,M,M,M,76.58,VVTS 122000Z 07002KT 9999 FEW017 SCT040 24/22 Q1010 NOSIG,M
VVTS,3/12/2012 20:30,106.6667,10.8167,77,71.6,83.44,M,1,0,29.83,M,6.21,M,FEW,SCT,M,M,1700,4000,M,M,M,M,M,M,M,M,M,78.32,VVTS 122030Z VRB01KT 9999 FEW017 SCT040 25/22 Q1010 NOSIG,M
VVTS,3/12/2012 21:00,106.6667,10.8167,77,71.6,83.44,60,2,0,29.83,M,6.21,M,FEW,SCT,M,M,1700,4000,M,M,M,M,M,M,M,M,M,78.32,VVTS 122100Z 06002KT 9999 FEW017 SCT040 25/22 Q1010 NOSIG,M
VVTS,3/12/2012 21:30,106.6667,10.8167,77,71.6,83.44,350,2,0,29.83,M,6.21,M,FEW,SCT,M,M,1700,4000,M,M,M,M,M,M,M,M,M,78.32,VVTS 122130Z 35002KT 9999 FEW017 SCT040 25/22 Q1010 NOSIG,M
VVTS,3/12/2012 22:30,106.6667,10.8167,77,71.6,83.44,340,2,0,29.85,M,6.21,M,FEW,SCT,M,M,1700,4000,M,M,M,M,M,M,M,M,M,78.32,VVTS 122230Z 34002KT 9999 FEW017 SCT040 25/22 Q1011 NOSIG,M
VVTS,3/12/2012 23:00,106.6667,10.8167,75.2,73.4,94.14,340,4,0,29.85,M,4.35,M,FEW,M,M,M,1700,M,M,M,M,M,M,M,M,M,M,76.84,VVTS 122300Z 34004KT 7000 FEW017 24/23 Q1011 NOSIG,M
VVTS,3/12/2012 23:30,106.6667,10.8167,75.2,73.4,94.14,340,5,0,29.85,M,3.73,M,FEW,M,M,M,1700,M,M,M,M,M,M,M,M,M,M,76.84,VVTS 122330Z 34005KT 6000 FEW017 24/23 Q1011 NOSIG,M
VVTS,3/13/2012 0:00,106.6667,10.8167,77,71.6,83.44,330,3,0,29.88,M,3.73,M,FEW,M,M,M,1700,M,M,M,M,M,M,M,M,M,M,78.32,VVTS 130000Z 33003KT 6000 FEW017 25/22 Q1012 NOSIG,M
VVTS,3/13/2012 0:30,106.6667,10.8167,78.8,71.6,78.62,340,6,0,29.88,M,4.97,M,FEW,M,M,M,1700,M,M,M,M,M,M,M,M,M,M,81.7,VVTS 130030Z 34006KT 8000 FEW017 26/22 Q1012 NOSIG,M
VVTS,3/13/2012 1:00,106.6667,10.8167,80.6,71.6,74.11,350,4,0,29.88,M,5.59,M,FEW,M,M,M,1700,M,M,M,M,M,M,M,M,M,M,84.57,VVTS 130100Z 35004KT 310V020 9000 FEW017 27/22 Q1012 NOSIG,M
VVTS,3/13/2012 1:30,106.6667,10.8167,82.4,71.6,69.9,M,3,0,29.91,M,5.59,M,FEW,M,M,M,1700,M,M,M,M,M,M,M,M,M,M,87.18,VVTS 130130Z VRB03KT 9000 FEW017 28/22 Q1013 NOSIG,M
VVTS,3/13/2012 2:00,106.6667,10.8167,84.2,68,58.32,M,2,0,29.91,M,6.21,M,FEW,M,M,M,1700,M,M,M,M,M,M,M,M,M,M,87.4,VVTS 130200Z VRB02KT 9999 FEW017 29/20 Q1013 NOSIG,M
VVTS,3/13/2012 2:30,106.6667,10.8167,86,69.8,58.55,M,3,0,29.91,M,6.21,M,FEW,M,M,M,1700,M,M,M,M,M,M,M,M,M,M,90.58,VVTS 130230Z VRB03KT 9999 FEW017 30/21 Q1013 NOSIG,M
VVTS,3/13/2012 3:00,106.6667,10.8167,87.8,69.8,55.29,40,4,0,29.91,M,6.21,M,FEW,M,M,M,1700,M,M,M,M,M,M,M,M,M,M,92.71,VVTS 130300Z 04004KT 330V120 9999 FEW017 31/21 Q1013 NOSIG,M
VVTS,3/13/2012 3:30,106.6667,10.8167,89.6,69.8,52.23,M,3,0,29.91,M,4.97,M,FEW,M,M,M,1700,M,M,M,M,M,M,M,M,M,M,94.85,VVTS 130330Z VRB03KT 8000 FEW017 32/21 Q1013 NOSIG,M
VVTS,3/13/2012 4:00,106.6667,10.8167,89.6,69.8,52.23,310,6,0,29.88,M,6.21,M,FEW,M,M,M,2000,M,M,M,M,M,M,M,M,M,M,94.85,VVTS 130400Z 31006KT 270V350 9999 FEW020 32/21 Q1012 NOSIG,M
VVTS,3/13/2012 4:30,106.6667,10.8167,91.4,69.8,49.36,M,3,0,29.88,M,6.21,M,SCT,M,M,M,2000,M,M,M,M,M,M,M,M,M,M,96.99,VVTS 130430Z VRB03KT 9999 SCT020 33/21 Q1012 NOSIG,M
VVTS,3/13/2012 5:00,106.6667,10.8167,91.4,69.8,49.36,M,3,0,29.85,M,6.21,M,SCT,M,M,M,2000,M,M,M,M,M,M,M,M,M,M,96.99,VVTS 130500Z VRB03KT 9999 SCT020 33/21 Q1011 NOSIG,M
VVTS,3/13/2012 5:30,106.6667,10.8167,91.4,68,46.41,M,1,0,29.85,M,6.21,M,SCT,M,M,M,2000,M,M,M,M,M,M,M,M,M,M,95.55,VVTS 130530Z VRB01KT 9999 SCT020 33/20 Q1011 NOSIG,M
VVTS,3/13/2012 6:00,106.6667,10.8167,95,68,41.5,M,2,0,29.83,M,6.21,M,SCT,M,M,M,2000,M,M,M,M,M,M,M,M,M,M,99.82,VVTS 130600Z VRB02KT 9999 SCT020 35/20 Q1010 NOSIG,M
VVTS,3/13/2012 6:30,106.6667,10.8167,93.2,66.2,41.23,M,2,0,29.83,M,6.21,M,SCT,M,M,M,2000,M,M,M,M,M,M,M,M,M,M,96.35,VVTS 130630Z VRB02KT 9999 SCT020 34/19 Q1010 NOSIG,M
VVTS,3/13/2012 7:00,106.6667,10.8167,93.2,66.2,41.23,M,3,0,29.8,M,6.21,M,SCT,M,M,M,2000,M,M,M,M,M,M,M,M,M,M,96.35,VVTS 130700Z VRB03KT 9999 SCT020 34/19 Q1009 NOSIG,M
VVTS,3/13/2012 7:30,106.6667,10.8167,95,69.8,44.14,240,7,0,29.8,M,6.21,M,SCT,M,M,M,2000,M,M,M,M,M,M,M,M,M,M,101.37,VVTS 130730Z 24007KT 9999 SCT020 35/21 Q1009 NOSIG,M
VVTS,3/13/2012 8:00,106.6667,10.8167,95,68,41.5,250,4,0,29.8,M,6.21,M,SCT,M,M,M,2000,M,M,M,M,M,M,M,M,M,M,99.82,VVTS 130800Z 25004KT 200V320 9999 SCT020 35/20 Q1009 NOSIG,M
VVTS,3/13/2012 8:30,106.6667,10.8167,93.2,68,43.88,M,2,0,29.8,M,6.21,M,SCT,M,M,M,2000,M,M,M,M,M,M,M,M,M,M,97.67,VVTS 130830Z VRB02KT 9999 SCT020 34/20 Q1009 NOSIG,M
VVTS,3/13/2012 9:00,106.6667,10.8167,89.6,69.8,52.23,180,10,0,29.8,M,6.21,M,SCT,M,M,M,1700,M,M,M,M,M,M,M,M,M,M,94.85,VVTS 130900Z 18010KT 140V200 9999 SCT017 32/21 Q1009 NOSIG,M
VVTS,3/13/2012 10:00,106.6667,10.8167,89.6,69.8,52.23,160,9,0,29.8,M,6.21,M,SCT,M,M,M,1700,M,M,M,M,M,M,M,M,M,M,94.85,VVTS 131000Z 16009KT 9999 SCT017 32/21 Q1009 NOSIG,M
VVTS,3/13/2012 10:30,106.6667,10.8167,87.8,69.8,55.29,160,8,0,29.8,M,6.21,M,FEW,M,M,M,2000,M,M,M,M,M,M,M,M,M,M,92.71,VVTS 131030Z 16008KT 9999 FEW020 31/21 Q1009 NOSIG,M
VVTS,3/13/2012 11:00,106.6667,10.8167,86,69.8,58.55,150,9,0,29.8,M,6.21,M,FEW,M,M,M,2000,M,M,M,M,M,M,M,M,M,M,90.58,VVTS 131100Z 15009KT 9999 FEW020 30/21 Q1009 NOSIG,M
VVTS,3/13/2012 11:30,106.6667,10.8167,84.2,71.6,65.95,160,6,0,29.8,M,6.21,M,FEW,M,M,M,2000,M,M,M,M,M,M,M,M,M,M,89.6,VVTS 131130Z 16006KT 9999 FEW020 29/22 Q1009 NOSIG,M
VVTS,3/13/2012 12:00,106.6667,10.8167,84.2,69.8,62.03,140,7,0,29.8,M,6.21,M,FEW,M,M,M,2000,M,M,M,M,M,M,M,M,M,M,88.43,VVTS 131200Z 14007KT 9999 FEW020 29/21 Q1009 NOSIG,M
VVTS,3/13/2012 12:30,106.6667,10.8167,84.2,68,58.32,130,8,0,29.8,M,6.21,M,FEW,M,M,M,1700,M,M,M,M,M,M,M,M,M,M,87.4,VVTS 131230Z 13008KT 110V180 9999 FEW017 29/20 Q1009 NOSIG,M
VVTS,3/13/2012 13:00,106.6667,10.8167,84.2,66.2,54.8,140,6,0,29.83,M,6.21,M,FEW,M,M,M,1700,M,M,M,M,M,M,M,M,M,M,86.5,VVTS 131300Z 14006KT 100V190 9999 FEW017 29/19 Q1010 NOSIG,M
VVTS,3/13/2012 13:30,106.6667,10.8167,84.2,66.2,54.8,130,7,0,29.83,M,6.21,M,FEW,M,M,M,1700,M,M,M,M,M,M,M,M,M,M,86.5,VVTS 131330Z 13007KT 9999 FEW017 29/19 Q1010 NOSIG,M
VVTS,3/13/2012 14:00,106.6667,10.8167,84.2,66.2,54.8,140,7,0,29.83,M,6.21,M,FEW,M,M,M,1700,M,M,M,M,M,M,M,M,M,M,86.5,VVTS 131400Z 14007KT 110V200 9999 FEW017 29/19 Q1010 NOSIG,M
VVTS,3/13/2012 14:30,106.6667,10.8167,82.4,66.2,58.08,130,7,0,29.83,M,6.21,M,FEW,M,M,M,1700,M,M,M,M,M,M,M,M,M,M,84.63,VVTS 131430Z 13007KT 100V160 9999 FEW017 28/19 Q1010 NOSIG,M
VVTS,3/13/2012 15:00,106.6667,10.8167,82.4,66.2,58.08,130,7,0,29.83,M,6.21,M,FEW,M,M,M,1700,M,M,M,M,M,M,M,M,M,M,84.63,VVTS 131500Z 13007KT 9999 FEW017 28/19 Q1010 NOSIG,M
VVTS,3/13/2012 15:30,106.6667,10.8167,82.4,66.2,58.08,120,7,0,29.83,M,6.21,M,FEW,M,M,M,1700,M,M,M,M,M,M,M,M,M,M,84.63,VVTS 131530Z 12007KT 9999 FEW017 28/19 Q1010 NOSIG,M
VVTS,3/13/2012 16:00,106.6667,10.8167,82.4,68,61.81,100,6,0,29.83,M,6.21,M,FEW,M,M,M,1700,M,M,M,M,M,M,M,M,M,M,85.38,VVTS 131600Z 10006KT 9999 FEW017 28/20 Q1010 NOSIG,M
VVTS,3/13/2012 16:30,106.6667,10.8167,80.6,68,65.54,90,6,0,29.83,M,6.21,M,FEW,M,M,M,1700,M,M,M,M,M,M,M,M,M,M,83.29,VVTS 131630Z 09006KT 9999 FEW017 27/20 Q1010 NOSIG,M
VVTS,3/13/2012 17:00,106.6667,10.8167,78.8,69.8,73.95,90,5,0,29.83,M,6.21,M,FEW,M,M,M,1700,M,M,M,M,M,M,M,M,M,M,81.39,VVTS 131700Z 09005KT 9999 FEW017 26/21 Q1010 NOSIG,M
VVTS,3/13/2012 18:00,106.6667,10.8167,78.8,69.8,73.95,80,4,0,29.83,M,6.21,M,FEW,M,M,M,1700,M,M,M,M,M,M,M,M,M,M,81.39,VVTS 131800Z 08004KT 9999 FEW017 26/21 Q1010 NOSIG,M
VVTS,3/13/2012 18:30,106.6667,10.8167,77,69.8,78.48,60,4,0,29.83,M,6.21,M,FEW,M,M,M,1700,M,M,M,M,M,M,M,M,M,M,78.09,VVTS 131830Z 06004KT 9999 FEW017 25/21 Q1010 NOSIG,M
VVTS,3/13/2012 19:00,106.6667,10.8167,77,69.8,78.48,20,1,0,29.83,M,6.21,M,FEW,M,M,M,1700,M,M,M,M,M,M,M,M,M,M,78.09,VVTS 131900Z 02001KT 9999 FEW017 25/21 Q1010 NOSIG,M
VVTS,3/13/2012 19:30,106.6667,10.8167,75.2,69.8,83.32,M,1,0,29.83,M,6.21,M,FEW,M,M,M,1700,M,M,M,M,M,M,M,M,M,M,76.34,VVTS 131930Z VRB01KT 9999 FEW017 24/21 Q1010 NOSIG,M
VVTS,3/13/2012 20:00,106.6667,10.8167,77,69.8,78.48,70,2,0,29.83,M,6.21,M,FEW,M,M,M,1700,M,M,M,M,M,M,M,M,M,M,78.09,VVTS 132000Z 07002KT 9999 FEW017 25/21 Q1010 NOSIG,M
VVTS,3/13/2012 20:30,106.6667,10.8167,77,71.6,83.44,0,0,0,29.83,M,6.21,M,FEW,M,M,M,1700,M,M,M,M,M,M,M,M,M,M,78.32,VVTS 132030Z 00000KT 9999 FEW017 25/22 Q1010 NOSIG,M
VVTS,3/13/2012 21:00,106.6667,10.8167,75.2,71.6,88.59,0,0,0,29.83,M,6.21,M,FEW,M,M,M,1700,M,M,M,M,M,M,M,M,M,M,76.58,VVTS 132100Z 00000KT 9999 FEW017 24/22 Q1010 NOSIG,M
VVTS,3/13/2012 21:30,106.6667,10.8167,75.2,71.6,88.59,360,2,0,29.83,M,6.21,M,FEW,M,M,M,1700,M,M,M,M,M,M,M,M,M,M,76.58,VVTS 132130Z 36002KT 9999 FEW017 24/22 Q1010 NOSIG,M
VVTS,3/13/2012 22:00,106.6667,10.8167,75.2,71.6,88.59,10,2,0,29.83,M,4.97,M,FEW,M,M,M,1700,M,M,M,M,M,M,M,M,M,M,76.58,VVTS 132200Z 01002KT 8000 FEW017 24/22 Q1010 NOSIG,M
VVTS,3/13/2012 22:30,106.6667,10.8167,75.2,71.6,88.59,M,2,0,29.83,M,6.21,M,FEW,M,M,M,1700,M,M,M,M,M,M,M,M,M,M,76.58,VVTS 132230Z VRB02KT 9999 FEW017 24/22 Q1010 NOSIG,M
VVTS,3/13/2012 23:00,106.6667,10.8167,75.2,71.6,88.59,10,2,0,29.83,M,4.97,M,FEW,SCT,M,M,1700,4000,M,M,M,M,M,M,M,M,M,76.58,VVTS 132300Z 01002KT 8000 FEW017 SCT040 24/22 Q1010 NOSIG,M
VVTS,3/13/2012 23:30,106.6667,10.8167,77,73.4,88.67,30,2,0,29.85,M,3.11,M,FEW,BKN,M,M,1700,4000,M,M,BR,M,M,M,M,M,M,78.57,VVTS 132330Z 03002KT 5000 BR FEW017 BKN040 25/23 Q1011 NOSIG,M
VVTS,3/14/2012 0:00,106.6667,10.8167,78.8,73.4,83.55,50,2,0,29.85,M,3.11,M,FEW,BKN,M,M,1700,4000,M,M,BR,M,M,M,M,M,M,82.03,VVTS 140000Z 05002KT 5000 BR FEW017 BKN040 26/23 Q1011 NOSIG,M
VVTS,3/14/2012 0:30,106.6667,10.8167,80.6,71.6,74.11,340,2,0,29.85,M,4.35,M,FEW,SCT,M,M,1700,4000,M,M,M,M,M,M,M,M,M,84.57,VVTS 140030Z 34002KT 7000 FEW017 SCT040 27/22 Q1011 NOSIG,M
VVTS,3/14/2012 1:00,106.6667,10.8167,82.4,69.8,65.74,M,1,0,29.88,M,5.59,M,FEW,SCT,M,M,1700,4000,M,M,M,M,M,M,M,M,M,86.22,VVTS 140100Z VRB01KT 9000 FEW017 SCT040 28/21 Q1012 NOSIG,M
VVTS,3/14/2012 1:30,106.6667,10.8167,84.2,69.8,62.03,M,2,0,29.88,M,3.73,M,FEW,SCT,M,M,1700,4000,M,M,M,M,M,M,M,M,M,88.43,VVTS 140130Z VRB02KT 6000 FEW017 SCT040 29/21 Q1012 NOSIG,M
VVTS,3/14/2012 2:00,106.6667,10.8167,87.8,64.4,45.88,M,3,0,29.88,M,6.21,M,FEW,SCT,M,M,1700,4000,M,M,M,M,M,M,M,M,M,89.33,VVTS 140200Z VRB03KT 9999 FEW017 SCT040 31/18 Q1012 NOSIG,M
VVTS,3/14/2012 2:30,106.6667,10.8167,87.8,62.6,43.07,M,3,0,29.88,M,6.21,M,FEW,SCT,M,M,1700,4000,M,M,M,M,M,M,M,M,M,88.48,VVTS 140230Z VRB03KT 9999 FEW017 SCT040 31/17 Q1012 NOSIG,M
VVTS,3/14/2012 3:00,106.6667,10.8167,89.6,62.6,40.69,60,4,0,29.88,M,6.21,M,FEW,M,M,M,1700,M,M,M,M,M,M,M,M,M,M,90.32,VVTS 140300Z 06004KT 330V160 9999 FEW017 32/17 Q1012 NOSIG,M
VVTS,3/14/2012 3:30,106.6667,10.8167,91.4,62.6,38.45,110,5,0,29.88,M,6.21,M,FEW,M,M,M,1700,M,M,M,M,M,M,M,M,M,M,91.4,VVTS 140330Z 11005KT 050V190 9999 FEW017 33/17 Q1012 NOSIG,M
VVTS,3/14/2012 4:00,106.6667,10.8167,91.4,64.4,40.96,80,6,0,29.85,M,6.21,M,FEW,M,M,M,1700,M,M,M,M,M,M,M,M,M,M,93.19,VVTS 140400Z 08006KT 350V160 9999 FEW017 33/18 Q1011 NOSIG,M
VVTS,3/14/2012 4:30,106.6667,10.8167,93.2,62.6,36.35,30,7,0,29.85,M,6.21,M,FEW,M,M,M,2000,M,M,M,M,M,M,M,M,M,M,93.2,VVTS 140430Z 03007KT 340V130 9999 FEW020 34/17 Q1011 NOSIG,M
VVTS,3/14/2012 5:00,106.6667,10.8167,96.8,62.6,32.54,60,6,0,29.83,M,6.21,M,FEW,M,M,M,2000,M,M,M,M,M,M,M,M,M,M,98.28,VVTS 140500Z 06006KT 360V170 9999 FEW020 36/17 Q1010 NOSIG,M
VVTS,3/14/2012 5:30,106.6667,10.8167,96.8,62.6,32.54,70,5,0,29.8,M,6.21,M,SCT,M,M,M,2000,M,M,M,M,M,M,M,M,M,M,98.28,VVTS 140530Z 07005KT 9999 SCT020 36/17 Q1009 NOSIG,M
VVTS,3/14/2012 6:00,106.6667,10.8167,93.2,64.4,38.73,350,6,0,29.8,M,6.21,M,SCT,M,M,M,2000,M,M,M,M,M,M,M,M,M,M,95.2,VVTS 140600Z 35006KT 310V040 9999 SCT020 34/18 Q1009 NOSIG,M
VVTS,3/14/2012 6:30,106.6667,10.8167,96.8,62.6,32.54,10,6,0,29.77,M,6.21,M,SCT,M,M,M,2000,M,M,M,M,M,M,M,M,M,M,98.28,VVTS 140630Z 01006KT 310V070 9999 SCT020 36/17 Q1008 NOSIG,M
VVTS,3/14/2012 7:00,106.6667,10.8167,93.2,62.6,36.35,30,4,0,29.77,M,6.21,M,SCT,M,M,M,2000,M,M,M,M,M,M,M,M,M,M,93.2,VVTS 140700Z 03004KT 330V100 9999 SCT020 34/17 Q1008 NOSIG,M
VVTS,3/14/2012 7:30,106.6667,10.8167,96.8,68,39.27,160,6,0,29.77,M,6.21,M,SCT,M,M,M,2000,M,M,M,M,M,M,M,M,M,M,102.01,VVTS 140730Z 16006KT 070V240 9999 SCT020 36/20 Q1008 NOSIG,M
VVTS,3/14/2012 8:00,106.6667,10.8167,95,66.2,39,190,10,0,29.74,M,6.21,M,SCT,M,M,M,2000,M,M,M,M,M,M,M,M,M,M,98.46,VVTS 140800Z 19010KT 9999 SCT020 35/19 Q1007 NOSIG,M
VVTS,3/14/2012 8:30,106.6667,10.8167,93.2,68,43.88,180,9,0,29.74,M,6.21,M,SCT,M,M,M,2000,M,M,M,M,M,M,M,M,M,M,97.67,VVTS 140830Z 18009KT 120V210 9999 SCT020 34/20 Q1007 NOSIG,M
VVTS,3/14/2012 9:00,106.6667,10.8167,93.2,68,43.88,150,8,0,29.74,M,6.21,M,SCT,M,M,M,2000,M,M,M,M,M,M,M,M,M,M,97.67,VVTS 140900Z 15008KT 100V190 9999 SCT020 34/20 Q1007 NOSIG,M
VVTS,3/14/2012 10:00,106.6667,10.8167,91.4,68,46.41,160,8,0,29.77,M,6.21,M,SCT,M,M,M,2000,M,M,M,M,M,M,M,M,M,M,95.55,VVTS 141000Z 16008KT 140V200 9999 SCT020 33/20 Q1008 NOSIG,M
VVTS,3/14/2012 10:30,106.6667,10.8167,89.6,66.2,46.14,140,10,0,29.77,M,6.21,M,SCT,M,M,M,2000,M,M,M,M,M,M,M,M,M,M,92.27,VVTS 141030Z 14010KT 110V190 9999 SCT020 32/19 Q1008 NOSIG,M
VVTS,3/14/2012 11:00,106.6667,10.8167,89.6,62.6,40.69,120,7,0,29.77,M,6.21,M,FEW,SCT,M,M,1700,4000,M,M,M,M,M,M,M,M,M,90.32,VVTS 141100Z 12007KT 090V210 9999 FEW017 SCT040 32/17 Q1008 NOSIG,M
VVTS,3/14/2012 11:30,106.6667,10.8167,87.8,64.4,45.88,130,9,0,29.77,M,6.21,M,FEW,SCT,M,M,1700,4000,M,M,M,M,M,M,M,M,M,89.33,VVTS 141130Z 13009KT 110V180 9999 FEW017 SCT040 31/18 Q1008 NOSIG,M
VVTS,3/14/2012 12:00,106.6667,10.8167,86,66.2,51.72,140,7,0,29.8,M,6.21,M,FEW,SCT,M,M,1700,4000,M,M,M,M,M,M,M,M,M,88.39,VVTS 141200Z 14007KT 9999 FEW017 SCT040 30/19 Q1009 NOSIG,M
VVTS,3/14/2012 12:30,106.6667,10.8167,84.2,66.2,54.8,140,7,0,29.8,M,6.21,M,FEW,SCT,M,M,1700,4000,M,M,M,M,M,M,M,M,M,86.5,VVTS 141230Z 14007KT 100V190 9999 FEW017 SCT040 29/19 Q1009 NOSIG,M
VVTS,3/14/2012 13:00,106.6667,10.8167,84.2,66.2,54.8,130,7,0,29.8,M,6.21,M,FEW,SCT,M,M,1700,4000,M,M,M,M,M,M,M,M,M,86.5,VVTS 141300Z 13007KT 090V160 9999 FEW017 SCT040 29/19 Q1009 NOSIG,M
VVTS,3/14/2012 13:30,106.6667,10.8167,84.2,66.2,54.8,130,6,0,29.8,M,6.21,M,FEW,SCT,M,M,1700,4000,M,M,M,M,M,M,M,M,M,86.5,VVTS 141330Z 13006KT 100V180 9999 FEW017 SCT040 29/19 Q1009 NOSIG,M
VVTS,3/14/2012 14:00,106.6667,10.8167,84.2,68,58.32,130,7,0,29.83,M,6.21,M,FEW,SCT,M,M,1700,4000,M,M,M,M,M,M,M,M,M,87.4,VVTS 141400Z 13007KT 100V230 9999 FEW017 SCT040 29/20 Q1010 NOSIG,M
VVTS,3/14/2012 15:00,106.6667,10.8167,82.4,68,61.81,110,5,0,29.83,M,6.21,M,FEW,SCT,M,M,1700,4000,M,M,M,M,M,M,M,M,M,85.38,VVTS 141500Z 11005KT 9999 FEW017 SCT040 28/20 Q1010 NOSIG,M
VVTS,3/14/2012 15:30,106.6667,10.8167,82.4,68,61.81,130,5,0,29.83,M,6.21,M,FEW,SCT,M,M,1700,4000,M,M,M,M,M,M,M,M,M,85.38,VVTS 141530Z 13005KT 9999 FEW017 SCT040 28/20 Q1010 NOSIG,M
VVTS,3/14/2012 16:00,106.6667,10.8167,82.4,68,61.81,120,5,0,29.83,M,6.21,M,FEW,SCT,M,M,1700,4000,M,M,M,M,M,M,M,M,M,85.38,VVTS 141600Z 12005KT 340V240 9999 FEW017 SCT040 28/20 Q1010 NOSIG,M
VVTS,3/14/2012 16:30,106.6667,10.8167,82.4,68,61.81,140,4,0,29.83,M,6.21,M,FEW,SCT,M,M,1700,4000,M,M,M,M,M,M,M,M,M,85.38,VVTS 141630Z 14004KT 090V160 9999 FEW017 SCT040 28/20 Q1010 NOSIG,M
VVTS,3/14/2012 17:00,106.6667,10.8167,82.4,68,61.81,140,5,0,29.83,M,6.21,M,FEW,SCT,M,M,1700,4000,M,M,M,M,M,M,M,M,M,85.38,VVTS 141700Z 14005KT 110V170 9999 FEW017 SCT040 28/20 Q1010 NOSIG,M
VVTS,3/14/2012 17:30,106.6667,10.8167,82.4,68,61.81,M,3,0,29.83,M,6.21,M,FEW,SCT,M,M,1700,4000,M,M,M,M,M,M,M,M,M,85.38,VVTS 141730Z VRB03KT 9999 FEW017 SCT040 28/20 Q1010 NOSIG,M
VVTS,3/14/2012 18:00,106.6667,10.8167,80.6,68,65.54,M,3,0,29.83,M,6.21,M,FEW,SCT,M,M,1700,4000,M,M,M,M,M,M,M,M,M,83.29,VVTS 141800Z VRB03KT 9999 FEW017 SCT040 27/20 Q1010 NOSIG,M
VVTS,3/14/2012 18:30,106.6667,10.8167,78.8,69.8,73.95,M,2,0,29.83,M,6.21,M,FEW,SCT,M,M,1700,4000,M,M,M,M,M,M,M,M,M,81.39,VVTS 141830Z VRB02KT 9999 FEW017 SCT040 26/21 Q1010 NOSIG,M
VVTS,3/14/2012 19:00,106.6667,10.8167,78.8,71.6,78.62,M,3,0,29.8,M,6.21,M,FEW,SCT,M,M,1700,4000,M,M,M,M,M,M,M,M,M,81.7,VVTS 141900Z VRB03KT 9999 FEW017 SCT040 26/22 Q1009 NOSIG,M
VVTS,3/14/2012 19:30,106.6667,10.8167,77,71.6,83.44,M,1,0,29.8,M,6.21,M,FEW,SCT,M,M,1700,4000,M,M,M,M,M,M,M,M,M,78.32,VVTS 141930Z VRB01KT 9999 FEW017 SCT040 25/22 Q1009 NOSIG,M
VVTS,3/14/2012 20:00,106.6667,10.8167,75.2,71.6,88.59,90,2,0,29.8,M,6.21,M,FEW,SCT,M,M,1700,4000,M,M,M,M,M,M,M,M,M,76.58,VVTS 142000Z 09002KT 9999 FEW017 SCT040 24/22 Q1009 NOSIG,M
VVTS,3/14/2012 20:30,106.6667,10.8167,77,71.6,83.44,70,2,0,29.8,M,6.21,M,FEW,SCT,M,M,1700,4000,M,M,M,M,M,M,M,M,M,78.32,VVTS 142030Z 07002KT 9999 FEW017 SCT040 25/22 Q1009 NOSIG,M
VVTS,3/14/2012 21:00,106.6667,10.8167,75.2,71.6,88.59,10,3,0,29.8,M,6.21,M,FEW,SCT,M,M,1700,4000,M,M,M,M,M,M,M,M,M,76.58,VVTS 142100Z 01003KT 9999 FEW017 SCT040 24/22 Q1009 NOSIG,M
VVTS,3/14/2012 21:30,106.6667,10.8167,75.2,73.4,94.14,340,2,0,29.8,M,5.59,M,FEW,SCT,M,M,1700,4000,M,M,M,M,M,M,M,M,M,76.84,VVTS 142130Z 34002KT 9000 FEW017 SCT040 24/23 Q1009 NOSIG,M
VVTS,3/14/2012 22:00,106.6667,10.8167,75.2,73.4,94.14,M,1,0,29.83,M,4.35,M,FEW,SCT,M,M,1700,4000,M,M,M,M,M,M,M,M,M,76.84,VVTS 142200Z VRB01KT 7000 FEW017 SCT040 24/23 Q1010 NOSIG,M
VVTS,3/14/2012 22:30,106.6667,10.8167,75.2,73.4,94.14,M,2,0,29.83,M,4.35,M,FEW,SCT,M,M,1700,4000,M,M,M,M,M,M,M,M,M,76.84,VVTS 142230Z VRB02KT 7000 FEW017 SCT040 24/23 Q1010 NOSIG,M
VVTS,3/14/2012 23:00,106.6667,10.8167,75.2,73.4,94.14,310,3,0,29.85,M,4.35,M,FEW,SCT,M,M,1700,4000,M,M,M,M,M,M,M,M,M,76.84,VVTS 142300Z 31003KT 7000 FEW017 SCT040 24/23 Q1011 NOSIG,M
VVTS,3/14/2012 23:30,106.6667,10.8167,75.2,73.4,94.14,M,2,0,29.85,M,3.73,M,FEW,SCT,M,M,1700,4000,M,M,M,M,M,M,M,M,M,76.84,VVTS 142330Z VRB02KT 6000 FEW017 SCT040 24/23 Q1011 TEMPO TL2400 3000 BR,M
VVTS,3/15/2012 0:00,106.6667,10.8167,75.2,75.2,100,330,4,0,29.85,M,4.35,M,FEW,M,M,M,1700,M,M,M,M,M,M,M,M,M,M,77.12,VVTS 150000Z 33004KT 300V010 7000 FEW017 24/24 Q1011 TEMPO TL2400 3000 BR,M
VVTS,3/15/2012 0:30,106.6667,10.8167,78.8,75.2,88.75,330,5,0,29.88,M,4.35,M,FEW,M,M,M,1700,M,M,M,M,M,M,M,M,M,M,82.38,VVTS 150030Z 33005KT 7000 FEW017 26/24 Q1012 NOSIG,M
VVTS,3/15/2012 1:00,106.6667,10.8167,78.8,75.2,88.75,350,6,0,29.88,M,4.35,M,FEW,M,M,M,1700,M,M,M,M,M,M,M,M,M,M,82.38,VVTS 150100Z 35006KT 7000 FEW017 26/24 Q1012 NOSIG,M
VVTS,3/15/2012 1:30,106.6667,10.8167,80.6,73.4,78.76,10,6,0,29.91,M,4.97,M,FEW,M,M,M,2000,M,M,M,M,M,M,M,M,M,M,85.32,VVTS 150130Z 01006KT 320V040 8000 FEW020 27/23 Q1013 NOSIG,M
VVTS,3/15/2012 2:00,106.6667,10.8167,82.4,73.4,74.28,340,7,0,29.91,M,6.21,M,FEW,M,M,M,2000,M,M,M,M,M,M,M,M,M,M,88.26,VVTS 150200Z 34007KT 310V030 9999 FEW020 28/23 Q1013 NOSIG,M
VVTS,3/15/2012 2:30,106.6667,10.8167,84.2,73.4,70.08,340,7,0,29.91,M,6.21,M,FEW,M,M,M,2000,M,M,M,M,M,M,M,M,M,M,90.94,VVTS 150230Z 34007KT 300V020 9999 FEW020 29/23 Q1013 NOSIG,M
VVTS,3/15/2012 3:00,106.6667,10.8167,84.2,73.4,70.08,30,7,0,29.91,M,4.97,M,FEW,M,M,M,2000,M,M,M,M,M,M,M,M,M,M,90.94,VVTS 150300Z 03007KT 350V060 8000 FEW020 29/23 Q1013 NOSIG,M
VVTS,3/15/2012 3:30,106.6667,10.8167,87.8,73.4,62.47,360,5,0,29.91,M,6.21,M,FEW,M,M,M,2000,M,M,M,M,M,M,M,M,M,M,95.86,VVTS 150330Z 36005KT 300V100 9999 FEW020 31/23 Q1013 NOSIG,M
VVTS,3/15/2012 4:00,106.6667,10.8167,89.6,73.4,59.01,20,4,0,29.88,M,6.21,M,FEW,M,M,M,2000,M,M,M,M,M,M,M,M,M,M,98.2,VVTS 150400Z 02004KT 270V090 9999 FEW020 32/23 Q1012 NOSIG,M
VVTS,3/15/2012 4:30,106.6667,10.8167,89.6,71.6,55.53,M,3,0,29.88,M,5.59,M,FEW,M,M,M,2000,M,M,M,M,M,M,M,M,M,M,96.41,VVTS 150430Z VRB03KT 9000 FEW020 32/22 Q1012 NOSIG,M
VVTS,3/15/2012 5:00,106.6667,10.8167,91.4,71.6,52.48,10,4,0,29.85,M,6.21,M,FEW,M,M,M,2000,M,M,M,M,M,M,M,M,M,M,98.64,VVTS 150500Z 01004KT 270V150 9999 FEW020 33/22 Q1011 NOSIG,M
VVTS,3/15/2012 5:30,106.6667,10.8167,91.4,71.6,52.48,330,6,0,29.85,M,6.21,M,SCT,M,M,M,2000,M,M,M,M,M,M,M,M,M,M,98.64,VVTS 150530Z 33006KT 300V020 9999 SCT020 33/22 Q1011 NOSIG,M
VVTS,3/15/2012 6:00,106.6667,10.8167,91.4,71.6,52.48,30,5,0,29.83,M,6.21,M,SCT,M,M,M,2000,M,M,M,M,M,M,M,M,M,M,98.64,VVTS 150600Z 03005KT 350V100 9999 SCT020 33/22 Q1010 NOSIG,M
VVTS,3/15/2012 6:30,106.6667,10.8167,93.2,69.8,46.67,320,5,0,29.83,M,6.21,M,FEW,SCT,M,M,1700,2000,M,M,M,M,M,M,M,M,M,99.17,VVTS 150630Z 32005KT 270V020 9999 FEW017TCU SCT020 34/21 Q1010 NOSIG,M
VVTS,3/15/2012 7:00,106.6667,10.8167,93.2,69.8,46.67,310,4,0,29.8,M,6.21,M,FEW,SCT,M,M,1700,2000,M,M,M,M,M,M,M,M,M,99.17,VVTS 150700Z 31004KT 240V020 9999 FEW017TCU SCT020 34/21 Q1009 NOSIG,M
VVTS,3/15/2012 7:30,106.6667,10.8167,93.2,69.8,46.67,M,3,0,29.77,M,6.21,M,FEW,SCT,M,M,1700,2000,M,M,M,M,M,M,M,M,M,99.17,VVTS 150730Z VRB03KT 9999 FEW017TCU SCT020 34/21 Q1008 NOSIG,M
VVTS,3/15/2012 8:00,106.6667,10.8167,91.4,69.8,49.36,320,4,0,29.77,M,6.21,M,FEW,SCT,M,M,1700,2000,M,M,M,M,M,M,M,M,M,96.99,VVTS 150800Z 32004KT 270V350 9999 FEW017CB SCT020 33/21 Q1008 NOSIG,M
VVTS,3/15/2012 8:30,106.6667,10.8167,84.2,69.8,62.03,120,19,0,29.8,M,4.35,M,BKN,SCT,M,M,1300,1500,M,M,#NAME?,M,M,M,M,M,M,88.43,VVTS 150830Z 12019KT 040V140 7000 -TSRA BKN013 SCT015CB 29/21 Q1009 TEMPO TL0850 09015G35KT 3000 TSRA,M
VVTS,3/15/2012 9:00,106.6667,10.8167,73.4,73.4,100,220,16,0,29.8,M,3.11,M,BKN,M,M,M,1300,M,M,M,#NAME?,M,M,M,M,M,M,75.14,VVTS 150900Z 22016KT 5000 R07L/0800V1500N -TSRA BKN013 S CT015CB 23/23 Q1009 BECMG TL0905 3000 TSRA,M
VVTS,3/15/2012 9:30,106.6667,10.8167,73.4,73.4,100,240,10,0,29.8,M,6.21,M,FEW,SCT,BKN,M,1500,1700,4000,M,M,M,M,M,M,M,M,75.14,VVTS 150930Z 24010KT 9999 FEW015CB SCT017 BKN040 23/23 Q1009 NOSIG,M
VVTS,3/15/2012 10:30,106.6667,10.8167,75.2,71.6,88.59,270,3,0,29.8,M,6.21,M,SCT,BKN,M,M,1700,4000,M,M,M,M,M,M,M,M,M,76.58,VVTS 151030Z 27003KT 9999 SCT017 BKN040 24/22 Q1009 NOSIG,M
VVTS,3/15/2012 11:00,106.6667,10.8167,75.2,71.6,88.59,200,2,0,29.8,M,6.21,M,FEW,SCT,M,M,1700,4000,M,M,M,M,M,M,M,M,M,76.58,VVTS 151100Z 20002KT 9999 FEW017 SCT040 24/22 Q1009 NOSIG,M
VVTS,3/15/2012 11:30,106.6667,10.8167,75.2,71.6,88.59,0,0,0,29.8,M,6.21,M,FEW,SCT,M,M,1700,4000,M,M,M,M,M,M,M,M,M,76.58,VVTS 151130Z 00000KT 9999 FEW017 SCT040 24/22 Q1009 NOSIG,M
VVTS,3/15/2012 12:30,106.6667,10.8167,78.8,71.6,78.62,M,3,0,29.83,M,6.21,M,FEW,SCT,M,M,1700,4000,M,M,M,M,M,M,M,M,M,81.7,VVTS 151230Z VRB03KT 9999 FEW017 SCT040 26/22 Q1010 NOSIG,M
VVTS,3/15/2012 13:00,106.6667,10.8167,77,73.4,88.67,30,5,0,29.83,M,5.59,M,FEW,SCT,M,M,1700,4000,M,M,M,M,M,M,M,M,M,78.57,VVTS 151300Z 03005KT 9000 FEW017 SCT040 25/23 Q1010 NOSIG,M
VVTS,3/15/2012 13:30,106.6667,10.8167,75.2,73.4,94.14,80,4,0,29.83,M,4.35,M,FEW,SCT,M,M,1700,4000,M,M,M,M,M,M,M,M,M,76.84,VVTS 151330Z 08004KT 040V130 7000 FEW017 SCT040 24/23 Q1010 NOSIG,M
VVTS,3/15/2012 14:00,106.6667,10.8167,75.2,73.4,94.14,40,3,0,29.83,M,4.97,M,FEW,SCT,M,M,1700,4000,M,M,M,M,M,M,M,M,M,76.84,VVTS 151400Z 04003KT 8000 FEW017 SCT040 24/23 Q1010 NOSIG,M
VVTS,3/15/2012 14:30,106.6667,10.8167,77,73.4,88.67,60,1,0,29.85,M,5.59,M,FEW,SCT,M,M,1700,4000,M,M,M,M,M,M,M,M,M,78.57,VVTS 151430Z 06001KT 9000 FEW017 SCT040 25/23 Q1011 NOSIG,M
VVTS,3/15/2012 15:30,106.6667,10.8167,78.8,73.4,83.55,120,4,0,29.83,M,5.59,M,FEW,SCT,M,M,1700,4000,M,M,M,M,M,M,M,M,M,82.03,VVTS 151530Z 12004KT 9000 FEW017 SCT040 26/23 Q1010 NOSIG,M
VVTS,3/15/2012 16:00,106.6667,10.8167,78.8,73.4,83.55,130,3,0,29.83,M,6.21,M,FEW,SCT,M,M,1700,4000,M,M,M,M,M,M,M,M,M,82.03,VVTS 151600Z 13003KT 9999 FEW017 SCT040 26/23 Q1010 NOSIG,M
VVTS,3/15/2012 16:30,106.6667,10.8167,78.8,73.4,83.55,M,3,0,29.83,M,6.21,M,FEW,SCT,M,M,1700,4000,M,M,M,M,M,M,M,M,M,82.03,VVTS 151630Z VRB03KT 9999 FEW017 SCT040 26/23 Q1010 NOSIG,M
VVTS,3/15/2012 17:00,106.6667,10.8167,78.8,71.6,78.62,120,4,0,29.83,M,6.21,M,FEW,SCT,M,M,1700,4000,M,M,M,M,M,M,M,M,M,81.7,VVTS 151700Z 12004KT 090V180 9999 FEW017 SCT040 26/22 Q1010 NOSIG,M
VVTS,3/15/2012 17:30,106.6667,10.8167,78.8,71.6,78.62,M,3,0,29.83,M,6.21,M,FEW,SCT,M,M,1700,4000,M,M,M,M,M,M,M,M,M,81.7,VVTS 151730Z VRB03KT 9999 FEW017 SCT040 26/22 Q1010 NOSIG,M
VVTS,3/15/2012 18:00,106.6667,10.8167,75.2,71.6,88.59,100,3,0,29.8,M,6.21,M,FEW,SCT,M,M,1700,4000,M,M,M,M,M,M,M,M,M,76.58,VVTS 151800Z 10003KT 9999 FEW017 SCT040 24/22 Q1009 NOSIG,M
VVTS,3/15/2012 18:30,106.6667,10.8167,77,71.6,83.44,70,2,0,29.8,M,6.21,M,FEW,SCT,M,M,1700,4000,M,M,M,M,M,M,M,M,M,78.32,VVTS 151830Z 07002KT 9999 FEW017 SCT040 25/22 Q1009 NOSIG,M
VVTS,3/15/2012 19:00,106.6667,10.8167,75.2,73.4,94.14,70,3,0,29.8,M,6.21,M,FEW,SCT,M,M,1700,4000,M,M,M,M,M,M,M,M,M,76.84,VVTS 151900Z 07003KT 9999 FEW017 SCT040 24/23 Q1009 NOSIG,M
VVTS,3/15/2012 19:30,106.6667,10.8167,75.2,73.4,94.14,M,1,0,29.8,M,5.59,M,FEW,SCT,M,M,1700,4000,M,M,M,M,M,M,M,M,M,76.84,VVTS 151930Z VRB01KT 9000 FEW017 SCT040 24/23 Q1009 NOSIG,M
VVTS,3/15/2012 20:00,106.6667,10.8167,75.2,73.4,94.14,10,2,0,29.8,M,5.59,M,FEW,SCT,M,M,1700,4000,M,M,M,M,M,M,M,M,M,76.84,VVTS 152000Z 01002KT 9000 FEW017 SCT040 24/23 Q1009 NOSIG,M
VVTS,3/15/2012 20:30,106.6667,10.8167,73.4,73.4,100,80,1,0,29.77,M,4.97,M,FEW,SCT,M,M,1700,4000,M,M,M,M,M,M,M,M,M,75.14,VVTS 152030Z 08001KT 8000 FEW017 SCT040 23/23 Q1008 NOSIG,M
VVTS,3/15/2012 21:00,106.6667,10.8167,73.4,73.4,100,10,2,0,29.8,M,4.97,M,FEW,SCT,M,M,1700,4000,M,M,M,M,M,M,M,M,M,75.14,VVTS 152100Z 01002KT 8000 FEW017 SCT040 23/23 Q1009 NOSIG,M
VVTS,3/15/2012 21:30,106.6667,10.8167,73.4,73.4,100,320,3,0,29.8,M,3.73,M,FEW,SCT,M,M,1700,4000,M,M,M,M,M,M,M,M,M,75.14,VVTS 152130Z 32003KT 6000 FEW017 SCT040 23/23 Q1009 NOSIG,M
VVTS,3/15/2012 22:00,106.6667,10.8167,73.4,73.4,100,M,1,0,29.8,M,1.86,M,FEW,SCT,M,M,1700,4000,M,M,BR,M,M,M,M,M,M,75.14,VVTS 152200Z VRB01KT 3000 BR FEW017 SCT040 23/23 Q1009 NOSIG,M
VVTS,3/15/2012 22:30,106.6667,10.8167,73.4,73.4,100,0,0,0,29.8,M,1.99,M,FEW,SCT,M,M,1700,4000,M,M,BR,M,M,M,M,M,M,75.14,VVTS 152230Z 00000KT 3200 BR FEW017 SCT040 23/23 Q1009 NOSIG,M
VVTS,3/15/2012 23:00,106.6667,10.8167,73.4,73.4,100,360,1,0,29.83,M,1.93,M,FEW,SCT,M,M,1700,4000,M,M,BR,M,M,M,M,M,M,75.14,VVTS 152300Z 36001KT 3100 BR FEW017 SCT040 23/23 Q1010 TEMPO TL2330 1500 BR,M
VVTS,3/15/2012 23:30,106.6667,10.8167,73.4,73.4,100,330,1,0,29.83,M,1.37,M,FEW,SCT,M,M,1700,4000,M,M,BR,M,M,M,M,M,M,75.14,VVTS 152330Z 33001KT 2200 BR FEW017 SCT040 23/23 Q1010 BECMG TL0100 5000,M
VVTS,3/16/2012 0:00,106.6667,10.8167,75.2,75.2,100,340,4,0,29.85,M,1.74,M,FEW,M,M,M,1700,M,M,M,BR,M,M,M,M,M,M,77.12,VVTS 160000Z 34004KT 2800 BR FEW017 24/24 Q1011 BECMG TL0100 5000,M
VVTS,3/16/2012 0:30,106.6667,10.8167,75.2,75.2,100,340,5,0,29.85,M,1.93,M,FEW,M,M,M,1700,M,M,M,BR,M,M,M,M,M,M,77.12,VVTS 160030Z 34005KT 3100 BR FEW017 24/24 Q1011 BECMG TL0100 5000,M
VVTS,3/16/2012 1:00,106.6667,10.8167,78.8,75.2,88.75,350,3,0,29.85,M,2.55,M,FEW,M,M,M,1700,M,M,M,BR,M,M,M,M,M,M,82.38,VVTS 160100Z 35003KT 4100 BR FEW017 26/24 Q1011 BECMG TL0100 5000,M
VVTS,3/16/2012 1:30,106.6667,10.8167,80.6,75.2,83.66,350,4,0,29.85,M,3.73,M,FEW,M,M,M,1700,M,M,M,M,M,M,M,M,M,M,86.17,VVTS 160130Z 35004KT 310V030 6000 FEW017 27/24 Q1011 NOSIG,M
VVTS,3/16/2012 2:00,106.6667,10.8167,82.4,73.4,74.28,M,3,0,29.85,M,4.97,M,FEW,M,M,M,1700,M,M,M,M,M,M,M,M,M,M,88.26,VVTS 160200Z VRB03KT 8000 FEW017 28/23 Q1011 NOSIG,M
VVTS,3/16/2012 2:30,106.6667,10.8167,84.2,73.4,70.08,M,3,0,29.88,M,4.97,M,FEW,M,M,M,1700,M,M,M,M,M,M,M,M,M,M,90.94,VVTS 160230Z VRB03KT 8000 FEW017 29/23 Q1012 NOSIG,M
VVTS,3/16/2012 3:00,106.6667,10.8167,87.8,71.6,58.78,M,3,0,29.88,M,6.21,M,FEW,M,M,M,1700,M,M,M,M,M,M,M,M,M,M,94.18,VVTS 160300Z VRB03KT 9999 FEW017 31/22 Q1012 NOSIG,M
VVTS,3/16/2012 3:30,106.6667,10.8167,89.6,69.8,52.23,80,5,0,29.85,M,6.21,M,FEW,M,M,M,1700,M,M,M,M,M,M,M,M,M,M,94.85,VVTS 160330Z 08005KT 010V170 9999 FEW017 32/21 Q1011 NOSIG,M
VVTS,3/16/2012 4:00,106.6667,10.8167,89.6,69.8,52.23,70,6,0,29.85,M,6.21,M,FEW,M,M,M,1700,M,M,M,M,M,M,M,M,M,M,94.85,VVTS 160400Z 07006KT 030V130 9999 FEW017 32/21 Q1011 NOSIG,M
VVTS,3/16/2012 4:30,106.6667,10.8167,91.4,69.8,49.36,110,5,0,29.83,M,6.21,M,FEW,M,M,M,1700,M,M,M,M,M,M,M,M,M,M,96.99,VVTS 160430Z 11005KT 060V190 9999 FEW017 33/21 Q1010 NOSIG,M
VVTS,3/16/2012 5:00,106.6667,10.8167,91.4,69.8,49.36,110,5,0,29.83,M,6.21,M,FEW,M,M,M,1700,M,M,M,M,M,M,M,M,M,M,96.99,VVTS 160500Z 11005KT 050V170 9999 FEW017 33/21 Q1010 NOSIG,M
VVTS,3/16/2012 5:30,106.6667,10.8167,93.2,69.8,46.67,150,5,0,29.8,M,6.21,M,FEW,M,M,M,1700,M,M,M,M,M,M,M,M,M,M,99.17,VVTS 160530Z 15005KT 360V210 9999 FEW017 34/21 Q1009 NOSIG,M
VVTS,3/16/2012 6:00,106.6667,10.8167,93.2,69.8,46.67,M,3,0,29.8,M,6.21,M,FEW,M,M,M,1700,M,M,M,M,M,M,M,M,M,M,99.17,VVTS 160600Z VRB03KT 9999 FEW017 34/21 Q1009 NOSIG,M
VVTS,3/16/2012 6:30,106.6667,10.8167,93.2,69.8,46.67,M,2,0,29.77,M,6.21,M,SCT,M,M,M,1700,M,M,M,M,M,M,M,M,M,M,99.17,VVTS 160630Z VRB02KT 9999 SCT017 34/21 Q1008 NOSIG,M
VVTS,3/16/2012 7:00,106.6667,10.8167,93.2,68,43.88,M,3,0,29.77,M,6.21,M,SCT,M,M,M,1700,M,M,M,M,M,M,M,M,M,M,97.67,VVTS 160700Z VRB03KT 9999 SCT017 34/20 Q1008 NOSIG,M
VVTS,3/16/2012 7:30,106.6667,10.8167,91.4,69.8,49.36,M,2,0,29.74,M,6.21,M,FEW,SCT,M,M,1500,1700,M,M,M,M,M,M,M,M,M,96.99,VVTS 160730Z VRB02KT 9999 FEW015TCU SCT017 33/21 Q1007 NOSIG,M
VVTS,3/16/2012 8:00,106.6667,10.8167,89.6,71.6,55.53,160,8,0,29.74,M,6.21,M,FEW,SCT,M,M,1500,1700,M,M,M,M,M,M,M,M,M,96.41,VVTS 160800Z 16008KT 130V200 9999 FEW015TCU SCT017 32/22 Q1007 NOSIG,M
VVTS,3/16/2012 8:30,106.6667,10.8167,78.8,73.4,83.55,250,11,0,29.74,M,3.73,M,SCT,SCT,M,M,1500,1700,M,M,#NAME?,M,M,M,M,M,M,82.03,VVTS 160830Z 25011KT 200V290 6000 -TSRA SCT015 SCT017CB 26/23 Q1007 TEMPO TL0840 2000 TSRA,M
VVTS,3/16/2012 9:00,106.6667,10.8167,84.2,75.2,74.44,200,5,0,29.71,M,6.21,M,FEW,SCT,M,M,1500,1700,M,M,M,M,M,M,M,M,M,92.45,VVTS 160900Z 20005KT 150V220 9999 FEW015CB SCT017 29/24 Q1006 NOSIG,M
VVTS,3/16/2012 9:30,106.6667,10.8167,86,73.4,66.15,140,9,0,29.71,M,6.21,M,FEW,SCT,M,M,1500,1700,M,M,M,M,M,M,M,M,M,93.45,VVTS 160930Z 14009KT 9999 FEW015CB SCT017 30/23 Q1006 NOSIG,M
VVTS,3/16/2012 10:00,106.6667,10.8167,84.2,71.6,65.95,140,9,0,29.71,M,6.21,M,FEW,M,M,M,1700,M,M,M,M,M,M,M,M,M,M,89.6,VVTS 161000Z 14009KT 9999 FEW017 29/22 Q1006 NOSIG,M
VVTS,3/16/2012 10:30,106.6667,10.8167,84.2,71.6,65.95,140,9,0,29.71,M,6.21,M,FEW,M,M,M,1700,M,M,M,M,M,M,M,M,M,M,89.6,VVTS 161030Z 14009KT 100V190 9999 FEW017 29/22 Q1006 NOSIG,M
VVTS,3/16/2012 11:00,106.6667,10.8167,84.2,71.6,65.95,150,10,0,29.74,M,6.21,M,FEW,M,M,M,1700,M,M,M,M,M,M,M,M,M,M,89.6,VVTS 161100Z 15010KT 9999 FEW017 29/22 Q1007 NOSIG,M
VVTS,3/16/2012 11:30,106.6667,10.8167,84.2,73.4,70.08,140,8,0,29.74,M,6.21,M,SCT,M,M,M,1700,M,M,M,M,M,M,M,M,M,M,90.94,VVTS 161130Z 14008KT 110V200 9999 SCT017 29/23 Q1007 NOSIG,M
VVTS,3/16/2012 12:30,106.6667,10.8167,82.4,73.4,74.28,130,7,0,29.77,M,6.21,M,FEW,SCT,M,M,1500,1700,M,M,M,M,M,M,M,M,M,88.26,VVTS 161230Z 13007KT 100V190 9999 FEW015TCU SCT017 28/23 Q1008 NOSIG,M
VVTS,3/16/2012 13:00,106.6667,10.8167,82.4,71.6,69.9,150,8,0,29.77,M,6.21,M,SCT,M,M,M,1700,M,M,M,M,M,M,M,M,M,M,87.18,VVTS 161300Z 15008KT 120V190 9999 SCT017 28/22 Q1008 NOSIG,M
VVTS,3/16/2012 14:00,106.6667,10.8167,80.6,71.6,74.11,160,8,0,29.8,M,6.21,M,SCT,M,M,M,1700,M,M,M,M,M,M,M,M,M,M,84.57,VVTS 161400Z 16008KT 130V190 9999 SCT017 27/22 Q1009 NOSIG,M
VVTS,3/16/2012 14:30,106.6667,10.8167,80.6,73.4,78.76,160,6,0,29.83,M,6.21,M,SCT,M,M,M,1700,M,M,M,M,M,M,M,M,M,M,85.32,VVTS 161430Z 16006KT 100V190 9999 SCT017 27/23 Q1010 NOSIG,M
VVTS,3/16/2012 15:00,106.6667,10.8167,80.6,73.4,78.76,130,7,0,29.83,M,6.21,M,SCT,M,M,M,1700,M,M,M,M,M,M,M,M,M,M,85.32,VVTS 161500Z 13007KT 090V160 9999 SCT017 27/23 Q1010 NOSIG,M
VVTS,3/16/2012 15:30,106.6667,10.8167,80.6,73.4,78.76,130,8,0,29.83,M,6.21,M,SCT,M,M,M,1700,M,M,M,M,M,M,M,M,M,M,85.32,VVTS 161530Z 13008KT 9999 SCT017 27/23 Q1010 NOSIG,M
VVTS,3/16/2012 16:00,106.6667,10.8167,80.6,73.4,78.76,130,7,0,29.83,M,6.21,M,SCT,M,M,M,1700,M,M,M,M,M,M,M,M,M,M,85.32,VVTS 161600Z 13007KT 9999 SCT017 27/23 Q1010 NOSIG,M
VVTS,3/16/2012 16:30,106.6667,10.8167,80.6,73.4,78.76,130,9,0,29.83,M,6.21,M,SCT,M,M,M,1700,M,M,M,M,M,M,M,M,M,M,85.32,VVTS 161630Z 13009KT 9999 SCT017 27/23 Q1010 NOSIG,M
VVTS,3/16/2012 17:00,106.6667,10.8167,80.6,73.4,78.76,130,9,0,29.8,M,6.21,M,SCT,M,M,M,1700,M,M,M,M,M,M,M,M,M,M,85.32,VVTS 161700Z 13009KT 110V180 9999 SCT017 27/23 Q1009 NOSIG,M
VVTS,3/16/2012 17:30,106.6667,10.8167,78.8,73.4,83.55,160,6,0,29.8,M,6.21,M,SCT,M,M,M,1700,M,M,M,M,M,M,M,M,M,M,82.03,VVTS 161730Z 16006KT 120V290 9999 SCT017 26/23 Q1009 NOSIG,M
VVTS,3/16/2012 18:00,106.6667,10.8167,78.8,73.4,83.55,M,3,0,29.8,M,6.21,M,SCT,M,M,M,1700,M,M,M,M,M,M,M,M,M,M,82.03,VVTS 161800Z VRB03KT 9999 SCT017 26/23 Q1009 NOSIG,M
VVTS,3/16/2012 18:30,106.6667,10.8167,78.8,73.4,83.55,140,5,0,29.8,M,6.21,M,SCT,M,M,M,1700,M,M,M,M,M,M,M,M,M,M,82.03,VVTS 161830Z 14005KT 9999 SCT017 26/23 Q1009 NOSIG,M
VVTS,3/16/2012 19:00,106.6667,10.8167,78.8,73.4,83.55,110,6,0,29.77,M,6.21,M,SCT,M,M,M,1700,M,M,M,M,M,M,M,M,M,M,82.03,VVTS 161900Z 11006KT 9999 SCT017 26/23 Q1008 NOSIG,M
VVTS,3/16/2012 19:30,106.6667,10.8167,78.8,73.4,83.55,120,6,0,29.77,M,6.21,M,SCT,M,M,M,1700,M,M,M,M,M,M,M,M,M,M,82.03,VVTS 161930Z 12006KT 9999 SCT017 26/23 Q1008 NOSIG,M
VVTS,3/16/2012 20:00,106.6667,10.8167,77,73.4,88.67,120,4,0,29.77,M,6.21,M,SCT,M,M,M,1700,M,M,M,M,M,M,M,M,M,M,78.57,VVTS 162000Z 12004KT 090V160 9999 SCT017 25/23 Q1008 NOSIG,M
VVTS,3/16/2012 20:30,106.6667,10.8167,77,73.4,88.67,M,3,0,29.77,M,6.21,M,SCT,M,M,M,1700,M,M,M,M,M,M,M,M,M,M,78.57,VVTS 162030Z VRB03KT 9999 SCT017 25/23 Q1008 NOSIG,M
VVTS,3/16/2012 21:00,106.6667,10.8167,77,73.4,88.67,110,7,0,29.77,M,6.21,M,FEW,M,M,M,1700,M,M,M,M,M,M,M,M,M,M,78.57,VVTS 162100Z 11007KT 9999 FEW017 25/23 Q1008 NOSIG,M
VVTS,3/16/2012 21:30,106.6667,10.8167,77,73.4,88.67,110,7,0,29.77,M,6.21,M,FEW,M,M,M,1700,M,M,M,M,M,M,M,M,M,M,78.57,VVTS 162130Z 11007KT 9999 FEW017 25/23 Q1008 NOSIG,M
VVTS,3/16/2012 22:00,106.6667,10.8167,77,73.4,88.67,130,5,0,29.77,M,6.21,M,FEW,M,M,M,1700,M,M,M,M,M,M,M,M,M,M,78.57,VVTS 162200Z 13005KT 9999 FEW017 25/23 Q1008 NOSIG,M
VVTS,3/16/2012 22:30,106.6667,10.8167,77,73.4,88.67,120,5,0,29.8,M,6.21,M,FEW,M,M,M,1700,M,M,M,M,M,M,M,M,M,M,78.57,VVTS 162230Z 12005KT 9999 FEW017 25/23 Q1009 NOSIG,M
VVTS,3/16/2012 23:00,106.6667,10.8167,77,73.4,88.67,130,5,0,29.8,M,6.21,M,FEW,M,M,M,1700,M,M,M,M,M,M,M,M,M,M,78.57,VVTS 162300Z 13005KT 100V160 9999 FEW017 25/23 Q1009 NOSIG,M
VVTS,3/16/2012 23:30,106.6667,10.8167,77,73.4,88.67,120,5,0,29.83,M,6.21,M,FEW,M,M,M,1700,M,M,M,M,M,M,M,M,M,M,78.57,VVTS 162330Z 12005KT 9999 FEW017 25/23 Q1010 NOSIG,M
VVTS,3/17/2012 0:00,106.6667,10.8167,78.8,73.4,83.55,100,5,0,29.83,M,6.21,M,FEW,M,M,M,1700,M,M,M,M,M,M,M,M,M,M,82.03,VVTS 170000Z 10005KT 9999 FEW017 26/23 Q1010 NOSIG,M
VVTS,3/17/2012 0:30,106.6667,10.8167,80.6,73.4,78.76,100,5,0,29.85,M,6.21,M,FEW,M,M,M,1700,M,M,M,M,M,M,M,M,M,M,85.32,VVTS 170030Z 10005KT 9999 FEW017 27/23 Q1011 NOSIG,M
VVTS,3/17/2012 1:00,106.6667,10.8167,82.4,73.4,74.28,80,4,0,29.85,M,6.21,M,FEW,M,M,M,1700,M,M,M,M,M,M,M,M,M,M,88.26,VVTS 170100Z 08004KT 050V150 9999 FEW017 28/23 Q1011 NOSIG,M
VVTS,3/17/2012 1:30,106.6667,10.8167,82.4,71.6,69.9,110,5,0,29.85,M,6.21,M,FEW,M,M,M,1700,M,M,M,M,M,M,M,M,M,M,87.18,VVTS 170130Z 11005KT 050V160 9999 FEW017 28/22 Q1011 NOSIG,M
VVTS,3/17/2012 2:00,106.6667,10.8167,84.2,71.6,65.95,100,4,0,29.88,M,6.21,M,FEW,M,M,M,1700,M,M,M,M,M,M,M,M,M,M,89.6,VVTS 170200Z 10004KT 050V160 9999 FEW017 29/22 Q1012 NOSIG,M
VVTS,3/17/2012 2:30,106.6667,10.8167,86,71.6,62.25,130,5,0,29.85,M,6.21,M,FEW,M,M,M,1700,M,M,M,M,M,M,M,M,M,M,91.92,VVTS 170230Z 13005KT 350V190 9999 FEW017 30/22 Q1011 NOSIG,M
VVTS,3/17/2012 3:00,106.6667,10.8167,87.8,71.6,58.78,120,6,0,29.85,M,6.21,M,SCT,M,M,M,1700,M,M,M,M,M,M,M,M,M,M,94.18,VVTS 170300Z 12006KT 090V160 9999 SCT017 31/22 Q1011 NOSIG,M
VVTS,3/17/2012 3:30,106.6667,10.8167,87.8,71.6,58.78,140,6,0,29.85,M,6.21,M,SCT,M,M,M,1700,M,M,M,M,M,M,M,M,M,M,94.18,VVTS 170330Z 14006KT 090V200 9999 SCT017 31/22 Q1011 NOSIG,M
VVTS,3/17/2012 4:00,106.6667,10.8167,87.8,69.8,55.29,140,6,0,29.85,M,6.21,M,BKN,M,M,M,1700,M,M,M,M,M,M,M,M,M,M,92.71,VVTS 170400Z 14006KT 090V200 9999 BKN017 31/21 Q1011 NOSIG,M
VVTS,3/17/2012 4:30,106.6667,10.8167,89.6,69.8,52.23,120,6,0,29.83,M,6.21,M,BKN,M,M,M,1700,M,M,M,M,M,M,M,M,M,M,94.85,VVTS 170430Z 12006KT 080V160 9999 BKN017 32/21 Q1010 NOSIG,M
VVTS,3/17/2012 5:00,106.6667,10.8167,89.6,68,49.1,80,4,0,29.83,M,6.21,M,BKN,M,M,M,1700,M,M,M,M,M,M,M,M,M,M,93.47,VVTS 170500Z 08004KT 300V170 9999 BKN017 32/20 Q1010 NOSIG,M
VVTS,3/17/2012 6:00,106.6667,10.8167,91.4,69.8,49.36,110,5,0,29.77,M,6.21,M,SCT,M,M,M,2000,M,M,M,M,M,M,M,M,M,M,96.99,VVTS 170600Z 11005KT 330V190 9999 SCT020 33/21 Q1008 NOSIG,M
VVTS,3/17/2012 6:30,106.6667,10.8167,91.4,69.8,49.36,170,8,0,29.77,M,6.21,M,SCT,M,M,M,2000,M,M,M,M,M,M,M,M,M,M,96.99,VVTS 170630Z 17008KT 120V210 9999 SCT020 33/21 Q1008 NOSIG,M
VVTS,3/17/2012 7:00,106.6667,10.8167,91.4,71.6,52.48,170,7,0,29.74,M,6.21,M,SCT,M,M,M,2000,M,M,M,M,M,M,M,M,M,M,98.64,VVTS 170700Z 17007KT 9999 SCT020 33/22 Q1007 NOSIG,M
VVTS,3/17/2012 7:30,106.6667,10.8167,91.4,73.4,55.77,160,10,0,29.74,M,6.21,M,SCT,M,M,M,2000,M,M,M,M,M,M,M,M,M,M,100.52,VVTS 170730Z 16010KT 130V190 9999 SCT020 33/23 Q1007 NOSIG,M
VVTS,3/17/2012 8:00,106.6667,10.8167,89.6,71.6,55.53,150,7,0,29.71,M,6.21,M,SCT,M,M,M,2000,M,M,M,M,M,M,M,M,M,M,96.41,VVTS 170800Z 15007KT 120V200 9999 SCT020 32/22 Q1006 NOSIG,M
VVTS,3/17/2012 8:30,106.6667,10.8167,89.6,69.8,52.23,150,9,0,29.71,M,6.21,M,SCT,M,M,M,2000,M,M,M,M,M,M,M,M,M,M,94.85,VVTS 170830Z 15009KT 110V190 9999 SCT020 32/21 Q1006 NOSIG,M
VVTS,3/17/2012 9:00,106.6667,10.8167,89.6,73.4,59.01,150,8,0,29.71,M,6.21,M,SCT,M,M,M,2000,M,M,M,M,M,M,M,M,M,M,98.2,VVTS 170900Z 15008KT 110V190 9999 SCT020 32/23 Q1006 NOSIG,M
VVTS,3/17/2012 10:00,106.6667,10.8167,86,71.6,62.25,180,9,0,29.74,M,6.21,M,FEW,M,M,M,2000,M,M,M,M,M,M,M,M,M,M,91.92,VVTS 171000Z 18009KT 9999 FEW020 30/22 Q1007 NOSIG,M
VVTS,3/17/2012 10:30,106.6667,10.8167,84.2,71.6,65.95,150,10,0,29.74,M,6.21,M,FEW,M,M,M,2000,M,M,M,M,M,M,M,M,M,M,89.6,VVTS 171030Z 15010KT 9999 FEW020 29/22 Q1007 NOSIG,M
VVTS,3/17/2012 11:00,106.6667,10.8167,84.2,71.6,65.95,160,9,0,29.74,M,6.21,M,FEW,M,M,M,2000,M,M,M,M,M,M,M,M,M,M,89.6,VVTS 171100Z 16009KT 9999 FEW020 29/22 Q1007 NOSIG,M
VVTS,3/17/2012 11:30,106.6667,10.8167,82.4,71.6,69.9,150,9,0,29.74,M,6.21,M,FEW,M,M,M,1700,M,M,M,M,M,M,M,M,M,M,87.18,VVTS 171130Z 15009KT 9999 FEW017 28/22 Q1007 NOSIG,M
VVTS,3/17/2012 12:00,106.6667,10.8167,82.4,73.4,74.28,150,7,0,29.77,M,6.21,M,FEW,M,M,M,1700,M,M,M,M,M,M,M,M,M,M,88.26,VVTS 171200Z 15007KT 110V170 9999 FEW017 28/23 Q1008 NOSIG,M
VVTS,3/17/2012 12:30,106.6667,10.8167,82.4,71.6,69.9,160,8,0,29.77,M,6.21,M,FEW,M,M,M,1700,M,M,M,M,M,M,M,M,M,M,87.18,VVTS 171230Z 16008KT 120V190 9999 FEW017 28/22 Q1008 NOSIG,M
VVTS,3/17/2012 13:00,106.6667,10.8167,82.4,71.6,69.9,150,7,0,29.8,M,6.21,M,FEW,M,M,M,1700,M,M,M,M,M,M,M,M,M,M,87.18,VVTS 171300Z 15007KT 120V180 9999 FEW017 28/22 Q1009 NOSIG,M
VVTS,3/17/2012 13:30,106.6667,10.8167,80.6,71.6,74.11,140,6,0,29.8,M,6.21,M,FEW,M,M,M,1700,M,M,M,M,M,M,M,M,M,M,84.57,VVTS 171330Z 14006KT 100V160 9999 FEW017 27/22 Q1009 NOSIG,M
VVTS,3/17/2012 14:00,106.6667,10.8167,80.6,73.4,78.76,110,6,0,29.83,M,6.21,M,FEW,M,M,M,1700,M,M,M,M,M,M,M,M,M,M,85.32,VVTS 171400Z 11006KT 090V170 9999 FEW017 27/23 Q1010 NOSIG,M
VVTS,3/17/2012 14:30,106.6667,10.8167,80.6,73.4,78.76,110,6,0,29.83,M,6.21,M,FEW,M,M,M,1700,M,M,M,M,M,M,M,M,M,M,85.32,VVTS 171430Z 11006KT 9999 FEW017 27/23 Q1010 NOSIG,M
VVTS,3/17/2012 15:00,106.6667,10.8167,80.6,71.6,74.11,110,5,0,29.85,M,6.21,M,FEW,M,M,M,1700,M,M,M,M,M,M,M,M,M,M,84.57,VVTS 171500Z 11005KT 9999 FEW017 27/22 Q1011 NOSIG,M
VVTS,3/17/2012 15:30,106.6667,10.8167,80.6,71.6,74.11,120,5,0,29.85,M,6.21,M,FEW,M,M,M,1700,M,M,M,M,M,M,M,M,M,M,84.57,VVTS 171530Z 12005KT 100V160 9999 FEW017 27/22 Q1011 NOSIG,M
VVTS,3/17/2012 16:00,106.6667,10.8167,80.6,71.6,74.11,120,4,0,29.85,M,6.21,M,FEW,M,M,M,1700,M,M,M,M,M,M,M,M,M,M,84.57,VVTS 171600Z 12004KT 360V150 9999 FEW017 27/22 Q1011 NOSIG,M
VVTS,3/17/2012 16:30,106.6667,10.8167,78.8,71.6,78.62,150,4,0,29.85,M,6.21,M,FEW,M,M,M,1700,M,M,M,M,M,M,M,M,M,M,81.7,VVTS 171630Z 15004KT 110V330 9999 FEW017 26/22 Q1011 NOSIG,M
VVTS,3/17/2012 17:00,106.6667,10.8167,78.8,73.4,83.55,150,5,0,29.85,M,6.21,M,FEW,M,M,M,1700,M,M,M,M,M,M,M,M,M,M,82.03,VVTS 171700Z 15005KT 9999 FEW017 26/23 Q1011 NOSIG,M
VVTS,3/17/2012 17:30,106.6667,10.8167,78.8,73.4,83.55,160,6,0,29.85,M,6.21,M,FEW,M,M,M,1700,M,M,M,M,M,M,M,M,M,M,82.03,VVTS 171730Z 16006KT 9999 FEW017 26/23 Q1011 NOSIG,M
VVTS,3/17/2012 18:00,106.6667,10.8167,78.8,73.4,83.55,160,6,0,29.83,M,6.21,M,FEW,M,M,M,1700,M,M,M,M,M,M,M,M,M,M,82.03,VVTS 171800Z 16006KT 9999 FEW017 26/23 Q1010 NOSIG,M
VVTS,3/17/2012 18:30,106.6667,10.8167,78.8,73.4,83.55,M,3,0,29.83,M,6.21,M,FEW,M,M,M,1700,M,M,M,M,M,M,M,M,M,M,82.03,VVTS 171830Z VRB03KT 9999 FEW017 26/23 Q1010 NOSIG,M
VVTS,3/17/2012 19:00,106.6667,10.8167,78.8,73.4,83.55,150,4,0,29.83,M,6.21,M,FEW,M,M,M,1700,M,M,M,M,M,M,M,M,M,M,82.03,VVTS 171900Z 15004KT 9999 FEW017 26/23 Q1010 NOSIG,M
VVTS,3/17/2012 19:30,106.6667,10.8167,78.8,73.4,83.55,M,2,0,29.8,M,6.21,M,FEW,M,M,M,1700,M,M,M,M,M,M,M,M,M,M,82.03,VVTS 171930Z VRB02KT 9999 FEW017 26/23 Q1009 NOSIG,M
VVTS,3/17/2012 20:00,106.6667,10.8167,78.8,73.4,83.55,160,4,0,29.8,M,6.21,M,FEW,M,M,M,1700,M,M,M,M,M,M,M,M,M,M,82.03,VVTS 172000Z 16004KT 9999 FEW017 26/23 Q1009 NOSIG,M
VVTS,3/17/2012 20:30,106.6667,10.8167,78.8,73.4,83.55,160,4,0,29.8,M,6.21,M,FEW,M,M,M,1700,M,M,M,M,M,M,M,M,M,M,82.03,VVTS 172030Z 16004KT 130V190 9999 FEW017 26/23 Q1009 NOSIG,M
VVTS,3/17/2012 21:00,106.6667,10.8167,78.8,73.4,83.55,130,5,0,29.8,M,6.21,M,FEW,M,M,M,1700,M,M,M,M,M,M,M,M,M,M,82.03,VVTS 172100Z 13005KT 9999 FEW017 26/23 Q1009 NOSIG,M
VVTS,3/17/2012 21:30,106.6667,10.8167,78.8,71.6,78.62,120,6,0,29.8,M,6.21,M,FEW,SCT,M,M,1700,4000,M,M,M,M,M,M,M,M,M,81.7,VVTS 172130Z 12006KT 090V160 9999 FEW017 SCT040 26/22 Q1009 NOSIG,M
VVTS,3/17/2012 22:00,106.6667,10.8167,78.8,71.6,78.62,110,7,0,29.8,M,6.21,M,FEW,SCT,M,M,1700,4000,M,M,M,M,M,M,M,M,M,81.7,VVTS 172200Z 11007KT 9999 FEW017 SCT040 26/22 Q1009 NOSIG,M
VVTS,3/17/2012 22:30,106.6667,10.8167,78.8,73.4,83.55,110,5,0,29.83,M,6.21,M,FEW,SCT,M,M,1700,4000,M,M,M,M,M,M,M,M,M,82.03,VVTS 172230Z 11005KT 9999 FEW017 SCT040 26/23 Q1010 NOSIG,M
VVTS,3/17/2012 23:00,106.6667,10.8167,77,73.4,88.67,110,4,0,29.83,M,6.21,M,FEW,SCT,M,M,1700,4000,M,M,M,M,M,M,M,M,M,78.57,VVTS 172300Z 11004KT 080V150 9999 FEW017 SCT040 25/23 Q1010 NOSIG,M
VVTS,3/17/2012 23:30,106.6667,10.8167,78.8,73.4,83.55,120,7,0,29.83,M,6.21,M,FEW,SCT,M,M,1700,4000,M,M,M,M,M,M,M,M,M,82.03,VVTS 172330Z 12007KT 100V160 9999 FEW017 SCT040 26/23 Q1010 NOSIG,M
VVTS,3/18/2012 0:00,106.6667,10.8167,78.8,73.4,83.55,130,4,0,29.85,M,6.21,M,FEW,SCT,M,M,1700,4000,M,M,M,M,M,M,M,M,M,82.03,VVTS 180000Z 13004KT 080V160 9999 FEW017 SCT040 26/23 Q1011 NOSIG,M
VVTS,3/18/2012 0:30,106.6667,10.8167,80.6,73.4,78.76,120,5,0,29.88,M,6.21,M,FEW,SCT,M,M,1700,4000,M,M,M,M,M,M,M,M,M,85.32,VVTS 180030Z 12005KT 080V160 9999 FEW017 SCT040 27/23 Q1012 NOSIG,M
VVTS,3/18/2012 1:00,106.6667,10.8167,82.4,73.4,74.28,120,7,0,29.88,M,6.21,M,SCT,SCT,M,M,1700,4000,M,M,M,M,M,M,M,M,M,88.26,VVTS 180100Z 12007KT 9999 SCT017 SCT040 28/23 Q1012 NOSIG,M
VVTS,3/18/2012 1:30,106.6667,10.8167,82.4,71.6,69.9,120,8,0,29.88,M,6.21,M,SCT,SCT,M,M,1700,4000,M,M,M,M,M,M,M,M,M,87.18,VVTS 180130Z 12008KT 090V170 9999 SCT017 SCT040 28/22 Q1012 NOSIG,M
VVTS,3/18/2012 2:00,106.6667,10.8167,82.4,71.6,69.9,120,7,0,29.88,M,6.21,M,SCT,SCT,M,M,1700,4000,M,M,M,M,M,M,M,M,M,87.18,VVTS 180200Z 12007KT 9999 SCT017 SCT040 28/22 Q1012 NOSIG,M
VVTS,3/18/2012 2:30,106.6667,10.8167,84.2,71.6,65.95,120,7,0,29.88,M,6.21,M,SCT,SCT,M,M,1700,4000,M,M,M,M,M,M,M,M,M,89.6,VVTS 180230Z 12007KT 070V150 9999 SCT017 SCT040 29/22 Q1012 NOSIG,M
VVTS,3/18/2012 3:00,106.6667,10.8167,86,71.6,62.25,140,4,0,29.91,M,6.21,M,SCT,M,M,M,1700,M,M,M,M,M,M,M,M,M,M,91.92,VVTS 180300Z 14004KT 050V230 9999 SCT017 30/22 Q1013 NOSIG,M
VVTS,3/18/2012 3:30,106.6667,10.8167,87.8,71.6,58.78,M,2,0,29.88,M,6.21,M,SCT,M,M,M,1700,M,M,M,M,M,M,M,M,M,M,94.18,VVTS 180330Z VRB02KT 9999 SCT017 31/22 Q1012 NOSIG,M
VVTS,3/18/2012 4:00,106.6667,10.8167,87.8,69.8,55.29,M,2,0,29.88,M,6.21,M,SCT,M,M,M,1700,M,M,M,M,M,M,M,M,M,M,92.71,VVTS 180400Z VRB02KT 9999 SCT017 31/21 Q1012 NOSIG,M
VVTS,3/18/2012 4:30,106.6667,10.8167,87.8,69.8,55.29,M,3,0,29.85,M,6.21,M,BKN,M,M,M,1700,M,M,M,M,M,M,M,M,M,M,92.71,VVTS 180430Z VRB03KT 9999 BKN017 31/21 Q1011 NOSIG,M
VVTS,3/18/2012 5:00,106.6667,10.8167,89.6,69.8,52.23,140,4,0,29.85,M,6.21,M,BKN,M,M,M,1700,M,M,M,M,M,M,M,M,M,M,94.85,VVTS 180500Z 14004KT 090V190 9999 BKN017 32/21 Q1011 NOSIG,M
VVTS,3/18/2012 5:30,106.6667,10.8167,89.6,71.6,55.53,M,3,0,29.83,M,6.21,M,BKN,M,M,M,1700,M,M,M,M,M,M,M,M,M,M,96.41,VVTS 180530Z VRB03KT 9999 BKN017 32/22 Q1010 NOSIG,M
VVTS,3/18/2012 6:00,106.6667,10.8167,87.8,69.8,55.29,190,6,0,29.8,M,6.21,M,SCT,SCT,M,M,1700,4000,M,M,M,M,M,M,M,M,M,92.71,VVTS 180600Z 19006KT 150V220 9999 SCT017 SCT040 31/21 Q1009 NOSIG,M
VVTS,3/18/2012 6:30,106.6667,10.8167,87.8,69.8,55.29,150,6,0,29.8,M,6.21,M,SCT,SCT,M,M,1700,4000,M,M,M,M,M,M,M,M,M,92.71,VVTS 180630Z 15006KT 120V200 9999 SCT017 SCT040 31/21 Q1009 NOSIG,M
VVTS,3/18/2012 7:00,106.6667,10.8167,89.6,69.8,52.23,170,6,0,29.77,M,6.21,M,SCT,SCT,M,M,1700,4000,M,M,M,M,M,M,M,M,M,94.85,VVTS 180700Z 17006KT 130V220 9999 SCT017 SCT040 32/21 Q1008 NOSIG,M
VVTS,3/18/2012 7:30,106.6667,10.8167,89.6,69.8,52.23,100,4,0,29.77,M,6.21,M,SCT,SCT,M,M,1700,4000,M,M,M,M,M,M,M,M,M,94.85,VVTS 180730Z 10004KT 310V270 9999 SCT017 SCT040 32/21 Q1008 NOSIG,M
VVTS,3/18/2012 8:00,106.6667,10.8167,89.6,71.6,55.53,130,5,0,29.74,M,6.21,M,FEW,BKN,M,M,1700,4000,M,M,M,M,M,M,M,M,M,96.41,VVTS 180800Z 13005KT 100V180 9999 FEW017 BKN040 32/22 Q1007 NOSIG,M
VVTS,3/18/2012 8:30,106.6667,10.8167,87.8,71.6,58.78,140,7,0,29.74,M,6.21,M,FEW,BKN,M,M,1700,4000,M,M,M,M,M,M,M,M,M,94.18,VVTS 180830Z 14007KT 100V230 9999 FEW017 BKN040 31/22 Q1007 NOSIG,M
VVTS,3/18/2012 9:00,106.6667,10.8167,87.8,71.6,58.78,170,8,0,29.74,M,6.21,M,FEW,BKN,M,M,1700,4000,M,M,M,M,M,M,M,M,M,94.18,VVTS 180900Z 17008KT 140V210 9999 FEW017 BKN040 31/22 Q1007 NOSIG,M
VVTS,3/18/2012 9:30,106.6667,10.8167,87.8,71.6,58.78,170,6,0,29.74,M,6.21,M,FEW,BKN,M,M,1700,4000,M,M,M,M,M,M,M,M,M,94.18,VVTS 180930Z 17006KT 9999 FEW017 BKN040 31/22 Q1007 NOSIG,M
VVTS,3/18/2012 10:00,106.6667,10.8167,87.8,71.6,58.78,150,8,0,29.74,M,6.21,M,FEW,BKN,M,M,1700,4000,M,M,M,M,M,M,M,M,M,94.18,VVTS 181000Z 15008KT 120V190 9999 FEW017 BKN040 31/22 Q1007 NOSIG,M
VVTS,3/18/2012 10:30,106.6667,10.8167,84.2,71.6,65.95,150,8,0,29.74,M,6.21,M,FEW,M,M,M,2000,M,M,M,M,M,M,M,M,M,M,89.6,VVTS 181030Z 15008KT 110V180 9999 FEW020 29/22 Q1007 NOSIG,M
VVTS,3/18/2012 11:00,106.6667,10.8167,82.4,71.6,69.9,150,8,0,29.74,M,6.21,M,FEW,M,M,M,2000,M,M,M,M,M,M,M,M,M,M,87.18,VVTS 181100Z 15008KT 110V200 9999 FEW020 28/22 Q1007 NOSIG,M
VVTS,3/18/2012 11:30,106.6667,10.8167,82.4,71.6,69.9,150,8,0,29.74,M,6.21,M,FEW,M,M,M,2000,M,M,M,M,M,M,M,M,M,M,87.18,VVTS 181130Z 15008KT 120V190 9999 FEW020 28/22 Q1007 NOSIG,M
VVTS,3/18/2012 12:00,106.6667,10.8167,82.4,71.6,69.9,150,10,0,29.77,M,6.21,M,FEW,M,M,M,1700,M,M,M,M,M,M,M,M,M,M,87.18,VVTS 181200Z 15010KT 110V170 9999 FEW017 28/22 Q1008 NOSIG,M
VVTS,3/18/2012 12:30,106.6667,10.8167,80.6,73.4,78.76,130,9,0,29.8,M,6.21,M,FEW,M,M,M,1700,M,M,M,M,M,M,M,M,M,M,85.32,VVTS 181230Z 13009KT 110V170 9999 FEW017 27/23 Q1009 NOSIG,M
VVTS,3/18/2012 13:00,106.6667,10.8167,80.6,71.6,74.11,150,9,0,29.8,M,6.21,M,FEW,M,M,M,1700,M,M,M,M,M,M,M,M,M,M,84.57,VVTS 181300Z 15009KT 9999 FEW017 27/22 Q1009 NOSIG,M
VVTS,3/18/2012 13:30,106.6667,10.8167,80.6,71.6,74.11,130,8,0,29.83,M,6.21,M,FEW,M,M,M,1700,M,M,M,M,M,M,M,M,M,M,84.57,VVTS 181330Z 13008KT 100V170 9999 FEW017 27/22 Q1010 NOSIG,M
VVTS,3/18/2012 14:00,106.6667,10.8167,80.6,71.6,74.11,130,8,0,29.83,M,6.21,M,FEW,M,M,M,1700,M,M,M,M,M,M,M,M,M,M,84.57,VVTS 181400Z 13008KT 100V180 9999 FEW017 27/22 Q1010 NOSIG,M
VVTS,3/18/2012 14:30,106.6667,10.8167,80.6,71.6,74.11,130,7,0,29.83,M,6.21,M,FEW,M,M,M,1700,M,M,M,M,M,M,M,M,M,M,84.57,VVTS 181430Z 13007KT 9999 FEW017 27/22 Q1010 NOSIG,M
VVTS,3/18/2012 15:00,106.6667,10.8167,78.8,73.4,83.55,140,7,0,29.85,M,6.21,M,FEW,M,M,M,1700,M,M,M,M,M,M,M,M,M,M,82.03,VVTS 181500Z 14007KT 9999 FEW017 26/23 Q1011 NOSIG,M
VVTS,3/18/2012 15:30,106.6667,10.8167,78.8,73.4,83.55,130,5,0,29.85,M,6.21,M,FEW,M,M,M,1700,M,M,M,M,M,M,M,M,M,M,82.03,VVTS 181530Z 13005KT 9999 FEW017 26/23 Q1011 NOSIG,M
VVTS,3/18/2012 16:00,106.6667,10.8167,78.8,73.4,83.55,130,4,0,29.85,M,6.21,M,FEW,M,M,M,1700,M,M,M,M,M,M,M,M,M,M,82.03,VVTS 181600Z 13004KT 100V170 9999 FEW017 26/23 Q1011 NOSIG,M
VVTS,3/18/2012 16:30,106.6667,10.8167,78.8,73.4,83.55,160,5,0,29.85,M,6.21,M,FEW,M,M,M,1700,M,M,M,M,M,M,M,M,M,M,82.03,VVTS 181630Z 16005KT 130V190 9999 FEW017 26/23 Q1011 NOSIG,M
VVTS,3/18/2012 17:00,106.6667,10.8167,78.8,73.4,83.55,170,5,0,29.85,M,6.21,M,FEW,M,M,M,1700,M,M,M,M,M,M,M,M,M,M,82.03,VVTS 181700Z 17005KT 140V220 9999 FEW017 26/23 Q1011 NOSIG,M
VVTS,3/18/2012 17:30,106.6667,10.8167,78.8,73.4,83.55,160,4,0,29.85,M,6.21,M,FEW,M,M,M,1700,M,M,M,M,M,M,M,M,M,M,82.03,VVTS 181730Z 16004KT 120V210 9999 FEW017 26/23 Q1011 NOSIG,M
VVTS,3/18/2012 18:00,106.6667,10.8167,78.8,75.2,88.75,M,3,0,29.83,M,6.21,M,FEW,M,M,M,1700,M,M,M,M,M,M,M,M,M,M,82.38,VVTS 181800Z VRB03KT 9999 FEW017 26/24 Q1010 NOSIG,M
VVTS,3/18/2012 18:30,106.6667,10.8167,78.8,75.2,88.75,M,3,0,29.83,M,6.21,M,FEW,M,M,M,1700,M,M,M,M,M,M,M,M,M,M,82.38,VVTS 181830Z VRB03KT 9999 FEW017 26/24 Q1010 NOSIG,M
VVTS,3/18/2012 19:00,106.6667,10.8167,78.8,75.2,88.75,160,4,0,29.83,M,6.21,M,FEW,M,M,M,1700,M,M,M,M,M,M,M,M,M,M,82.38,VVTS 181900Z 16004KT 9999 FEW017 26/24 Q1010 NOSIG,M
VVTS,3/18/2012 19:30,106.6667,10.8167,77,75.2,94.19,160,4,0,29.8,M,6.21,M,FEW,M,M,M,1700,M,M,M,M,M,M,M,M,M,M,78.83,VVTS 181930Z 16004KT 9999 FEW017 25/24 Q1009 NOSIG,M
VVTS,3/18/2012 20:00,106.6667,10.8167,77,75.2,94.19,170,4,0,29.8,M,6.21,M,FEW,M,M,M,1700,M,M,M,M,M,M,M,M,M,M,78.83,VVTS 182000Z 17004KT 9999 FEW017 25/24 Q1009 NOSIG,M
VVTS,3/18/2012 20:30,106.6667,10.8167,78.8,75.2,88.75,170,4,0,29.8,M,6.21,M,FEW,M,M,M,1700,M,M,M,M,M,M,M,M,M,M,82.38,VVTS 182030Z 17004KT 9999 FEW017 26/24 Q1009 NOSIG,M
VVTS,3/18/2012 21:00,106.6667,10.8167,78.8,75.2,88.75,150,4,0,29.83,M,6.21,M,SCT,M,M,M,1700,M,M,M,M,M,M,M,M,M,M,82.38,VVTS 182100Z 15004KT 120V200 9999 SCT017 26/24 Q1010 NOSIG,M
VVTS,3/18/2012 21:30,106.6667,10.8167,78.8,75.2,88.75,140,3,0,29.83,M,6.21,M,SCT,M,M,M,1700,M,M,M,M,M,M,M,M,M,M,82.38,VVTS 182130Z 14003KT 9999 SCT017 26/24 Q1010 NOSIG,M
VVTS,3/18/2012 22:00,106.6667,10.8167,78.8,75.2,88.75,130,5,0,29.83,M,6.21,M,SCT,M,M,M,1700,M,M,M,M,M,M,M,M,M,M,82.38,VVTS 182200Z 13005KT 9999 SCT017 26/24 Q1010 NOSIG,M
VVTS,3/18/2012 22:30,106.6667,10.8167,78.8,75.2,88.75,140,5,0,29.83,M,6.21,M,SCT,M,M,M,1700,M,M,M,M,M,M,M,M,M,M,82.38,VVTS 182230Z 14005KT 9999 SCT017 26/24 Q1010 NOSIG,M
VVTS,3/18/2012 23:00,106.6667,10.8167,78.8,75.2,88.75,130,6,0,29.85,M,6.21,M,BKN,M,M,M,1700,M,M,M,M,M,M,M,M,M,M,82.38,VVTS 182300Z 13006KT 9999 BKN017 26/24 Q1011 NOSIG,M
VVTS,3/18/2012 23:30,106.6667,10.8167,78.8,75.2,88.75,130,6,0,29.85,M,6.21,M,BKN,M,M,M,1700,M,M,M,M,M,M,M,M,M,M,82.38,VVTS 182330Z 13006KT 9999 BKN017 26/24 Q1011 NOSIG,M
VVTS,3/19/2012 0:00,106.6667,10.8167,78.8,75.2,88.75,120,7,0,29.85,M,6.21,M,SCT,SCT,M,M,1700,4000,M,M,M,M,M,M,M,M,M,82.38,VVTS 190000Z 12007KT 9999 SCT017 SCT040 26/24 Q1011 NOSIG,M
VVTS,3/19/2012 0:30,106.6667,10.8167,78.8,75.2,88.75,120,7,0,29.88,M,6.21,M,SCT,SCT,M,M,1700,4000,M,M,M,M,M,M,M,M,M,82.38,VVTS 190030Z 12007KT 9999 SCT017 SCT040 26/24 Q1012 NOSIG,M
VVTS,3/19/2012 1:00,106.6667,10.8167,80.6,75.2,83.66,100,6,0,29.88,M,6.21,M,SCT,SCT,M,M,1700,4000,M,M,M,M,M,M,M,M,M,86.17,VVTS 190100Z 10006KT 9999 SCT017 SCT040 27/24 Q1012 NOSIG,M
VVTS,3/19/2012 1:30,106.6667,10.8167,80.6,75.2,83.66,110,5,0,29.91,M,6.21,M,SCT,SCT,M,M,1700,4000,M,M,M,M,M,M,M,M,M,86.17,VVTS 190130Z 11005KT 9999 SCT017 SCT040 27/24 Q1013 NOSIG,M
VVTS,3/19/2012 2:00,106.6667,10.8167,82.4,73.4,74.28,130,6,0,29.91,M,6.21,M,SCT,SCT,M,M,1700,4000,M,M,M,M,M,M,M,M,M,88.26,VVTS 190200Z 13006KT 090V150 9999 SCT017 SCT040 28/23 Q1013 NOSIG,M
VVTS,3/19/2012 2:30,106.6667,10.8167,84.2,73.4,70.08,150,7,0,29.91,M,6.21,M,SCT,SCT,M,M,1700,4000,M,M,M,M,M,M,M,M,M,90.94,VVTS 190230Z 15007KT 110V170 9999 SCT017 SCT040 29/23 Q1013 NOSIG,M
VVTS,3/19/2012 3:00,106.6667,10.8167,86,71.6,62.25,130,7,0,29.88,M,6.21,M,SCT,SCT,M,M,1700,4000,M,M,M,M,M,M,M,M,M,91.92,VVTS 190300Z 13007KT 090V160 9999 SCT017 SCT040 30/22 Q1012 NOSIG,M
VVTS,3/19/2012 3:30,106.6667,10.8167,86,71.6,62.25,140,8,0,29.88,M,6.21,M,BKN,M,M,M,1700,M,M,M,M,M,M,M,M,M,M,91.92,VVTS 190330Z 14008KT 110V180 9999 BKN017 30/22 Q1012 NOSIG,M
VVTS,3/19/2012 4:00,106.6667,10.8167,87.8,69.8,55.29,110,6,0,29.88,M,6.21,M,SCT,SCT,M,M,1700,4000,M,M,M,M,M,M,M,M,M,92.71,VVTS 190400Z 11006KT 050V170 9999 SCT017 SCT040 31/21 Q1012 NOSIG,M
VVTS,3/19/2012 4:30,106.6667,10.8167,87.8,71.6,58.78,110,7,0,29.85,M,6.21,M,SCT,SCT,M,M,1700,4000,M,M,M,M,M,M,M,M,M,94.18,VVTS 190430Z 11007KT 080V150 9999 SCT017 SCT040 31/22 Q1011 NOSIG,M
VVTS,3/19/2012 5:00,106.6667,10.8167,87.8,71.6,58.78,100,5,0,29.85,M,6.21,M,SCT,M,M,M,1700,M,M,M,M,M,M,M,M,M,M,94.18,VVTS 190500Z 10005KT 050V150 9999 SCT017 31/22 Q1011 NOSIG,M
VVTS,3/19/2012 5:30,106.6667,10.8167,87.8,71.6,58.78,130,6,0,29.83,M,6.21,M,BKN,M,M,M,1700,M,M,M,M,M,M,M,M,M,M,94.18,VVTS 190530Z 13006KT 080V180 9999 BKN017 31/22 Q1010 NOSIG,M
VVTS,3/19/2012 6:00,106.6667,10.8167,87.8,69.8,55.29,M,3,0,29.83,M,6.21,M,BKN,M,M,M,1700,M,M,M,M,M,M,M,M,M,M,92.71,VVTS 190600Z VRB03KT 9999 BKN017 31/21 Q1010 NOSIG,M
VVTS,3/19/2012 6:30,106.6667,10.8167,89.6,69.8,52.23,80,4,0,29.8,M,6.21,M,BKN,M,M,M,1700,M,M,M,M,M,M,M,M,M,M,94.85,VVTS 190630Z 08004KT 020V150 9999 BKN017 32/21 Q1009 NOSIG,M
VVTS,3/19/2012 7:00,106.6667,10.8167,89.6,69.8,52.23,M,2,0,29.77,M,6.21,M,BKN,M,M,M,1700,M,M,M,M,M,M,M,M,M,M,94.85,VVTS 190700Z VRB02KT 9999 BKN017 32/21 Q1008 NOSIG,M
VVTS,3/19/2012 7:30,106.6667,10.8167,89.6,71.6,55.53,170,4,0,29.77,M,6.21,M,SCT,M,M,M,1700,M,M,M,M,M,M,M,M,M,M,96.41,VVTS 190730Z 17004KT 070V220 9999 SCT017 32/22 Q1008 NOSIG,M
VVTS,3/19/2012 8:00,106.6667,10.8167,89.6,69.8,52.23,160,4,0,29.74,M,6.21,M,SCT,M,M,M,1700,M,M,M,M,M,M,M,M,M,M,94.85,VVTS 190800Z 16004KT 080V230 9999 SCT017 32/21 Q1007 NOSIG,M
VVTS,3/19/2012 8:30,106.6667,10.8167,89.6,69.8,52.23,M,3,0,29.71,M,6.21,M,SCT,M,M,M,1700,M,M,M,M,M,M,M,M,M,M,94.85,VVTS 190830Z VRB03KT 9999 SCT017 32/21 Q1006 NOSIG,M
VVTS,3/19/2012 9:00,106.6667,10.8167,89.6,69.8,52.23,M,2,0,29.71,M,6.21,M,SCT,M,M,M,1700,M,M,M,M,M,M,M,M,M,M,94.85,VVTS 190900Z VRB02KT 9999 SCT017 32/21 Q1006 NOSIG,M
VVTS,3/19/2012 9:30,106.6667,10.8167,89.6,69.8,52.23,M,2,0,29.71,M,6.21,M,SCT,M,M,M,1700,M,M,M,M,M,M,M,M,M,M,94.85,VVTS 190930Z VRB02KT 9999 SCT017 32/21 Q1006 NOSIG,M
VVTS,3/19/2012 10:00,106.6667,10.8167,87.8,71.6,58.78,170,7,0,29.74,M,6.21,M,SCT,M,M,M,1700,M,M,M,M,M,M,M,M,M,M,94.18,VVTS 191000Z 17007KT 9999 SCT017 31/22 Q1007 NOSIG,M
VVTS,3/19/2012 10:30,106.6667,10.8167,87.8,71.6,58.78,160,8,0,29.74,M,6.21,M,SCT,M,M,M,1700,M,M,M,M,M,M,M,M,M,M,94.18,VVTS 191030Z 16008KT 9999 SCT017 31/22 Q1007 NOSIG,M
VVTS,3/19/2012 11:00,106.6667,10.8167,84.2,69.8,62.03,160,8,0,29.74,M,6.21,M,FEW,M,M,M,2000,M,M,M,M,M,M,M,M,M,M,88.43,VVTS 191100Z 16008KT 9999 FEW020 29/21 Q1007 NOSIG,M
VVTS,3/19/2012 11:30,106.6667,10.8167,84.2,66.2,54.8,160,7,0,29.77,M,6.21,M,FEW,M,M,M,2000,M,M,M,M,M,M,M,M,M,M,86.5,VVTS 191130Z 16007KT 130V200 9999 FEW020 29/19 Q1008 NOSIG,M
VVTS,3/19/2012 12:00,106.6667,10.8167,82.4,66.2,58.08,150,9,0,29.77,M,6.21,M,FEW,M,M,M,2000,M,M,M,M,M,M,M,M,M,M,84.63,VVTS 191200Z 15009KT 9999 FEW020 28/19 Q1008 NOSIG,M
VVTS,3/19/2012 12:30,106.6667,10.8167,82.4,69.8,65.74,160,8,0,29.8,M,6.21,M,FEW,M,M,M,2000,M,M,M,M,M,M,M,M,M,M,86.22,VVTS 191230Z 16008KT 120V200 9999 FEW020 28/21 Q1009 NOSIG,M
VVTS,3/19/2012 13:00,106.6667,10.8167,82.4,69.8,65.74,160,6,0,29.8,M,6.21,M,FEW,M,M,M,2000,M,M,M,M,M,M,M,M,M,M,86.22,VVTS 191300Z 16006KT 130V190 9999 FEW020 28/21 Q1009 NOSIG,M
VVTS,3/19/2012 13:30,106.6667,10.8167,80.6,73.4,78.76,150,7,0,29.83,M,6.21,M,FEW,M,M,M,2000,M,M,M,M,M,M,M,M,M,M,85.32,VVTS 191330Z 15007KT 120V190 9999 FEW020 27/23 Q1010 NOSIG,M
VVTS,3/19/2012 14:00,106.6667,10.8167,80.6,73.4,78.76,140,7,0,29.83,M,6.21,M,FEW,M,M,M,2000,M,M,M,M,M,M,M,M,M,M,85.32,VVTS 191400Z 14007KT 100V190 9999 FEW020 27/23 Q1010 NOSIG,M
VVTS,3/19/2012 14:30,106.6667,10.8167,80.6,75.2,83.66,130,4,0,29.85,M,6.21,M,FEW,M,M,M,2000,M,M,M,M,M,M,M,M,M,M,86.17,VVTS 191430Z 13004KT 100V170 9999 FEW020 27/24 Q1011 NOSIG,M
VVTS,3/19/2012 15:00,106.6667,10.8167,80.6,75.2,83.66,140,8,0,29.85,M,6.21,M,FEW,M,M,M,2000,M,M,M,M,M,M,M,M,M,M,86.17,VVTS 191500Z 14008KT 9999 FEW020 27/24 Q1011 NOSIG,M
VVTS,3/19/2012 15:30,106.6667,10.8167,80.6,75.2,83.66,120,6,0,29.85,M,6.21,M,FEW,M,M,M,2000,M,M,M,M,M,M,M,M,M,M,86.17,VVTS 191530Z 12006KT 090V160 9999 FEW020 27/24 Q1011 NOSIG,M
VVTS,3/19/2012 16:00,106.6667,10.8167,80.6,75.2,83.66,120,6,0,29.85,M,6.21,M,FEW,M,M,M,2000,M,M,M,M,M,M,M,M,M,M,86.17,VVTS 191600Z 12006KT 9999 FEW020 27/24 Q1011 NOSIG,M
VVTS,3/19/2012 16:30,106.6667,10.8167,80.6,75.2,83.66,130,4,0,29.85,M,6.21,M,FEW,M,M,M,2000,M,M,M,M,M,M,M,M,M,M,86.17,VVTS 191630Z 13004KT 100V160 9999 FEW020 27/24 Q1011 NOSIG,M
VVTS,3/19/2012 17:00,106.6667,10.8167,80.6,75.2,83.66,160,6,0,29.85,M,6.21,M,FEW,M,M,M,2000,M,M,M,M,M,M,M,M,M,M,86.17,VVTS 191700Z 16006KT 130V210 9999 FEW020 27/24 Q1011 NOSIG,M
VVTS,3/19/2012 17:30,106.6667,10.8167,80.6,75.2,83.66,130,6,0,29.85,M,6.21,M,FEW,M,M,M,2000,M,M,M,M,M,M,M,M,M,M,86.17,VVTS 191730Z 13006KT 100V170 9999 FEW020 27/24 Q1011 NOSIG,M
VVTS,3/19/2012 18:00,106.6667,10.8167,78.8,75.2,88.75,140,6,0,29.83,M,6.21,M,FEW,M,M,M,2000,M,M,M,M,M,M,M,M,M,M,82.38,VVTS 191800Z 14006KT 9999 FEW020 26/24 Q1010 NOSIG,M
VVTS,3/19/2012 18:30,106.6667,10.8167,78.8,73.4,83.55,140,6,0,29.83,M,6.21,M,FEW,SCT,M,M,1700,4000,M,M,M,M,M,M,M,M,M,82.03,VVTS 191830Z 14006KT 9999 FEW017 SCT040 26/23 Q1010 NOSIG,M
VVTS,3/19/2012 19:00,106.6667,10.8167,78.8,73.4,83.55,160,5,0,29.8,M,6.21,M,FEW,SCT,M,M,1700,4000,M,M,M,M,M,M,M,M,M,82.03,VVTS 191900Z 16005KT 130V190 9999 FEW017 SCT040 26/23 Q1009 NOSIG,M
VVTS,3/19/2012 19:30,106.6667,10.8167,78.8,73.4,83.55,150,6,0,29.8,M,6.21,M,FEW,SCT,M,M,1700,4000,M,M,M,M,M,M,M,M,M,82.03,VVTS 191930Z 15006KT 9999 FEW017 SCT040 26/23 Q1009 NOSIG,M
VVTS,3/19/2012 20:00,106.6667,10.8167,78.8,73.4,83.55,140,5,0,29.8,M,6.21,M,FEW,SCT,M,M,1700,4000,M,M,M,M,M,M,M,M,M,82.03,VVTS 192000Z 14005KT 9999 FEW017 SCT040 26/23 Q1009 NOSIG,M
VVTS,3/19/2012 20:30,106.6667,10.8167,78.8,73.4,83.55,150,6,0,29.8,M,6.21,M,FEW,SCT,M,M,1700,4000,M,M,M,M,M,M,M,M,M,82.03,VVTS 192030Z 15006KT 9999 FEW017 SCT040 26/23 Q1009 NOSIG,M
VVTS,3/19/2012 21:00,106.6667,10.8167,78.8,73.4,83.55,140,3,0,29.8,M,6.21,M,FEW,SCT,M,M,1700,4000,M,M,M,M,M,M,M,M,M,82.03,VVTS 192100Z 14003KT 9999 FEW017 SCT040 26/23 Q1009 NOSIG,M
VVTS,3/19/2012 21:30,106.6667,10.8167,78.8,73.4,83.55,M,3,0,29.8,M,6.21,M,FEW,SCT,M,M,1700,4000,M,M,M,M,M,M,M,M,M,82.03,VVTS 192130Z VRB03KT 9999 FEW017 SCT040 26/23 Q1009 NOSIG,M
VVTS,3/19/2012 22:00,106.6667,10.8167,78.8,73.4,83.55,160,3,0,29.8,M,6.21,M,FEW,SCT,M,M,1700,4000,M,M,M,M,M,M,M,M,M,82.03,VVTS 192200Z 16003KT 9999 FEW017 SCT040 26/23 Q1009 NOSIG,M
VVTS,3/19/2012 22:30,106.6667,10.8167,77,75.2,94.19,M,2,0,29.83,M,6.21,M,FEW,SCT,M,M,1700,4000,M,M,M,M,M,M,M,M,M,78.83,VVTS 192230Z VRB02KT 9999 FEW017 SCT040 25/24 Q1010 NOSIG,M
VVTS,3/19/2012 23:00,106.6667,10.8167,75.2,73.4,94.14,M,2,0,29.83,M,6.21,M,FEW,SCT,M,M,1700,4000,M,M,M,M,M,M,M,M,M,76.84,VVTS 192300Z VRB02KT 9999 FEW017 SCT040 24/23 Q1010 NOSIG,M
VVTS,3/20/2012 0:00,106.6667,10.8167,78.8,75.2,88.75,0,0,0,29.85,M,6.21,M,FEW,SCT,M,M,1700,4000,M,M,M,M,M,M,M,M,M,82.38,VVTS 200000Z 00000KT 9999 FEW017 SCT040 26/24 Q1011 NOSIG,M
VVTS,3/20/2012 0:30,106.6667,10.8167,80.6,73.4,78.76,M,2,0,29.85,M,6.21,M,FEW,M,M,M,1700,M,M,M,M,M,M,M,M,M,M,85.32,VVTS 200030Z VRB02KT 9999 FEW017 27/23 Q1011 NOSIG,M
VVTS,3/20/2012 1:00,106.6667,10.8167,80.6,73.4,78.76,120,5,0,29.85,M,6.21,M,SCT,M,M,M,1700,M,M,M,M,M,M,M,M,M,M,85.32,VVTS 200100Z 12005KT 070V150 9999 SCT017 27/23 Q1011 NOSIG,M
VVTS,3/20/2012 1:30,106.6667,10.8167,82.4,73.4,74.28,150,4,0,29.88,M,6.21,M,SCT,M,M,M,1700,M,M,M,M,M,M,M,M,M,M,88.26,VVTS 200130Z 15004KT 080V210 9999 SCT017 28/23 Q1012 NOSIG,M
VVTS,3/20/2012 2:00,106.6667,10.8167,82.4,73.4,74.28,180,4,0,29.88,M,6.21,M,SCT,M,M,M,1700,M,M,M,M,M,M,M,M,M,M,88.26,VVTS 200200Z 18004KT 130V210 9999 SCT017 28/23 Q1012 NOSIG,M
VVTS,3/20/2012 2:30,106.6667,10.8167,86,73.4,66.15,M,3,0,29.88,M,6.21,M,SCT,M,M,M,1700,M,M,M,M,M,M,M,M,M,M,93.45,VVTS 200230Z VRB03KT 9999 SCT017 30/23 Q1012 NOSIG,M
VVTS,3/20/2012 3:00,106.6667,10.8167,M,M,M,M,3,0,29.5,M,M,M,M,M,M,M,M,M,M,M,M,M,M,M,M,M,M,M,VVTS 200300Z VRB03KT 999 Q1012 NOSIG,M
VVTS,3/20/2012 3:30,106.6667,10.8167,84.2,71.6,65.95,M,3,0,29.88,M,6.21,M,BKN,M,M,M,1700,M,M,M,M,M,M,M,M,M,M,89.6,VVTS 200330Z VRB03KT 9999 BKN017 29/22 Q1012 NOSIG,M
VVTS,3/20/2012 4:00,106.6667,10.8167,87.8,71.6,58.78,M,2,0,29.88,M,6.21,M,BKN,M,M,M,1700,M,M,M,M,M,M,M,M,M,M,94.18,VVTS 200400Z VRB02KT 9999 BKN017 31/22 Q1012 NOSIG,M
VVTS,3/20/2012 4:30,106.6667,10.8167,87.8,71.6,58.78,M,3,0,29.85,M,6.21,M,BKN,M,M,M,1700,M,M,M,M,M,M,M,M,M,M,94.18,VVTS 200430Z VRB03KT 9999 BKN017 31/22 Q1011 NOSIG,M
VVTS,3/20/2012 5:00,106.6667,10.8167,89.6,71.6,55.53,M,3,0,29.83,M,6.21,M,BKN,M,M,M,1700,M,M,M,M,M,M,M,M,M,M,96.41,VVTS 200500Z VRB03KT 9999 BKN017 32/22 Q1010 NOSIG,M
VVTS,3/20/2012 5:30,106.6667,10.8167,89.6,71.6,55.53,M,1,0,29.83,M,6.21,M,BKN,M,M,M,1700,M,M,M,M,M,M,M,M,M,M,96.41,VVTS 200530Z VRB01KT 9999 BKN017 32/22 Q1010 NOSIG,M
VVTS,3/20/2012 6:00,106.6667,10.8167,89.6,69.8,52.23,M,2,0,29.8,M,6.21,M,BKN,M,M,M,2000,M,M,M,M,M,M,M,M,M,M,94.85,VVTS 200600Z VRB02KT 9999 BKN020 32/21 Q1009 NOSIG,M
VVTS,3/20/2012 6:30,106.6667,10.8167,91.4,69.8,49.36,M,1,0,29.77,M,6.21,M,BKN,M,M,M,2000,M,M,M,M,M,M,M,M,M,M,96.99,VVTS 200630Z VRB01KT 9999 BKN020 33/21 Q1008 NOSIG,M
VVTS,3/20/2012 7:00,106.6667,10.8167,91.4,69.8,49.36,M,3,0,29.74,M,6.21,M,BKN,M,M,M,2000,M,M,M,M,M,M,M,M,M,M,96.99,VVTS 200700Z VRB03KT 9999 BKN020 33/21 Q1007 NOSIG,M
VVTS,3/20/2012 7:30,106.6667,10.8167,93.2,69.8,46.67,250,4,0,29.74,M,6.21,M,BKN,M,M,M,2000,M,M,M,M,M,M,M,M,M,M,99.17,VVTS 200730Z 25004KT 200V310 9999 BKN020 34/21 Q1007 NOSIG,M
VVTS,3/20/2012 8:00,106.6667,10.8167,91.4,69.8,49.36,M,2,0,29.71,M,6.21,M,BKN,M,M,M,1700,M,M,M,M,M,M,M,M,M,M,96.99,VVTS 200800Z VRB02KT 9999 BKN017 33/21 Q1006 NOSIG,M
VVTS,3/20/2012 8:30,106.6667,10.8167,91.4,69.8,49.36,230,5,0,29.71,M,6.21,M,FEW,SCT,M,M,1500,1700,M,M,M,M,M,M,M,M,M,96.99,VVTS 200830Z 23005KT 180V250 9999 FEW015TCU SCT017 33/21 Q1006 NOSIG,M
VVTS,3/20/2012 9:00,106.6667,10.8167,89.6,69.8,52.23,180,6,0,29.71,M,6.21,M,FEW,SCT,M,M,1500,1700,M,M,M,M,M,M,M,M,M,94.85,VVTS 200900Z 18006KT 9999 FEW015TCU SCT017 32/21 Q1006 N OSIG,M
VVTS,3/20/2012 9:30,106.6667,10.8167,86,73.4,66.15,160,4,0,29.71,M,4.97,M,FEW,SCT,M,M,1500,1700,M,M,M,M,M,M,M,M,M,93.45,VVTS 200930Z 16004KT 8000 FEW015CB SCT017 30/23 Q1006 NOSIG,M
VVTS,3/20/2012 10:00,106.6667,10.8167,86,73.4,66.15,170,7,0,29.74,M,6.21,M,FEW,SCT,M,M,1500,1700,M,M,M,M,M,M,M,M,M,93.45,VVTS 201000Z 17007KT 9999 FEW015TCU SCT017 30/23 Q1007 NOSIG,M
VVTS,3/20/2012 10:30,106.6667,10.8167,84.2,71.6,65.95,150,8,0,29.74,M,6.21,M,FEW,SCT,M,M,1500,1700,M,M,M,M,M,M,M,M,M,89.6,VVTS 201030Z 15008KT 120V180 9999 FEW015TCU SCT017 29/22 Q1007 NOSIG,M
VVTS,3/20/2012 11:00,106.6667,10.8167,84.2,73.4,70.08,180,6,0,29.74,M,6.21,M,SCT,M,M,M,1700,M,M,M,M,M,M,M,M,M,M,90.94,VVTS 201100Z 18006KT 9999 SCT017 29/23 Q1007 NOSIG,M
VVTS,3/20/2012 11:30,106.6667,10.8167,84.2,73.4,70.08,190,5,0,29.74,M,6.21,M,FEW,SCT,M,M,1700,4000,M,M,M,M,M,M,M,M,M,90.94,VVTS 201130Z 19005KT 170V230 9999 FEW017 SCT040 29/23 Q1007 NOSIG,M
VVTS,3/20/2012 12:00,106.6667,10.8167,82.4,73.4,74.28,160,6,0,29.77,M,6.21,M,FEW,SCT,M,M,1700,4000,M,M,M,M,M,M,M,M,M,88.26,VVTS 201200Z 16006KT 9999 FEW017 SCT040 28/23 Q1008 NOSIG,M
VVTS,3/20/2012 12:30,106.6667,10.8167,82.4,73.4,74.28,160,5,0,29.8,M,6.21,M,FEW,SCT,M,M,1700,4000,M,M,M,M,M,M,M,M,M,88.26,VVTS 201230Z 16005KT 9999 FEW017 SCT040 28/23 Q1009 NOSIG,M
VVTS,3/20/2012 13:00,106.6667,10.8167,82.4,75.2,78.9,150,4,0,29.8,M,6.21,M,FEW,SCT,M,M,1700,4000,M,M,M,M,M,M,M,M,M,89.48,VVTS 201300Z 15004KT 9999 FEW017 SCT040 28/24 Q1009 NOSIG,M
VVTS,3/20/2012 13:30,106.6667,10.8167,82.4,75.2,78.9,M,2,0,29.8,M,6.21,M,FEW,SCT,M,M,1700,4000,M,M,M,M,M,M,M,M,M,89.48,VVTS 201330Z VRB02KT 9999 FEW017 SCT040 28/24 Q1009 NOSIG,M
VVTS,3/20/2012 14:00,106.6667,10.8167,82.4,73.4,74.28,150,4,0,29.83,M,6.21,M,FEW,SCT,M,M,1700,4000,M,M,M,M,M,M,M,M,M,88.26,VVTS 201400Z 15004KT 120V190 9999 FEW017 SCT040 28/23 Q1010 NOSIG,M
VVTS,3/20/2012 14:30,106.6667,10.8167,82.4,73.4,74.28,180,4,0,29.83,M,6.21,M,FEW,SCT,M,M,1700,4000,M,M,M,M,M,M,M,M,M,88.26,VVTS 201430Z 18004KT 9999 FEW017 SCT040 28/23 Q1010 NOSIG,M
VVTS,3/20/2012 15:00,106.6667,10.8167,80.6,73.4,78.76,160,6,0,29.83,M,6.21,M,FEW,M,M,M,1700,M,M,M,M,M,M,M,M,M,M,85.32,VVTS 201500Z 16006KT 9999 FEW017 27/23 Q1010 NOSIG,M
VVTS,3/20/2012 15:30,106.6667,10.8167,80.6,73.4,78.76,160,6,0,29.85,M,6.21,M,FEW,SCT,M,M,1700,4000,M,M,M,M,M,M,M,M,M,85.32,VVTS 201530Z 16006KT 9999 FEW017 SCT040 27/23 Q1011 NOSIG,M
VVTS,3/20/2012 16:00,106.6667,10.8167,80.6,73.4,78.76,170,6,0,29.83,M,6.21,M,FEW,SCT,M,M,1700,4000,M,M,M,M,M,M,M,M,M,85.32,VVTS 201600Z 17006KT 9999 FEW017 SCT040 27/23 Q1010 NOSIG,M
VVTS,3/20/2012 16:30,106.6667,10.8167,80.6,73.4,78.76,150,6,0,29.83,M,6.21,M,FEW,SCT,M,M,1700,4000,M,M,M,M,M,M,M,M,M,85.32,VVTS 201630Z 15006KT 9999 FEW017 SCT040 27/23 Q1010 NOSIG,M
VVTS,3/20/2012 17:00,106.6667,10.8167,80.6,73.4,78.76,160,6,0,29.83,M,6.21,M,FEW,SCT,M,M,1700,4000,M,M,M,M,M,M,M,M,M,85.32,VVTS 201700Z 16006KT 9999 FEW017 SCT040 27/23 Q1010 NOSIG,M
VVTS,3/20/2012 17:30,106.6667,10.8167,80.6,71.6,74.11,170,6,0,29.83,M,6.21,M,FEW,SCT,M,M,1700,4000,M,M,M,M,M,M,M,M,M,84.57,VVTS 201730Z 17006KT 9999 FEW017 SCT040 27/22 Q1010 NOSIG,M
VVTS,3/20/2012 18:00,106.6667,10.8167,80.6,71.6,74.11,170,7,0,29.8,M,6.21,M,FEW,SCT,M,M,1700,4000,M,M,M,M,M,M,M,M,M,84.57,VVTS 201800Z 17007KT 9999 FEW017 SCT040 27/22 Q1009 NOSIG,M
VVTS,3/20/2012 18:30,106.6667,10.8167,80.6,71.6,74.11,160,6,0,29.8,M,6.21,M,FEW,SCT,M,M,1700,4000,M,M,M,M,M,M,M,M,M,84.57,VVTS 201830Z 16006KT 9999 FEW017 SCT040 27/22 Q1009 NOSIG,M
VVTS,3/20/2012 19:00,106.6667,10.8167,80.6,71.6,74.11,160,4,0,29.8,M,6.21,M,FEW,SCT,M,M,1700,4000,M,M,M,M,M,M,M,M,M,84.57,VVTS 201900Z 16004KT 9999 FEW017 SCT040 27/22 Q1009 NOSIG,M
VVTS,3/20/2012 19:30,106.6667,10.8167,80.6,71.6,74.11,160,5,0,29.77,M,6.21,M,FEW,SCT,M,M,1700,4000,M,M,M,M,M,M,M,M,M,84.57,VVTS 201930Z 16005KT 9999 FEW017 SCT040 27/22 Q1008 NOSIG,M
VVTS,3/20/2012 20:00,106.6667,10.8167,80.6,71.6,74.11,170,4,0,29.77,M,6.21,M,FEW,SCT,M,M,1700,4000,M,M,M,M,M,M,M,M,M,84.57,VVTS 202000Z 17004KT 9999 FEW017 SCT040 27/22 Q1008 NOSIG,M
VVTS,3/20/2012 20:30,106.6667,10.8167,80.6,71.6,74.11,M,3,0,29.77,M,6.21,M,FEW,SCT,M,M,1700,4000,M,M,M,M,M,M,M,M,M,84.57,VVTS 202030Z VRB03KT 9999 FEW017 SCT040 27/22 Q1008 NOSIG,M
VVTS,3/20/2012 21:00,106.6667,10.8167,80.6,71.6,74.11,150,5,0,29.77,M,6.21,M,FEW,SCT,M,M,1700,4000,M,M,M,M,M,M,M,M,M,84.57,VVTS 202100Z 15005KT 9999 FEW017 SCT040 27/22 Q1008 NOSIG,M
VVTS,3/20/2012 21:30,106.6667,10.8167,80.6,71.6,74.11,150,5,0,29.77,M,6.21,M,FEW,SCT,M,M,1700,4000,M,M,M,M,M,M,M,M,M,84.57,VVTS 202130Z 15005KT 9999 FEW017 SCT040 27/22 Q1008 NOSIG,M
VVTS,3/20/2012 22:00,106.6667,10.8167,80.6,71.6,74.11,140,4,0,29.8,M,6.21,M,FEW,SCT,M,M,1700,4000,M,M,M,M,M,M,M,M,M,84.57,VVTS 202200Z 14004KT 9999 FEW017 SCT040 27/22 Q1009 NOSIG,M
VVTS,3/20/2012 22:30,106.6667,10.8167,80.6,73.4,78.76,M,3,0,29.8,M,6.21,M,FEW,SCT,M,M,1700,4000,M,M,M,M,M,M,M,M,M,85.32,VVTS 202230Z VRB03KT 9999 FEW017 SCT040 27/23 Q1009 NOSIG,M
VVTS,3/20/2012 23:00,106.6667,10.8167,80.6,73.4,78.76,M,3,0,29.83,M,4.97,M,FEW,BKN,M,M,1500,1700,M,M,#NAME?,M,M,M,M,M,M,85.32,VVTS 202300Z VRB03KT 8000 -RA FEW015TCU BKN017 27/23 Q1010 NOSIG,M
VVTS,3/20/2012 23:30,106.6667,10.8167,78.8,77,94.23,50,3,0,29.83,M,6.21,M,BKN,M,M,M,1500,M,M,M,M,M,M,M,M,M,M,82.75,VVTS 202330Z 05003KT 9999 BKN015 26/25 Q1010 NOSIG,M
VVTS,3/21/2012 0:00,106.6667,10.8167,78.8,77,94.23,60,5,0,29.83,M,4.97,M,BKN,M,M,M,1500,M,M,M,M,M,M,M,M,M,M,82.75,VVTS 210000Z 06005KT 8000 BKN015 26/25 Q1010 NOSIG,M
VVTS,3/21/2012 0:30,106.6667,10.8167,78.8,75.2,88.75,90,5,0,29.85,M,5.59,M,BKN,M,M,M,1500,M,M,M,M,M,M,M,M,M,M,82.38,VVTS 210030Z 09005KT 9000 BKN015 26/24 Q1011 NOSIG,M
VVTS,3/21/2012 1:00,106.6667,10.8167,80.6,75.2,83.66,M,3,0,29.85,M,6.21,M,FEW,SCT,M,M,1700,4000,M,M,M,M,M,M,M,M,M,86.17,VVTS 210100Z VRB03KT 9999 FEW017 SCT040 27/24 Q1011 NOSIG,M
VVTS,3/21/2012 1:30,106.6667,10.8167,82.4,75.2,78.9,50,4,0,29.85,M,5.59,M,SCT,SCT,M,M,1700,4000,M,M,M,M,M,M,M,M,M,89.48,VVTS 210130Z 05004KT 010V110 9000 SCT017 SCT040 28/24 Q1011 NOSIG,M
VVTS,3/21/2012 2:00,106.6667,10.8167,82.4,75.2,78.9,M,1,0,29.85,M,4.35,M,SCT,SCT,M,M,1700,4000,M,M,M,M,M,M,M,M,M,89.48,VVTS 210200Z VRB01KT 7000 SCT017 SCT040 28/24 Q1011 NOSIG,M
VVTS,3/21/2012 2:30,106.6667,10.8167,82.4,75.2,78.9,M,2,0,29.85,M,6.21,M,SCT,SCT,M,M,1700,4000,M,M,M,M,M,M,M,M,M,89.48,VVTS 210230Z VRB02KT 9999 SCT017 SCT040 28/24 Q1011 NOSIG,M
VVTS,3/21/2012 3:00,106.6667,10.8167,86,75.2,70.27,20,4,0,29.85,M,6.21,M,BKN,M,M,M,2000,M,M,M,M,M,M,M,M,M,M,95.19,VVTS 210300Z 02004KT 320V090 9999 BKN020 30/24 Q1011 NOSIG,M
VVTS,3/21/2012 3:30,106.6667,10.8167,87.8,75.2,66.35,80,5,0,29.85,M,5.59,M,BKN,M,M,M,2000,M,M,M,M,M,M,M,M,M,M,97.76,VVTS 210330Z 08005KT 020V120 9000 BKN020 31/24 Q1011 NOSIG,M
VVTS,3/21/2012 4:00,106.6667,10.8167,89.6,73.4,59.01,60,5,0,29.85,M,6.21,M,BKN,M,M,M,2000,M,M,M,M,M,M,M,M,M,M,98.2,VVTS 210400Z 06005KT 350V120 9999 BKN020 32/23 Q1011 NOSIG,M
VVTS,3/21/2012 4:30,106.6667,10.8167,89.6,73.4,59.01,M,2,0,29.83,M,6.21,M,FEW,SCT,M,M,1500,1700,M,M,M,M,M,M,M,M,M,98.2,VVTS 210430Z VRB02KT 9999 FEW015TCU SCT017 32/23 Q1010 NOSIG,M
VVTS,3/21/2012 5:00,106.6667,10.8167,89.6,73.4,59.01,M,2,0,29.8,M,5.59,M,SCT,SCT,M,M,1500,1700,M,M,M,M,M,M,M,M,M,98.2,VVTS 210500Z VRB02KT 9000 SCT015 SCT017CB 32/23 Q1009 TEMPO TL0535 3000 TSRA,M
VVTS,3/21/2012 5:30,106.6667,10.8167,86,75.2,70.27,220,7,0,29.8,M,6.21,M,SCT,SCT,M,M,1500,1700,M,M,TS,M,M,M,M,M,M,95.19,VVTS 210530Z 22007KT 180V240 9999 TS SCT015 SCT017CB 30/24 Q1009 TEMPO TL0535 3000 TSRA,M
VVTS,3/21/2012 6:00,106.6667,10.8167,75.2,73.4,94.14,150,10,0,29.77,M,4.97,M,BKN,SCT,M,M,1500,1700,M,M,#NAME?,M,M,M,M,M,M,76.84,VVTS 210600Z 15010KT 100V190 8000 -TSRA BKN015 SCT017CB 24/23 Q1008 TEMPO TL0605 3000 TSRA,M
VVTS,3/21/2012 6:30,106.6667,10.8167,77,75.2,94.19,200,8,0,29.77,M,4.35,M,SCT,SCT,M,M,1500,1700,M,M,TS,M,M,M,M,M,M,78.83,VVTS 210630Z 20008KT 7000 TS SCT015 SCT017CB 25/24 Q1008 TEMPO TL0705 1000 TSRA,M
VVTS,3/21/2012 7:00,106.6667,10.8167,77,73.4,88.67,50,11,0,29.77,M,6.21,M,BKN,SCT,M,M,1300,1500,M,M,TS,M,M,M,M,M,M,78.57,VVTS 210700Z 05011KT 350V080 9999 TS BKN013 SCT015CB 25/23 Q1008 TEMPO TL0735 22008G20KT 1000 +TSRA,M
VVTS,3/21/2012 7:30,106.6667,10.8167,73.4,73.4,100,220,4,0,29.77,M,0.93,M,BKN,SCT,M,M,1000,1300,M,M,#NAME?,M,M,M,M,M,M,75.14,VVTS 210730Z 22004KT 060V020 1500W R07L/0900V1500U +TSRA BKN010 SCT013CB 23/23 Q1008 BECMG TL0805 4000 TSRA,M
VVTS,3/21/2012 8:00,106.6667,10.8167,73.4,73.4,100,210,7,0,29.74,M,4.97,M,SCT,SCT,M,M,1300,1500,M,M,#NAME?,M,M,M,M,M,M,75.14,VVTS 210800Z 21007KT 8000 -TSRA SCT013 SCT015CB 23/23 Q1007 NOSIG,M
VVTS,3/21/2012 8:30,106.6667,10.8167,73.4,73.4,100,M,3,0,29.74,M,4.97,M,FEW,SCT,BKN,M,1500,1700,4000,M,#NAME?,M,M,M,M,M,M,75.14,VVTS 210830Z VRB03KT 8000 -RA FEW015CB SCT017 BKN040 23/23 Q1007 NOSIG,M
VVTS,3/21/2012 9:00,106.6667,10.8167,75.2,75.2,100,170,4,0,29.74,M,4.97,M,SCT,BKN,M,M,1700,4000,M,M,#NAME?,M,M,M,M,M,M,77.12,VVTS 210900Z 17004KT 130V190 8000 -RA SCT017 BKN040 24/24 Q1007 NOSIG,M
VVTS,3/21/2012 9:30,106.6667,10.8167,75.2,73.4,94.14,M,2,0,29.71,M,5.59,M,SCT,BKN,M,M,1700,4000,M,M,#NAME?,M,M,M,M,M,M,76.84,VVTS 210930Z VRB02KT 9000 -RA SCT017 BKN040 24/23 Q1006 NOSIG,M
VVTS,3/21/2012 10:00,106.6667,10.8167,77,75.2,94.19,130,4,0,29.74,M,6.21,M,SCT,BKN,M,M,1700,4000,M,M,M,M,M,M,M,M,M,78.83,VVTS 211000Z 13004KT 9999 SCT017 BKN040 25/24 Q1007 NOSIG,M
VVTS,3/21/2012 10:30,106.6667,10.8167,77,73.4,88.67,M,2,0,29.74,M,4.97,M,FEW,SCT,M,M,1700,4000,M,M,M,M,M,M,M,M,M,78.57,VVTS 211030Z VRB02KT 8000 FEW017 SCT040 25/23 Q1007 NOSIG,M
VVTS,3/21/2012 11:00,106.6667,10.8167,77,75.2,94.19,M,2,0,29.74,M,4.35,M,FEW,SCT,M,M,1700,4000,M,M,M,M,M,M,M,M,M,78.83,VVTS 211100Z VRB02KT 7000 FEW017 SCT040 25/24 Q1007 NOSIG,M
VVTS,3/21/2012 11:30,106.6667,10.8167,77,75.2,94.19,140,4,0,29.74,M,5.59,M,FEW,SCT,M,M,1700,4000,M,M,M,M,M,M,M,M,M,78.83,VVTS 211130Z 14004KT 120V190 9000 FEW017 SCT040 25/24 Q1007 NOSIG,M
VVTS,3/21/2012 12:00,106.6667,10.8167,77,73.4,88.67,M,2,0,29.74,M,6.21,M,FEW,SCT,M,M,1700,4000,M,M,M,M,M,M,M,M,M,78.57,VVTS 211200Z VRB02KT 9999 FEW017 SCT040 25/23 Q1007 NOSIG,M
VVTS,3/21/2012 12:30,106.6667,10.8167,77,73.4,88.67,M,3,0,29.77,M,6.21,M,FEW,SCT,M,M,1700,4000,M,M,M,M,M,M,M,M,M,78.57,VVTS 211230Z VRB03KT 9999 FEW017 SCT040 25/23 Q1008 NOSIG,M
VVTS,3/21/2012 13:00,106.6667,10.8167,78.8,75.2,88.75,120,5,0,29.77,M,6.21,M,FEW,SCT,M,M,1700,4000,M,M,M,M,M,M,M,M,M,82.38,VVTS 211300Z 12005KT 100V170 9999 FEW017 SCT040 26/24 Q1008 NOSIG,M
VVTS,3/21/2012 13:30,106.6667,10.8167,78.8,75.2,88.75,140,4,0,29.77,M,6.21,M,FEW,SCT,M,M,1700,4000,M,M,M,M,M,M,M,M,M,82.38,VVTS 211330Z 14004KT 9999 FEW017 SCT040 26/24 Q1008 NOSIG,M
VVTS,3/21/2012 14:00,106.6667,10.8167,78.8,75.2,88.75,140,5,0,29.8,M,6.21,M,FEW,M,M,M,1700,M,M,M,M,M,M,M,M,M,M,82.38,VVTS 211400Z 14005KT 9999 FEW017 26/24 Q1009 NOSIG,M
VVTS,3/21/2012 14:30,106.6667,10.8167,78.8,75.2,88.75,M,3,0,29.8,M,6.21,M,FEW,M,M,M,1700,M,M,M,M,M,M,M,M,M,M,82.38,VVTS 211430Z VRB03KT 9999 FEW017 26/24 Q1009 NOSIG,M
VVTS,3/21/2012 15:00,106.6667,10.8167,78.8,75.2,88.75,M,2,0,29.83,M,6.21,M,FEW,M,M,M,1700,M,M,M,M,M,M,M,M,M,M,82.38,VVTS 211500Z VRB02KT 9999 FEW017 26/24 Q1010 NOSIG,M
VVTS,3/21/2012 15:30,106.6667,10.8167,78.8,75.2,88.75,100,4,0,29.83,M,6.21,M,FEW,M,M,M,1700,M,M,M,M,M,M,M,M,M,M,82.38,VVTS 211530Z 10004KT 9999 FEW017 26/24 Q1010 NOSIG,M
VVTS,3/21/2012 16:00,106.6667,10.8167,78.8,75.2,88.75,90,3,0,29.83,M,6.21,M,FEW,M,M,M,1700,M,M,M,M,M,M,M,M,M,M,82.38,VVTS 211600Z 09003KT 9999 FEW017 26/24 Q1010 NOSIG,M
VVTS,3/21/2012 16:30,106.6667,10.8167,78.8,75.2,88.75,M,3,0,29.83,M,6.21,M,FEW,M,M,M,1700,M,M,M,M,M,M,M,M,M,M,82.38,VVTS 211630Z VRB03KT 9999 FEW017 26/24 Q1010 NOSIG,M
VVTS,3/21/2012 17:00,106.6667,10.8167,78.8,77,94.23,110,4,0,29.83,M,6.21,M,FEW,M,M,M,1700,M,M,M,M,M,M,M,M,M,M,82.75,VVTS 211700Z 11004KT 080V140 9999 FEW017 26/25 Q1010 NOSIG,M
VVTS,3/21/2012 17:30,106.6667,10.8167,78.8,77,94.23,M,3,0,29.8,M,6.21,M,FEW,M,M,M,1700,M,M,M,M,M,M,M,M,M,M,82.75,VVTS 211730Z VRB03KT 9999 FEW017 26/25 Q1009 NOSIG,M
VVTS,3/21/2012 18:00,106.6667,10.8167,78.8,77,94.23,120,2,0,29.8,M,6.21,M,FEW,M,M,M,1700,M,M,M,M,M,M,M,M,M,M,82.75,VVTS 211800Z 12002KT 9999 FEW017 26/25 Q1009 NOSIG,M
VVTS,3/21/2012 18:30,106.6667,10.8167,78.8,77,94.23,M,3,0,29.8,M,6.21,M,FEW,M,M,M,1700,M,M,M,M,M,M,M,M,M,M,82.75,VVTS 211830Z VRB03KT 9999 FEW017 26/25 Q1009 NOSIG,M
VVTS,3/21/2012 19:00,106.6667,10.8167,77,75.2,94.19,M,3,0,29.8,M,6.21,M,FEW,M,M,M,1700,M,M,M,M,M,M,M,M,M,M,78.83,VVTS 211900Z VRB03KT 9999 FEW017 25/24 Q1009 NOSIG,M
VVTS,3/21/2012 19:30,106.6667,10.8167,77,75.2,94.19,20,1,0,29.8,M,4.97,M,FEW,M,M,M,1700,M,M,M,M,M,M,M,M,M,M,78.83,VVTS 211930Z 02001KT 8000 FEW017 25/24 Q1009 NOSIG,M
VVTS,3/21/2012 20:00,106.6667,10.8167,77,75.2,94.19,100,4,0,29.77,M,6.21,M,FEW,M,M,M,1700,M,M,M,M,M,M,M,M,M,M,78.83,VVTS 212000Z 10004KT 9999 FEW017 25/24 Q1008 NOSIG,M
VVTS,3/21/2012 20:30,106.6667,10.8167,77,75.2,94.19,100,2,0,29.8,M,5.59,M,FEW,M,M,M,1700,M,M,M,M,M,M,M,M,M,M,78.83,VVTS 212030Z 10002KT 9000 FEW017 25/24 Q1009 NOSIG,M
VVTS,3/21/2012 21:00,106.6667,10.8167,77,75.2,94.19,130,2,0,29.77,M,6.21,M,FEW,M,M,M,1700,M,M,M,M,M,M,M,M,M,M,78.83,VVTS 212100Z 13002KT 9999 FEW017 25/24 Q1008 NOSIG,M
VVTS,3/21/2012 21:30,106.6667,10.8167,75.2,75.2,100,120,3,0,29.8,M,6.21,M,FEW,M,M,M,1700,M,M,M,M,M,M,M,M,M,M,77.12,VVTS 212130Z 12003KT 9999 FEW017 24/24 Q1009 NOSIG,M
VVTS,3/21/2012 22:00,106.6667,10.8167,75.2,73.4,94.14,M,2,0,29.8,M,6.21,M,FEW,M,M,M,1700,M,M,M,M,M,M,M,M,M,M,76.84,VVTS 212200Z VRB02KT 9999 FEW017 24/23 Q1009 NOSIG,M
VVTS,3/21/2012 22:30,106.6667,10.8167,75.2,73.4,94.14,120,2,0,29.8,M,6.21,M,FEW,M,M,M,1700,M,M,M,M,M,M,M,M,M,M,76.84,VVTS 212230Z 12002KT 9999 FEW017 24/23 Q1009 NOSIG,M
VVTS,3/21/2012 23:00,106.6667,10.8167,75.2,73.4,94.14,110,4,0,29.8,M,6.21,M,FEW,SCT,M,M,1700,4000,M,M,M,M,M,M,M,M,M,76.84,VVTS 212300Z 11004KT 090V160 9999 FEW017 SCT040 24/23 Q1009 NOSIG,M
VVTS,3/21/2012 23:30,106.6667,10.8167,77,75.2,94.19,100,5,0,29.83,M,6.21,M,FEW,SCT,M,M,1700,4000,M,M,M,M,M,M,M,M,M,78.83,VVTS 212330Z 10005KT 070V150 9999 FEW017 SCT040 25/24 Q1010 NOSIG,M
VVTS,3/22/2012 0:00,106.6667,10.8167,78.8,75.2,88.75,110,4,0,29.83,M,6.21,M,FEW,M,M,M,1700,M,M,M,M,M,M,M,M,M,M,82.38,VVTS 220000Z 11004KT 9999 FEW017 26/24 Q1010 NOSIG,M
VVTS,3/22/2012 0:30,106.6667,10.8167,80.6,75.2,83.66,120,5,0,29.85,M,6.21,M,FEW,M,M,M,1700,M,M,M,M,M,M,M,M,M,M,86.17,VVTS 220030Z 12005KT 090V160 9999 FEW017 27/24 Q1011 NOSIG,M
VVTS,3/22/2012 1:00,106.6667,10.8167,80.6,75.2,83.66,120,7,0,29.85,M,6.21,M,SCT,M,M,M,1700,M,M,M,M,M,M,M,M,M,M,86.17,VVTS 220100Z 12007KT 9999 SCT017 27/24 Q1011 NOSIG,M
VVTS,3/22/2012 1:30,106.6667,10.8167,82.4,75.2,78.9,100,9,0,29.85,M,6.21,M,SCT,M,M,M,1700,M,M,M,M,M,M,M,M,M,M,89.48,VVTS 220130Z 10009KT 9999 SCT017 28/24 Q1011 NOSIG,M
VVTS,3/22/2012 2:00,106.6667,10.8167,84.2,75.2,74.44,140,6,0,29.85,M,6.21,M,SCT,M,M,M,1700,M,M,M,M,M,M,M,M,M,M,92.45,VVTS 220200Z 14006KT 110V170 9999 SCT017 29/24 Q1011 NOSIG,M
VVTS,3/22/2012 2:30,106.6667,10.8167,84.2,73.4,70.08,130,6,0,29.88,M,6.21,M,SCT,M,M,M,1700,M,M,M,M,M,M,M,M,M,M,90.94,VVTS 220230Z 13006KT 9999 SCT017 29/23 Q1012 NOSIG,M
VVTS,3/22/2012 3:00,106.6667,10.8167,86,73.4,66.15,130,6,0,29.88,M,6.21,M,SCT,M,M,M,1700,M,M,M,M,M,M,M,M,M,M,93.45,VVTS 220300Z 13006KT 100V160 9999 SCT017 30/23 Q1012 NOSIG,M
VVTS,3/22/2012 3:30,106.6667,10.8167,87.8,73.4,62.47,100,6,0,29.85,M,6.21,M,SCT,M,M,M,1700,M,M,M,M,M,M,M,M,M,M,95.86,VVTS 220330Z 10006KT 050V160 9999 SCT017 31/23 Q1011 NOSIG,M
VVTS,3/22/2012 4:00,106.6667,10.8167,87.8,71.6,58.78,110,4,0,29.85,M,6.21,M,SCT,M,M,M,1700,M,M,M,M,M,M,M,M,M,M,94.18,VVTS 220400Z 11004KT 040V190 9999 SCT017 31/22 Q1011 NOSIG,M
VVTS,3/22/2012 4:30,106.6667,10.8167,87.8,71.6,58.78,130,7,0,29.83,M,6.21,M,SCT,M,M,M,1700,M,M,M,M,M,M,M,M,M,M,94.18,VVTS 220430Z 13007KT 090V160 9999 SCT017 31/22 Q1010 NOSIG,M
VVTS,3/22/2012 5:00,106.6667,10.8167,87.8,71.6,58.78,130,5,0,29.83,M,6.21,M,SCT,M,M,M,1700,M,M,M,M,M,M,M,M,M,M,94.18,VVTS 220500Z 13005KT 040V190 9999 SCT017 31/22 Q1010 NOSIG,M
VVTS,3/22/2012 5:30,106.6667,10.8167,89.6,71.6,55.53,160,5,0,29.8,M,6.21,M,SCT,M,M,M,1700,M,M,M,M,M,M,M,M,M,M,96.41,VVTS 220530Z 16005KT 090V230 9999 SCT017 32/22 Q1009 NOSIG,M
VVTS,3/22/2012 6:00,106.6667,10.8167,91.4,73.4,55.77,180,7,0,29.8,M,6.21,M,SCT,M,M,M,1700,M,M,M,M,M,M,M,M,M,M,100.52,VVTS 220600Z 18007KT 120V220 9999 SCT017 33/23 Q1009 NOSIG,M
VVTS,3/22/2012 6:30,106.6667,10.8167,89.6,71.6,55.53,130,4,0,29.77,M,6.21,M,SCT,M,M,M,1700,M,M,M,M,M,M,M,M,M,M,96.41,VVTS 220630Z 13004KT 350V220 9999 SCT017 32/22 Q1008 NOSIG,M
VVTS,3/22/2012 7:00,106.6667,10.8167,91.4,71.6,52.48,150,5,0,29.77,M,6.21,M,SCT,M,M,M,1700,M,M,M,M,M,M,M,M,M,M,98.64,VVTS 220700Z 15005KT 090V200 9999 SCT017 33/22 Q1008 NOSIG,M
VVTS,3/22/2012 7:30,106.6667,10.8167,91.4,73.4,55.77,160,6,0,29.74,M,6.21,M,SCT,M,M,M,1700,M,M,M,M,M,M,M,M,M,M,100.52,VVTS 220730Z 16006KT 120V190 9999 SCT017 33/23 Q1007 NOSIG,M
VVTS,3/22/2012 8:00,106.6667,10.8167,89.6,73.4,59.01,150,7,0,29.74,M,6.21,M,SCT,M,M,M,1700,M,M,M,M,M,M,M,M,M,M,98.2,VVTS 220800Z 15007KT 100V190 9999 SCT017 32/23 Q1007 NOSIG,M
VVTS,3/22/2012 8:30,106.6667,10.8167,89.6,73.4,59.01,170,8,0,29.71,M,6.21,M,SCT,M,M,M,1700,M,M,M,M,M,M,M,M,M,M,98.2,VVTS 220830Z 17008KT 130V220 9999 SCT017 32/23 Q1006 NOSIG,M
VVTS,3/22/2012 9:00,106.6667,10.8167,89.6,71.6,55.53,160,7,0,29.71,M,6.21,M,SCT,M,M,M,1700,M,M,M,M,M,M,M,M,M,M,96.41,VVTS 220900Z 16007KT 110V190 9999 SCT017 32/22 Q1006 NOSIG,M
VVTS,3/22/2012 9:30,106.6667,10.8167,87.8,71.6,58.78,160,8,0,29.71,M,6.21,M,FEW,M,M,M,2000,M,M,M,M,M,M,M,M,M,M,94.18,VVTS 220930Z 16008KT 9999 FEW020 31/22 Q1006 NOSIG,M
VVTS,3/22/2012 10:00,106.6667,10.8167,86,71.6,62.25,160,8,0,29.71,M,6.21,M,FEW,M,M,M,2000,M,M,M,M,M,M,M,M,M,M,91.92,VVTS 221000Z 16008KT 110V200 9999 FEW020 30/22 Q1006 NOSIG,M
VVTS,3/22/2012 10:30,106.6667,10.8167,84.2,71.6,65.95,140,9,0,29.74,M,6.21,M,FEW,M,M,M,2000,M,M,M,M,M,M,M,M,M,M,89.6,VVTS 221030Z 14009KT 9999 FEW020 29/22 Q1007 NOSIG,M
VVTS,3/22/2012 11:00,106.6667,10.8167,84.2,71.6,65.95,150,10,0,29.74,M,6.21,M,FEW,M,M,M,2000,M,M,M,M,M,M,M,M,M,M,89.6,VVTS 221100Z 15010KT 9999 FEW020 29/22 Q1007 NOSIG,M
VVTS,3/22/2012 11:30,106.6667,10.8167,82.4,73.4,74.28,200,8,0,29.74,M,6.21,M,FEW,M,M,M,2000,M,M,M,M,M,M,M,M,M,M,88.26,VVTS 221130Z 20008KT 9999 FEW020 28/23 Q1007 NOSIG,M
VVTS,3/22/2012 12:00,106.6667,10.8167,80.6,73.4,78.76,150,8,0,29.77,M,6.21,M,FEW,M,M,M,2000,M,M,M,M,M,M,M,M,M,M,85.32,VVTS 221200Z 15008KT 9999 FEW020 27/23 Q1008 NOSIG,M
VVTS,3/22/2012 12:30,106.6667,10.8167,80.6,73.4,78.76,160,8,0,29.8,M,6.21,M,FEW,M,M,M,2000,M,M,M,M,M,M,M,M,M,M,85.32,VVTS 221230Z 16008KT 9999 FEW020 27/23 Q1009 NOSIG,M
VVTS,3/22/2012 13:00,106.6667,10.8167,80.6,75.2,83.66,140,10,0,29.8,M,6.21,M,FEW,M,M,M,1700,M,M,M,M,M,M,M,M,M,M,86.17,VVTS 221300Z 14010KT 9999 FEW017 27/24 Q1009 NOSIG,M
VVTS,3/22/2012 13:30,106.6667,10.8167,80.6,75.2,83.66,180,7,0,29.83,M,6.21,M,FEW,M,M,M,1700,M,M,M,M,M,M,M,M,M,M,86.17,VVTS 221330Z 18007KT 9999 FEW017 27/24 Q1010 NOSIG,M
VVTS,3/22/2012 14:00,106.6667,10.8167,80.6,75.2,83.66,170,7,0,29.83,M,6.21,M,FEW,M,M,M,1700,M,M,M,M,M,M,M,M,M,M,86.17,VVTS 221400Z 17007KT 9999 FEW017 27/24 Q1010 NOSIG,M
VVTS,3/22/2012 14:30,106.6667,10.8167,80.6,75.2,83.66,160,8,0,29.85,M,6.21,M,SCT,M,M,M,1700,M,M,M,M,M,M,M,M,M,M,86.17,VVTS 221430Z 16008KT 9999 SCT017 27/24 Q1011 NOSIG,M
VVTS,3/22/2012 15:00,106.6667,10.8167,80.6,75.2,83.66,130,6,0,29.85,M,6.21,M,SCT,M,M,M,1700,M,M,M,M,M,M,M,M,M,M,86.17,VVTS 221500Z 13006KT 9999 SCT017 27/24 Q1011 NOSIG,M
VVTS,3/22/2012 15:30,106.6667,10.8167,80.6,75.2,83.66,130,6,0,29.85,M,6.21,M,SCT,M,M,M,1700,M,M,M,M,M,M,M,M,M,M,86.17,VVTS 221530Z 13006KT 9999 SCT017 27/24 Q1011 NOSIG,M
VVTS,3/22/2012 16:00,106.6667,10.8167,80.6,75.2,83.66,140,5,0,29.85,M,6.21,M,SCT,M,M,M,1700,M,M,M,M,M,M,M,M,M,M,86.17,VVTS 221600Z 14005KT 9999 SCT017 27/24 Q1011 NOSIG,M
VVTS,3/22/2012 16:30,106.6667,10.8167,80.6,75.2,83.66,130,6,0,29.85,M,6.21,M,SCT,M,M,M,1700,M,M,M,M,M,M,M,M,M,M,86.17,VVTS 221630Z 13006KT 9999 SCT017 27/24 Q1011 NOSIG,M
VVTS,3/22/2012 17:00,106.6667,10.8167,78.8,75.2,88.75,150,7,0,29.83,M,6.21,M,SCT,M,M,M,1700,M,M,M,M,M,M,M,M,M,M,82.38,VVTS 221700Z 15007KT 9999 SCT017 26/24 Q1010 NOSIG,M
VVTS,3/22/2012 17:30,106.6667,10.8167,78.8,75.2,88.75,150,7,0,29.83,M,6.21,M,SCT,M,M,M,1700,M,M,M,M,M,M,M,M,M,M,82.38,VVTS 221730Z 15007KT 9999 SCT017 26/24 Q1010 NOSIG,M
VVTS,3/22/2012 18:00,106.6667,10.8167,78.8,75.2,88.75,130,6,0,29.83,M,6.21,M,SCT,M,M,M,1700,M,M,M,M,M,M,M,M,M,M,82.38,VVTS 221800Z 13006KT 9999 SCT017 26/24 Q1010 NOSIG,M
VVTS,3/22/2012 18:30,106.6667,10.8167,78.8,75.2,88.75,150,7,0,29.83,M,6.21,M,SCT,M,M,M,1700,M,M,M,M,M,M,M,M,M,M,82.38,VVTS 221830Z 15007KT 9999 SCT017 26/24 Q1010 NOSIG,M
VVTS,3/22/2012 19:00,106.6667,10.8167,78.8,75.2,88.75,140,5,0,29.8,M,6.21,M,SCT,M,M,M,1700,M,M,M,M,M,M,M,M,M,M,82.38,VVTS 221900Z 14005KT 9999 SCT017 26/24 Q1009 NOSIG,M
VVTS,3/22/2012 19:30,106.6667,10.8167,78.8,75.2,88.75,150,4,0,29.8,M,6.21,M,SCT,M,M,M,1700,M,M,M,M,M,M,M,M,M,M,82.38,VVTS 221930Z 15004KT 110V180 9999 SCT017 26/24 Q1009 NOSIG,M
VVTS,3/22/2012 20:00,106.6667,10.8167,78.8,75.2,88.75,140,4,0,29.8,M,6.21,M,SCT,M,M,M,1700,M,M,M,M,M,M,M,M,M,M,82.38,VVTS 222000Z 14004KT 9999 SCT017 26/24 Q1009 NOSIG,M
VVTS,3/22/2012 20:30,106.6667,10.8167,78.8,75.2,88.75,90,2,0,29.8,M,6.21,M,SCT,M,M,M,1700,M,M,M,M,M,M,M,M,M,M,82.38,VVTS 222030Z 09002KT 9999 SCT017 26/24 Q1009 NOSIG,M
VVTS,3/22/2012 21:00,106.6667,10.8167,78.8,75.2,88.75,M,3,0,29.8,M,6.21,M,SCT,M,M,M,1700,M,M,M,M,M,M,M,M,M,M,82.38,VVTS 222100Z VRB03KT 9999 SCT017 26/24 Q1009 NOSIG,M
VVTS,3/22/2012 22:00,106.6667,10.8167,77,75.2,94.19,M,2,0,29.8,M,6.21,M,SCT,M,M,M,1700,M,M,M,M,M,M,M,M,M,M,78.83,VVTS 222200Z VRB02KT 9999 SCT017 25/24 Q1009 NOSIG,M
VVTS,3/22/2012 22:30,106.6667,10.8167,77,75.2,94.19,320,4,0,29.83,M,3.73,M,SCT,M,M,M,1700,M,M,M,M,M,M,M,M,M,M,78.83,VVTS 222230Z 32004KT 260V350 6000 SCT017 25/24 Q1010 NOSIG,M
VVTS,3/22/2012 23:00,106.6667,10.8167,77,75.2,94.19,310,2,0,29.83,M,3.73,M,FEW,SCT,M,M,1500,1700,M,M,M,M,M,M,M,M,M,78.83,VVTS 222300Z 31002KT 6000 FEW015TCU SCT017 25/24 Q1010 NOSIG,M
VVTS,3/22/2012 23:30,106.6667,10.8167,75.2,75.2,100,30,3,0,29.83,M,3.11,M,FEW,M,M,M,1700,M,M,M,BR,M,M,M,M,M,M,77.12,VVTS 222330Z 03003KT 5000 BR FEW017 24/24 Q1010 BECMG TL0030 5000 BR,M
VVTS,3/23/2012 0:00,106.6667,10.8167,77,77,100,80,4,0,29.85,M,3.73,M,FEW,M,M,M,1700,M,M,M,M,M,M,M,M,M,M,77,VVTS 230000Z 08004KT 6000 FEW017 25/25 Q1011 BECMG TL0030 5000 BR,M
VVTS,3/23/2012 0:30,106.6667,10.8167,80.6,77,88.83,80,4,0,29.85,M,4.97,M,FEW,M,M,M,1700,M,M,M,M,M,M,M,M,M,M,87.1,VVTS 230030Z 08004KT 8000 FEW017 27/25 Q1011 NOSIG,M
VVTS,3/23/2012 1:00,106.6667,10.8167,82.4,75.2,78.9,90,5,0,29.85,M,6.21,M,SCT,M,M,M,1700,M,M,M,M,M,M,M,M,M,M,89.48,VVTS 230100Z 09005KT 060V130 9999 SCT017 28/24 Q1011 NOSIG,M
VVTS,3/23/2012 1:30,106.6667,10.8167,82.4,75.2,78.9,80,4,0,29.88,M,6.21,M,SCT,M,M,M,1700,M,M,M,M,M,M,M,M,M,M,89.48,VVTS 230130Z 08004KT 040V140 9999 SCT017 28/24 Q1012 NOSIG,M
VVTS,3/23/2012 2:00,106.6667,10.8167,84.2,75.2,74.44,120,4,0,29.88,M,6.21,M,SCT,M,M,M,1700,M,M,M,M,M,M,M,M,M,M,92.45,VVTS 230200Z 12004KT 090V160 9999 SCT017 29/24 Q1012 NOSIG,M
VVTS,3/23/2012 2:30,106.6667,10.8167,86,73.4,66.15,110,5,0,29.88,M,6.21,M,SCT,M,M,M,1700,M,M,M,M,M,M,M,M,M,M,93.45,VVTS 230230Z 11005KT 050V170 9999 SCT017 30/23 Q1012 NOSIG,M
VVTS,3/23/2012 3:00,106.6667,10.8167,87.8,73.4,62.47,M,3,0,29.88,M,6.21,M,SCT,M,M,M,1700,M,M,M,M,M,M,M,M,M,M,95.86,VVTS 230300Z VRB03KT 9999 SCT017 31/23 Q1012 NOSIG,M
VVTS,3/23/2012 3:30,106.6667,10.8167,86,73.4,66.15,M,2,0,29.85,M,6.21,M,SCT,M,M,M,1700,M,M,M,M,M,M,M,M,M,M,93.45,VVTS 230330Z VRB02KT 9999 SCT017 30/23 Q1011 NOSIG,M
VVTS,3/23/2012 4:00,106.6667,10.8167,89.6,73.4,59.01,M,2,0,29.85,M,6.21,M,SCT,M,M,M,1700,M,M,M,M,M,M,M,M,M,M,98.2,VVTS 230400Z VRB02KT 9999 SCT017 32/23 Q1011 NOSIG,M
VVTS,3/23/2012 5:00,106.6667,10.8167,91.4,73.4,55.77,M,2,0,29.83,M,6.21,M,BKN,M,M,M,1700,M,M,M,M,M,M,M,M,M,M,100.52,VVTS 230500Z VRB02KT 9999 BKN017 33/23 Q1010 NOSIG,M
VVTS,3/23/2012 5:30,106.6667,10.8167,91.4,71.6,52.48,M,2,0,29.83,M,6.21,M,BKN,M,M,M,1700,M,M,M,M,M,M,M,M,M,M,98.64,VVTS 230530Z VRB02KT 9999 BKN017 33/22 Q1010 NOSIG,M
VVTS,3/23/2012 6:00,106.6667,10.8167,91.4,71.6,52.48,M,1,0,29.8,M,6.21,M,FEW,SCT,M,M,1700,2000,M,M,M,M,M,M,M,M,M,98.64,VVTS 230600Z VRB01KT 9999 FEW017TCU SCT020 33/22 Q1009 NOSIG,M
VVTS,3/23/2012 6:30,106.6667,10.8167,89.6,71.6,55.53,M,2,0,29.77,M,6.21,M,FEW,SCT,M,M,1700,2000,M,M,M,M,M,M,M,M,M,96.41,VVTS 230630Z VRB02KT 9999 FEW017TCU SCT020 32/22 Q1008 NOSIG,M
VVTS,3/23/2012 7:00,106.6667,10.8167,91.4,73.4,55.77,M,1,0,29.77,M,6.21,M,FEW,SCT,M,M,1500,1700,M,M,M,M,M,M,M,M,M,100.52,VVTS 230700Z VRB01KT 9999 FEW015CB SCT017 33/23 Q1008 NOSIG,M
VVTS,3/23/2012 7:30,106.6667,10.8167,93.2,73.4,52.73,M,2,0,29.74,M,6.21,M,FEW,SCT,M,M,1500,1700,M,M,M,M,M,M,M,M,M,102.82,VVTS 230730Z VRB02KT 9999 FEW015CB SCT017 34/23 Q1007 NOSIG,M
VVTS,3/23/2012 8:00,106.6667,10.8167,91.4,71.6,52.48,210,5,0,29.74,M,6.21,M,FEW,SCT,M,M,1500,1700,M,M,M,M,M,M,M,M,M,98.64,VVTS 230800Z 21005KT 160V260 9999 FEW015TCU SCT017 33/22 Q1007 NOSIG,M
VVTS,3/23/2012 8:30,106.6667,10.8167,89.6,73.4,59.01,220,10,0,29.74,M,6.21,M,SCT,M,M,M,1700,M,M,M,M,M,M,M,M,M,M,98.2,VVTS 230830Z 22010KT 200V280 9999 SCT017 32/23 Q1007 NOSIG,M
VVTS,3/23/2012 9:00,106.6667,10.8167,87.8,73.4,62.47,220,10,0,29.74,M,6.21,M,SCT,M,M,M,2000,M,M,M,M,M,M,M,M,M,M,95.86,VVTS 230900Z 22010KT 9999 SCT020 31/23 Q1007 NOSIG,M
VVTS,3/23/2012 9:30,106.6667,10.8167,87.8,71.6,58.78,210,10,0,29.74,M,6.21,M,SCT,M,M,M,2000,M,M,M,M,M,M,M,M,M,M,94.18,VVTS 230930Z 21010KT 9999 SCT020 31/22 Q1007 NOSIG,M
VVTS,3/23/2012 10:00,106.6667,10.8167,86,71.6,62.25,190,9,0,29.74,M,6.21,M,SCT,M,M,M,2000,M,M,M,M,M,M,M,M,M,M,91.92,VVTS 231000Z 19009KT 9999 SCT020 30/22 Q1007 NOSIG,M
VVTS,3/23/2012 10:30,106.6667,10.8167,84.2,71.6,65.95,190,10,0,29.74,M,6.21,M,FEW,SCT,M,M,1700,2000,M,M,M,M,M,M,M,M,M,89.6,VVTS 231030Z 19010KT 9999 FEW017TCU SCT020 29/22 Q1007 NOSIG,M
VVTS,3/23/2012 11:00,106.6667,10.8167,84.2,71.6,65.95,160,7,0,29.77,M,6.21,M,FEW,SCT,M,M,1700,2000,M,M,M,M,M,M,M,M,M,89.6,VVTS 231100Z 16007KT 9999 FEW017TCU SCT020 29/22 Q1008 NOSIG,M
VVTS,3/23/2012 11:30,106.6667,10.8167,82.4,73.4,74.28,180,7,0,29.77,M,4.97,M,FEW,SCT,M,M,1700,4000,M,M,M,M,M,M,M,M,M,88.26,VVTS 231130Z 18007KT 150V210 8000 FEW017 SCT040 28/23 Q1008 NOSIG,M
VVTS,3/23/2012 12:00,106.6667,10.8167,82.4,73.4,74.28,170,9,0,29.8,M,6.21,M,FEW,SCT,M,M,1700,4000,M,M,M,M,M,M,M,M,M,88.26,VVTS 231200Z 17009KT 9999 FEW017 SCT040 28/23 Q1009 NOSIG,M
VVTS,3/23/2012 12:30,106.6667,10.8167,82.4,75.2,78.9,140,6,0,29.8,M,6.21,M,FEW,SCT,M,M,1500,1700,M,M,M,M,M,M,M,M,M,89.48,VVTS 231230Z 14006KT 110V200 9999 FEW015TCU SCT017 28/24 Q1009 NOSIG,M
VVTS,3/23/2012 13:00,106.6667,10.8167,82.4,75.2,78.9,110,9,0,29.83,M,6.21,M,FEW,SCT,M,M,1500,1700,M,M,M,M,M,M,M,M,M,89.48,VVTS 231300Z 11009KT 9999 FEW015TCU SCT017 28/24 Q1010 N OSIG,M
VVTS,3/23/2012 13:30,106.6667,10.8167,82.4,75.2,78.9,140,8,0,29.83,M,6.21,M,FEW,SCT,M,M,1500,1700,M,M,M,M,M,M,M,M,M,89.48,VVTS 231330Z 14008KT 110V170 9999 FEW015TCU SCT017 28/24 Q1010 NOSIG,M
VVTS,3/23/2012 14:00,106.6667,10.8167,82.4,75.2,78.9,140,8,0,29.85,M,6.21,M,FEW,SCT,M,M,1500,1700,M,M,M,M,M,M,M,M,M,89.48,VVTS 231400Z 14008KT 110V190 9999 FEW015TCU SCT017 28/24 Q1011 NOSIG,M
VVTS,3/23/2012 14:30,106.6667,10.8167,82.4,77,83.77,80,7,0,29.85,M,6.21,M,SCT,SCT,M,M,1500,1700,M,M,M,M,M,M,M,M,M,90.85,VVTS 231430Z 08007KT 050V120 9999 SCT015 SCT017CB 28/25 Q1011 TEMPO TL1505 4000 SHRA,M
VVTS,3/23/2012 15:00,106.6667,10.8167,78.8,78.8,100,80,6,0,29.88,M,3.73,M,BKN,SCT,M,M,1300,1500,M,M,#NAME?,M,M,M,M,M,M,83.15,VVTS 231500Z 08006KT 6000 -TSRA BKN013 SCT015CB 26/26 Q1012 TEMPO TL1505 4000 SHRA,M
VVTS,3/23/2012 15:30,106.6667,10.8167,78.8,78.8,100,M,3,0,29.88,M,6.21,M,SCT,SCT,M,M,1500,1700,M,M,TS,M,M,M,M,M,M,83.15,VVTS 231530Z VRB03KT 9999 TS SCT015 SCT017CB 26/26 Q1012 BECMG TL1545 NSW,M
VVTS,3/23/2012 16:00,106.6667,10.8167,77,77,100,310,8,0,29.88,M,6.21,M,SCT,SCT,M,M,1500,1700,M,M,TS,M,M,M,M,M,M,77,VVTS 231600Z 31008KT 270V330 9999 TS SCT015 SCT017CB 25/25 Q1012 NOSIG,M
VVTS,3/23/2012 17:00,106.6667,10.8167,75.2,73.4,94.14,240,7,0,29.88,M,6.21,M,SCT,SCT,M,M,1500,1700,M,M,#NAME?,M,M,M,M,M,M,76.84,VVTS 231700Z 24007KT 9999 -TSRA SCT015 SCT017CB 24/23 Q1012 NOSIG,M
VVTS,3/23/2012 17:30,106.6667,10.8167,75.2,75.2,100,220,7,0,29.85,M,6.21,M,SCT,SCT,M,M,1500,1700,M,M,#NAME?,M,M,M,M,M,M,77.12,VVTS 231730Z 22007KT 9999 -TSRA SCT015 SCT017CB 24/24 Q1011 NOSIG,M
VVTS,3/23/2012 18:00,106.6667,10.8167,75.2,75.2,100,270,2,0,29.85,M,6.21,M,FEW,SCT,M,M,1500,1700,M,M,M,M,M,M,M,M,M,77.12,VVTS 231800Z 27002KT 9999 FEW015TCU SCT017 24/24 Q1011 NOSIG,M
VVTS,3/23/2012 18:30,106.6667,10.8167,73.4,73.4,100,260,1,0,29.83,M,6.21,M,FEW,SCT,M,M,1500,1700,M,M,M,M,M,M,M,M,M,75.14,VVTS 231830Z 26001KT 9999 FEW015TCU SCT017 23/23 Q1010 NOSIG,M
VVTS,3/23/2012 19:00,106.6667,10.8167,73.4,73.4,100,80,2,0,29.83,M,6.21,M,SCT,SCT,M,M,1700,4000,M,M,M,M,M,M,M,M,M,75.14,VVTS 231900Z 08002KT 9999 SCT017 SCT040 23/23 Q1010 NOSIG,M
VVTS,3/23/2012 19:30,106.6667,10.8167,75.2,75.2,100,0,0,0,29.83,M,6.21,M,SCT,SCT,M,M,1700,4000,M,M,M,M,M,M,M,M,M,77.12,VVTS 231930Z 00000KT 9999 SCT017 SCT040 24/24 Q1010 NOSIG,M
VVTS,3/23/2012 20:00,106.6667,10.8167,75.2,75.2,100,20,2,0,29.83,M,6.21,M,SCT,SCT,M,M,1700,4000,M,M,M,M,M,M,M,M,M,77.12,VVTS 232000Z 02002KT 9999 SCT017 SCT040 24/24 Q1010 NOSIG,M
VVTS,3/23/2012 20:30,106.6667,10.8167,75.2,75.2,100,30,3,0,29.83,M,6.21,M,FEW,SCT,M,M,1500,1700,M,M,M,M,M,M,M,M,M,77.12,VVTS 232030Z 03003KT 9999 FEW015TCU SCT017 24/24 Q1010 NOSIG,M
VVTS,3/23/2012 21:00,106.6667,10.8167,75.2,75.2,100,40,3,0,29.83,M,6.21,M,SCT,SCT,M,M,1500,1700,M,M,M,M,M,M,M,M,M,77.12,VVTS 232100Z 04003KT 9999 SCT015 SCT017TCU 24/24 Q1010 NOSIG,M
VVTS,3/23/2012 21:30,106.6667,10.8167,75.2,75.2,100,360,3,0,29.83,M,4.97,M,SCT,SCT,M,M,1500,1700,M,M,M,M,M,M,M,M,M,77.12,VVTS 232130Z 36003KT 8000 SCT015 SCT017TCU 24/24 Q1010 NOSIG,M
VVTS,3/23/2012 22:00,106.6667,10.8167,75.2,75.2,100,360,3,0,29.83,M,3.04,M,SCT,SCT,M,M,1500,1700,M,M,BR,M,M,M,M,M,M,77.12,VVTS 232200Z 36003KT 4900 BR SCT015 SCT017TCU 24/24 Q1010 NOSIG,M
VVTS,3/23/2012 22:30,106.6667,10.8167,75.2,75.2,100,60,3,0,29.83,M,3.11,M,SCT,SCT,M,M,1500,1700,M,M,BR,M,M,M,M,M,M,77.12,VVTS 232230Z 06003KT 5000 BR SCT015 SCT017TCU 24/24 Q1010 NOSIG,M
VVTS,3/23/2012 23:00,106.6667,10.8167,75.2,75.2,100,60,4,0,29.83,M,3.73,M,SCT,SCT,M,M,1700,4000,M,M,M,M,M,M,M,M,M,77.12,VVTS 232300Z 06004KT 6000 SCT017 SCT040 24/24 Q1010 NOSIG,M
VVTS,3/23/2012 23:30,106.6667,10.8167,77,77,100,70,2,0,29.85,M,3.11,M,SCT,SCT,M,M,1700,4000,M,M,BR,M,M,M,M,M,M,77,VVTS 232330Z 07002KT 5000 BR SCT017 SCT040 25/25 Q1011 NOSIG,M
VVTS,3/24/2012 0:00,106.6667,10.8167,78.8,78.8,100,70,3,0,29.85,M,3.11,M,FEW,SCT,M,M,1500,1700,M,M,BR,M,M,M,M,M,M,83.15,VVTS 240000Z 07003KT 5000 BR FEW015TCU SCT017 26/26 Q1011 NOSIG,M
VVTS,3/24/2012 0:30,106.6667,10.8167,78.8,77,94.23,70,5,0,29.85,M,3.73,M,SCT,M,M,M,1700,M,M,M,M,M,M,M,M,M,M,82.75,VVTS 240030Z 07005KT 6000 SCT017 26/25 Q1011 NOSIG,M
VVTS,3/24/2012 1:00,106.6667,10.8167,80.6,77,88.83,110,4,0,29.88,M,4.97,M,SCT,M,M,M,1700,M,M,M,M,M,M,M,M,M,M,87.1,VVTS 240100Z 11004KT 080V150 8000 SCT017 27/25 Q1012 NOSIG,M
VVTS,3/24/2012 1:30,106.6667,10.8167,82.4,75.2,78.9,100,4,0,29.88,M,6.21,M,SCT,M,M,M,1700,M,M,M,M,M,M,M,M,M,M,89.48,VVTS 240130Z 10004KT 060V160 9999 SCT017 28/24 Q1012 NOSIG,M
VVTS,3/24/2012 2:00,106.6667,10.8167,82.4,77,83.77,90,4,0,29.88,M,6.21,M,BKN,M,M,M,1700,M,M,M,M,M,M,M,M,M,M,90.85,VVTS 240200Z 09004KT 040V130 9999 BKN017 28/25 Q1012 NOSIG,M
VVTS,3/24/2012 2:30,106.6667,10.8167,82.4,75.2,78.9,M,3,0,29.88,M,6.21,M,BKN,M,M,M,1700,M,M,M,M,M,M,M,M,M,M,89.48,VVTS 240230Z VRB03KT 9999 BKN017 28/24 Q1012 NOSIG,M
VVTS,3/24/2012 3:00,106.6667,10.8167,86,75.2,70.27,M,2,0,29.88,M,6.21,M,BKN,M,M,M,1700,M,M,M,M,M,M,M,M,M,M,95.19,VVTS 240300Z VRB02KT 9999 BKN017 30/24 Q1012 NOSIG,M
VVTS,3/24/2012 3:30,106.6667,10.8167,84.2,75.2,74.44,M,2,0,29.88,M,6.21,M,BKN,M,M,M,1700,M,M,M,M,M,M,M,M,M,M,92.45,VVTS 240330Z VRB02KT 9999 BKN017 29/24 Q1012 NOSIG,M
VVTS,3/24/2012 4:00,106.6667,10.8167,87.8,75.2,66.35,M,2,0,29.88,M,6.21,M,BKN,M,M,M,1700,M,M,M,M,M,M,M,M,M,M,97.76,VVTS 240400Z VRB02KT 9999 BKN017 31/24 Q1012 NOSIG,M
VVTS,3/24/2012 4:30,106.6667,10.8167,89.6,75.2,62.68,70,5,0,29.85,M,6.21,M,BKN,M,M,M,1700,M,M,M,M,M,M,M,M,M,M,100.23,VVTS 240430Z 07005KT 360V110 9999 BKN017 32/24 Q1011 NOSIG,M
VVTS,3/24/2012 5:00,106.6667,10.8167,89.6,75.2,62.68,70,4,0,29.85,M,6.21,M,BKN,M,M,M,1700,M,M,M,#NAME?,M,M,M,M,M,M,100.23,VVTS 240500Z 07004KT 030V120 9999 -RA BKN017 32/24 Q1011 NOSIG,M
VVTS,3/24/2012 5:30,106.6667,10.8167,87.8,73.4,62.47,M,3,0,29.83,M,6.21,M,FEW,SCT,M,M,1500,1700,M,M,M,M,M,M,M,M,M,95.86,VVTS 240530Z VRB03KT 9999 FEW015TCU SCT017 31/23 Q1010 NOSIG,M
VVTS,3/24/2012 6:00,106.6667,10.8167,91.4,73.4,55.77,10,5,0,29.8,M,6.21,M,FEW,SCT,M,M,1500,1700,M,M,M,M,M,M,M,M,M,100.52,VVTS 240600Z 01005KT 310V080 9999 FEW015TCU SCT017 33/23 Q1009 NOSIG,M
VVTS,3/24/2012 6:30,106.6667,10.8167,89.6,73.4,59.01,50,5,0,29.77,M,6.21,M,FEW,SCT,M,M,1500,1700,M,M,M,M,M,M,M,M,M,98.2,VVTS 240630Z 05005KT 350V120 9999 FEW015TCU SCT017 32/23 Q1008 NOSIG,M
VVTS,3/24/2012 7:00,106.6667,10.8167,84.2,73.4,70.08,90,11,0,29.77,M,6.21,M,FEW,SCT,M,M,1500,1700,M,M,M,M,M,M,M,M,M,90.94,VVTS 240700Z 09011KT 9999 FEW015TCU SCT017 29/23 Q1008 NOSIG,M
VVTS,3/24/2012 7:30,106.6667,10.8167,86,71.6,62.25,110,8,0,29.74,M,6.21,M,FEW,SCT,M,M,1500,1700,M,M,M,M,M,M,M,M,M,91.92,VVTS 240730Z 11008KT 9999 FEW015TCU SCT017 30/22 Q1007 NOSIG,M
VVTS,3/24/2012 8:00,106.6667,10.8167,91.4,71.6,52.48,90,5,0,29.74,M,6.21,M,FEW,SCT,M,M,1500,1700,M,M,TS,M,M,M,M,M,M,98.64,VVTS 240800Z 09005KT 9999 TS FEW015CB SCT017 33/22 Q1007 NOSIG,M
VVTS,3/24/2012 8:30,106.6667,10.8167,89.6,71.6,55.53,130,11,0,29.74,M,6.21,M,FEW,SCT,M,M,1500,1700,M,M,M,M,M,M,M,M,M,96.41,VVTS 240830Z 13011KT 9999 FEW015CB SCT017 32/22 Q1007 NOSIG,M
VVTS,3/24/2012 9:00,106.6667,10.8167,87.8,73.4,62.47,160,9,0,29.77,M,6.21,M,SCT,M,M,M,1700,M,M,M,M,M,M,M,M,M,M,95.86,VVTS 240900Z 16009KT 9999 SCT017 31/23 Q1008 NOSIG,M
VVTS,3/24/2012 9:30,106.6667,10.8167,86,71.6,62.25,150,9,0,29.77,M,6.21,M,SCT,M,M,M,1700,M,M,M,M,M,M,M,M,M,M,91.92,VVTS 240930Z 15009KT 9999 SCT017 30/22 Q1008 NOSIG,M
VVTS,3/24/2012 10:00,106.6667,10.8167,84.2,71.6,65.95,150,9,0,29.77,M,6.21,M,FEW,SCT,M,M,1500,1700,M,M,M,M,M,M,M,M,M,89.6,VVTS 241000Z 15009KT 9999 FEW015TCU SCT017 29/22 Q1008 NOSIG,M
VVTS,3/24/2012 10:30,106.6667,10.8167,84.2,71.6,65.95,170,8,0,29.77,M,6.21,M,SCT,M,M,M,1700,M,M,M,M,M,M,M,M,M,M,89.6,VVTS 241030Z 17008KT 9999 SCT017 29/22 Q1008 NOSIG,M
VVTS,3/24/2012 11:00,106.6667,10.8167,82.4,71.6,69.9,160,8,0,29.77,M,6.21,M,SCT,M,M,M,1700,M,M,M,M,M,M,M,M,M,M,87.18,VVTS 241100Z 16008KT 130V190 9999 SCT017 28/22 Q1008 NOSIG,M
VVTS,3/24/2012 11:30,106.6667,10.8167,82.4,69.8,65.74,160,8,0,29.8,M,6.21,M,SCT,M,M,M,1700,M,M,M,M,M,M,M,M,M,M,86.22,VVTS 241130Z 16008KT 120V190 9999 SCT017 28/21 Q1009 NOSIG,M
VVTS,3/24/2012 12:00,106.6667,10.8167,82.4,71.6,69.9,150,9,0,29.8,M,6.21,M,SCT,M,M,M,1700,M,M,M,M,M,M,M,M,M,M,87.18,VVTS 241200Z 15009KT 130V190 9999 SCT017 28/22 Q1009 NOSIG,M
VVTS,3/24/2012 13:00,106.6667,10.8167,80.6,73.4,78.76,180,7,0,29.83,M,6.21,M,SCT,M,M,M,1700,M,M,M,M,M,M,M,M,M,M,85.32,VVTS 241300Z 18007KT 150V210 9999 SCT017 27/23 Q1010 NOSIG,M
VVTS,3/24/2012 13:30,106.6667,10.8167,80.6,73.4,78.76,160,10,0,29.83,M,6.21,M,SCT,M,M,M,1700,M,M,M,M,M,M,M,M,M,M,85.32,VVTS 241330Z 16010KT 9999 SCT017 27/23 Q1010 NOSIG,M
VVTS,3/24/2012 14:00,106.6667,10.8167,80.6,73.4,78.76,180,7,0,29.85,M,6.21,M,SCT,M,M,M,1700,M,M,M,M,M,M,M,M,M,M,85.32,VVTS 241400Z 18007KT 140V200 9999 SCT017 27/23 Q1011 NOSIG,M
VVTS,3/24/2012 14:30,106.6667,10.8167,80.6,73.4,78.76,170,6,0,29.85,M,6.21,M,SCT,M,M,M,1700,M,M,M,M,M,M,M,M,M,M,85.32,VVTS 241430Z 17006KT 9999 SCT017 27/23 Q1011 NOSIG,M
VVTS,3/24/2012 15:00,106.6667,10.8167,78.8,75.2,88.75,180,5,0,29.88,M,6.21,M,SCT,M,M,M,1700,M,M,M,M,M,M,M,M,M,M,82.38,VVTS 241500Z 18005KT 9999 SCT017 26/24 Q1012 NOSIG,M
VVTS,3/24/2012 15:30,106.6667,10.8167,78.8,75.2,88.75,190,5,0,29.88,M,6.21,M,SCT,M,M,M,1700,M,M,M,M,M,M,M,M,M,M,82.38,VVTS 241530Z 19005KT 9999 SCT017 26/24 Q1012 NOSIG,M
VVTS,3/24/2012 16:00,106.6667,10.8167,78.8,73.4,83.55,290,4,0,29.88,M,6.21,M,SCT,M,M,M,1700,M,M,M,M,M,M,M,M,M,M,82.03,VVTS 241600Z 29004KT 9999 SCT017 26/23 Q1012 NOSIG,M
VVTS,3/24/2012 16:30,106.6667,10.8167,77,75.2,94.19,280,4,0,29.88,M,4.97,M,SCT,M,M,M,1700,M,M,M,M,M,M,M,M,M,M,78.83,VVTS 241630Z 28004KT 8000 SCT017 25/24 Q1012 NOSIG,M
VVTS,3/24/2012 17:00,106.6667,10.8167,75.2,75.2,100,270,3,0,29.88,M,4.97,M,SCT,M,M,M,1700,M,M,M,M,M,M,M,M,M,M,77.12,VVTS 241700Z 27003KT 8000 SCT017 24/24 Q1012 NOSIG,M
VVTS,3/24/2012 17:30,106.6667,10.8167,75.2,75.2,100,260,4,0,29.88,M,6.21,M,SCT,M,M,M,1700,M,M,M,M,M,M,M,M,M,M,77.12,VVTS 241730Z 26004KT 9999 SCT017 24/24 Q1012 NOSIG,M
VVTS,3/24/2012 18:00,106.6667,10.8167,75.2,75.2,100,260,3,0,29.85,M,6.21,M,SCT,M,M,M,1700,M,M,M,M,M,M,M,M,M,M,77.12,VVTS 241800Z 26003KT 9999 SCT017 24/24 Q1011 NOSIG,M
VVTS,3/24/2012 18:30,106.6667,10.8167,75.2,75.2,100,270,2,0,29.85,M,5.59,M,SCT,M,M,M,1700,M,M,M,M,M,M,M,M,M,M,77.12,VVTS 241830Z 27002KT 9000 SCT017 24/24 Q1011 NOSIG,M
VVTS,3/24/2012 19:00,106.6667,10.8167,75.2,75.2,100,280,4,0,29.85,M,6.21,M,SCT,M,M,M,1700,M,M,M,M,M,M,M,M,M,M,77.12,VVTS 241900Z 28004KT 9999 SCT017 24/24 Q1011 NOSIG,M
VVTS,3/24/2012 19:30,106.6667,10.8167,75.2,75.2,100,300,3,0,29.85,M,4.97,M,SCT,M,M,M,1700,M,M,M,M,M,M,M,M,M,M,77.12,VVTS 241930Z 30003KT 8000 SCT017 24/24 Q1011 NOSIG,M
VVTS,3/24/2012 20:00,106.6667,10.8167,75.2,75.2,100,310,4,0,29.83,M,3.73,M,SCT,M,M,M,1700,M,M,M,M,M,M,M,M,M,M,77.12,VVTS 242000Z 31004KT 6000 SCT017 24/24 Q1010 NOSIG,M
VVTS,3/24/2012 20:30,106.6667,10.8167,75.2,75.2,100,310,4,0,29.83,M,5.59,M,SCT,M,M,M,1700,M,M,M,M,M,M,M,M,M,M,77.12,VVTS 242030Z 31004KT 9000 SCT017 24/24 Q1010 NOSIG,M
VVTS,3/24/2012 21:00,106.6667,10.8167,75.2,75.2,100,310,3,0,29.83,M,4.97,M,SCT,M,M,M,1700,M,M,M,M,M,M,M,M,M,M,77.12,VVTS 242100Z 31003KT 8000 SCT017 24/24 Q1010 NOSIG,M
VVTS,3/24/2012 21:30,106.6667,10.8167,75.2,75.2,100,310,3,0,29.85,M,4.97,M,FEW,SCT,M,M,1700,4000,M,M,M,M,M,M,M,M,M,77.12,VVTS 242130Z 31003KT 8000 FEW017 SCT040 24/24 Q1011 NOSIG,M
VVTS,3/24/2012 22:00,106.6667,10.8167,75.2,75.2,100,320,4,0,29.85,M,5.59,M,FEW,SCT,M,M,1700,4000,M,M,M,M,M,M,M,M,M,77.12,VVTS 242200Z 32004KT 290V360 9000 FEW017 SCT040 24/24 Q1011 NOSIG,M
VVTS,3/24/2012 22:30,106.6667,10.8167,75.2,75.2,100,350,4,0,29.85,M,4.35,M,FEW,SCT,M,M,1700,4000,M,M,M,M,M,M,M,M,M,77.12,VVTS 242230Z 35004KT 7000 FEW017 SCT040 24/24 Q1011 NOSIG,M
VVTS,3/24/2012 23:00,106.6667,10.8167,73.4,73.4,100,340,2,0,29.85,M,3.11,M,FEW,SCT,M,M,1700,4000,M,M,BR,M,M,M,M,M,M,75.14,VVTS 242300Z 34002KT 5000 BR FEW017 SCT040 23/23 Q1011 NOSIG,M
VVTS,3/24/2012 23:30,106.6667,10.8167,75.2,73.4,94.14,10,5,0,29.85,M,3.11,M,FEW,M,M,M,1700,M,M,M,BR,M,M,M,M,M,M,76.84,VVTS 242330Z 01005KT 5000 BR FEW017 24/23 Q1011 NOSIG,M
VVTS,3/25/2012 0:00,106.6667,10.8167,75.2,75.2,100,10,6,0,29.88,M,3.73,M,FEW,M,M,M,1700,M,M,M,M,M,M,M,M,M,M,77.12,VVTS 250000Z 01006KT 6000 FEW017 24/24 Q1012 NOSIG,M
VVTS,3/25/2012 0:30,106.6667,10.8167,77,75.2,94.19,360,6,0,29.88,M,3.11,M,FEW,M,M,M,1700,M,M,M,BR,M,M,M,M,M,M,78.83,VVTS 250030Z 36006KT 5000 BR FEW017 25/24 Q1012 NOSIG,M
VVTS,3/25/2012 1:00,106.6667,10.8167,80.6,75.2,83.66,350,8,0,29.91,M,5.59,M,FEW,M,M,M,1700,M,M,M,M,M,M,M,M,M,M,86.17,VVTS 250100Z 35008KT 9000 FEW017 27/24 Q1013 NOSIG,M
VVTS,3/25/2012 1:30,106.6667,10.8167,80.6,73.4,78.76,350,8,0,29.91,M,6.21,M,FEW,M,M,M,1700,M,M,M,M,M,M,M,M,M,M,85.32,VVTS 250130Z 35008KT 320V020 9999 FEW017 27/23 Q1013 NOSIG,M
VVTS,3/25/2012 2:00,106.6667,10.8167,80.6,75.2,83.66,350,6,0,29.91,M,6.21,M,SCT,M,M,M,1700,M,M,M,M,M,M,M,M,M,M,86.17,VVTS 250200Z 35006KT 310V020 9999 SCT017 27/24 Q1013 NOSIG,M
VVTS,3/25/2012 2:30,106.6667,10.8167,82.4,75.2,78.9,330,8,0,29.91,M,6.21,M,SCT,M,M,M,1700,M,M,M,M,M,M,M,M,M,M,89.48,VVTS 250230Z 33008KT 9999 SCT017 28/24 Q1013 NOSIG,M
VVTS,3/25/2012 3:00,106.6667,10.8167,84.2,73.4,70.08,350,8,0,29.88,M,6.21,M,SCT,M,M,M,1700,M,M,M,M,M,M,M,M,M,M,90.94,VVTS 250300Z 35008KT 9999 SCT017 29/23 Q1012 NOSIG,M
VVTS,3/25/2012 3:30,106.6667,10.8167,86,73.4,66.15,340,7,0,29.88,M,6.21,M,SCT,M,M,M,1700,M,M,M,M,M,M,M,M,M,M,93.45,VVTS 250330Z 34007KT 310V010 9999 SCT017 30/23 Q1012 NOSIG,M
VVTS,3/25/2012 4:00,106.6667,10.8167,87.8,73.4,62.47,350,8,0,29.88,M,6.21,M,SCT,M,M,M,2000,M,M,M,M,M,M,M,M,M,M,95.86,VVTS 250400Z 35008KT 320V030 9999 SCT020 31/23 Q1012 NOSIG,M
VVTS,3/25/2012 4:30,106.6667,10.8167,89.6,73.4,59.01,350,9,0,29.85,M,6.21,M,SCT,M,M,M,2000,M,M,M,M,M,M,M,M,M,M,98.2,VVTS 250430Z 35009KT 310V030 9999 SCT020 32/23 Q1011 NOSIG,M
VVTS,3/25/2012 5:00,106.6667,10.8167,89.6,71.6,55.53,350,8,0,29.85,M,6.21,M,SCT,M,M,M,2000,M,M,M,M,M,M,M,M,M,M,96.41,VVTS 250500Z 35008KT 310V020 9999 SCT020 32/22 Q1011 NOSIG,M
VVTS,3/25/2012 5:30,106.6667,10.8167,89.6,71.6,55.53,330,10,0,29.83,M,6.21,M,SCT,M,M,M,2000,M,M,M,M,M,M,M,M,M,M,96.41,VVTS 250530Z 33010KT 300V020 9999 SCT020 32/22 Q1010 NOSIG,M
VVTS,3/25/2012 6:00,106.6667,10.8167,91.4,71.6,52.48,330,9,0,29.8,M,6.21,M,SCT,M,M,M,2000,M,M,M,M,M,M,M,M,M,M,98.64,VVTS 250600Z 33009KT 290V010 9999 SCT020 33/22 Q1009 NOSIG,M
VVTS,3/25/2012 6:30,106.6667,10.8167,91.4,71.6,52.48,350,7,0,29.8,M,6.21,M,SCT,M,M,M,2000,M,M,M,M,M,M,M,M,M,M,98.64,VVTS 250630Z 35007KT 310V100 9999 SCT020 33/22 Q1009 NOSIG,M
VVTS,3/25/2012 7:00,106.6667,10.8167,91.4,71.6,52.48,330,6,0,29.77,M,6.21,M,SCT,M,M,M,2000,M,M,M,M,M,M,M,M,M,M,98.64,VVTS 250700Z 33006KT 270V010 9999 SCT020 33/22 Q1008 NOSIG,M
VVTS,3/25/2012 7:30,106.6667,10.8167,91.4,71.6,52.48,290,6,0,29.77,M,6.21,M,SCT,M,M,M,2000,M,M,M,M,M,M,M,M,M,M,98.64,VVTS 250730Z 29006KT 240V330 9999 SCT020 33/22 Q1008 NOSIG,M
VVTS,3/25/2012 8:00,106.6667,10.8167,91.4,71.6,52.48,310,5,0,29.74,M,6.21,M,SCT,M,M,M,2000,M,M,M,M,M,M,M,M,M,M,98.64,VVTS 250800Z 31005KT 270V070 9999 SCT020 33/22 Q1007 NOSIG,M
VVTS,3/25/2012 8:30,106.6667,10.8167,91.4,69.8,49.36,340,6,0,29.74,M,6.21,M,SCT,M,M,M,2000,M,M,M,M,M,M,M,M,M,M,96.99,VVTS 250830Z 34006KT 300V010 9999 SCT020 33/21 Q1007 NOSIG,M
VVTS,3/25/2012 9:00,106.6667,10.8167,91.4,69.8,49.36,340,6,0,29.74,M,6.21,M,FEW,M,M,M,2000,M,M,M,M,M,M,M,M,M,M,96.99,VVTS 250900Z 34006KT 310V020 9999 FEW020 33/21 Q1007 NOSIG,M
VVTS,3/25/2012 9:30,106.6667,10.8167,91.4,68,46.41,350,5,0,29.74,M,6.21,M,FEW,M,M,M,2000,M,M,M,M,M,M,M,M,M,M,95.55,VVTS 250930Z 35005KT 300V040 9999 FEW020 33/20 Q1007 NOSIG,M
VVTS,3/25/2012 10:00,106.6667,10.8167,89.6,69.8,52.23,310,4,0,29.74,M,6.21,M,FEW,M,M,M,2000,M,M,M,M,M,M,M,M,M,M,94.85,VVTS 251000Z 31004KT 240V340 9999 FEW020 32/21 Q1007 NOSIG,M
VVTS,3/25/2012 10:30,106.6667,10.8167,89.6,69.8,52.23,270,4,0,29.77,M,6.21,M,FEW,M,M,M,2000,M,M,M,M,M,M,M,M,M,M,94.85,VVTS 251030Z 27004KT 9999 FEW020 32/21 Q1008 NOSIG,M
VVTS,3/25/2012 11:00,106.6667,10.8167,87.8,71.6,58.78,260,4,0,29.77,M,6.21,M,FEW,M,M,M,2000,M,M,M,M,M,M,M,M,M,M,94.18,VVTS 251100Z 26004KT 9999 FEW020 31/22 Q1008 NOSIG,M
VVTS,3/25/2012 11:30,106.6667,10.8167,84.2,75.2,74.44,140,9,0,29.8,M,6.21,M,FEW,SCT,M,M,2000,4000,M,M,M,M,M,M,M,M,M,92.45,VVTS 251130Z 14009KT 9999 FEW020 SCT040 29/24 Q1009 NOSIG,M
VVTS,3/25/2012 12:00,106.6667,10.8167,82.4,75.2,78.9,140,11,0,29.8,M,6.21,M,FEW,SCT,M,M,2000,4000,M,M,M,M,M,M,M,M,M,89.48,VVTS 251200Z 14011KT 9999 FEW020 SCT040 28/24 Q1009 NOSIG,M
VVTS,3/25/2012 12:30,106.6667,10.8167,82.4,75.2,78.9,150,9,0,29.8,M,6.21,M,FEW,SCT,M,M,2000,4000,M,M,M,M,M,M,M,M,M,89.48,VVTS 251230Z 15009KT 9999 FEW020 SCT040 28/24 Q1009 NOSIG,M
VVTS,3/25/2012 13:00,106.6667,10.8167,80.6,75.2,83.66,150,6,0,29.83,M,6.21,M,FEW,SCT,M,M,2000,4000,M,M,M,M,M,M,M,M,M,86.17,VVTS 251300Z 15006KT 9999 FEW020 SCT040 27/24 Q1010 NOSIG,M
VVTS,3/25/2012 14:00,106.6667,10.8167,80.6,71.6,74.11,160,6,0,29.85,M,6.21,M,FEW,SCT,M,M,2000,4000,M,M,M,M,M,M,M,M,M,84.57,VVTS 251400Z 16006KT 120V210 9999 FEW020 SCT040 27/22 Q1011 NOSIG,M
VVTS,3/25/2012 14:30,106.6667,10.8167,80.6,71.6,74.11,M,3,0,29.85,M,6.21,M,FEW,SCT,M,M,1700,4000,M,M,M,M,M,M,M,M,M,84.57,VVTS 251430Z VRB03KT 9999 FEW017 SCT040 27/22 Q1011 NOSIG,M
VVTS,3/25/2012 15:00,106.6667,10.8167,80.6,73.4,78.76,160,3,0,29.85,M,6.21,M,FEW,SCT,M,M,1700,4000,M,M,M,M,M,M,M,M,M,85.32,VVTS 251500Z 16003KT 9999 FEW017 SCT040 27/23 Q1011 NOSIG,M
VVTS,3/25/2012 15:30,106.6667,10.8167,80.6,73.4,78.76,M,3,0,29.85,M,6.21,M,FEW,SCT,M,M,1700,4000,M,M,M,M,M,M,M,M,M,85.32,VVTS 251530Z VRB03KT 9999 FEW017 SCT040 27/23 Q1011 NOSIG,M
VVTS,3/25/2012 16:00,106.6667,10.8167,80.6,73.4,78.76,190,3,0,29.88,M,6.21,M,FEW,SCT,M,M,1700,4000,M,M,M,M,M,M,M,M,M,85.32,VVTS 251600Z 19003KT 9999 FEW017 SCT040 27/23 Q1012 NOSIG,M
VVTS,3/25/2012 16:30,106.6667,10.8167,78.8,75.2,88.75,260,4,0,29.85,M,6.21,M,FEW,SCT,M,M,1700,4000,M,M,M,M,M,M,M,M,M,82.38,VVTS 251630Z 26004KT 9999 FEW017 SCT040 26/24 Q1011 NOSIG,M
VVTS,3/25/2012 17:00,106.6667,10.8167,M,M,M,250,5,0,M,M,6.21,M,FEW,SCT,M,M,1700,41100,M,M,M,M,M,M,M,M,M,M,VVTS 251700Z 25005KT 9999 FEW017 SCT0411 NOSIG,M
VVTS,3/25/2012 17:30,106.6667,10.8167,78.8,75.2,88.75,260,3,0,29.85,M,6.21,M,FEW,SCT,M,M,1700,4000,M,M,M,M,M,M,M,M,M,82.38,VVTS 251730Z 26003KT 9999 FEW017 SCT040 26/24 Q1011 NOSIG,M
VVTS,3/25/2012 18:00,106.6667,10.8167,78.8,75.2,88.75,280,2,0,29.85,M,6.21,M,FEW,SCT,M,M,1700,4000,M,M,M,M,M,M,M,M,M,82.38,VVTS 251800Z 28002KT 9999 FEW017 SCT040 26/24 Q1011 NOSIG,M
VVTS,3/25/2012 18:30,106.6667,10.8167,78.8,75.2,88.75,300,3,0,29.85,M,6.21,M,FEW,SCT,M,M,1700,4000,M,M,M,M,M,M,M,M,M,82.38,VVTS 251830Z 30003KT 9999 FEW017 SCT040 26/24 Q1011 NOSIG,M
VVTS,3/25/2012 19:00,106.6667,10.8167,78.8,75.2,88.75,320,3,0,29.85,M,5.59,M,FEW,SCT,M,M,1700,4000,M,M,M,M,M,M,M,M,M,82.38,VVTS 251900Z 32003KT 9000 FEW017 SCT040 26/24 Q1011 NOSIG,M
VVTS,3/25/2012 19:30,106.6667,10.8167,77,75.2,94.19,310,4,0,29.83,M,5.59,M,FEW,SCT,M,M,1700,4000,M,M,M,M,M,M,M,M,M,78.83,VVTS 251930Z 31004KT 9000 FEW017 SCT040 25/24 Q1010 NOSIG,M
VVTS,3/25/2012 20:00,106.6667,10.8167,77,75.2,94.19,300,3,0,29.83,M,5.59,M,FEW,SCT,M,M,1700,4000,M,M,M,M,M,M,M,M,M,78.83,VVTS 252000Z 30003KT 9000 FEW017 SCT040 25/24 Q1010 NOSIG,M
VVTS,3/25/2012 20:30,106.6667,10.8167,77,75.2,94.19,310,3,0,29.83,M,5.59,M,FEW,SCT,M,M,1700,4000,M,M,M,M,M,M,M,M,M,78.83,VVTS 252030Z 31003KT 9000 FEW017 SCT040 25/24 Q1010 NOSIG,M
VVTS,3/25/2012 21:00,106.6667,10.8167,77,75.2,94.19,310,3,0,29.83,M,5.59,M,FEW,M,M,M,1700,M,M,M,M,M,M,M,M,M,M,78.83,VVTS 252100Z 31003KT 9000 FEW017 25/24 Q1010 NOSIG,M
VVTS,3/25/2012 21:30,106.6667,10.8167,75.2,75.2,100,300,3,0,29.83,M,5.59,M,FEW,M,M,M,1700,M,M,M,M,M,M,M,M,M,M,77.12,VVTS 252130Z 30003KT 9000 FEW017 24/24 Q1010 NOSIG,M
VVTS,3/25/2012 22:00,106.6667,10.8167,75.2,75.2,100,310,2,0,29.83,M,4.97,M,FEW,M,M,M,1700,M,M,M,M,M,M,M,M,M,M,77.12,VVTS 252200Z 31002KT 8000 FEW017 24/24 Q1010 NOSIG,M
VVTS,3/25/2012 22:30,106.6667,10.8167,75.2,75.2,100,310,3,0,29.85,M,4.35,M,FEW,M,M,M,1700,M,M,M,M,M,M,M,M,M,M,77.12,VVTS 252230Z 31003KT 7000 FEW017 24/24 Q1011 NOSIG,M
VVTS,3/25/2012 23:00,106.6667,10.8167,75.2,75.2,100,310,4,0,29.85,M,3.11,M,FEW,SCT,M,M,1500,4000,M,M,BR,M,M,M,M,M,M,77.12,VVTS 252300Z 31004KT 250V330 5000 BR FEW015 SCT040 24/24 Q1011 NOSIG,M
VVTS,3/25/2012 23:30,106.6667,10.8167,75.2,71.6,88.59,330,5,0,29.85,M,3.11,M,FEW,SCT,M,M,1500,4000,M,M,BR,M,M,M,M,M,M,76.58,VVTS 252330Z 33005KT 5000 BR FEW015 SCT040 24/22 Q1011 NOSIG,M
VVTS,3/26/2012 0:00,106.6667,10.8167,75.2,71.6,88.59,340,6,0,29.88,M,4.97,M,FEW,SCT,M,M,1500,4000,M,M,M,M,M,M,M,M,M,76.58,VVTS 260000Z 34006KT 8000 FEW015 SCT040 24/22 Q1012 NOSIG,M
VVTS,3/26/2012 0:30,106.6667,10.8167,77,69.8,78.48,350,5,0,29.88,M,4.97,M,FEW,BKN,M,M,1500,4000,M,M,M,M,M,M,M,M,M,78.09,VVTS 260030Z 35005KT 330V040 8000 FEW015 BKN040 25/21 Q1012 NOSIG,M
VVTS,3/26/2012 1:00,106.6667,10.8167,77,68,73.78,360,4,0,29.88,M,6.21,M,SCT,BKN,M,M,1500,4000,M,M,M,M,M,M,M,M,M,77,VVTS 260100Z 36004KT 330V060 9999 SCT015 BKN040 25/20 Q1012 NOSIG,M
VVTS,3/26/2012 1:30,106.6667,10.8167,78.8,68,69.52,20,5,0,29.91,M,6.21,M,SCT,BKN,M,M,1500,4000,M,M,M,M,M,M,M,M,M,81.1,VVTS 260130Z 02005KT 330V040 9999 SCT015 BKN040 26/20 Q1013 NOSIG,M
VVTS,3/26/2012 2:00,106.6667,10.8167,80.6,68,65.54,10,4,0,29.91,M,6.21,M,SCT,M,M,M,1700,M,M,M,M,M,M,M,M,M,M,83.29,VVTS 260200Z 01004KT 320V040 9999 SCT017 27/20 Q1013 NOSIG,M
VVTS,3/26/2012 2:30,106.6667,10.8167,82.4,68,61.81,350,4,0,29.91,M,6.21,M,SCT,M,M,M,1700,M,M,M,M,M,M,M,M,M,M,85.38,VVTS 260230Z 35004KT 310V050 9999 SCT017 28/20 Q1013 NOSIG,M
VVTS,3/26/2012 3:00,106.6667,10.8167,84.2,68,58.32,M,2,0,29.88,M,6.21,M,SCT,M,M,M,1700,M,M,M,M,M,M,M,M,M,M,87.4,VVTS 260300Z VRB02KT 9999 SCT017 29/20 Q1012 NOSIG,M
VVTS,3/26/2012 3:30,106.6667,10.8167,84.2,69.8,62.03,300,4,0,29.88,M,6.21,M,SCT,M,M,M,1700,M,M,M,M,M,M,M,M,M,M,88.43,VVTS 260330Z 30004KT 250V330 9999 SCT017 29/21 Q1012 NOSIG,M
VVTS,3/26/2012 4:00,106.6667,10.8167,87.8,69.8,55.29,260,4,0,29.88,M,6.21,M,SCT,M,M,M,1700,M,M,M,M,M,M,M,M,M,M,92.71,VVTS 260400Z 26004KT 180V340 9999 SCT017 31/21 Q1012 NOSIG,M
VVTS,3/26/2012 4:30,106.6667,10.8167,87.8,66.2,48.84,M,3,0,29.85,M,6.21,M,SCT,M,M,M,1700,M,M,M,M,M,M,M,M,M,M,90.31,VVTS 260430Z VRB03KT 9999 SCT017 31/19 Q1011 NOSIG,M
VVTS,3/26/2012 5:00,106.6667,10.8167,87.8,66.2,48.84,340,4,0,29.83,M,6.21,M,SCT,M,M,M,1700,M,M,M,M,M,M,M,M,M,M,90.31,VVTS 260500Z 34004KT 280V030 9999 SCT017 31/19 Q1010 NOSIG,M
VVTS,3/26/2012 5:30,106.6667,10.8167,89.6,68,49.1,300,4,0,29.83,M,6.21,M,SCT,M,M,M,1700,M,M,M,M,M,M,M,M,M,M,93.47,VVTS 260530Z 30004KT 170V360 9999 SCT017 32/20 Q1010 NOSIG,M
VVTS,3/26/2012 6:00,106.6667,10.8167,89.6,69.8,52.23,M,3,0,29.8,M,6.21,M,SCT,M,M,M,1700,M,M,M,M,M,M,M,M,M,M,94.85,VVTS 260600Z VRB03KT 9999 SCT017 32/21 Q1009 NOSIG,M
VVTS,3/26/2012 6:30,106.6667,10.8167,89.6,69.8,52.23,300,6,0,29.8,M,6.21,M,SCT,M,M,M,1700,M,M,M,M,M,M,M,M,M,M,94.85,VVTS 260630Z 30006KT 260V330 9999 SCT017 32/21 Q1009 NOSIG,M
VVTS,3/26/2012 7:00,106.6667,10.8167,91.4,68,46.41,320,4,0,29.77,M,6.21,M,SCT,M,M,M,1700,M,M,M,M,M,M,M,M,M,M,95.55,VVTS 260700Z 32004KT 260V050 9999 SCT017 33/20 Q1008 NOSIG,M
VVTS,3/26/2012 7:30,106.6667,10.8167,91.4,68,46.41,10,5,0,29.77,M,6.21,M,SCT,M,M,M,1700,M,M,M,M,M,M,M,M,M,M,95.55,VVTS 260730Z 01005KT 330V080 9999 SCT017 33/20 Q1008 NOSIG,M
VVTS,3/26/2012 8:00,106.6667,10.8167,89.6,66.2,46.14,M,3,0,29.77,M,6.21,M,SCT,M,M,M,1700,M,M,M,M,M,M,M,M,M,M,92.27,VVTS 260800Z VRB03KT 9999 SCT017 32/19 Q1008 NOSIG,M
VVTS,3/26/2012 8:30,106.6667,10.8167,91.4,66.2,43.61,340,4,0,29.77,M,6.21,M,SCT,M,M,M,1700,M,M,M,M,M,M,M,M,M,M,94.29,VVTS 260830Z 34004KT 230V060 9999 SCT017 33/19 Q1008 NOSIG,M
VVTS,3/26/2012 9:00,106.6667,10.8167,91.4,66.2,43.61,340,5,0,29.77,M,6.21,M,SCT,M,M,M,1700,M,M,M,M,M,M,M,M,M,M,94.29,VVTS 260900Z 34005KT 280V050 9999 SCT017 33/19 Q1008 NOSIG,M
VVTS,3/26/2012 9:30,106.6667,10.8167,89.6,66.2,46.14,340,7,0,29.77,M,6.21,M,SCT,M,M,M,1700,M,M,M,M,M,M,M,M,M,M,92.27,VVTS 260930Z 34007KT 300V010 9999 SCT017 32/19 Q1008 NOSIG,M
VVTS,3/26/2012 10:00,106.6667,10.8167,89.6,66.2,46.14,330,7,0,29.77,M,6.21,M,FEW,M,M,M,1700,M,M,M,M,M,M,M,M,M,M,92.27,VVTS 261000Z 33007KT 230V020 9999 FEW017 32/19 Q1008 NOSIG,M
VVTS,3/26/2012 10:30,106.6667,10.8167,87.8,66.2,48.84,340,5,0,29.77,M,6.21,M,FEW,M,M,M,1700,M,M,M,M,M,M,M,M,M,M,90.31,VVTS 261030Z 34005KT 310V020 9999 FEW017 31/19 Q1008 NOSIG,M
VVTS,3/26/2012 11:00,106.6667,10.8167,87.8,68,51.98,320,5,0,29.77,M,6.21,M,FEW,M,M,M,1700,M,M,M,M,M,M,M,M,M,M,91.43,VVTS 261100Z 32005KT 280V350 9999 FEW017 31/20 Q1008 NOSIG,M
VVTS,3/26/2012 11:30,106.6667,10.8167,86,75.2,70.27,120,7,0,29.8,M,6.21,M,SCT,M,M,M,1700,M,M,M,M,M,M,M,M,M,M,95.19,VVTS 261130Z 12007KT 100V160 9999 SCT017 30/24 Q1009 NOSIG,M
VVTS,3/26/2012 12:00,106.6667,10.8167,84.2,75.2,74.44,140,8,0,29.8,M,6.21,M,SCT,M,M,M,1700,M,M,M,M,M,M,M,M,M,M,92.45,VVTS 261200Z 14008KT 9999 SCT017 29/24 Q1009 NOSIG,M
VVTS,3/26/2012 12:30,106.6667,10.8167,82.4,73.4,74.28,140,6,0,29.83,M,6.21,M,SCT,M,M,M,1700,M,M,M,M,M,M,M,M,M,M,88.26,VVTS 261230Z 14006KT 9999 SCT017 28/23 Q1010 NOSIG,M
VVTS,3/26/2012 13:00,106.6667,10.8167,82.4,73.4,74.28,160,5,0,29.83,M,6.21,M,SCT,M,M,M,1700,M,M,M,M,M,M,M,M,M,M,88.26,VVTS 261300Z 16005KT 140V200 9999 SCT017 28/23 Q1010 NOSIG,M
VVTS,3/26/2012 13:30,106.6667,10.8167,82.4,73.4,74.28,150,6,0,29.85,M,6.21,M,SCT,M,M,M,1700,M,M,M,M,M,M,M,M,M,M,88.26,VVTS 261330Z 15006KT 130V200 9999 SCT017 28/23 Q1011 NOSIG,M
VVTS,3/26/2012 14:00,106.6667,10.8167,82.4,73.4,74.28,140,4,0,29.85,M,6.21,M,SCT,M,M,M,1700,M,M,M,M,M,M,M,M,M,M,88.26,VVTS 261400Z 14004KT 110V190 9999 SCT017 28/23 Q1011 NOSIG,M
VVTS,3/26/2012 14:30,106.6667,10.8167,80.6,73.4,78.76,160,5,0,29.85,M,6.21,M,SCT,M,M,M,1700,M,M,M,M,M,M,M,M,M,M,85.32,VVTS 261430Z 16005KT 9999 SCT017 27/23 Q1011 NOSIG,M
VVTS,3/26/2012 15:00,106.6667,10.8167,80.6,71.6,74.11,180,4,0,29.85,M,6.21,M,SCT,M,M,M,1700,M,M,M,M,M,M,M,M,M,M,84.57,VVTS 261500Z 18004KT 9999 SCT017 27/22 Q1011 NOSIG,M
VVTS,3/26/2012 15:30,106.6667,10.8167,80.6,73.4,78.76,M,2,0,29.88,M,6.21,M,SCT,M,M,M,1700,M,M,M,M,M,M,M,M,M,M,85.32,VVTS 261530Z VRB02KT 9999 SCT017 27/23 Q1012 NOSIG,M
VVTS,3/26/2012 16:00,106.6667,10.8167,80.6,73.4,78.76,M,3,0,29.88,M,6.21,M,SCT,M,M,M,1700,M,M,M,M,M,M,M,M,M,M,85.32,VVTS 261600Z VRB03KT 9999 SCT017 27/23 Q1012 NOSIG,M
VVTS,3/26/2012 16:30,106.6667,10.8167,78.8,73.4,83.55,M,2,0,29.88,M,6.21,M,SCT,M,M,M,1700,M,M,M,M,M,M,M,M,M,M,82.03,VVTS 261630Z VRB02KT 9999 SCT017 26/23 Q1012 NOSIG,M
VVTS,3/26/2012 17:00,106.6667,10.8167,78.8,73.4,83.55,M,1,0,29.85,M,6.21,M,SCT,M,M,M,1700,M,M,M,M,M,M,M,M,M,M,82.03,VVTS 261700Z VRB01KT 9999 SCT017 26/23 Q1011 NOSIG,M
VVTS,3/26/2012 17:30,106.6667,10.8167,78.8,75.2,88.75,300,3,0,29.85,M,3.73,M,SCT,M,M,M,1700,M,M,M,M,M,M,M,M,M,M,82.38,VVTS 261730Z 30003KT 6000 SCT017 26/24 Q1011 NOSIG,M
VVTS,3/26/2012 18:00,106.6667,10.8167,77,75.2,94.19,280,3,0,29.85,M,3.73,M,SCT,M,M,M,1700,M,M,M,M,M,M,M,M,M,M,78.83,VVTS 261800Z 28003KT 6000 SCT017 25/24 Q1011 NOSIG,M
VVTS,3/26/2012 18:30,106.6667,10.8167,77,75.2,94.19,300,3,0,29.85,M,3.73,M,SCT,M,M,M,1700,M,M,M,M,M,M,M,M,M,M,78.83,VVTS 261830Z 30003KT 6000 SCT017 25/24 Q1011 NOSIG,M
VVTS,3/26/2012 19:00,106.6667,10.8167,77,75.2,94.19,320,5,0,29.85,M,3.73,M,SCT,M,M,M,1700,M,M,M,M,M,M,M,M,M,M,78.83,VVTS 261900Z 32005KT 6000 SCT017 25/24 Q1011 NOSIG,M
VVTS,3/26/2012 19:30,106.6667,10.8167,75.2,73.4,94.14,310,5,0,29.83,M,4.97,M,SCT,M,M,M,1700,M,M,M,M,M,M,M,M,M,M,76.84,VVTS 261930Z 31005KT 8000 SCT017 24/23 Q1010 NOSIG,M
VVTS,3/26/2012 20:00,106.6667,10.8167,75.2,73.4,94.14,320,4,0,29.83,M,4.97,M,SCT,M,M,M,1700,M,M,M,M,M,M,M,M,M,M,76.84,VVTS 262000Z 32004KT 8000 SCT017 24/23 Q1010 NOSIG,M
VVTS,3/26/2012 20:30,106.6667,10.8167,75.2,71.6,88.59,330,3,0,29.83,M,5.59,M,SCT,M,M,M,1700,M,M,M,M,M,M,M,M,M,M,76.58,VVTS 262030Z 33003KT 9000 SCT017 24/22 Q1010 NOSIG,M
VVTS,3/26/2012 21:00,106.6667,10.8167,75.2,69.8,83.32,350,4,0,29.83,M,6.21,M,SCT,M,M,M,1700,M,M,M,M,M,M,M,M,M,M,76.34,VVTS 262100Z 35004KT 9999 SCT017 24/21 Q1010 NOSIG,M
VVTS,3/26/2012 21:30,106.6667,10.8167,75.2,68,78.34,360,4,0,29.83,M,6.21,M,SCT,M,M,M,1700,M,M,M,M,M,M,M,M,M,M,75.2,VVTS 262130Z 36004KT 9999 SCT017 24/20 Q1010 NOSIG,M
VVTS,3/26/2012 22:00,106.6667,10.8167,75.2,68,78.34,10,3,0,29.85,M,6.21,M,SCT,M,M,M,1700,M,M,M,M,M,M,M,M,M,M,75.2,VVTS 262200Z 01003KT 9999 SCT017 24/20 Q1011 NOSIG,M
VVTS,3/26/2012 22:30,106.6667,10.8167,73.4,68,83.21,350,2,0,29.85,M,6.21,M,SCT,M,M,M,1700,M,M,M,M,M,M,M,M,M,M,73.4,VVTS 262230Z 35002KT 9999 SCT017 23/20 Q1011 NOSIG,M
VVTS,3/26/2012 23:00,106.6667,10.8167,73.4,68,83.21,360,3,0,29.85,M,4.97,M,SCT,M,M,M,1700,M,M,M,M,M,M,M,M,M,M,73.4,VVTS 262300Z 36003KT 8000 SCT017 23/20 Q1011 NOSIG,M
VVTS,3/26/2012 23:30,106.6667,10.8167,73.4,68,83.21,20,2,0,29.85,M,4.35,M,FEW,M,M,M,1700,M,M,M,M,M,M,M,M,M,M,73.4,VVTS 262330Z 02002KT 7000 FEW017 23/20 Q1011 NOSIG,M
VVTS,3/27/2012 0:00,106.6667,10.8167,75.2,69.8,83.32,340,2,0,29.85,M,4.97,M,FEW,M,M,M,1700,M,M,M,M,M,M,M,M,M,M,76.34,VVTS 270000Z 34002KT 8000 FEW017 24/21 Q1011 NOSIG,M
VVTS,3/27/2012 0:30,106.6667,10.8167,77,68,73.78,M,2,0,29.88,M,4.97,M,FEW,M,M,M,1700,M,M,M,M,M,M,M,M,M,M,77,VVTS 270030Z VRB02KT 8000 FEW017 25/20 Q1012 NOSIG,M
VVTS,3/27/2012 1:00,106.6667,10.8167,78.8,68,69.52,M,2,0,29.88,M,4.97,M,FEW,M,M,M,1700,M,M,M,M,M,M,M,M,M,M,81.1,VVTS 270100Z VRB02KT 8000 FEW017 26/20 Q1012 NOSIG,M
VVTS,3/27/2012 1:30,106.6667,10.8167,82.4,69.8,65.74,M,2,0,29.91,M,4.97,M,FEW,M,M,M,1700,M,M,M,M,M,M,M,M,M,M,86.22,VVTS 270130Z VRB02KT 8000 FEW017 28/21 Q1013 NOSIG,M
VVTS,3/27/2012 2:00,106.6667,10.8167,84.2,69.8,62.03,M,2,0,29.88,M,4.97,M,FEW,M,M,M,1700,M,M,M,M,M,M,M,M,M,M,88.43,VVTS 270200Z VRB02KT 8000 FEW017 29/21 Q1012 NOSIG,M
VVTS,3/27/2012 2:30,106.6667,10.8167,86,69.8,58.55,M,2,0,29.91,M,4.97,M,FEW,M,M,M,1700,M,M,M,M,M,M,M,M,M,M,90.58,VVTS 270230Z VRB02KT 8000 FEW017 30/21 Q1013 NOSIG,M
VVTS,3/27/2012 3:00,106.6667,10.8167,87.8,71.6,58.78,M,2,0,29.88,M,4.35,M,FEW,M,M,M,1700,M,M,M,M,M,M,M,M,M,M,94.18,VVTS 270300Z VRB02KT 7000 FEW017 31/22 Q1012 NOSIG,M
VVTS,3/27/2012 3:30,106.6667,10.8167,87.8,71.6,58.78,M,2,0,29.88,M,4.97,M,SCT,M,M,M,1700,M,M,M,M,M,M,M,M,M,M,94.18,VVTS 270330Z VRB02KT 8000 SCT017 31/22 Q1012 NOSIG,M
VVTS,3/27/2012 4:00,106.6667,10.8167,87.8,69.8,55.29,M,2,0,29.88,M,6.21,M,SCT,M,M,M,1700,M,M,M,M,M,M,M,M,M,M,92.71,VVTS 270400Z VRB02KT 9999 SCT017 31/21 Q1012 NOSIG,M
VVTS,3/27/2012 4:30,106.6667,10.8167,89.6,73.4,59.01,240,4,0,29.85,M,4.97,M,SCT,M,M,M,1700,M,M,M,M,M,M,M,M,M,M,98.2,VVTS 270430Z 24004KT 130V330 8000 SCT017 32/23 Q1011 NOSIG,M
VVTS,3/27/2012 5:00,106.6667,10.8167,91.4,73.4,55.77,250,4,0,29.85,M,5.59,M,SCT,M,M,M,1700,M,M,M,M,M,M,M,M,M,M,100.52,VVTS 270500Z 25004KT 180V300 9000 SCT017 33/23 Q1011 NOSIG,M
VVTS,3/27/2012 5:30,106.6667,10.8167,91.4,71.6,52.48,320,6,0,29.83,M,5.59,M,SCT,M,M,M,1700,M,M,M,M,M,M,M,M,M,M,98.64,VVTS 270530Z 32006KT 270V340 9000 SCT017 33/22 Q1010 NOSIG,M
VVTS,3/27/2012 6:00,106.6667,10.8167,91.4,71.6,52.48,310,5,0,29.83,M,5.59,M,SCT,M,M,M,1700,M,M,M,M,M,M,M,M,M,M,98.64,VVTS 270600Z 31005KT 270V340 9000 SCT017 33/22 Q1010 NOSIG,M
VVTS,3/27/2012 6:30,106.6667,10.8167,89.6,71.6,55.53,M,2,0,29.83,M,4.97,M,SCT,M,M,M,1700,M,M,M,M,M,M,M,M,M,M,96.41,VVTS 270630Z VRB02KT 8000 SCT017 32/22 Q1010 NOSIG,M
VVTS,3/27/2012 7:00,106.6667,10.8167,91.4,71.6,52.48,300,4,0,29.8,M,4.97,M,SCT,M,M,M,1700,M,M,M,M,M,M,M,M,M,M,98.64,VVTS 270700Z 30004KT 230V350 8000 SCT017 33/22 Q1009 NOSIG,M
VVTS,3/27/2012 7:30,106.6667,10.8167,89.6,71.6,55.53,260,4,0,29.8,M,5.59,M,SCT,M,M,M,1700,M,M,M,M,M,M,M,M,M,M,96.41,VVTS 270730Z 26004KT 220V300 9000 SCT017 32/22 Q1009 NOSIG,M
VVTS,3/27/2012 8:00,106.6667,10.8167,89.6,71.6,55.53,300,4,0,29.8,M,5.59,M,SCT,M,M,M,1700,M,M,M,M,M,M,M,M,M,M,96.41,VVTS 270800Z 30004KT 240V040 9000 SCT017 32/22 Q1009 NOSIG,M
VVTS,3/27/2012 8:30,106.6667,10.8167,89.6,71.6,55.53,M,3,0,29.8,M,5.59,M,FEW,SCT,M,M,1500,1700,M,M,M,M,M,M,M,M,M,96.41,VVTS 270830Z VRB03KT 9000 FEW015TCU SCT017 32/22 Q1009 NOSIG,M
VVTS,3/27/2012 9:00,106.6667,10.8167,89.6,71.6,55.53,310,4,0,29.77,M,6.21,M,SCT,M,M,M,1700,M,M,M,M,M,M,M,M,M,M,96.41,VVTS 270900Z 31004KT 9999 SCT017 32/22 Q1008 NOSIG,M
VVTS,3/27/2012 9:30,106.6667,10.8167,89.6,69.8,52.23,300,4,0,29.77,M,4.97,M,FEW,SCT,M,M,1500,1700,M,M,M,M,M,M,M,M,M,94.85,VVTS 270930Z 30004KT 8000 FEW015TCU SCT017 32/21 Q1008 NOSIG,M
VVTS,3/27/2012 10:00,106.6667,10.8167,89.6,69.8,52.23,M,3,0,29.8,M,4.97,M,FEW,SCT,M,M,1500,1700,M,M,M,M,M,M,M,M,M,94.85,VVTS 271000Z VRB03KT 8000 FEW015TCU SCT017 32/21 Q1009 NOSIG,M
VVTS,3/27/2012 10:30,106.6667,10.8167,87.8,69.8,55.29,M,3,0,29.8,M,4.97,M,SCT,M,M,M,1700,M,M,M,M,M,M,M,M,M,M,92.71,VVTS 271030Z VRB03KT 8000 SCT017 31/21 Q1009 NOSIG,M
VVTS,3/27/2012 11:00,106.6667,10.8167,87.8,69.8,55.29,260,4,0,29.8,M,4.97,M,SCT,M,M,M,1700,M,M,M,M,M,M,M,M,M,M,92.71,VVTS 271100Z 26004KT 8000 SCT017 31/21 Q1009 NOSIG,M
VVTS,3/27/2012 11:30,106.6667,10.8167,82.4,73.4,74.28,160,8,0,29.8,M,6.21,M,FEW,SCT,M,M,1700,4000,M,M,M,M,M,M,M,M,M,88.26,VVTS 271130Z 16008KT 9999 FEW017 SCT040 28/23 Q1009 NOSIG,M
VVTS,3/27/2012 12:00,106.6667,10.8167,82.4,73.4,74.28,160,6,0,29.83,M,6.21,M,FEW,SCT,M,M,1700,4000,M,M,M,M,M,M,M,M,M,88.26,VVTS 271200Z 16006KT 9999 FEW017 SCT040 28/23 Q1010 NOSIG,M
VVTS,3/27/2012 12:30,106.6667,10.8167,82.4,73.4,74.28,170,6,0,29.83,M,6.21,M,FEW,SCT,M,M,1700,4000,M,M,M,M,M,M,M,M,M,88.26,VVTS 271230Z 17006KT 9999 FEW017 SCT040 28/23 Q1010 NOSIG,M
VVTS,3/27/2012 13:00,106.6667,10.8167,82.4,73.4,74.28,150,7,0,29.83,M,6.21,M,FEW,SCT,M,M,1700,4000,M,M,M,M,M,M,M,M,M,88.26,VVTS 271300Z 15007KT 9999 FEW017 SCT040 28/23 Q1010 NOSIG,M
VVTS,3/27/2012 13:30,106.6667,10.8167,82.4,73.4,74.28,150,6,0,29.85,M,6.21,M,FEW,SCT,M,M,1700,4000,M,M,M,M,M,M,M,M,M,88.26,VVTS 271330Z 15006KT 110V190 9999 FEW017 SCT040 28/23 Q1011 NOSIG,M
VVTS,3/27/2012 14:00,106.6667,10.8167,80.6,73.4,78.76,150,4,0,29.85,M,6.21,M,FEW,SCT,M,M,1700,4000,M,M,M,M,M,M,M,M,M,85.32,VVTS 271400Z 15004KT 9999 FEW017 SCT040 27/23 Q1011 NOSIG,M
VVTS,3/27/2012 14:30,106.6667,10.8167,80.6,73.4,78.76,160,4,0,29.88,M,6.21,M,FEW,SCT,M,M,1700,4000,M,M,M,M,M,M,M,M,M,85.32,VVTS 271430Z 16004KT 110V190 9999 FEW017 SCT040 27/23 Q1012 NOSIG,M
VVTS,3/27/2012 15:00,106.6667,10.8167,80.6,73.4,78.76,160,5,0,29.88,M,6.21,M,FEW,SCT,M,M,1700,4000,M,M,M,M,M,M,M,M,M,85.32,VVTS 271500Z 16005KT 9999 FEW017 SCT040 27/23 Q1012 NOSIG,M
VVTS,3/27/2012 15:30,106.6667,10.8167,80.6,73.4,78.76,140,3,0,29.88,M,6.21,M,FEW,SCT,M,M,1700,4000,M,M,M,M,M,M,M,M,M,85.32,VVTS 271530Z 14003KT 9999 FEW017 SCT040 27/23 Q1012 NOSIG,M
VVTS,3/27/2012 16:00,106.6667,10.8167,80.6,73.4,78.76,160,4,0,29.88,M,6.21,M,FEW,SCT,M,M,1700,4000,M,M,M,M,M,M,M,M,M,85.32,VVTS 271600Z 16004KT 140V210 9999 FEW017 SCT040 27/23 Q1012 NOSIG,M
VVTS,3/27/2012 16:30,106.6667,10.8167,80.6,73.4,78.76,M,1,0,29.88,M,6.21,M,FEW,SCT,M,M,1700,4000,M,M,M,M,M,M,M,M,M,85.32,VVTS 271630Z VRB01KT 9999 FEW017 SCT040 27/23 Q1012 NOSIG,M
VVTS,3/27/2012 17:00,106.6667,10.8167,80.6,73.4,78.76,190,4,0,29.88,M,6.21,M,FEW,SCT,M,M,1700,4000,M,M,M,M,M,M,M,M,M,85.32,VVTS 271700Z 19004KT 9999 FEW017 SCT040 27/23 Q1012 NOSIG,M
VVTS,3/27/2012 17:30,106.6667,10.8167,80.6,73.4,78.76,200,5,0,29.88,M,6.21,M,FEW,SCT,M,M,1700,4000,M,M,M,M,M,M,M,M,M,85.32,VVTS 271730Z 20005KT 180V240 9999 FEW017 SCT040 27/23 Q1012 NOSIG,M
VVTS,3/27/2012 18:00,106.6667,10.8167,78.8,75.2,88.75,230,4,0,29.85,M,6.21,M,FEW,SCT,M,M,1700,4000,M,M,M,M,M,M,M,M,M,82.38,VVTS 271800Z 23004KT 210V280 9999 FEW017 SCT040 26/24 Q1011 NOSIG,M
VVTS,3/27/2012 18:30,106.6667,10.8167,78.8,75.2,88.75,300,3,0,29.85,M,3.73,M,FEW,SCT,M,M,1700,4000,M,M,M,M,M,M,M,M,M,82.38,VVTS 271830Z 30003KT 6000 FEW017 SCT040 26/24 Q1011 NOSIG,M
VVTS,3/27/2012 19:00,106.6667,10.8167,78.8,75.2,88.75,290,3,0,29.85,M,3.73,M,FEW,SCT,M,M,1700,4000,M,M,M,M,M,M,M,M,M,82.38,VVTS 271900Z 29003KT 6000 FEW017 SCT040 26/24 Q1011 NOSIG,M
VVTS,3/27/2012 19:30,106.6667,10.8167,78.8,75.2,88.75,300,3,0,29.85,M,3.73,M,FEW,SCT,M,M,1700,4000,M,M,M,M,M,M,M,M,M,82.38,VVTS 271930Z 30003KT 6000 FEW017 SCT040 26/24 Q1011 NOSIG,M
VVTS,3/27/2012 20:00,106.6667,10.8167,78.8,75.2,88.75,290,3,0,29.85,M,3.11,M,FEW,SCT,M,M,1700,4000,M,M,BR,M,M,M,M,M,M,82.38,VVTS 272000Z 29003KT 5000 BR FEW017 SCT040 26/24 Q1011 NOSIG,M
VVTS,3/27/2012 20:30,106.6667,10.8167,77,75.2,94.19,300,2,0,29.85,M,3.11,M,FEW,SCT,M,M,1700,4000,M,M,BR,M,M,M,M,M,M,78.83,VVTS 272030Z 30002KT 5000 BR FEW017 SCT040 25/24 Q1011 NOSIG,M
VVTS,3/27/2012 21:00,106.6667,10.8167,77,75.2,94.19,300,2,0,29.85,M,3.73,M,FEW,SCT,M,M,1700,4000,M,M,M,M,M,M,M,M,M,78.83,VVTS 272100Z 30002KT 6000 FEW017 SCT040 25/24 Q1011 NOSIG,M
VVTS,3/27/2012 21:30,106.6667,10.8167,75.2,73.4,94.14,320,4,0,29.85,M,3.73,M,FEW,SCT,M,M,1700,4000,M,M,M,M,M,M,M,M,M,76.84,VVTS 272130Z 32004KT 6000 FEW017 SCT040 24/23 Q1011 NOSIG,M
VVTS,3/27/2012 22:00,106.6667,10.8167,75.2,71.6,88.59,310,2,0,29.85,M,4.35,M,FEW,SCT,M,M,1700,4000,M,M,M,M,M,M,M,M,M,76.58,VVTS 272200Z 31002KT 7000 FEW017 SCT040 24/22 Q1011 NOSIG,M
VVTS,3/27/2012 22:30,106.6667,10.8167,75.2,71.6,88.59,10,2,0,29.85,M,3.73,M,FEW,SCT,M,M,1700,4000,M,M,M,M,M,M,M,M,M,76.58,VVTS 272230Z 01002KT 6000 FEW017 SCT040 24/22 Q1011 NOSIG,M
VVTS,3/27/2012 23:00,106.6667,10.8167,73.4,71.6,94.1,360,3,0,29.85,M,3.11,M,FEW,M,M,M,1700,M,M,M,BR,M,M,M,M,M,M,74.86,VVTS 272300Z 36003KT 5000 BR FEW017 23/22 Q1011 BECMG TL2330 3000 BR,M
VVTS,3/27/2012 23:30,106.6667,10.8167,75.2,71.6,88.59,30,4,0,29.88,M,2.49,M,FEW,M,M,M,1700,M,M,M,BR,M,M,M,M,M,M,76.58,VVTS 272330Z 03004KT 4000 BR FEW017 24/22 Q1012 NOSIG,M
VVTS,3/28/2012 0:00,106.6667,10.8167,75.2,71.6,88.59,40,5,0,29.88,M,3.11,M,FEW,M,M,M,1700,M,M,M,BR,M,M,M,M,M,M,76.58,VVTS 280000Z 04005KT 5000 BR FEW017 24/22 Q1012 NOSIG,M
VVTS,3/28/2012 0:30,106.6667,10.8167,78.8,71.6,78.62,M,3,0,29.88,M,3.73,M,FEW,M,M,M,1700,M,M,M,M,M,M,M,M,M,M,81.7,VVTS 280030Z VRB03KT 6000 FEW017 26/22 Q1012 NOSIG,M
VVTS,3/28/2012 1:00,106.6667,10.8167,80.6,69.8,69.71,20,4,0,29.91,M,3.73,M,FEW,M,M,M,1700,M,M,M,M,M,M,M,M,M,M,83.9,VVTS 280100Z 02004KT 6000 FEW017 27/21 Q1013 NOSIG,M
VVTS,3/28/2012 1:30,106.6667,10.8167,82.4,71.6,69.9,50,5,0,29.91,M,3.73,M,FEW,M,M,M,1700,M,M,M,M,M,M,M,M,M,M,87.18,VVTS 280130Z 05005KT 6000 FEW017 28/22 Q1013 NOSIG,M
VVTS,3/28/2012 2:00,106.6667,10.8167,82.4,71.6,69.9,30,4,0,29.91,M,4.35,M,FEW,M,M,M,1700,M,M,M,M,M,M,M,M,M,M,87.18,VVTS 280200Z 03004KT 350V090 7000 FEW017 28/22 Q1013 NOSIG,M
VVTS,3/28/2012 2:30,106.6667,10.8167,84.2,71.6,65.95,M,3,0,29.91,M,4.35,M,FEW,M,M,M,1700,M,M,M,M,M,M,M,M,M,M,89.6,VVTS 280230Z VRB03KT 7000 FEW017 29/22 Q1013 NOSIG,M
VVTS,3/28/2012 3:00,106.6667,10.8167,87.8,71.6,58.78,M,3,0,29.91,M,5.59,M,FEW,M,M,M,1700,M,M,M,M,M,M,M,M,M,M,94.18,VVTS 280300Z VRB03KT 9000 FEW017 31/22 Q1013 NOSIG,M
VVTS,3/28/2012 3:30,106.6667,10.8167,87.8,71.6,58.78,M,2,0,29.88,M,4.97,M,FEW,M,M,M,1700,M,M,M,M,M,M,M,M,M,M,94.18,VVTS 280330Z VRB02KT 8000 FEW017 31/22 Q1012 NOSIG,M
VVTS,3/28/2012 4:00,106.6667,10.8167,89.6,71.6,55.53,M,3,0,29.88,M,4.35,M,SCT,M,M,M,1700,M,M,M,M,M,M,M,M,M,M,96.41,VVTS 280400Z VRB03KT 7000 SCT017 32/22 Q1012 NOSIG,M
VVTS,3/28/2012 4:30,106.6667,10.8167,89.6,73.4,59.01,M,3,0,29.88,M,6.21,M,SCT,M,M,M,1700,M,M,M,M,M,M,M,M,M,M,98.2,VVTS 280430Z VRB03KT 9999 SCT017 32/23 Q1012 NOSIG,M
VVTS,3/28/2012 5:00,106.6667,10.8167,89.6,73.4,59.01,300,5,0,29.85,M,5.59,M,SCT,M,M,M,1700,M,M,M,M,M,M,M,M,M,M,98.2,VVTS 280500Z 30005KT 270V360 9000 SCT017 32/23 Q1011 NOSIG,M
VVTS,3/28/2012 5:30,106.6667,10.8167,91.4,71.6,52.48,260,4,0,29.83,M,6.21,M,SCT,M,M,M,2000,M,M,M,M,M,M,M,M,M,M,98.64,VVTS 280530Z 26004KT 180V320 9999 SCT020 33/22 Q1010 NOSIG,M
VVTS,3/28/2012 6:00,106.6667,10.8167,93.2,71.6,49.62,310,4,0,29.83,M,6.21,M,SCT,M,M,M,2000,M,M,M,M,M,M,M,M,M,M,100.88,VVTS 280600Z 31004KT 270V010 9999 SCT020 34/22 Q1010 NOSIG,M
VVTS,3/28/2012 6:30,106.6667,10.8167,91.4,69.8,49.36,280,4,0,29.8,M,6.21,M,SCT,M,M,M,2000,M,M,M,M,M,M,M,M,M,M,96.99,VVTS 280630Z 28004KT 220V350 9999 SCT020 33/21 Q1009 NOSIG,M
VVTS,3/28/2012 7:00,106.6667,10.8167,91.4,71.6,52.48,M,3,0,29.8,M,6.21,M,SCT,M,M,M,2000,M,M,M,M,M,M,M,M,M,M,98.64,VVTS 280700Z VRB03KT 9999 SCT020 33/22 Q1009 NOSIG,M
VVTS,3/28/2012 7:30,106.6667,10.8167,91.4,71.6,52.48,M,2,0,29.77,M,6.21,M,SCT,M,M,M,2000,M,M,M,M,M,M,M,M,M,M,98.64,VVTS 280730Z VRB02KT 9999 SCT020 33/22 Q1008 NOSIG,M
VVTS,3/28/2012 8:00,106.6667,10.8167,91.4,71.6,52.48,290,4,0,29.77,M,6.21,M,SCT,M,M,M,2000,M,M,M,M,M,M,M,M,M,M,98.64,VVTS 280800Z 29004KT 250V320 9999 SCT020 33/22 Q1008 NOSIG,M
VVTS,3/28/2012 8:30,106.6667,10.8167,91.4,71.6,52.48,300,4,0,29.77,M,5.59,M,SCT,M,M,M,2000,M,M,M,M,M,M,M,M,M,M,98.64,VVTS 280830Z 30004KT 250V010 9000 SCT020 33/22 Q1008 NOSIG,M
VVTS,3/28/2012 9:00,106.6667,10.8167,93.2,71.6,49.62,310,6,0,29.77,M,6.21,M,SCT,M,M,M,2000,M,M,M,M,M,M,M,M,M,M,100.88,VVTS 280900Z 31006KT 280V340 9999 SCT020 34/22 Q1008 NOSIG,M
VVTS,3/28/2012 9:30,106.6667,10.8167,91.4,69.8,49.36,310,7,0,29.77,M,6.21,M,SCT,M,M,M,2000,M,M,M,M,M,M,M,M,M,M,96.99,VVTS 280930Z 31007KT 9999 SCT020 33/21 Q1008 NOSIG,M
VVTS,3/28/2012 10:00,106.6667,10.8167,89.6,69.8,52.23,340,8,0,29.77,M,6.21,M,FEW,SCT,M,M,1500,1700,M,M,M,M,M,M,M,M,M,94.85,VVTS 281000Z 34008KT 300V360 9999 FEW015CB SCT017 32/21 Q1008 NOSIG,M
VVTS,3/28/2012 10:30,106.6667,10.8167,89.6,69.8,52.23,300,5,0,29.8,M,6.21,M,FEW,SCT,M,M,1500,1700,M,M,M,M,M,M,M,M,M,94.85,VVTS 281030Z 30005KT 9999 FEW015CB SCT017 32/21 Q1009 NOSIG,M
VVTS,3/28/2012 11:00,106.6667,10.8167,84.2,69.8,62.03,190,7,0,29.8,M,6.21,M,SCT,SCT,M,M,1500,1700,M,M,M,M,M,M,M,M,M,88.43,VVTS 281100Z 19007KT 160V220 9999 SCT015 SCT017CB 29/21 Q1009 NOSIG,M
VVTS,3/28/2012 11:30,106.6667,10.8167,84.2,69.8,62.03,150,9,0,29.83,M,6.21,M,FEW,SCT,M,M,1500,1700,M,M,M,M,M,M,M,M,M,88.43,VVTS 281130Z 15009KT 120V200 9999 FEW015CB SCT017 29/21 Q1010 NOSIG,M
VVTS,3/28/2012 12:00,106.6667,10.8167,80.6,71.6,74.11,160,9,0,29.83,M,6.21,M,FEW,SCT,M,M,1500,1700,M,M,M,M,M,M,M,M,M,84.57,VVTS 281200Z 16009KT 9999 FEW015CB SCT017 27/22 Q1010 NOSIG,M
VVTS,3/28/2012 12:30,106.6667,10.8167,80.6,73.4,78.76,160,5,0,29.83,M,6.21,M,SCT,M,M,M,1700,M,M,M,M,M,M,M,M,M,M,85.32,VVTS 281230Z 16005KT 130V190 9999 SCT017 27/23 Q1010 NOSIG,M
VVTS,3/28/2012 13:30,106.6667,10.8167,80.6,73.4,78.76,140,4,0,29.85,M,6.21,M,SCT,M,M,M,1700,M,M,M,M,M,M,M,M,M,M,85.32,VVTS 281330Z 14004KT 110V170 9999 SCT017 27/23 Q1011 NOSIG,M
VVTS,3/28/2012 14:00,106.6667,10.8167,78.8,73.4,83.55,170,4,0,29.85,M,6.21,M,SCT,M,M,M,1700,M,M,M,M,M,M,M,M,M,M,82.03,VVTS 281400Z 17004KT 140V220 9999 SCT017 26/23 Q1011 NOSIG,M
VVTS,3/28/2012 14:30,106.6667,10.8167,78.8,73.4,83.55,M,3,0,29.88,M,6.21,M,SCT,M,M,M,1700,M,M,M,M,M,M,M,M,M,M,82.03,VVTS 281430Z VRB03KT 9999 SCT017 26/23 Q1012 NOSIG,M
VVTS,3/28/2012 15:00,106.6667,10.8167,78.8,73.4,83.55,150,3,0,29.88,M,6.21,M,SCT,M,M,M,1700,M,M,M,M,M,M,M,M,M,M,82.03,VVTS 281500Z 15003KT 9999 SCT017 26/23 Q1012 NOSIG,M
VVTS,3/28/2012 15:30,106.6667,10.8167,78.8,73.4,83.55,190,5,0,29.88,M,6.21,M,SCT,M,M,M,1700,M,M,M,M,M,M,M,M,M,M,82.03,VVTS 281530Z 19005KT 9999 SCT017 26/23 Q1012 NOSIG,M
VVTS,3/28/2012 16:00,106.6667,10.8167,78.8,73.4,83.55,M,3,0,29.88,M,6.21,M,SCT,M,M,M,1700,M,M,M,M,M,M,M,M,M,M,82.03,VVTS 281600Z VRB03KT 9999 SCT017 26/23 Q1012 NOSIG,M
VVTS,3/28/2012 16:30,106.6667,10.8167,78.8,73.4,83.55,180,4,0,29.88,M,6.21,M,SCT,M,M,M,1700,M,M,M,M,M,M,M,M,M,M,82.03,VVTS 281630Z 18004KT 9999 SCT017 26/23 Q1012 NOSIG,M
VVTS,3/28/2012 17:00,106.6667,10.8167,78.8,71.6,78.62,200,6,0,29.88,M,6.21,M,SCT,M,M,M,1700,M,M,M,M,M,M,M,M,M,M,81.7,VVTS 281700Z 20006KT 9999 SCT017 26/22 Q1012 NOSIG,M
VVTS,3/28/2012 17:30,106.6667,10.8167,78.8,71.6,78.62,230,5,0,29.85,M,6.21,M,SCT,M,M,M,1700,M,M,M,M,M,M,M,M,M,M,81.7,VVTS 281730Z 23005KT 9999 SCT017 26/22 Q1011 NOSIG,M
VVTS,3/28/2012 18:00,106.6667,10.8167,75.2,71.6,88.59,250,5,0,29.85,M,5.59,M,SCT,M,M,M,1700,M,M,M,M,M,M,M,M,M,M,76.58,VVTS 281800Z 25005KT 9000 SCT017 24/22 Q1011 NOSIG,M
VVTS,3/28/2012 18:30,106.6667,10.8167,75.2,71.6,88.59,270,3,0,29.85,M,4.97,M,FEW,SCT,M,M,1700,4000,M,M,M,M,M,M,M,M,M,76.58,VVTS 281830Z 27003KT 8000 FEW017 SCT040 24/22 Q1011 NOSIG,M
VVTS,3/28/2012 19:00,106.6667,10.8167,75.2,71.6,88.59,280,2,0,29.85,M,5.59,M,FEW,SCT,M,M,1700,4000,M,M,M,M,M,M,M,M,M,76.58,VVTS 281900Z 28002KT 9000 FEW017 SCT040 24/22 Q1011 NOSIG,M
VVTS,3/28/2012 19:30,106.6667,10.8167,75.2,71.6,88.59,260,1,0,29.85,M,4.97,M,FEW,SCT,M,M,1700,4000,M,M,M,M,M,M,M,M,M,76.58,VVTS 281930Z 26001KT 8000 FEW017 SCT040 24/22 Q1011 NOSIG,M
VVTS,3/28/2012 20:00,106.6667,10.8167,75.2,71.6,88.59,320,1,0,29.83,M,4.97,M,FEW,SCT,M,M,1700,4000,M,M,M,M,M,M,M,M,M,76.58,VVTS 282000Z 32001KT 8000 FEW017 SCT040 24/22 Q1010 NOSIG,M
VVTS,3/28/2012 20:30,106.6667,10.8167,73.4,71.6,94.1,290,1,0,29.83,M,4.35,M,FEW,SCT,M,M,1700,4000,M,M,M,M,M,M,M,M,M,74.86,VVTS 282030Z 29001KT 7000 FEW017 SCT040 23/22 Q1010 NOSIG,M
VVTS,3/28/2012 21:00,106.6667,10.8167,73.4,73.4,100,330,2,0,29.85,M,4.35,M,FEW,SCT,M,M,1700,4000,M,M,M,M,M,M,M,M,M,75.14,VVTS 282100Z 33002KT 7000 FEW017 SCT040 23/23 Q1011 NOSIG,M
VVTS,3/28/2012 21:30,106.6667,10.8167,75.2,73.4,94.14,310,2,0,29.85,M,3.73,M,FEW,SCT,M,M,1700,4000,M,M,M,M,M,M,M,M,M,76.84,VVTS 282130Z 31002KT 6000 FEW017 SCT040 24/23 Q1011 NOSIG,M
VVTS,3/28/2012 22:00,106.6667,10.8167,75.2,73.4,94.14,280,1,0,29.85,M,3.73,M,FEW,SCT,M,M,1700,4000,M,M,M,M,M,M,M,M,M,76.84,VVTS 282200Z 28001KT 6000 FEW017 SCT040 24/23 Q1011 NOSIG,M
VVTS,3/28/2012 22:30,106.6667,10.8167,73.4,73.4,100,320,3,0,29.85,M,3.11,M,FEW,SCT,M,M,1700,4000,M,M,BR,M,M,M,M,M,M,75.14,VVTS 282230Z 32003KT 5000 BR FEW017 SCT040 23/23 Q1011 NOSIG,M
VVTS,3/28/2012 23:00,106.6667,10.8167,75.2,73.4,94.14,M,3,0,29.85,M,2.73,M,FEW,M,M,M,1700,M,M,M,BR,M,M,M,M,M,M,76.84,VVTS 282300Z VRB03KT 4400 BR FEW017 24/23 Q1011 NOSIG,M
VVTS,3/28/2012 23:30,106.6667,10.8167,75.2,73.4,94.14,340,2,0,29.88,M,2.49,M,FEW,M,M,M,1700,M,M,M,BR,M,M,M,M,M,M,76.84,VVTS 282330Z 34002KT 4000 BR FEW017 24/23 Q1012 NOSIG,M
VVTS,3/29/2012 0:00,106.6667,10.8167,75.2,75.2,100,330,4,0,29.88,M,2.3,M,FEW,M,M,M,1700,M,M,M,BR,M,M,M,M,M,M,77.12,VVTS 290000Z 33004KT 3700 BR FEW017 24/24 Q1012 NOSIG,M
VVTS,3/29/2012 0:30,106.6667,10.8167,77,75.2,94.19,M,2,0,29.88,M,2.73,M,FEW,M,M,M,1700,M,M,M,BR,M,M,M,M,M,M,78.83,VVTS 290030Z VRB02KT 4400 BR FEW017 25/24 Q1012 NOSIG,M
VVTS,3/29/2012 1:00,106.6667,10.8167,78.8,75.2,88.75,M,2,0,29.88,M,3.11,M,SCT,M,M,M,1700,M,M,M,BR,M,M,M,M,M,M,82.38,VVTS 290100Z VRB02KT 5000 BR SCT017 26/24 Q1012 NOSIG,M
VVTS,3/29/2012 1:30,106.6667,10.8167,82.4,75.2,78.9,M,3,0,29.88,M,4.35,M,SCT,M,M,M,1700,M,M,M,M,M,M,M,M,M,M,89.48,VVTS 290130Z VRB03KT 7000 SCT017 28/24 Q1012 NOSIG,M
VVTS,3/29/2012 2:00,106.6667,10.8167,84.2,75.2,74.44,240,5,0,29.88,M,3.73,M,SCT,M,M,M,1700,M,M,M,M,M,M,M,M,M,M,92.45,VVTS 290200Z 24005KT 200V270 6000 SCT017 29/24 Q1012 NOSIG,M
VVTS,3/29/2012 2:30,106.6667,10.8167,84.2,75.2,74.44,260,5,0,29.88,M,3.73,M,SCT,M,M,M,1700,M,M,M,M,M,M,M,M,M,M,92.45,VVTS 290230Z 26005KT 200V320 6000 SCT017 29/24 Q1012 NOSIG,M
VVTS,3/29/2012 3:00,106.6667,10.8167,87.8,75.2,66.35,260,6,0,29.88,M,4.97,M,SCT,M,M,M,1700,M,M,M,M,M,M,M,M,M,M,97.76,VVTS 290300Z 26006KT 230V310 8000 SCT017 31/24 Q1012 NOSIG,M
VVTS,3/29/2012 3:30,106.6667,10.8167,87.8,73.4,62.47,250,5,0,29.85,M,5.59,M,SCT,M,M,M,1700,M,M,M,M,M,M,M,M,M,M,95.86,VVTS 290330Z 25005KT 210V290 9000 SCT017 31/23 Q1011 NOSIG,M
VVTS,3/29/2012 4:00,106.6667,10.8167,87.8,73.4,62.47,280,5,0,29.85,M,6.21,M,SCT,M,M,M,1700,M,M,M,M,M,M,M,M,M,M,95.86,VVTS 290400Z 28005KT 220V030 9999 SCT017 31/23 Q1011 NOSIG,M
VVTS,3/29/2012 4:30,106.6667,10.8167,89.6,73.4,59.01,M,3,0,29.85,M,6.21,M,FEW,M,M,M,2000,M,M,M,M,M,M,M,M,M,M,98.2,VVTS 290430Z VRB03KT 9999 FEW020 32/23 Q1011 NOSIG,M
VVTS,3/29/2012 5:00,106.6667,10.8167,91.4,71.6,52.48,360,5,0,29.83,M,6.21,M,SCT,M,M,M,2000,M,M,M,M,M,M,M,M,M,M,98.64,VVTS 290500Z 36005KT 250V150 9999 SCT020 33/22 Q1010 NOSIG,M
VVTS,3/29/2012 5:30,106.6667,10.8167,91.4,69.8,49.36,340,5,0,29.8,M,4.97,M,SCT,M,M,M,2000,M,M,M,M,M,M,M,M,M,M,96.99,VVTS 290530Z 34005KT 160V150 8000 SCT020 33/21 Q1009 NOSIG,M
VVTS,3/29/2012 6:00,106.6667,10.8167,91.4,68,46.41,330,7,0,29.8,M,6.21,M,SCT,M,M,M,2000,M,M,M,M,M,M,M,M,M,M,95.55,VVTS 290600Z 33007KT 260V030 9999 SCT020 33/20 Q1009 NOSIG,M
VVTS,3/29/2012 6:30,106.6667,10.8167,93.2,69.8,46.67,340,9,0,29.77,M,6.21,M,SCT,M,M,M,2000,M,M,M,M,M,M,M,M,M,M,99.17,VVTS 290630Z 34009KT 310V050 9999 SCT020 34/21 Q1008 NOSIG,M
VVTS,3/29/2012 7:00,106.6667,10.8167,91.4,66.2,43.61,340,7,0,29.74,M,6.21,M,SCT,M,M,M,2000,M,M,M,M,M,M,M,M,M,M,94.29,VVTS 290700Z 34007KT 280V050 9999 SCT020 33/19 Q1007 NOSIG,M
VVTS,3/29/2012 7:30,106.6667,10.8167,91.4,66.2,43.61,310,10,0,29.74,M,6.21,M,SCT,M,M,M,2000,M,M,M,M,M,M,M,M,M,M,94.29,VVTS 290730Z 31010KT 270V340 9999 SCT020 33/19 Q1007 NOSIG,M
VVTS,3/29/2012 8:00,106.6667,10.8167,91.4,66.2,43.61,300,6,0,29.74,M,6.21,M,FEW,M,M,M,2000,M,M,M,M,M,M,M,M,M,M,94.29,VVTS 290800Z 30006KT 260V350 9999 FEW020 33/19 Q1007 NOSIG,M
VVTS,3/29/2012 8:30,106.6667,10.8167,91.4,64.4,40.96,320,8,0,29.71,M,5.59,M,FEW,M,M,M,2000,M,M,M,M,M,M,M,M,M,M,93.19,VVTS 290830Z 32008KT 9000 FEW020 33/18 Q1006 NOSIG,M
VVTS,3/29/2012 9:00,106.6667,10.8167,91.4,66.2,43.61,320,6,0,29.71,M,6.21,M,FEW,M,M,M,2000,M,M,M,M,M,M,M,M,M,M,94.29,VVTS 290900Z 32006KT 260V360 9999 FEW020 33/19 Q1006 NOSIG,M
VVTS,3/29/2012 9:30,106.6667,10.8167,91.4,64.4,40.96,290,5,0,29.71,M,6.21,M,FEW,M,M,M,2000,M,M,M,M,M,M,M,M,M,M,93.19,VVTS 290930Z 29005KT 260V330 9999 FEW020 33/18 Q1006 NOSIG,M
VVTS,3/29/2012 10:00,106.6667,10.8167,91.4,66.2,43.61,300,5,0,29.71,M,6.21,M,FEW,M,M,M,2000,M,M,M,M,M,M,M,M,M,M,94.29,VVTS 291000Z 30005KT 240V340 9999 FEW020 33/19 Q1006 NOSIG,M
VVTS,3/29/2012 10:30,106.6667,10.8167,89.6,66.2,46.14,300,4,0,29.74,M,6.21,M,FEW,M,M,M,2000,M,M,M,M,M,M,M,M,M,M,92.27,VVTS 291030Z 30004KT 9999 FEW020 32/19 Q1007 NOSIG,M
VVTS,3/29/2012 11:00,106.6667,10.8167,87.8,66.2,48.84,280,4,0,29.74,M,6.21,M,FEW,M,M,M,2000,M,M,M,M,M,M,M,M,M,M,90.31,VVTS 291100Z 28004KT 240V310 9999 FEW020 31/19 Q1007 NOSIG,M
VVTS,3/29/2012 11:30,106.6667,10.8167,86,66.2,51.72,270,2,0,29.74,M,4.35,M,FEW,M,M,M,2000,M,M,M,M,M,M,M,M,M,M,88.39,VVTS 291130Z 27002KT 7000 FEW020 30/19 Q1007 NOSIG,M
VVTS,3/29/2012 12:00,106.6667,10.8167,84.2,68,58.32,270,1,0,29.77,M,4.97,M,FEW,M,M,M,2000,M,M,M,M,M,M,M,M,M,M,87.4,VVTS 291200Z 27001KT 8000 FEW020 29/20 Q1008 NOSIG,M
VVTS,3/29/2012 12:30,106.6667,10.8167,82.4,69.8,65.74,250,1,0,29.77,M,4.97,M,FEW,M,M,M,2000,M,M,M,M,M,M,M,M,M,M,86.22,VVTS 291230Z 25001KT 8000 FEW020 28/21 Q1008 NOSIG,M
VVTS,3/29/2012 13:00,106.6667,10.8167,84.2,69.8,62.03,80,2,0,29.77,M,5.59,M,FEW,M,M,M,1700,M,M,M,M,M,M,M,M,M,M,88.43,VVTS 291300Z 08002KT 9000 FEW017 29/21 Q1008 NOSIG,M
VVTS,3/29/2012 13:30,106.6667,10.8167,84.2,78.8,83.88,110,8,0,29.8,M,6.21,M,FEW,SCT,M,M,1700,4000,M,M,M,M,M,M,M,M,M,96.1,VVTS 291330Z 11008KT 9999 FEW017 SCT040 29/26 Q1009 NOSIG,M
VVTS,3/29/2012 14:00,106.6667,10.8167,82.4,77,83.77,120,12,0,29.8,M,6.21,M,FEW,SCT,M,M,1700,4000,M,M,M,M,M,M,M,M,M,90.85,VVTS 291400Z 12012KT 9999 FEW017 SCT040 28/25 Q1009 NOSIG,M
VVTS,3/29/2012 14:30,106.6667,10.8167,82.4,75.2,78.9,130,10,0,29.8,M,6.21,M,FEW,SCT,M,M,1700,4000,M,M,M,M,M,M,M,M,M,89.48,VVTS 291430Z 13010KT 9999 FEW017 SCT040 28/24 Q1009 NOSIG,M
VVTS,3/29/2012 15:00,106.6667,10.8167,82.4,78.8,88.9,140,10,0,29.8,M,6.21,M,FEW,SCT,M,M,1700,4000,M,M,M,M,M,M,M,M,M,92.4,VVTS 291500Z 14010KT 9999 FEW017 SCT040 28/26 Q1009 NOSIG,M
VVTS,3/29/2012 15:30,106.6667,10.8167,80.6,78.8,94.27,120,8,0,29.83,M,6.21,M,FEW,SCT,M,M,1700,4000,M,M,M,M,M,M,M,M,M,89.33,VVTS 291530Z 12008KT 9999 FEW017 SCT040 27/26 Q1010 NOSIG,M
VVTS,3/29/2012 16:00,106.6667,10.8167,80.6,77,88.83,140,6,0,29.83,M,6.21,M,FEW,SCT,M,M,1700,4000,M,M,M,M,M,M,M,M,M,87.1,VVTS 291600Z 14006KT 100V190 9999 FEW017 SCT040 27/25 Q1010 NOSIG,M
VVTS,3/29/2012 16:30,106.6667,10.8167,80.6,77,88.83,120,4,0,29.83,M,6.21,M,FEW,SCT,M,M,1700,4000,M,M,M,M,M,M,M,M,M,87.1,VVTS 291630Z 12004KT 080V190 9999 FEW017 SCT040 27/25 Q1010 NOSIG,M
VVTS,3/29/2012 17:00,106.6667,10.8167,80.6,75.2,83.66,130,7,0,29.83,M,6.21,M,FEW,SCT,M,M,1700,4000,M,M,M,M,M,M,M,M,M,86.17,VVTS 291700Z 13007KT 110V170 9999 FEW017 SCT040 27/24 Q1010 NOSIG,M
VVTS,3/29/2012 17:30,106.6667,10.8167,80.6,75.2,83.66,110,7,0,29.83,M,6.21,M,FEW,SCT,M,M,1700,4000,M,M,M,M,M,M,M,M,M,86.17,VVTS 291730Z 11007KT 080V200 9999 FEW017 SCT040 27/24 Q1010 NOSIG,M
VVTS,3/29/2012 18:00,106.6667,10.8167,80.6,75.2,83.66,110,7,0,29.8,M,6.21,M,FEW,SCT,M,M,1700,4000,M,M,M,M,M,M,M,M,M,86.17,VVTS 291800Z 11007KT 9999 FEW017 SCT040 27/24 Q1009 NOSIG,M
VVTS,3/29/2012 18:30,106.6667,10.8167,80.6,75.2,83.66,120,5,0,29.8,M,6.21,M,FEW,SCT,M,M,1700,4000,M,M,M,M,M,M,M,M,M,86.17,VVTS 291830Z 12005KT 9999 FEW017 SCT040 27/24 Q1009 NOSIG,M
VVTS,3/29/2012 19:00,106.6667,10.8167,80.6,75.2,83.66,110,4,0,29.77,M,6.21,M,FEW,SCT,M,M,1700,4000,M,M,M,M,M,M,M,M,M,86.17,VVTS 291900Z 11004KT 080V140 9999 FEW017 SCT040 27/24 Q1008 NOSIG,M
VVTS,3/29/2012 19:30,106.6667,10.8167,80.6,75.2,83.66,130,4,0,29.77,M,6.21,M,FEW,SCT,M,M,1700,4000,M,M,M,M,M,M,M,M,M,86.17,VVTS 291930Z 13004KT 110V200 9999 FEW017 SCT040 27/24 Q1008 NOSIG,M
VVTS,3/29/2012 20:00,106.6667,10.8167,80.6,75.2,83.66,100,5,0,29.77,M,6.21,M,FEW,SCT,M,M,1700,4000,M,M,M,M,M,M,M,M,M,86.17,VVTS 292000Z 10005KT 9999 FEW017 SCT040 27/24 Q1008 NOSIG,M
VVTS,3/29/2012 20:30,106.6667,10.8167,80.6,75.2,83.66,110,4,0,29.77,M,6.21,M,FEW,SCT,M,M,1700,4000,M,M,M,M,M,M,M,M,M,86.17,VVTS 292030Z 11004KT 9999 FEW017 SCT040 27/24 Q1008 NOSIG,M
VVTS,3/29/2012 21:00,106.6667,10.8167,80.6,75.2,83.66,160,4,0,29.77,M,6.21,M,FEW,SCT,M,M,1700,4000,M,M,M,M,M,M,M,M,M,86.17,VVTS 292100Z 16004KT 130V190 9999 FEW017 SCT040 27/24 Q1008 NOSIG,M
VVTS,3/29/2012 21:30,106.6667,10.8167,78.8,75.2,88.75,160,5,0,29.77,M,6.21,M,FEW,SCT,M,M,1700,4000,M,M,M,M,M,M,M,M,M,82.38,VVTS 292130Z 16005KT 9999 FEW017 SCT040 26/24 Q1008 NOSIG,M
VVTS,3/29/2012 22:00,106.6667,10.8167,78.8,75.2,88.75,190,5,0,29.77,M,6.21,M,FEW,SCT,M,M,1700,4000,M,M,M,M,M,M,M,M,M,82.38,VVTS 292200Z 19005KT 9999 FEW017 SCT040 26/24 Q1008 NOSIG,M
VVTS,3/29/2012 22:30,106.6667,10.8167,78.8,75.2,88.75,180,4,0,29.77,M,6.21,M,FEW,SCT,M,M,1700,4000,M,M,M,M,M,M,M,M,M,82.38,VVTS 292230Z 18004KT 9999 FEW017 SCT040 26/24 Q1008 NOSIG,M
VVTS,3/29/2012 23:00,106.6667,10.8167,78.8,75.2,88.75,180,4,0,29.77,M,4.97,M,FEW,SCT,M,M,1700,4000,M,M,M,M,M,M,M,M,M,82.38,VVTS 292300Z 18004KT 8000 FEW017 SCT040 26/24 Q1008 NOSIG,M
VVTS,3/29/2012 23:30,106.6667,10.8167,78.8,75.2,88.75,M,3,0,29.8,M,4.97,M,FEW,SCT,M,M,1700,4000,M,M,M,M,M,M,M,M,M,82.38,VVTS 292330Z VRB03KT 8000 FEW017 SCT040 26/24 Q1009 NOSIG,M
VVTS,3/30/2012 0:00,106.6667,10.8167,80.6,75.2,83.66,M,2,0,29.8,M,4.97,M,FEW,SCT,M,M,1700,4000,M,M,M,M,M,M,M,M,M,86.17,VVTS 300000Z VRB02KT 8000 FEW017 SCT040 27/24 Q1009 NOSIG,M
VVTS,3/30/2012 0:30,106.6667,10.8167,80.6,75.2,83.66,M,3,0,29.8,M,4.97,M,FEW,SCT,M,M,1700,4000,M,M,M,M,M,M,M,M,M,86.17,VVTS 300030Z VRB03KT 8000 FEW017 SCT040 27/24 Q1009 NOSIG,M
VVTS,3/30/2012 1:00,106.6667,10.8167,82.4,77,83.77,M,3,0,29.83,M,4.97,M,FEW,SCT,M,M,1700,4000,M,M,M,M,M,M,M,M,M,90.85,VVTS 300100Z VRB03KT 8000 FEW017 SCT040 28/25 Q1010 NOSIG,M
VVTS,3/30/2012 1:30,106.6667,10.8167,82.4,75.2,78.9,M,1,0,29.83,M,4.97,M,SCT,SCT,M,M,1700,4000,M,M,M,M,M,M,M,M,M,89.48,VVTS 300130Z VRB01KT 8000 SCT017 SCT040 28/24 Q1010 NOSIG,M
VVTS,3/30/2012 2:00,106.6667,10.8167,84.2,75.2,74.44,M,2,0,29.83,M,4.35,M,SCT,SCT,M,M,1700,4000,M,M,M,M,M,M,M,M,M,92.45,VVTS 300200Z VRB02KT 7000 SCT017 SCT040 29/24 Q1010 NOSIG,M
VVTS,3/30/2012 2:30,106.6667,10.8167,84.2,75.2,74.44,M,1,0,29.83,M,4.35,M,SCT,SCT,M,M,1700,4000,M,M,M,M,M,M,M,M,M,92.45,VVTS 300230Z VRB01KT 7000 SCT017 SCT040 29/24 Q1010 NOSIG,M
VVTS,3/30/2012 3:00,106.6667,10.8167,86,75.2,70.27,M,2,0,29.83,M,3.73,M,SCT,SCT,M,M,1700,4000,M,M,M,M,M,M,M,M,M,95.19,VVTS 300300Z VRB02KT 6000 SCT017 SCT040 30/24 Q1010 NOSIG,M
VVTS,3/30/2012 3:30,106.6667,10.8167,87.8,75.2,66.35,M,2,0,29.83,M,3.11,M,SCT,SCT,M,M,1700,4000,M,M,M,M,M,M,M,M,M,97.76,VVTS 300330Z VRB02KT 5000 SCT017 SCT040 31/24 Q1010 NOSIG,M
VVTS,3/30/2012 4:00,106.6667,10.8167,87.8,75.2,66.35,M,2,0,29.83,M,3.11,M,SCT,SCT,M,M,1700,4000,M,M,HZ,M,M,M,M,M,M,97.76,VVTS 300400Z VRB02KT 5000 HZ SCT017 SCT040 31/24 Q1010 NOSIG,M
VVTS,3/30/2012 4:30,106.6667,10.8167,89.6,73.4,59.01,M,2,0,29.8,M,3.11,M,SCT,SCT,M,M,1700,4000,M,M,HZ,M,M,M,M,M,M,98.2,VVTS 300430Z VRB02KT 5000 HZ SCT017 SCT040 32/23 Q1009 NOSIG,M
VVTS,3/30/2012 5:00,106.6667,10.8167,89.6,73.4,59.01,M,2,0,29.8,M,3.11,M,SCT,SCT,M,M,1700,4000,M,M,HZ,M,M,M,M,M,M,98.2,VVTS 300500Z VRB02KT 5000 HZ SCT017 SCT040 32/23 Q1009 NOSIG,M
VVTS,3/30/2012 5:30,106.6667,10.8167,91.4,73.4,55.77,M,3,0,29.77,M,4.35,M,SCT,SCT,M,M,1700,4000,M,M,M,M,M,M,M,M,M,100.52,VVTS 300530Z VRB03KT 7000 SCT017 SCT040 33/23 Q1008 NOSIG,M
VVTS,3/30/2012 6:00,106.6667,10.8167,91.4,73.4,55.77,M,3,0,29.74,M,3.73,M,SCT,SCT,M,M,1700,4000,M,M,M,M,M,M,M,M,M,100.52,VVTS 300600Z VRB03KT 6000 SCT017 SCT040 33/23 Q1007 NOSIG,M
VVTS,3/30/2012 6:30,106.6667,10.8167,91.4,73.4,55.77,230,4,0,29.74,M,3.73,M,SCT,SCT,M,M,1700,4000,M,M,M,M,M,M,M,M,M,100.52,VVTS 300630Z 23004KT 160V280 6000 SCT017 SCT040 33/23 Q1007 NOSIG,M
VVTS,3/30/2012 7:00,106.6667,10.8167,91.4,73.4,55.77,50,5,0,29.71,M,3.73,M,SCT,SCT,M,M,1700,4000,M,M,M,M,M,M,M,M,M,100.52,VVTS 300700Z 05005KT 010V080 6000 SCT017 SCT040 33/23 Q1006 NOSIG,M
VVTS,3/30/2012 7:30,106.6667,10.8167,91.4,73.4,55.77,M,3,0,29.71,M,3.73,M,SCT,SCT,M,M,1700,4000,M,M,M,M,M,M,M,M,M,100.52,VVTS 300730Z VRB03KT 6000 SCT017 SCT040 33/23 Q1006 NOSIG,M
VVTS,3/30/2012 8:00,106.6667,10.8167,91.4,73.4,55.77,M,3,0,29.68,M,3.73,M,SCT,SCT,M,M,1700,4000,M,M,M,M,M,M,M,M,M,100.52,VVTS 300800Z VRB03KT 6000 SCT017 SCT040 33/23 Q1005 NOSIG,M
VVTS,3/30/2012 8:30,106.6667,10.8167,89.6,73.4,59.01,M,3,0,29.68,M,3.73,M,SCT,SCT,M,M,1700,4000,M,M,M,M,M,M,M,M,M,98.2,VVTS 300830Z VRB03KT 6000 SCT017 SCT040 32/23 Q1005 NOSIG,M
VVTS,3/30/2012 9:00,106.6667,10.8167,89.6,73.4,59.01,M,2,0,29.68,M,4.35,M,FEW,SCT,M,M,1500,1700,M,M,#NAME?,M,M,M,M,M,M,98.2,VVTS 300900Z VRB02KT 7000 -SHRA FEW015CB SCT017 32/23 Q1005 NOSIG,M
VVTS,3/30/2012 9:30,106.6667,10.8167,89.6,71.6,55.53,M,3,0,29.68,M,3.73,M,FEW,SCT,M,M,1500,1700,M,M,M,M,M,M,M,M,M,96.41,VVTS 300930Z VRB03KT 6000 FEW015CB SCT017 32/22 Q1005 NOSIG,M
VVTS,3/30/2012 10:00,106.6667,10.8167,84.2,75.2,74.44,180,12,0,29.71,M,4.97,M,SCT,SCT,M,M,1500,1700,M,M,M,M,M,M,M,M,M,92.45,VVTS 301000Z 18012KT 8000 SCT015 SCT017CB 29/24 Q1006 TEMPO FM1000 TL1025 16010G25KT 5000 TSRA,M
VVTS,3/30/2012 10:30,106.6667,10.8167,82.4,75.2,78.9,150,10,0,29.74,M,4.97,M,FEW,SCT,BKN,M,1500,1700,4000,M,M,M,M,M,M,M,M,89.48,VVTS 301030Z 15010KT 8000 FEW015CB SCT017 BKN040 28/24 Q1007,M
VVTS,3/30/2012 11:00,106.6667,10.8167,82.4,77,83.77,150,9,0,29.74,M,4.97,M,SCT,SCT,M,M,1500,4000,M,M,M,M,M,M,M,M,M,90.85,VVTS 301100Z 15009KT 120V190 8000 SCT015 SCT040 28/25 Q1007 NOSIG,M
VVTS,3/30/2012 11:30,106.6667,10.8167,82.4,78.8,88.9,140,10,0,29.74,M,6.21,M,SCT,SCT,M,M,1500,4000,M,M,M,M,M,M,M,M,M,92.4,VVTS 301130Z 14010KT 120V180 9999 SCT015 SCT040 28/26 Q1007 NOSIG,M
VVTS,3/30/2012 12:00,106.6667,10.8167,82.4,77,83.77,130,10,0,29.74,M,6.21,M,SCT,SCT,M,M,1500,4000,M,M,M,M,M,M,M,M,M,90.85,VVTS 301200Z 13010KT 9999 SCT015 SCT040 28/25 Q1007 NOSIG,M
VVTS,3/30/2012 12:30,106.6667,10.8167,82.4,77,83.77,140,10,0,29.77,M,6.21,M,SCT,SCT,M,M,1500,4000,M,M,M,M,M,M,M,M,M,90.85,VVTS 301230Z 14010KT 9999 SCT015 SCT040 28/25 Q1008 NOSIG,M
VVTS,3/30/2012 13:00,106.6667,10.8167,82.4,77,83.77,140,9,0,29.77,M,6.21,M,SCT,SCT,M,M,1500,4000,M,M,M,M,M,M,M,M,M,90.85,VVTS 301300Z 14009KT 9999 SCT015 SCT040 28/25 Q1008 NOSIG,M
VVTS,3/30/2012 13:30,106.6667,10.8167,80.6,77,88.83,110,9,0,29.77,M,6.21,M,SCT,SCT,M,M,1500,4000,M,M,M,M,M,M,M,M,M,87.1,VVTS 301330Z 11009KT 090V180 9999 SCT015 SCT040 27/25 Q1008 NOSIG,M
VVTS,3/30/2012 14:00,106.6667,10.8167,80.6,73.4,78.76,130,6,0,29.77,M,6.21,M,SCT,SCT,M,M,1500,4000,M,M,M,M,M,M,M,M,M,85.32,VVTS 301400Z 13006KT 090V200 9999 SCT015 SCT040 27/23 Q1008 NOSIG,M
VVTS,3/30/2012 14:30,106.6667,10.8167,80.6,71.6,74.11,160,4,0,29.77,M,6.21,M,SCT,SCT,M,M,1500,4000,M,M,M,M,M,M,M,M,M,84.57,VVTS 301430Z 16004KT 130V190 9999 SCT015 SCT040 27/22 Q1008 NOSIG,M
VVTS,3/30/2012 15:00,106.6667,10.8167,80.6,73.4,78.76,150,5,0,29.8,M,6.21,M,SCT,SCT,M,M,1500,4000,M,M,M,M,M,M,M,M,M,85.32,VVTS 301500Z 15005KT 9999 SCT015 SCT040 27/23 Q1009 NOSIG,M
VVTS,3/30/2012 15:30,106.6667,10.8167,80.6,75.2,83.66,140,7,0,29.8,M,6.21,M,SCT,SCT,M,M,1500,4000,M,M,M,M,M,M,M,M,M,86.17,VVTS 301530Z 14007KT 9999 SCT015 SCT040 27/24 Q1009 NOSIG,M
VVTS,3/30/2012 16:00,106.6667,10.8167,80.6,77,88.83,160,4,0,29.8,M,6.21,M,SCT,SCT,M,M,1500,4000,M,M,M,M,M,M,M,M,M,87.1,VVTS 301600Z 16004KT 110V220 9999 SCT015 SCT040 27/25 Q1009 NOSIG,M
VVTS,3/30/2012 16:30,106.6667,10.8167,80.6,78.8,94.27,150,5,0,29.8,M,6.21,M,SCT,SCT,M,M,1500,4000,M,M,M,M,M,M,M,M,M,89.33,VVTS 301630Z 15005KT 090V210 9999 SCT015 SCT040 27/26 Q1009 NOSIG,M
VVTS,3/30/2012 17:00,106.6667,10.8167,80.6,78.8,94.27,M,3,0,29.8,M,6.21,M,SCT,SCT,M,M,1500,4000,M,M,M,M,M,M,M,M,M,89.33,VVTS 301700Z VRB03KT 9999 SCT015 SCT040 27/26 Q1009 NOSIG,M
VVTS,3/30/2012 17:30,106.6667,10.8167,80.6,78.8,94.27,M,3,0,29.8,M,6.21,M,SCT,SCT,M,M,1500,4000,M,M,M,M,M,M,M,M,M,89.33,VVTS 301730Z VRB03KT 9999 SCT015 SCT040 27/26 Q1009 NOSIG,M
VVTS,3/30/2012 18:00,106.6667,10.8167,80.6,78.8,94.27,170,4,0,29.8,M,6.21,M,SCT,SCT,M,M,1500,4000,M,M,M,M,M,M,M,M,M,89.33,VVTS 301800Z 17004KT 150V210 9999 SCT015 SCT040 27/26 Q1009 NOSIG,M
VVTS,3/30/2012 18:30,106.6667,10.8167,80.6,78.8,94.27,180,5,0,29.8,M,6.21,M,SCT,SCT,M,M,1500,4000,M,M,M,M,M,M,M,M,M,89.33,VVTS 301830Z 18005KT 9999 SCT015 SCT040 27/26 Q1009 NOSIG,M
VVTS,3/30/2012 19:00,106.6667,10.8167,80.6,78.8,94.27,210,7,0,29.77,M,6.21,M,SCT,SCT,M,M,1500,4000,M,M,M,M,M,M,M,M,M,89.33,VVTS 301900Z 21007KT 9999 SCT015 SCT040 27/26 Q1008 NOSIG,M
VVTS,3/30/2012 19:30,106.6667,10.8167,80.6,78.8,94.27,220,4,0,29.77,M,6.21,M,SCT,SCT,M,M,1500,4000,M,M,M,M,M,M,M,M,M,89.33,VVTS 301930Z 22004KT 9999 SCT015 SCT040 27/26 Q1008 NOSIG,M
VVTS,3/30/2012 20:00,106.6667,10.8167,80.6,78.8,94.27,220,4,0,29.77,M,6.21,M,SCT,SCT,M,M,1500,4000,M,M,M,M,M,M,M,M,M,89.33,VVTS 302000Z 22004KT 180V240 9999 SCT015 SCT040 27/26 Q1008 NOSIG,M
VVTS,3/30/2012 20:30,106.6667,10.8167,78.8,78.8,100,M,1,0,29.77,M,5.59,M,SCT,SCT,M,M,1500,4000,M,M,M,M,M,M,M,M,M,83.15,VVTS 302030Z VRB01KT 9000 SCT015 SCT040 26/26 Q1008 NOSIG,M
VVTS,3/30/2012 21:00,106.6667,10.8167,78.8,78.8,100,10,5,0,29.77,M,3.11,M,SCT,SCT,M,M,1500,4000,M,M,BR,M,M,M,M,M,M,83.15,VVTS 302100Z 01005KT 5000 BR SCT015 SCT040 26/26 Q1008 NOSIG,M
VVTS,3/30/2012 21:30,106.6667,10.8167,78.8,78.8,100,10,4,0,29.77,M,3.11,M,SCT,SCT,M,M,1500,4000,M,M,BR,M,M,M,M,M,M,83.15,VVTS 302130Z 01004KT 5000 BR SCT015 SCT040 26/26 Q1008 NOSIG,M
VVTS,3/30/2012 22:00,106.6667,10.8167,78.8,77,94.23,360,3,0,29.77,M,2.86,M,FEW,SCT,M,M,1500,1700,M,M,BR,M,M,M,M,M,M,82.75,VVTS 302200Z 36003KT 4600 BR FEW015TCU SCT017 26/25 Q1008 TEMPO TL2330 2000,M
VVTS,3/30/2012 22:30,106.6667,10.8167,78.8,77,94.23,M,3,0,29.8,M,2.61,M,FEW,SCT,M,M,1500,1700,M,M,BR,M,M,M,M,M,M,82.75,VVTS 302230Z VRB03KT 4200 BR FEW015TCU SCT017 26/25 Q1009 TEMPO TL2330 2000,M
VVTS,3/30/2012 23:00,106.6667,10.8167,78.8,77,94.23,330,3,0,29.8,M,1.62,M,FEW,SCT,M,M,1500,1700,M,M,BR,M,M,M,M,M,M,82.75,VVTS 302300Z 33003KT 2600 BR FEW015TCU SCT017 26/25 Q1009 TEMPO TL2330 2000,M
VVTS,3/30/2012 23:30,106.6667,10.8167,78.8,77,94.23,10,6,0,29.8,M,1.74,M,FEW,SCT,M,M,1500,1700,M,M,BR,M,M,M,M,M,M,82.75,VVTS 302330Z 01006KT 2800 BR FEW015TCU SCT017 26/25 Q1009 TEMPO TL0030 1500,M
VVTS,3/31/2012 0:00,106.6667,10.8167,78.8,77,94.23,340,5,0,29.8,M,1.86,M,FEW,BKN,M,M,1700,4000,M,M,BR,M,M,M,M,M,M,82.75,VVTS 310000Z 34005KT 3000 BR FEW017 BKN040 26/25 Q1009 BECMG TL0040 5000,M
VVTS,3/31/2012 0:30,106.6667,10.8167,78.8,78.8,100,350,7,0,29.8,M,2.3,M,FEW,BKN,M,M,1700,4000,M,M,BR,M,M,M,M,M,M,83.15,VVTS 310030Z 35007KT 3700 BR FEW017 BKN040 26/26 Q1009 BECMG TL0040 5000,M
VVTS,3/31/2012 1:00,106.6667,10.8167,80.6,78.8,94.27,10,6,0,29.83,M,2.42,M,FEW,BKN,M,M,1700,4000,M,M,BR,M,M,M,M,M,M,89.33,VVTS 310100Z 01006KT 3900 BR FEW017 BKN040 27/26 Q1010 NOSIG,M
VVTS,3/31/2012 1:30,106.6667,10.8167,80.6,78.8,94.27,320,5,0,29.83,M,3.11,M,FEW,BKN,M,M,1700,4000,M,M,BR,M,M,M,M,M,M,89.33,VVTS 310130Z 32005KT 280V350 5000 BR FEW017 BKN040 27/26 Q1010 NOSIG,M
VVTS,3/31/2012 2:00,106.6667,10.8167,82.4,75.2,78.9,340,8,0,29.83,M,6.21,M,FEW,BKN,M,M,1700,4000,M,M,M,M,M,M,M,M,M,89.48,VVTS 310200Z 34008KT 310V010 9999 FEW017 BKN040 28/24 Q1010 NOSIG,M
VVTS,3/31/2012 2:30,106.6667,10.8167,84.2,75.2,74.44,350,5,0,29.83,M,6.21,M,FEW,BKN,M,M,1700,4000,M,M,M,M,M,M,M,M,M,92.45,VVTS 310230Z 35005KT 310V030 9999 FEW017 BKN040 29/24 Q1010 NOSIG,M
VVTS,3/31/2012 3:00,106.6667,10.8167,84.2,73.4,70.08,350,7,0,29.83,M,6.21,M,SCT,BKN,M,M,1700,4000,M,M,M,M,M,M,M,M,M,90.94,VVTS 310300Z 35007KT 9999 SCT017 BKN040 29/23 Q1010 NOSIG,M
VVTS,3/31/2012 3:30,106.6667,10.8167,82.4,73.4,74.28,20,11,0,29.83,M,6.21,M,SCT,BKN,M,M,1700,4000,M,M,M,M,M,M,M,M,M,88.26,VVTS 310330Z 02011KT 9999 SCT017 BKN040 28/23 Q1010 NOSIG,M
VVTS,3/31/2012 4:00,106.6667,10.8167,86,71.6,62.25,30,8,0,29.83,M,6.21,M,SCT,SCT,M,M,1700,4000,M,M,M,M,M,M,M,M,M,91.92,VVTS 310400Z 03008KT 9999 SCT017 SCT040 30/22 Q1010 NOSIG,M
VVTS,3/31/2012 4:30,106.6667,10.8167,86,73.4,66.15,30,9,0,29.8,M,6.21,M,SCT,SCT,M,M,1700,4000,M,M,M,M,M,M,M,M,M,93.45,VVTS 310430Z 03009KT 9999 SCT017 SCT040 30/23 Q1009 NOSIG,M
VVTS,3/31/2012 5:00,106.6667,10.8167,86,71.6,62.25,30,10,0,29.8,M,6.21,M,FEW,BKN,M,M,1700,4000,M,M,M,M,M,M,M,M,M,91.92,VVTS 310500Z 03010KT 9999 FEW017 BKN040 30/22 Q1009 NOSIG,M
VVTS,3/31/2012 5:30,106.6667,10.8167,89.6,71.6,55.53,50,12,0,29.77,M,6.21,M,FEW,BKN,M,M,1700,4000,M,M,M,M,M,M,M,M,M,96.41,VVTS 310530Z 05012KT 9999 FEW017 BKN040 32/22 Q1008 NOSIG,M
VVTS,3/31/2012 6:00,106.6667,10.8167,87.8,71.6,58.78,60,14,0,29.77,M,6.21,M,FEW,BKN,M,M,1700,4000,M,M,M,M,M,M,M,M,M,94.18,VVTS 310600Z 06014KT 9999 FEW017 BKN040 31/22 Q1008 NOSIG,M
VVTS,3/31/2012 6:30,106.6667,10.8167,87.8,71.6,58.78,50,9,0,29.74,M,6.21,M,SCT,BKN,M,M,1700,4000,M,M,M,M,M,M,M,M,M,94.18,VVTS 310630Z 05009KT 9999 SCT017 BKN040 31/22 Q1007 NOSIG,M
VVTS,3/31/2012 7:00,106.6667,10.8167,87.8,71.6,58.78,50,11,0,29.74,M,6.21,M,SCT,BKN,M,M,1700,4000,M,M,M,M,M,M,M,M,M,94.18,VVTS 310700Z 05011KT 9999 SCT017 BKN040 31/22 Q1007 NOSIG,M
VVTS,3/31/2012 7:30,106.6667,10.8167,87.8,71.6,58.78,50,12,0,29.74,M,6.21,M,SCT,BKN,M,M,1700,4000,M,M,M,M,M,M,M,M,M,94.18,VVTS 310730Z 05012KT 9999 SCT017 BKN040 31/22 Q1007 NOSIG,M
VVTS,3/31/2012 9:00,106.6667,10.8167,84.2,69.8,62.03,70,13,0,29.71,M,6.21,M,SCT,BKN,M,M,1700,4000,M,M,M,M,M,M,M,M,M,88.43,VVTS 310900Z 07013KT 9999 SCT017 BKN040 29/21 Q1006 NOSIG,M
VVTS,3/31/2012 9:30,106.6667,10.8167,84.2,71.6,65.95,70,10,0,29.74,M,6.21,M,SCT,BKN,M,M,1700,4000,M,M,M,M,M,M,M,M,M,89.6,VVTS 310930Z 07010KT 9999 SCT017 BKN040 29/22 Q1007 NOSIG,M
VVTS,3/31/2012 10:00,106.6667,10.8167,82.4,71.6,69.9,80,8,0,29.74,M,6.21,M,SCT,BKN,M,M,1700,4000,M,M,M,M,M,M,M,M,M,87.18,VVTS 311000Z 08008KT 9999 SCT017 BKN040 28/22 Q1007 NOSIG,M
VVTS,3/31/2012 10:30,106.6667,10.8167,82.4,71.6,69.9,80,8,0,29.74,M,6.21,M,SCT,BKN,M,M,1700,4000,M,M,M,M,M,M,M,M,M,87.18,VVTS 311030Z 08008KT 9999 SCT017 BKN040 28/22 Q1007 NOSIG,M
VVTS,3/31/2012 11:00,106.6667,10.8167,82.4,71.6,69.9,70,5,0,29.77,M,6.21,M,FEW,BKN,M,M,1700,4000,M,M,M,M,M,M,M,M,M,87.18,VVTS 311100Z 07005KT 9999 FEW017 BKN040 28/22 Q1008 NOSIG,M
VVTS,3/31/2012 11:30,106.6667,10.8167,80.6,71.6,74.11,70,5,0,29.77,M,6.21,M,FEW,BKN,M,M,1700,4000,M,M,M,M,M,M,M,M,M,84.57,VVTS 311130Z 07005KT 9999 FEW017 BKN040 27/22 Q1008 NOSIG,M
VVTS,3/31/2012 12:00,106.6667,10.8167,80.6,71.6,74.11,50,7,0,29.77,M,6.21,M,FEW,BKN,M,M,1700,4000,M,M,M,M,M,M,M,M,M,84.57,VVTS 311200Z 05007KT 9999 FEW017 BKN040 27/22 Q1008 NOSIG,M
VVTS,3/31/2012 12:30,106.6667,10.8167,80.6,71.6,74.11,50,8,0,29.8,M,6.21,M,FEW,BKN,M,M,1700,4000,M,M,M,M,M,M,M,M,M,84.57,VVTS 311230Z 05008KT 9999 FEW017 BKN040 27/22 Q1009 NOSIG,M
VVTS,3/31/2012 13:00,106.6667,10.8167,80.6,69.8,69.71,50,6,0,29.8,M,6.21,M,FEW,BKN,M,M,1700,4000,M,M,M,M,M,M,M,M,M,83.9,VVTS 311300Z 05006KT 9999 FEW017 BKN040 27/21 Q1009 NOSIG,M
VVTS,3/31/2012 13:30,106.6667,10.8167,80.6,69.8,69.71,50,7,0,29.8,M,6.21,M,FEW,BKN,M,M,1700,4000,M,M,M,M,M,M,M,M,M,83.9,VVTS 311330Z 05007KT 9999 FEW017 BKN040 27/21 Q1009 NOSIG,M
VVTS,3/31/2012 14:00,106.6667,10.8167,80.6,69.8,69.71,50,6,0,29.83,M,6.21,M,SCT,BKN,M,M,1500,4000,M,M,M,M,M,M,M,M,M,83.9,VVTS 311400Z 05006KT 010V090 9999 SCT015 BKN040 27/21 Q1010 NOSIG,M
VVTS,3/31/2012 14:30,106.6667,10.8167,80.6,69.8,69.71,40,8,0,29.83,M,6.21,M,SCT,BKN,M,M,1500,4000,M,M,M,M,M,M,M,M,M,83.9,VVTS 311430Z 04008KT 9999 SCT015 BKN040 27/21 Q1010 NOSIG,M
VVTS,3/31/2012 15:00,106.6667,10.8167,80.6,69.8,69.71,50,10,0,29.83,M,6.21,M,SCT,BKN,M,M,1500,4000,M,M,M,M,M,M,M,M,M,83.9,VVTS 311500Z 05010KT 9999 SCT015 BKN040 27/21 Q1010 NOSIG,M
VVTS,3/31/2012 15:30,106.6667,10.8167,80.6,69.8,69.71,50,8,0,29.83,M,6.21,M,SCT,BKN,M,M,1500,4000,M,M,M,M,M,M,M,M,M,83.9,VVTS 311530Z 05008KT 9999 SCT015 BKN040 27/21 Q1010 NOSIG,M
VVTS,3/31/2012 16:00,106.6667,10.8167,78.8,69.8,73.95,10,4,0,29.83,M,6.21,M,SCT,BKN,M,M,1500,4000,M,M,M,M,M,M,M,M,M,81.39,VVTS 311600Z 01004KT 9999 SCT015 BKN040 26/21 Q1010 NOSIG,M
VVTS,3/31/2012 16:30,106.6667,10.8167,77,71.6,83.44,350,3,0,29.83,M,4.97,M,SCT,BKN,M,M,1500,4000,M,M,#NAME?,M,M,M,M,M,M,78.32,VVTS 311630Z 35003KT 8000 -RA SCT015 BKN040 25/22 Q1010 NOSIG,M
VVTS,3/31/2012 17:00,106.6667,10.8167,75.2,71.6,88.59,10,3,0,29.83,M,4.97,M,SCT,BKN,M,M,1500,4000,M,M,#NAME?,M,M,M,M,M,M,76.58,VVTS 311700Z 01003KT 8000 -RA SCT015 BKN040 24/22 Q1010 NOSIG,M
VVTS,3/31/2012 17:30,106.6667,10.8167,75.2,71.6,88.59,350,5,0,29.8,M,4.97,M,SCT,BKN,M,M,1500,4000,M,M,#NAME?,M,M,M,M,M,M,76.58,VVTS 311730Z 35005KT 8000 -RA SCT015 BKN040 24/22 Q1009 NOSIG,M
VVTS,3/31/2012 18:00,106.6667,10.8167,75.2,71.6,88.59,10,5,0,29.8,M,6.21,M,SCT,BKN,M,M,1500,4000,M,M,M,M,M,M,M,M,M,76.58,VVTS 311800Z 01005KT 9999 SCT015 BKN040 24/22 Q1009 NOSIG,M
VVTS,3/31/2012 19:00,106.6667,10.8167,75.2,71.6,88.59,330,6,0,29.8,M,6.21,M,SCT,BKN,M,M,1500,4000,M,M,#NAME?,M,M,M,M,M,M,76.58,VVTS 311900Z 33006KT 9999 -RA SCT015 BKN040 24/22 Q1009 NOSIG,M
VVTS,3/31/2012 19:30,106.6667,10.8167,73.4,71.6,94.1,320,5,0,29.8,M,6.21,M,SCT,BKN,M,M,1500,4000,M,M,#NAME?,M,M,M,M,M,M,74.86,VVTS 311930Z 32005KT 9999 -RA SCT015 BKN040 23/22 Q1009 NOSIG,M
VVTS,3/31/2012 20:00,106.6667,10.8167,73.4,71.6,94.1,340,5,0,29.77,M,6.21,M,SCT,BKN,M,M,1500,4000,M,M,#NAME?,M,M,M,M,M,M,74.86,VVTS 312000Z 34005KT 9999 -RA SCT015 BKN040 23/22 Q1008 NOSIG,M
VVTS,3/31/2012 20:30,106.6667,10.8167,73.4,71.6,94.1,340,6,0,29.77,M,6.21,M,SCT,BKN,M,M,1500,4000,M,M,#NAME?,M,M,M,M,M,M,74.86,VVTS 312030Z 34006KT 9999 -RA SCT015 BKN040 23/22 Q1008 NOSIG,M
VVTS,3/31/2012 21:00,106.6667,10.8167,73.4,73.4,100,350,5,0,29.77,M,6.21,M,SCT,BKN,M,M,1500,4000,M,M,#NAME?,M,M,M,M,M,M,75.14,VVTS 312100Z 35005KT 9999 -RA SCT015 BKN040 23/23 Q1008 NOSIG,M
VVTS,3/31/2012 21:30,106.6667,10.8167,73.4,73.4,100,330,8,0,29.77,M,6.21,M,SCT,BKN,M,M,1500,4000,M,M,#NAME?,M,M,M,M,M,M,75.14,VVTS 312130Z 33008KT 9999 -RA SCT015 BKN040 23/23 Q1008 NOSIG,M
VVTS,3/31/2012 22:00,106.6667,10.8167,73.4,73.4,100,330,6,0,29.77,M,6.21,M,SCT,BKN,M,M,1500,4000,M,M,#NAME?,M,M,M,M,M,M,75.14,VVTS 312200Z 33006KT 9999 -RA SCT015 BKN040 23/23 Q1008 NOSIG,M
VVTS,3/31/2012 22:30,106.6667,10.8167,73.4,73.4,100,330,8,0,29.77,M,6.21,M,SCT,BKN,M,M,1500,4000,M,M,#NAME?,M,M,M,M,M,M,75.14,VVTS 312230Z 33008KT 9999 -RA SCT015 BKN040 23/23 Q1008 NOSIG,M
VVTS,3/31/2012 23:00,106.6667,10.8167,73.4,71.6,94.1,330,8,0,29.77,M,6.21,M,SCT,BKN,M,M,1500,4000,M,M,M,M,M,M,M,M,M,74.86,VVTS 312300Z 33008KT 9999 SCT015 BKN040 23/22 Q1008 NOSIG,M
VVTS,3/31/2012 23:30,106.6667,10.8167,73.4,71.6,94.1,340,6,0,29.8,M,6.21,M,SCT,BKN,M,M,1500,4000,M,M,M,M,M,M,M,M,M,74.86,VVTS 312330Z 34006KT 9999 SCT015 BKN040 23/22 Q1009 NOSIG,M
VVTS,4/1/2012 0:00,106.6667,10.8167,73.4,73.4,100,340,6,0,29.8,M,4.97,M,SCT,BKN,M,M,1500,4000,M,M,#NAME?,M,M,M,M,M,M,75.14,VVTS 010000Z 34006KT 8000 -RA SCT015 BKN040 23/23 Q1009 NOSIG,M
VVTS,4/1/2012 0:30,106.6667,10.8167,73.4,73.4,100,330,7,0,29.8,M,4.97,M,SCT,BKN,M,M,1500,4000,M,M,#NAME?,M,M,M,M,M,M,75.14,VVTS 010030Z 33007KT 8000 -RA SCT015 BKN040 23/23 Q1009 NOSIG,M
VVTS,4/1/2012 1:00,106.6667,10.8167,73.4,73.4,100,340,7,0,29.83,M,4.35,M,SCT,BKN,M,M,1500,4000,M,M,#NAME?,M,M,M,M,M,M,75.14,VVTS 010100Z 34007KT 7000 -RA SCT015 BKN040 23/23 Q1010 NOSIG,M
VVTS,4/1/2012 1:30,106.6667,10.8167,73.4,73.4,100,340,8,0,29.83,M,4.35,M,SCT,BKN,M,M,1500,4000,M,M,#NAME?,M,M,M,M,M,M,75.14,VVTS 010130Z 34008KT 7000 -RA SCT015 BKN040 23/23 Q1010 NOSIG,M
VVTS,4/1/2012 2:00,106.6667,10.8167,73.4,71.6,94.1,330,9,0,29.83,M,3.11,M,SCT,BKN,M,M,1500,4000,M,M,#NAME?,M,M,M,M,M,M,74.86,VVTS 010200Z 33009KT 5000 -RA SCT015 BKN040 23/22 Q1010 NOSIG,M
VVTS,4/1/2012 2:30,106.6667,10.8167,73.4,73.4,100,340,7,0,29.83,M,4.35,M,SCT,BKN,M,M,1500,4000,M,M,#NAME?,M,M,M,M,M,M,75.14,VVTS 010230Z 34007KT 7000 -RA SCT015 BKN040 23/23 Q1010 NOSIG,M
VVTS,4/1/2012 3:00,106.6667,10.8167,73.4,73.4,100,350,7,0,29.83,M,6.21,M,SCT,BKN,M,M,1500,4000,M,M,#NAME?,M,M,M,M,M,M,75.14,VVTS 010300Z 35007KT 9999 -RA SCT015 BKN040 23/23 Q1010 NOSIG,M
VVTS,4/1/2012 3:30,106.6667,10.8167,73.4,73.4,100,340,9,0,29.8,M,6.21,M,SCT,BKN,M,M,1500,4000,M,M,#NAME?,M,M,M,M,M,M,75.14,VVTS 010330Z 34009KT 9999 -RA SCT015 BKN040 23/23 Q1009 NOSIG,M
VVTS,4/1/2012 4:00,106.6667,10.8167,73.4,73.4,100,340,9,0,29.8,M,4.97,M,SCT,BKN,M,M,1500,4000,M,M,#NAME?,M,M,M,M,M,M,75.14,VVTS 010400Z 34009KT 8000 -RA SCT015 BKN040 23/23 Q1009 NOSIG,M
VVTS,4/1/2012 4:30,106.6667,10.8167,75.2,75.2,100,330,10,0,29.8,M,4.97,M,SCT,BKN,M,M,1500,4000,M,M,#NAME?,M,M,M,M,M,M,77.12,VVTS 010430Z 33010KT 8000 -RA SCT015 BKN040 24/24 Q1009 NOSIG,M
VVTS,4/1/2012 5:00,106.6667,10.8167,75.2,73.4,94.14,340,10,0,29.77,M,4.97,M,SCT,BKN,M,M,1500,4000,M,M,#NAME?,M,M,M,M,M,M,76.84,VVTS 010500Z 34010KT 8000 -RA SCT015 BKN040 24/23 Q1008 NOSIG,M
VVTS,4/1/2012 5:30,106.6667,10.8167,75.2,73.4,94.14,340,13,0,29.74,M,4.97,M,SCT,BKN,M,M,1500,4000,M,M,#NAME?,M,M,M,M,M,M,76.84,VVTS 010530Z 34013KT 8000 -RA SCT015 BKN040 24/23 Q1007 NOSIG,M
VVTS,4/1/2012 6:00,106.6667,10.8167,73.4,73.4,100,340,13,0,29.74,M,4.35,M,SCT,BKN,M,M,1500,4000,M,M,#NAME?,M,M,M,M,M,M,75.14,VVTS 010600Z 34013KT 7000 -RA SCT015 BKN040 23/23 Q1007 NOSIG,M
VVTS,4/1/2012 6:30,106.6667,10.8167,73.4,73.4,100,350,11,0,29.71,M,4.35,M,SCT,BKN,M,M,1000,4000,M,M,#NAME?,M,M,M,M,M,M,75.14,VVTS 010630Z 35011KT 7000 -RA SCT010 BKN040 23/23 Q1006 TEMPO 5000 RA,M
VVTS,4/1/2012 7:00,106.6667,10.8167,73.4,73.4,100,340,13,0,29.71,M,4.35,M,SCT,BKN,M,M,1300,4000,M,M,#NAME?,M,M,M,M,M,M,75.14,VVTS 010700Z 34013KT 7000 -RA SCT013 BKN040 23/23 Q1006 NOSIG,M
VVTS,4/1/2012 8:00,106.6667,10.8167,73.4,73.4,100,330,16,0,29.68,M,3.73,M,BKN,OVC,M,M,1000,4000,M,M,#NAME?,M,M,M,M,M,M,75.14,VVTS 010800Z 33016KT 6000 -RA BKN010 OVC040 23/23 Q1005 TEMPO TL0900 34015G30KT 4000 RA,M
VVTS,4/1/2012 8:30,106.6667,10.8167,73.4,73.4,100,340,14,0,29.68,M,3.11,M,BKN,OVC,M,M,1000,4000,M,M,RA,M,M,M,M,M,M,75.14,VVTS 010830Z 34014KT 5000 RA BKN010 OVC040 23/23 Q1005 N OSIG,M
VVTS,4/1/2012 9:00,106.6667,10.8167,73.4,73.4,100,340,15,0,29.65,M,2.05,27,BKN,OVC,M,M,1000,4000,M,M,#NAME?,M,M,M,M,M,M,75.14,VVTS 010900Z 34015G27KT 3300 -RA BKN010 OVC040 23/23 Q1004 TEMPO 34015G30KT 3000 RA,M
VVTS,4/1/2012 9:30,106.6667,10.8167,73.4,73.4,100,340,18,0,29.68,M,1.86,M,BKN,OVC,M,M,1000,4000,M,M,RA,M,M,M,M,M,M,75.14,VVTS 010930Z 34018KT 3000 RA BKN010 OVC040 23/23 Q1005 BECMG TL0940 34015G30KT 4000 RA,M
VVTS,4/1/2012 10:00,106.6667,10.8167,73.4,73.4,100,340,17,0,29.68,M,0.93,M,BKN,OVC,M,M,1000,3000,M,M,#NAME?,M,M,M,M,M,M,75.14,VVTS 011000Z 34017KT 1500 +RA BKN010 OVC030 23/23 Q1005 TEMPO 34015G30KT 1000 +RA,M
VVTS,4/1/2012 10:30,106.6667,10.8167,73.4,71.6,94.1,340,18,0,29.65,M,0.81,29,BKN,OVC,M,M,1000,3000,M,M,#NAME?,M,M,M,M,M,M,74.86,VVTS 011030Z 34018G29KT 1300 R25R/1500D +RA BKN010 OVC030 23/22 Q1004 TEMPO TL1045 34015G30KT 1000 +RA,M
VVTS,4/1/2012 11:00,106.6667,10.8167,71.6,71.6,100,340,19,0,29.65,M,1.06,29,SCT,SCT,OVC,M,1000,1300,3000,M,#NAME?,M,M,M,M,M,M,73.16,VVTS 011100Z 34019G29KT 1700 +RA SCT010 SCT013TCU OVC030 22/22 Q1004 TEMPO TL1200 34017G35KT 800 +SHRA,M
VVTS,4/1/2012 11:30,106.6667,10.8167,71.6,71.6,100,350,23,0,29.65,M,1.12,38,SCT,SCT,OVC,M,1000,1300,3000,M,#NAME?,M,M,M,M,M,M,73.16,VVTS 011130Z 35023G38KT 1800 +RA SCT010 SCT013TCU OVC030 22/22 Q1004 TEMPO TL1230 34020G40KT 0800 +SHRA,M
VVTS,4/1/2012 12:00,106.6667,10.8167,71.6,71.6,100,330,21,0,29.65,M,2.55,M,BKN,OVC,M,M,1000,3000,M,M,#NAME?,M,M,M,M,M,M,73.16,VVTS 011200Z 33021KT 4100 -RA BKN010 OVC030 22/22 Q1004 TEMPO TL1300 34020G40KT 2000 +SHRA,M
VVTS,4/1/2012 12:30,106.6667,10.8167,71.6,71.6,100,340,23,0,29.65,M,2.61,M,BKN,OVC,M,M,1000,3000,M,M,#NAME?,M,M,M,M,M,M,73.16,VVTS 011230Z 34023KT 4200 -RA BKN010 OVC030 22/22 Q1004 TEMPO TL1300 34020G35KT 2000 RA,M
VVTS,4/1/2012 13:00,106.6667,10.8167,71.6,71.6,100,340,27,0,29.65,M,2.3,42,BKN,OVC,M,M,1000,3000,M,M,#NAME?,M,M,M,M,M,M,73.16,VVTS 011300Z 34027G42KT 3700 -RA BKN010 OVC030 22/22 Q1004 TEMPO TL1400 34025G40KT 2000 RA,M
VVTS,4/1/2012 13:30,106.6667,10.8167,71.6,71.6,100,340,29,0,29.65,M,2.05,45,BKN,OVC,M,M,1000,3000,M,M,#NAME?,M,M,M,M,M,M,73.16,VVTS 011330Z 34029G45KT 3300 -RA BKN010 OVC030 22/22 Q1004 TEMPO TL1430 34030G50KT 2000 RA,M
VVTS,4/1/2012 14:00,106.6667,10.8167,71.6,71.6,100,350,24,0,29.68,M,1.8,39,BKN,OVC,M,M,1000,3000,M,M,RA,M,M,M,M,M,M,73.16,VVTS 011400Z 35024G39KT 2900 RA BKN010 OVC030 22/22 Q1005 TEMPO TL1430 34030G50KT 2000 RA,M
VVTS,4/1/2012 14:30,106.6667,10.8167,71.6,71.6,100,340,19,0,29.68,M,2.73,M,BKN,BKN,M,M,1300,4000,M,M,#NAME?,M,M,M,M,M,M,73.16,VVTS 011430Z 34019KT 4400 -RA BKN013 BKN040 22/22 Q1005 TEMPO TL1500 34020G30KT 2000 RA,M
VVTS,4/1/2012 15:00,106.6667,10.8167,71.6,71.6,100,340,20,0,29.71,M,3.11,M,SCT,BKN,M,M,1300,4000,M,M,#NAME?,M,M,M,M,M,M,73.16,VVTS 011500Z 34020KT 5000 -RA SCT013 BKN040 22/22 Q1006 NOSIG,M
VVTS,4/1/2012 15:30,106.6667,10.8167,71.6,71.6,100,340,19,0,29.71,M,2.73,M,SCT,BKN,M,M,1300,4000,M,M,#NAME?,M,M,M,M,M,M,73.16,VVTS 011530Z 34019KT 4400 -RA SCT013 BKN040 22/22 Q1006 NOSIG,M
VVTS,4/1/2012 16:00,106.6667,10.8167,71.6,71.6,100,340,16,0,29.74,M,3.11,M,SCT,BKN,M,M,1300,4000,M,M,#NAME?,M,M,M,M,M,M,73.16,VVTS 011600Z 34016KT 5000 -RA SCT013 BKN040 22/22 Q1007 NOSIG,M
VVTS,4/1/2012 16:30,106.6667,10.8167,71.6,71.6,100,340,16,0,29.74,M,4.97,M,SCT,BKN,M,M,1300,4000,M,M,#NAME?,M,M,M,M,M,M,73.16,VVTS 011630Z 34016KT 8000 -RA SCT013 BKN040 22/22 Q1007 NOSIG,M
VVTS,4/1/2012 17:00,106.6667,10.8167,71.6,71.6,100,340,15,0,29.74,M,3.11,M,SCT,BKN,M,M,1300,4000,M,M,#NAME?,M,M,M,M,M,M,73.16,VVTS 011700Z 34015KT 5000 -RA SCT013 BKN040 22/22 Q1007 NOSIG,M
VVTS,4/1/2012 17:30,106.6667,10.8167,71.6,71.6,100,340,12,0,29.71,M,4.97,M,SCT,BKN,M,M,1300,4000,M,M,#NAME?,M,M,M,M,M,M,73.16,VVTS 011730Z 34012KT 8000 -RA SCT013 BKN040 22/22 Q1006 NOSIG,M
VVTS,4/1/2012 18:00,106.6667,10.8167,71.6,71.6,100,350,10,0,29.71,M,3.73,M,SCT,BKN,M,M,1300,4000,M,M,#NAME?,M,M,M,M,M,M,73.16,VVTS 011800Z 35010KT 6000 -RA SCT013 BKN040 22/22 Q1006 NOSIG,M
VVTS,4/1/2012 18:30,106.6667,10.8167,71.6,71.6,100,330,7,0,29.74,M,3.11,M,SCT,BKN,M,M,1300,4000,M,M,BR,M,M,M,M,M,M,73.16,VVTS 011830Z 33007KT 300V010 5000 BR SCT013 BKN040 22/22 Q1007 NOSIG,M
VVTS,4/1/2012 19:00,106.6667,10.8167,71.6,71.6,100,270,4,0,29.74,M,4.35,M,SCT,BKN,M,M,1300,4000,M,M,M,M,M,M,M,M,M,73.16,VVTS 011900Z 27004KT 7000 SCT013 BKN040 22/22 Q1007 NOSIG,M
VVTS,4/1/2012 19:30,106.6667,10.8167,71.6,71.6,100,230,10,0,29.74,M,6.21,M,SCT,BKN,M,M,1300,4000,M,M,M,M,M,M,M,M,M,73.16,VVTS 011930Z 23010KT 9999 SCT013 BKN040 22/22 Q1007 NOSIG,M
VVTS,4/1/2012 20:00,106.6667,10.8167,71.6,71.6,100,210,12,0,29.77,M,1.68,M,SCT,BKN,M,M,1300,4000,M,M,BR,M,M,M,M,M,M,73.16,VVTS 012000Z 21012KT 2700 BR SCT013 BKN040 22/22 Q1008 NOSIG,M
VVTS,4/1/2012 20:30,106.6667,10.8167,71.6,71.6,100,200,11,0,29.77,M,3.73,M,SCT,BKN,M,M,1300,4000,M,M,M,M,M,M,M,M,M,73.16,VVTS 012030Z 20011KT 6000 SCT013 BKN040 22/22 Q1008 NOSIG,M
VVTS,4/1/2012 21:00,106.6667,10.8167,71.6,71.6,100,200,7,0,29.77,M,2.24,M,SCT,BKN,M,M,1300,4000,M,M,BR,M,M,M,M,M,M,73.16,VVTS 012100Z 20007KT 3600 BR SCT013 BKN040 22/22 Q1008 NOSIG,M
VVTS,4/1/2012 21:30,106.6667,10.8167,71.6,71.6,100,200,7,0,29.8,M,2.3,M,SCT,BKN,M,M,1500,4000,M,M,BR,M,M,M,M,M,M,73.16,VVTS 012130Z 20007KT 3700 BR SCT015 BKN040 22/22 Q1009 NOSIG,M
VVTS,4/1/2012 22:00,106.6667,10.8167,71.6,71.6,100,190,6,0,29.8,M,3.73,M,SCT,BKN,M,M,1500,4000,M,M,M,M,M,M,M,M,M,73.16,VVTS 012200Z 19006KT 6000 SCT015 BKN040 22/22 Q1009 NOSIG,M
VVTS,4/1/2012 22:30,106.6667,10.8167,71.6,71.6,100,230,8,0,29.8,M,6.21,M,SCT,SCT,M,M,1500,4000,M,M,M,M,M,M,M,M,M,73.16,VVTS 012230Z 23008KT 9999 SCT015 SCT040 22/22 Q1009 NOSIG,M
VVTS,4/1/2012 23:00,106.6667,10.8167,71.6,71.6,100,230,7,0,29.8,M,6.21,M,FEW,SCT,M,M,1500,4000,M,M,M,M,M,M,M,M,M,73.16,VVTS 012300Z 23007KT 9999 FEW015 SCT040 22/22 Q1009 NOSIG,M
VVTS,4/1/2012 23:30,106.6667,10.8167,71.6,71.6,100,200,6,0,29.83,M,6.21,M,SCT,SCT,M,M,1500,4000,M,M,M,M,M,M,M,M,M,73.16,VVTS 012330Z 20006KT 9999 SCT015 SCT040 22/22 Q1010 NOSIG,M
VVTS,4/2/2012 0:00,106.6667,10.8167,71.6,71.6,100,220,4,0,29.83,M,6.21,M,SCT,SCT,M,M,1500,4000,M,M,M,M,M,M,M,M,M,73.16,VVTS 020000Z 22004KT 9999 SCT015 SCT040 22/22 Q1010 NOSIG,M
VVTS,4/2/2012 0:30,106.6667,10.8167,73.4,73.4,100,220,4,0,29.85,M,6.21,M,SCT,SCT,M,M,1500,4000,M,M,M,M,M,M,M,M,M,75.14,VVTS 020030Z 22004KT 9999 SCT015 SCT040 23/23 Q1011 NOSIG,M
VVTS,4/2/2012 1:00,106.6667,10.8167,73.4,73.4,100,220,4,0,29.85,M,6.21,M,SCT,SCT,M,M,1500,4000,M,M,M,M,M,M,M,M,M,75.14,VVTS 020100Z 22004KT 9999 SCT015 SCT040 23/23 Q1011 NOSIG,M
VVTS,4/2/2012 1:30,106.6667,10.8167,77,75.2,94.19,220,5,0,29.85,M,6.21,M,SCT,SCT,M,M,1500,4000,M,M,M,M,M,M,M,M,M,78.83,VVTS 020130Z 22005KT 9999 SCT015 SCT040 25/24 Q1011 NOSIG,M
VVTS,4/2/2012 2:00,106.6667,10.8167,80.6,75.2,83.66,220,6,0,29.88,M,6.21,M,SCT,M,M,M,1700,M,M,M,M,M,M,M,M,M,M,86.17,VVTS 020200Z 22006KT 9999 SCT017 27/24 Q1012 NOSIG,M
VVTS,4/2/2012 2:30,106.6667,10.8167,78.8,73.4,83.55,220,5,0,29.88,M,6.21,M,BKN,M,M,M,1500,M,M,M,M,M,M,M,M,M,M,82.03,VVTS 020230Z 22005KT 180V250 9999 BKN015 26/23 Q1012 NOSIG,M
VVTS,4/2/2012 3:00,106.6667,10.8167,78.8,73.4,83.55,240,5,0,29.88,M,6.21,M,BKN,M,M,M,1500,M,M,M,M,M,M,M,M,M,M,82.03,VVTS 020300Z 24005KT 9999 BKN015 26/23 Q1012 NOSIG,M
VVTS,4/2/2012 3:30,106.6667,10.8167,M,M,M,220,6,0,M,M,M,M,M,M,M,M,M,M,M,M,M,M,M,M,M,M,M,M,VVTS 020330Z 22006KT 999012 NOSIG,M
VVTS,4/2/2012 4:00,106.6667,10.8167,82.4,75.2,78.9,160,6,0,29.88,M,6.21,M,BKN,M,M,M,1500,M,M,M,M,M,M,M,M,M,M,89.48,VVTS 020400Z 16006KT 130V210 9999 BKN015 28/24 Q1012 NOSIG,M
VVTS,4/2/2012 4:30,106.6667,10.8167,84.2,75.2,74.44,190,6,0,29.85,M,6.21,M,BKN,M,M,M,1500,M,M,M,M,M,M,M,M,M,M,92.45,VVTS 020430Z 19006KT 160V230 9999 BKN015 29/24 Q1011 NOSIG,M
VVTS,4/2/2012 5:00,106.6667,10.8167,84.2,73.4,70.08,190,9,0,29.85,M,6.21,M,BKN,M,M,M,1700,M,M,M,M,M,M,M,M,M,M,90.94,VVTS 020500Z 19009KT 9999 BKN017 29/23 Q1011 NOSIG,M
VVTS,4/2/2012 5:30,106.6667,10.8167,84.2,73.4,70.08,170,7,0,29.83,M,6.21,M,BKN,M,M,M,1500,M,M,M,M,M,M,M,M,M,M,90.94,VVTS 020530Z 17007KT 140V210 9999 BKN015 29/23 Q1010 NOSIG,M
VVTS,4/2/2012 6:00,106.6667,10.8167,86,75.2,70.27,180,7,0,29.8,M,6.21,M,FEW,BKN,M,M,1500,1700,M,M,M,M,M,M,M,M,M,95.19,VVTS 020600Z 18007KT 150V220 9999 FEW015TCU BKN017 30/24 Q1009 NOSIG,M
VVTS,4/2/2012 6:30,106.6667,10.8167,86,73.4,66.15,180,9,0,29.8,M,6.21,M,FEW,BKN,M,M,1500,1700,M,M,M,M,M,M,M,M,M,93.45,VVTS 020630Z 18009KT 9999 FEW015TCU BKN017 30/23 Q1009 TEMPO TL0715 4000 SHRA SCT015 SCT017CB,M
VVTS,4/2/2012 7:00,106.6667,10.8167,87.8,73.4,62.47,150,8,0,29.8,M,6.21,M,FEW,BKN,M,M,1500,1700,M,M,M,M,M,M,M,M,M,95.86,VVTS 020700Z 15008KT 110V180 9999 FEW015TCU BKN017 31/23 Q1009 TEMPO TL0715 4000 SHRA SCT015 SCT017CB,M
VVTS,4/2/2012 7:30,106.6667,10.8167,84.2,75.2,74.44,160,5,0,29.77,M,6.21,M,FEW,BKN,M,M,1500,1700,M,M,M,M,M,M,M,M,M,92.45,VVTS 020730Z 16005KT 120V200 9999 FEW015TCU BKN017 29/24 Q1008 TEMPO TL0805 4000 SHRA SCT015 SCT017CB,M
VVTS,4/2/2012 8:00,106.6667,10.8167,82.4,75.2,78.9,140,8,0,29.77,M,4.97,M,FEW,BKN,M,M,1500,1700,M,M,#NAME?,M,M,M,M,M,M,89.48,VVTS 020800Z 14008KT 100V170 8000 -SHRA FEW015CB BKN017 28/24 Q1008 TEMPO TL0905 21008G22KT 2500 TSRA,M
VVTS,4/2/2012 8:30,106.6667,10.8167,84.2,77,79.04,140,6,0,29.77,M,6.21,M,SCT,SCT,M,M,1500,1700,M,M,M,M,M,M,M,M,M,94.16,VVTS 020830Z 14006KT 110V180 9999 SCT015 SCT017CB 29/25 Q1008 TEMPO TL0905 21008G22KT 2500 TSRA,M
VVTS,4/2/2012 9:00,106.6667,10.8167,82.4,75.2,78.9,160,12,0,29.77,M,6.21,M,SCT,SCT,M,M,1500,1700,M,M,M,M,M,M,M,M,M,89.48,VVTS 020900Z 16012KT 9999 SCT015 SCT017CB 28/24 Q1008 TEMPO TL1015 21012G25KT 2000 TSRA,M
VVTS,4/2/2012 9:30,106.6667,10.8167,82.4,75.2,78.9,150,13,0,29.8,M,6.21,M,SCT,SCT,M,M,1500,1700,M,M,M,M,M,M,M,M,M,89.48,VVTS 020930Z 15013KT 120V180 9999 SCT015 SCT017CB 28/24 Q1009 TEMPO TL1015 21012G25KT 2000 TSRA,M
VVTS,4/2/2012 10:00,106.6667,10.8167,78.8,77,94.23,140,11,0,29.8,M,4.35,M,BKN,SCT,M,M,1300,1500,M,M,#NAME?,M,M,M,M,M,M,82.75,VVTS 021000Z 14011KT 7000 -SHRA BKN013 SCT015CB 26/25 Q1009 NOSIG,M
VVTS,4/2/2012 10:30,106.6667,10.8167,78.8,75.2,88.75,150,10,0,29.83,M,6.21,M,FEW,SCT,BKN,M,1500,1700,4000,M,M,M,M,M,M,M,M,82.38,VVTS 021030Z 15010KT 9999 FEW015CB SCT017 BKN040 26/24 Q1010 NOSIG,M
VVTS,4/2/2012 11:00,106.6667,10.8167,78.8,73.4,83.55,150,10,0,29.83,M,6.21,M,FEW,SCT,BKN,M,1500,1700,4000,M,M,M,M,M,M,M,M,82.03,VVTS 021100Z 15010KT 9999 FEW015CB SCT017 BKN040 26/23 Q1010 NOSIG,M
VVTS,4/2/2012 11:30,106.6667,10.8167,78.8,75.2,88.75,140,7,0,29.85,M,6.21,M,FEW,SCT,BKN,M,1500,1700,4000,M,M,M,M,M,M,M,M,82.38,VVTS 021130Z 14007KT 9999 FEW015CB SCT017 BKN040 26/24 Q1011 NOSIG,M
VVTS,4/2/2012 12:00,106.6667,10.8167,78.8,75.2,88.75,130,8,0,29.85,M,6.21,M,FEW,SCT,BKN,M,1500,1700,4000,M,M,M,M,M,M,M,M,82.38,VVTS 021200Z 13008KT 9999 FEW015CB SCT017 BKN040 26/24 Q1011 NOSIG,M
VVTS,4/2/2012 12:30,106.6667,10.8167,78.8,77,94.23,130,8,0,29.85,M,6.21,M,FEW,SCT,BKN,M,1500,1700,4000,M,M,M,M,M,M,M,M,82.75,VVTS 021230Z 13008KT 9999 FEW015CB SCT017 BKN040 26/25 Q1011 NOSIG,M
VVTS,4/2/2012 13:00,106.6667,10.8167,78.8,77,94.23,130,7,0,29.88,M,6.21,M,FEW,SCT,BKN,M,1500,1700,4000,M,M,M,M,M,M,M,M,82.75,VVTS 021300Z 13007KT 9999 FEW015CB SCT017 BKN040 26/25 Q1012 NOSIG,M
VVTS,4/2/2012 13:30,106.6667,10.8167,78.8,77,94.23,120,6,0,29.88,M,6.21,M,FEW,SCT,BKN,M,1500,1700,4000,M,M,M,M,M,M,M,M,82.75,VVTS 021330Z 12006KT 9999 FEW015CB SCT017 BKN040 26/25 Q1012 NOSIG,M
VVTS,4/2/2012 14:00,106.6667,10.8167,78.8,77,94.23,120,5,0,29.88,M,6.21,M,SCT,BKN,M,M,1500,4000,M,M,M,M,M,M,M,M,M,82.75,VVTS 021400Z 12005KT 100V190 9999 SCT015 BKN040 26/25 Q1012 NOSIG,M
VVTS,4/2/2012 14:30,106.6667,10.8167,78.8,78.8,100,110,4,0,29.91,M,6.21,M,SCT,BKN,M,M,1500,4000,M,M,M,M,M,M,M,M,M,83.15,VVTS 021430Z 11004KT 080V160 9999 SCT015 BKN040 26/26 Q1013 NOSIG,M
VVTS,4/2/2012 15:00,106.6667,10.8167,78.8,77,94.23,100,5,0,29.94,M,6.21,M,SCT,BKN,M,M,1500,4000,M,M,M,M,M,M,M,M,M,82.75,VVTS 021500Z 10005KT 9999 SCT015 BKN040 26/25 Q1014 NOSIG,M
VVTS,4/2/2012 15:30,106.6667,10.8167,78.8,77,94.23,120,6,0,29.94,M,6.21,M,SCT,BKN,M,M,1500,4000,M,M,M,M,M,M,M,M,M,82.75,VVTS 021530Z 12006KT 9999 SCT015 BKN040 26/25 Q1014 NOSIG,M
VVTS,4/2/2012 16:00,106.6667,10.8167,78.8,75.2,88.75,110,7,0,29.94,M,6.21,M,SCT,BKN,M,M,1500,4000,M,M,M,M,M,M,M,M,M,82.38,VVTS 021600Z 11007KT 9999 SCT015 BKN040 26/24 Q1014 NOSIG,M
VVTS,4/2/2012 16:30,106.6667,10.8167,77,75.2,94.19,100,6,0,29.91,M,5.59,M,SCT,BKN,M,M,1500,4000,M,M,M,M,M,M,M,M,M,78.83,VVTS 021630Z 10006KT 9000 SCT015 BKN040 25/24 Q1013 NOSIG,M
VVTS,4/2/2012 17:30,106.6667,10.8167,77,75.2,94.19,110,7,0,29.91,M,6.21,M,SCT,BKN,M,M,1500,4000,M,M,M,M,M,M,M,M,M,78.83,VVTS 021730Z 11007KT 080V150 9999 SCT015 BKN040 25/24 Q1013 NOSIG,M
VVTS,4/2/2012 18:00,106.6667,10.8167,77,75.2,94.19,100,6,0,29.88,M,6.21,M,SCT,BKN,M,M,1500,4000,M,M,M,M,M,M,M,M,M,78.83,VVTS 021800Z 10006KT 080V160 9999 SCT015 BKN040 25/24 Q1012 NOSIG,M
VVTS,4/2/2012 18:30,106.6667,10.8167,77,75.2,94.19,90,6,0,29.88,M,6.21,M,SCT,BKN,M,M,1500,4000,M,M,M,M,M,M,M,M,M,78.83,VVTS 021830Z 09006KT 9999 SCT015 BKN040 25/24 Q1012 NOSIG,M
VVTS,4/2/2012 19:00,106.6667,10.8167,77,75.2,94.19,110,8,0,29.88,M,6.21,M,SCT,BKN,M,M,1500,4000,M,M,M,M,M,M,M,M,M,78.83,VVTS 021900Z 11008KT 090V160 9999 SCT015 BKN040 25/24 Q1012 NOSIG,M
VVTS,4/2/2012 19:30,106.6667,10.8167,77,75.2,94.19,110,6,0,29.88,M,6.21,M,SCT,BKN,M,M,1500,4000,M,M,M,M,M,M,M,M,M,78.83,VVTS 021930Z 11006KT 9999 SCT015 BKN040 25/24 Q1012 NOSIG,M
VVTS,4/2/2012 20:00,106.6667,10.8167,77,77,100,120,5,0,29.88,M,6.21,M,SCT,BKN,M,M,1500,4000,M,M,M,M,M,M,M,M,M,77,VVTS 022000Z 12005KT 9999 SCT015 BKN040 25/25 Q1012 NOSIG,M
VVTS,4/2/2012 20:30,106.6667,10.8167,77,75.2,94.19,100,6,0,29.88,M,4.97,M,SCT,BKN,M,M,1500,4000,M,M,M,M,M,M,M,M,M,78.83,VVTS 022030Z 10006KT 8000 SCT015 BKN040 25/24 Q1012 NOSIG,M
VVTS,4/2/2012 21:00,106.6667,10.8167,77,75.2,94.19,120,5,0,29.88,M,4.35,M,FEW,SCT,M,M,1500,1700,M,M,M,M,M,M,M,M,M,78.83,VVTS 022100Z 12005KT 090V220 7000 FEW015TCU SCT017 25/24 Q1012 NOSIG,M
VVTS,4/2/2012 21:30,106.6667,10.8167,77,75.2,94.19,110,3,0,29.88,M,3.73,M,FEW,SCT,M,M,1500,1700,M,M,M,M,M,M,M,M,M,78.83,VVTS 022130Z 11003KT 6000 FEW015CB SCT017 25/24 Q1012 NOSIG,M
VVTS,4/2/2012 22:00,106.6667,10.8167,77,75.2,94.19,110,6,0,29.88,M,4.35,M,FEW,SCT,M,M,1500,1700,M,M,M,M,M,M,M,M,M,78.83,VVTS 022200Z 11006KT 7000 FEW015CB SCT017 25/24 Q1012 NOSIG,M
VVTS,4/2/2012 22:30,106.6667,10.8167,75.2,75.2,100,100,5,0,29.88,M,4.35,M,FEW,SCT,M,M,1500,1700,M,M,M,M,M,M,M,M,M,77.12,VVTS 022230Z 10005KT 7000 FEW015CB SCT017 24/24 Q1012 NOSIG,M
VVTS,4/2/2012 23:00,106.6667,10.8167,75.2,75.2,100,110,5,0,29.88,M,2.49,M,SCT,SCT,M,M,1500,4000,M,M,BR,M,M,M,M,M,M,77.12,VVTS 022300Z 11005KT 4000 BR SCT015 SCT040 24/24 Q1012 TEMPO 0030 3000 BR,M
VVTS,4/2/2012 23:30,106.6667,10.8167,77,77,100,100,5,0,29.91,M,2.49,M,SCT,SCT,M,M,1500,4000,M,M,BR,M,M,M,M,M,M,77,VVTS 022330Z 10005KT 080V140 4000 BR SCT015 SCT040 25/25 Q1013 TEMPO 0030 3000 BR,M
VVTS,4/3/2012 0:00,106.6667,10.8167,78.8,77,94.23,100,8,0,29.91,M,5.59,M,BKN,M,M,M,1500,M,M,M,M,M,M,M,M,M,M,82.75,VVTS 030000Z 10008KT 9000 BKN015 26/25 Q1013 TEMPO TL0030 3000 BR,M
VVTS,4/3/2012 0:30,106.6667,10.8167,78.8,75.2,88.75,100,6,0,29.94,M,6.21,M,SCT,M,M,M,1500,M,M,M,M,M,M,M,M,M,M,82.38,VVTS 030030Z 10006KT 9999 SCT015 26/24 Q1014 NOSIG,M
VVTS,4/3/2012 1:00,106.6667,10.8167,78.8,75.2,88.75,110,10,0,29.94,M,6.21,M,SCT,SCT,M,M,1500,4000,M,M,M,M,M,M,M,M,M,82.38,VVTS 030100Z 11010KT 9999 SCT015 SCT040 26/24 Q1014 NOSIG,M
VVTS,4/3/2012 1:30,106.6667,10.8167,82.4,75.2,78.9,110,10,0,29.97,M,6.21,M,SCT,SCT,M,M,1500,4000,M,M,M,M,M,M,M,M,M,89.48,VVTS 030130Z 11010KT 9999 SCT015 SCT040 28/24 Q1015 NOSIG,M
VVTS,4/3/2012 2:00,106.6667,10.8167,82.4,75.2,78.9,120,9,0,29.97,M,6.21,M,SCT,SCT,M,M,1700,4000,M,M,M,M,M,M,M,M,M,89.48,VVTS 030200Z 12009KT 090V150 9999 SCT017 SCT040 28/24 Q1015 NOSIG,M
VVTS,4/3/2012 2:30,106.6667,10.8167,84.2,75.2,74.44,120,8,0,29.97,M,6.21,M,SCT,SCT,M,M,1700,4000,M,M,M,M,M,M,M,M,M,92.45,VVTS 030230Z 12008KT 9999 SCT017 SCT040 29/24 Q1015 NOSIG,M
VVTS,4/3/2012 3:00,106.6667,10.8167,86,75.2,70.27,120,8,0,29.94,M,6.21,M,SCT,M,M,M,1700,M,M,M,M,M,M,M,M,M,M,95.19,VVTS 030300Z 12008KT 090V160 9999 SCT017 30/24 Q1014 NOSIG,M
VVTS,4/3/2012 3:30,106.6667,10.8167,84.2,75.2,74.44,110,9,0,29.94,M,6.21,M,BKN,M,M,M,1500,M,M,M,M,M,M,M,M,M,M,92.45,VVTS 030330Z 11009KT 9999 BKN015 29/24 Q1014 NOSIG,M
VVTS,4/3/2012 4:00,106.6667,10.8167,87.8,75.2,66.35,110,7,0,29.94,M,6.21,M,SCT,M,M,M,1700,M,M,M,M,M,M,M,M,M,M,97.76,VVTS 030400Z 11007KT 070V150 9999 SCT017 31/24 Q1014 NOSIG,M
VVTS,4/3/2012 4:30,106.6667,10.8167,87.8,75.2,66.35,130,7,0,29.91,M,6.21,M,SCT,M,M,M,1700,M,M,M,M,M,M,M,M,M,M,97.76,VVTS 030430Z 13007KT 100V180 9999 SCT017 31/24 Q1013 NOSIG,M
VVTS,4/3/2012 5:00,106.6667,10.8167,89.6,73.4,59.01,130,6,0,29.91,M,6.21,M,BKN,M,M,M,1700,M,M,M,M,M,M,M,M,M,M,98.2,VVTS 030500Z 13006KT 090V190 9999 BKN017 32/23 Q1013 NOSIG,M
VVTS,4/3/2012 5:30,106.6667,10.8167,89.6,73.4,59.01,150,6,0,29.88,M,6.21,M,BKN,M,M,M,1700,M,M,M,M,M,M,M,M,M,M,98.2,VVTS 030530Z 15006KT 060V190 9999 BKN017 32/23 Q1012 NOSIG,M
VVTS,4/3/2012 6:00,106.6667,10.8167,89.6,75.2,62.68,170,6,0,29.88,M,6.21,M,BKN,M,M,M,1700,M,M,M,M,M,M,M,M,M,M,100.23,VVTS 030600Z 17006KT 120V200 9999 BKN017 32/24 Q1012 NOSIG,M
VVTS,4/3/2012 6:30,106.6667,10.8167,89.6,73.4,59.01,110,7,0,29.85,M,6.21,M,BKN,M,M,M,1700,M,M,M,M,M,M,M,M,M,M,98.2,VVTS 030630Z 11007KT 060V190 9999 BKN017 32/23 Q1011 NOSIG,M
VVTS,4/3/2012 7:00,106.6667,10.8167,89.6,73.4,59.01,170,7,0,29.83,M,6.21,M,SCT,M,M,M,1700,M,M,M,M,M,M,M,M,M,M,98.2,VVTS 030700Z 17007KT 110V190 9999 SCT017 32/23 Q1010 NOSIG,M
VVTS,4/3/2012 7:30,106.6667,10.8167,89.6,73.4,59.01,140,8,0,29.83,M,6.21,M,SCT,M,M,M,1700,M,M,M,M,M,M,M,M,M,M,98.2,VVTS 030730Z 14008KT 9999 SCT017 32/23 Q1010 NOSIG,M
VVTS,4/3/2012 8:00,106.6667,10.8167,89.6,73.4,59.01,150,9,0,29.83,M,6.21,M,SCT,M,M,M,1700,M,M,M,M,M,M,M,M,M,M,98.2,VVTS 030800Z 15009KT 100V180 9999 SCT017 32/23 Q1010 NOSIG,M
VVTS,4/3/2012 8:30,106.6667,10.8167,89.6,73.4,59.01,150,11,0,29.83,M,6.21,M,SCT,M,M,M,1700,M,M,M,M,M,M,M,M,M,M,98.2,VVTS 030830Z 15011KT 9999 SCT017 32/23 Q1010 NOSIG,M
VVTS,4/3/2012 9:00,106.6667,10.8167,87.8,71.6,58.78,150,10,0,29.83,M,6.21,M,SCT,M,M,M,1700,M,M,M,M,M,M,M,M,M,M,94.18,VVTS 030900Z 15010KT 9999 SCT017 31/22 Q1010 NOSIG,M
VVTS,4/3/2012 9:30,106.6667,10.8167,87.8,71.6,58.78,140,11,0,29.83,M,6.21,M,FEW,M,M,M,2000,M,M,M,M,M,M,M,M,M,M,94.18,VVTS 030930Z 14011KT 120V180 9999 FEW020 31/22 Q1010 NOSIG,M
VVTS,4/3/2012 10:00,106.6667,10.8167,84.2,71.6,65.95,150,10,0,29.83,M,6.21,M,FEW,M,M,M,2000,M,M,M,M,M,M,M,M,M,M,89.6,VVTS 031000Z 15010KT 130V200 9999 FEW020 29/22 Q1010 NOSIG,M
VVTS,4/3/2012 10:30,106.6667,10.8167,84.2,73.4,70.08,150,9,0,29.83,M,6.21,M,FEW,M,M,M,2000,M,M,M,M,M,M,M,M,M,M,90.94,VVTS 031030Z 15009KT 110V200 9999 FEW020 29/23 Q1010 NOSIG,M
VVTS,4/3/2012 11:00,106.6667,10.8167,82.4,73.4,74.28,150,9,0,29.85,M,6.21,M,FEW,M,M,M,2000,M,M,M,M,M,M,M,M,M,M,88.26,VVTS 031100Z 15009KT 120V180 9999 FEW020 28/23 Q1011 NOSIG,M
VVTS,4/3/2012 11:30,106.6667,10.8167,80.6,73.4,78.76,150,9,0,29.85,M,6.21,M,FEW,SCT,M,M,1700,4000,M,M,M,M,M,M,M,M,M,85.32,VVTS 031130Z 15009KT 120V180 9999 FEW017 SCT040 27/23 Q1011 NOSIG,M
VVTS,4/3/2012 12:00,106.6667,10.8167,80.6,73.4,78.76,140,10,0,29.88,M,6.21,M,FEW,SCT,M,M,1700,4000,M,M,M,M,M,M,M,M,M,85.32,VVTS 031200Z 14010KT 9999 FEW017 SCT040 27/23 Q1012 NOSIG,M
VVTS,4/3/2012 12:30,106.6667,10.8167,80.6,73.4,78.76,130,8,0,29.88,M,6.21,M,FEW,SCT,M,M,1700,4000,M,M,M,M,M,M,M,M,M,85.32,VVTS 031230Z 13008KT 9999 FEW017 SCT040 27/23 Q1012 NOSIG,M
VVTS,4/3/2012 13:00,106.6667,10.8167,80.6,73.4,78.76,130,10,0,29.91,M,6.21,M,FEW,SCT,M,M,1700,4000,M,M,M,M,M,M,M,M,M,85.32,VVTS 031300Z 13010KT 110V180 9999 FEW017 SCT040 27/23 Q1013 NOSIG,M
VVTS,4/3/2012 13:30,106.6667,10.8167,78.8,73.4,83.55,120,8,0,29.91,M,6.21,M,FEW,SCT,M,M,1700,4000,M,M,M,M,M,M,M,M,M,82.03,VVTS 031330Z 12008KT 9999 FEW017 SCT040 26/23 Q1013 NOSIG,M
VVTS,4/3/2012 14:00,106.6667,10.8167,78.8,73.4,83.55,130,8,0,29.94,M,6.21,M,FEW,M,M,M,1700,M,M,M,M,M,M,M,M,M,M,82.03,VVTS 031400Z 13008KT 100V160 9999 FEW017 26/23 Q1014 NOSIG,M
VVTS,4/3/2012 14:30,106.6667,10.8167,78.8,73.4,83.55,130,9,0,29.94,M,6.21,M,FEW,M,M,M,1700,M,M,M,M,M,M,M,M,M,M,82.03,VVTS 031430Z 13009KT 100V200 9999 FEW017 26/23 Q1014 NOSIG,M
VVTS,4/3/2012 15:00,106.6667,10.8167,78.8,75.2,88.75,120,7,0,29.94,M,6.21,M,FEW,M,M,M,1700,M,M,M,M,M,M,M,M,M,M,82.38,VVTS 031500Z 12007KT 090V160 9999 FEW017 26/24 Q1014 NOSIG,M
VVTS,4/3/2012 15:30,106.6667,10.8167,78.8,75.2,88.75,130,6,0,29.94,M,6.21,M,FEW,M,M,M,1700,M,M,M,M,M,M,M,M,M,M,82.38,VVTS 031530Z 13006KT 9999 FEW017 26/24 Q1014 NOSIG,M
VVTS,4/3/2012 16:00,106.6667,10.8167,78.8,73.4,83.55,130,6,0,29.97,M,6.21,M,FEW,M,M,M,1700,M,M,M,M,M,M,M,M,M,M,82.03,VVTS 031600Z 13006KT 100V160 9999 FEW017 26/23 Q1015 NOSIG,M
VVTS,4/3/2012 16:30,106.6667,10.8167,78.8,75.2,88.75,110,7,0,29.97,M,6.21,M,FEW,M,M,M,1700,M,M,M,M,M,M,M,M,M,M,82.38,VVTS 031630Z 11007KT 9999 FEW017 26/24 Q1015 NOSIG,M
VVTS,4/3/2012 17:00,106.6667,10.8167,78.8,75.2,88.75,130,7,0,29.94,M,6.21,M,FEW,M,M,M,1700,M,M,M,M,M,M,M,M,M,M,82.38,VVTS 031700Z 13007KT 100V210 9999 FEW017 26/24 Q1014 NOSIG,M
VVTS,4/3/2012 17:30,106.6667,10.8167,78.8,75.2,88.75,130,5,0,29.94,M,6.21,M,FEW,M,M,M,1700,M,M,M,M,M,M,M,M,M,M,82.38,VVTS 031730Z 13005KT 100V180 9999 FEW017 26/24 Q1014 NOSIG,M
VVTS,4/3/2012 18:00,106.6667,10.8167,77,73.4,88.67,130,5,0,29.94,M,6.21,M,FEW,M,M,M,1700,M,M,M,M,M,M,M,M,M,M,78.57,VVTS 031800Z 13005KT 9999 FEW017 25/23 Q1014 NOSIG,M
VVTS,4/3/2012 18:30,106.6667,10.8167,77,73.4,88.67,130,4,0,29.91,M,6.21,M,FEW,M,M,M,1700,M,M,M,M,M,M,M,M,M,M,78.57,VVTS 031830Z 13004KT 9999 FEW017 25/23 Q1013 NOSIG,M
VVTS,4/3/2012 19:00,106.6667,10.8167,75.2,75.2,100,120,5,0,29.88,M,6.21,M,FEW,M,M,M,1700,M,M,M,M,M,M,M,M,M,M,77.12,VVTS 031900Z 12005KT 9999 FEW017 24/24 Q1012 NOSIG,M
VVTS,4/3/2012 19:30,106.6667,10.8167,75.2,73.4,94.14,130,7,0,29.88,M,6.21,M,FEW,M,M,M,1700,M,M,M,M,M,M,M,M,M,M,76.84,VVTS 031930Z 13007KT 9999 FEW017 24/23 Q1012 NOSIG,M
VVTS,4/3/2012 20:00,106.6667,10.8167,75.2,73.4,94.14,120,6,0,29.88,M,6.21,M,FEW,M,M,M,1700,M,M,M,M,M,M,M,M,M,M,76.84,VVTS 032000Z 12006KT 9999 FEW017 24/23 Q1012 NOSIG,M
VVTS,4/3/2012 20:30,106.6667,10.8167,75.2,73.4,94.14,120,4,0,29.88,M,6.21,M,FEW,M,M,M,1700,M,M,M,M,M,M,M,M,M,M,76.84,VVTS 032030Z 12004KT 9999 FEW017 24/23 Q1012 NOSIG,M
VVTS,4/3/2012 21:00,106.6667,10.8167,75.2,73.4,94.14,120,5,0,29.88,M,6.21,M,FEW,M,M,M,1700,M,M,M,M,M,M,M,M,M,M,76.84,VVTS 032100Z 12005KT 9999 FEW017 24/23 Q1012 NOSIG,M
VVTS,4/3/2012 21:30,106.6667,10.8167,75.2,73.4,94.14,120,6,0,29.88,M,6.21,M,FEW,M,M,M,1700,M,M,M,M,M,M,M,M,M,M,76.84,VVTS 032130Z 12006KT 9999 FEW017 24/23 Q1012 NOSIG,M
VVTS,4/3/2012 22:00,106.6667,10.8167,75.2,73.4,94.14,110,6,0,29.88,M,6.21,M,FEW,M,M,M,1700,M,M,M,M,M,M,M,M,M,M,76.84,VVTS 032200Z 11006KT 9999 FEW017 24/23 Q1012 NOSIG,M
VVTS,4/3/2012 22:30,106.6667,10.8167,75.2,73.4,94.14,100,6,0,29.91,M,6.21,M,FEW,M,M,M,1700,M,M,M,M,M,M,M,M,M,M,76.84,VVTS 032230Z 10006KT 9999 FEW017 24/23 Q1013 NOSIG,M
VVTS,4/3/2012 23:00,106.6667,10.8167,75.2,75.2,100,110,5,0,29.91,M,5.59,M,FEW,M,M,M,1700,M,M,M,M,M,M,M,M,M,M,77.12,VVTS 032300Z 11005KT 090V160 9000 FEW017 24/24 Q1013 NOSIG,M
VVTS,4/3/2012 23:30,106.6667,10.8167,77,75.2,94.19,110,7,0,29.91,M,5.59,M,FEW,M,M,M,1700,M,M,M,M,M,M,M,M,M,M,78.83,VVTS 032330Z 11007KT 080V140 9000 FEW017 25/24 Q1013 NOSIG,M
VVTS,4/4/2012 0:00,106.6667,10.8167,78.8,75.2,88.75,120,6,0,29.94,M,6.21,M,FEW,M,M,M,1700,M,M,M,M,M,M,M,M,M,M,82.38,VVTS 040000Z 12006KT 9999 FEW017 26/24 Q1014 NOSIG,M
VVTS,4/4/2012 0:30,106.6667,10.8167,78.8,75.2,88.75,120,7,0,29.94,M,6.21,M,SCT,M,M,M,1700,M,M,M,M,M,M,M,M,M,M,82.38,VVTS 040030Z 12007KT 9999 SCT017 26/24 Q1014 NOSIG,M
VVTS,4/4/2012 1:00,106.6667,10.8167,80.6,75.2,83.66,130,10,0,29.94,M,6.21,M,SCT,M,M,M,1700,M,M,M,M,M,M,M,M,M,M,86.17,VVTS 040100Z 13010KT 9999 SCT017 27/24 Q1014 NOSIG,M
VVTS,4/4/2012 1:30,106.6667,10.8167,82.4,75.2,78.9,120,12,0,29.94,M,6.21,M,SCT,M,M,M,1700,M,M,M,M,M,M,M,M,M,M,89.48,VVTS 040130Z 12012KT 9999 SCT017 28/24 Q1014 NOSIG,M
VVTS,4/4/2012 2:00,106.6667,10.8167,82.4,73.4,74.28,120,10,0,29.97,M,6.21,M,SCT,M,M,M,1700,M,M,M,M,M,M,M,M,M,M,88.26,VVTS 040200Z 12010KT 9999 SCT017 28/23 Q1015 NOSIG,M
VVTS,4/4/2012 2:30,106.6667,10.8167,84.2,73.4,70.08,110,9,0,29.97,M,6.21,M,SCT,M,M,M,1700,M,M,M,M,M,M,M,M,M,M,90.94,VVTS 040230Z 11009KT 9999 SCT017 29/23 Q1015 NOSIG,M
VVTS,4/4/2012 3:00,106.6667,10.8167,87.8,73.4,62.47,130,9,0,29.94,M,6.21,M,SCT,M,M,M,1700,M,M,M,M,M,M,M,M,M,M,95.86,VVTS 040300Z 13009KT 090V170 9999 SCT017 31/23 Q1014 NOSIG,M
VVTS,4/4/2012 3:30,106.6667,10.8167,87.8,73.4,62.47,120,8,0,29.94,M,6.21,M,SCT,M,M,M,1700,M,M,M,M,M,M,M,M,M,M,95.86,VVTS 040330Z 12008KT 090V190 9999 SCT017 31/23 Q1014 NOSIG,M
VVTS,4/4/2012 4:00,106.6667,10.8167,87.8,73.4,62.47,170,6,0,29.94,M,6.21,M,SCT,M,M,M,1700,M,M,M,M,M,M,M,M,M,M,95.86,VVTS 040400Z 17006KT 100V240 9999 SCT017 31/23 Q1014 NOSIG,M
VVTS,4/4/2012 4:30,106.6667,10.8167,87.8,73.4,62.47,170,4,0,29.91,M,6.21,M,SCT,M,M,M,1700,M,M,M,M,M,M,M,M,M,M,95.86,VVTS 040430Z 17004KT 120V220 9999 SCT017 31/23 Q1013 NOSIG,M
VVTS,4/4/2012 5:00,106.6667,10.8167,89.6,71.6,55.53,160,6,0,29.91,M,6.21,M,SCT,M,M,M,1700,M,M,M,M,M,M,M,M,M,M,96.41,VVTS 040500Z 16006KT 090V220 9999 SCT017 32/22 Q1013 NOSIG,M
VVTS,4/4/2012 5:30,106.6667,10.8167,89.6,71.6,55.53,150,4,0,29.91,M,6.21,M,SCT,M,M,M,1700,M,M,M,M,M,M,M,M,M,M,96.41,VVTS 040530Z 15004KT 9999 SCT017 32/22 Q1013 NOSIG,M
VVTS,4/4/2012 6:00,106.6667,10.8167,91.4,71.6,52.48,130,8,0,29.88,M,6.21,M,SCT,M,M,M,1700,M,M,M,M,M,M,M,M,M,M,98.64,VVTS 040600Z 13008KT 090V170 9999 SCT017 33/22 Q1012 NOSIG,M
VVTS,4/4/2012 6:30,106.6667,10.8167,89.6,71.6,55.53,130,4,0,29.85,M,6.21,M,SCT,M,M,M,1700,M,M,M,M,M,M,M,M,M,M,96.41,VVTS 040630Z 13004KT 040V270 9999 SCT017 32/22 Q1011 NOSIG,M
VVTS,4/4/2012 7:00,106.6667,10.8167,89.6,71.6,55.53,130,7,0,29.85,M,6.21,M,SCT,M,M,M,1700,M,M,M,M,M,M,M,M,M,M,96.41,VVTS 040700Z 13007KT 080V230 9999 SCT017 32/22 Q1011 NOSIG,M
VVTS,4/4/2012 7:30,106.6667,10.8167,91.4,69.8,49.36,140,8,0,29.85,M,6.21,M,SCT,M,M,M,1700,M,M,M,M,M,M,M,M,M,M,96.99,VVTS 040730Z 14008KT 110V180 9999 SCT017 33/21 Q1011 NOSIG,M
VVTS,4/4/2012 8:00,106.6667,10.8167,89.6,71.6,55.53,140,8,0,29.83,M,6.21,M,SCT,M,M,M,1700,M,M,M,M,M,M,M,M,M,M,96.41,VVTS 040800Z 14008KT 110V180 9999 SCT017 32/22 Q1010 NOSIG,M
VVTS,4/4/2012 8:30,106.6667,10.8167,89.6,71.6,55.53,170,9,0,29.83,M,6.21,M,FEW,M,M,M,1700,M,M,M,M,M,M,M,M,M,M,96.41,VVTS 040830Z 17009KT 130V200 9999 FEW017 32/22 Q1010 NOSIG,M
VVTS,4/4/2012 9:00,106.6667,10.8167,89.6,71.6,55.53,150,8,0,29.83,M,6.21,M,FEW,M,M,M,1700,M,M,M,M,M,M,M,M,M,M,96.41,VVTS 040900Z 15008KT 110V200 9999 FEW017 32/22 Q1010 NOSIG,M
VVTS,4/4/2012 9:30,106.6667,10.8167,87.8,71.6,58.78,150,8,0,29.83,M,6.21,M,FEW,M,M,M,1700,M,M,M,M,M,M,M,M,M,M,94.18,VVTS 040930Z 15008KT 110V190 9999 FEW017 31/22 Q1010 NOSIG,M
VVTS,4/4/2012 10:00,106.6667,10.8167,87.8,71.6,58.78,150,10,0,29.83,M,6.21,M,FEW,M,M,M,1700,M,M,M,M,M,M,M,M,M,M,94.18,VVTS 041000Z 15010KT 9999 FEW017 31/22 Q1010 NOSIG,M
VVTS,4/4/2012 10:30,106.6667,10.8167,84.2,69.8,62.03,160,8,0,29.83,M,6.21,M,FEW,M,M,M,1700,M,M,M,M,M,M,M,M,M,M,88.43,VVTS 041030Z 16008KT 140V210 9999 FEW017 29/21 Q1010 NOSIG,M
VVTS,4/4/2012 11:00,106.6667,10.8167,82.4,71.6,69.9,150,8,0,29.85,M,6.21,M,FEW,M,M,M,1700,M,M,M,M,M,M,M,M,M,M,87.18,VVTS 041100Z 15008KT 120V180 9999 FEW017 28/22 Q1011 NOSIG,M
VVTS,4/4/2012 11:30,106.6667,10.8167,82.4,73.4,74.28,160,10,0,29.85,M,6.21,M,FEW,M,M,M,1700,M,M,M,M,M,M,M,M,M,M,88.26,VVTS 041130Z 16010KT 9999 FEW017 28/23 Q1011 NOSIG,M
VVTS,4/4/2012 12:00,106.6667,10.8167,80.6,73.4,78.76,170,8,0,29.88,M,6.21,M,FEW,M,M,M,1700,M,M,M,M,M,M,M,M,M,M,85.32,VVTS 041200Z 17008KT 9999 FEW017 27/23 Q1012 NOSIG,M
VVTS,4/4/2012 12:30,106.6667,10.8167,80.6,73.4,78.76,150,7,0,29.88,M,6.21,M,FEW,M,M,M,1700,M,M,M,M,M,M,M,M,M,M,85.32,VVTS 041230Z 15007KT 120V200 9999 FEW017 27/23 Q1012 NOSIG,M
VVTS,4/4/2012 13:00,106.6667,10.8167,80.6,73.4,78.76,160,8,0,29.88,M,6.21,M,FEW,M,M,M,1700,M,M,M,M,M,M,M,M,M,M,85.32,VVTS 041300Z 16008KT 9999 FEW017 27/23 Q1012 NOSIG,M
VVTS,4/4/2012 13:30,106.6667,10.8167,80.6,73.4,78.76,150,7,0,29.91,M,6.21,M,FEW,M,M,M,1700,M,M,M,M,M,M,M,M,M,M,85.32,VVTS 041330Z 15007KT 9999 FEW017 27/23 Q1013 NOSIG,M
VVTS,4/4/2012 14:00,106.6667,10.8167,78.8,75.2,88.75,150,7,0,29.91,M,6.21,M,FEW,M,M,M,1700,M,M,M,M,M,M,M,M,M,M,82.38,VVTS 041400Z 15007KT 9999 FEW017 26/24 Q1013 NOSIG,M
VVTS,4/4/2012 14:30,106.6667,10.8167,78.8,75.2,88.75,140,7,0,29.91,M,6.21,M,SCT,M,M,M,1700,M,M,M,M,M,M,M,M,M,M,82.38,VVTS 041430Z 14007KT 9999 SCT017 26/24 Q1013 NOSIG,M
VVTS,4/4/2012 15:00,106.6667,10.8167,78.8,75.2,88.75,120,6,0,29.91,M,6.21,M,SCT,M,M,M,1700,M,M,M,M,M,M,M,M,M,M,82.38,VVTS 041500Z 12006KT 9999 SCT017 26/24 Q1013 NOSIG,M
VVTS,4/4/2012 15:30,106.6667,10.8167,78.8,75.2,88.75,120,6,0,29.91,M,6.21,M,SCT,M,M,M,1700,M,M,M,M,M,M,M,M,M,M,82.38,VVTS 041530Z 12006KT 9999 SCT017 26/24 Q1013 NOSIG,M
VVTS,4/4/2012 16:00,106.6667,10.8167,78.8,75.2,88.75,120,5,0,29.91,M,6.21,M,SCT,M,M,M,1700,M,M,M,M,M,M,M,M,M,M,82.38,VVTS 041600Z 12005KT 090V150 9999 SCT017 26/24 Q1013 NOSIG,M
VVTS,4/4/2012 16:30,106.6667,10.8167,78.8,75.2,88.75,120,5,0,29.91,M,6.21,M,SCT,M,M,M,1700,M,M,M,M,M,M,M,M,M,M,82.38,VVTS 041630Z 12005KT 9999 SCT017 26/24 Q1013 NOSIG,M
VVTS,4/4/2012 17:00,106.6667,10.8167,78.8,75.2,88.75,120,5,0,29.91,M,6.21,M,SCT,M,M,M,1700,M,M,M,M,M,M,M,M,M,M,82.38,VVTS 041700Z 12005KT 9999 SCT017 26/24 Q1013 NOSIG,M
VVTS,4/4/2012 17:30,106.6667,10.8167,78.8,75.2,88.75,130,4,0,29.88,M,6.21,M,SCT,M,M,M,1700,M,M,M,M,M,M,M,M,M,M,82.38,VVTS 041730Z 13004KT 100V190 9999 SCT017 26/24 Q1012 NOSIG,M
VVTS,4/4/2012 18:00,106.6667,10.8167,78.8,75.2,88.75,130,4,0,29.88,M,6.21,M,SCT,M,M,M,1700,M,M,M,M,M,M,M,M,M,M,82.38,VVTS 041800Z 13004KT 9999 SCT017 26/24 Q1012 NOSIG,M
VVTS,4/4/2012 18:30,106.6667,10.8167,77,75.2,94.19,120,6,0,29.88,M,6.21,M,SCT,M,M,M,1700,M,M,M,M,M,M,M,M,M,M,78.83,VVTS 041830Z 12006KT 9999 SCT017 25/24 Q1012 NOSIG,M
VVTS,4/4/2012 19:00,106.6667,10.8167,77,75.2,94.19,130,5,0,29.85,M,6.21,M,SCT,M,M,M,1700,M,M,M,M,M,M,M,M,M,M,78.83,VVTS 041900Z 13005KT 9999 SCT017 25/24 Q1011 NOSIG,M
VVTS,4/4/2012 19:30,106.6667,10.8167,77,75.2,94.19,140,6,0,29.85,M,6.21,M,SCT,M,M,M,1700,M,M,M,M,M,M,M,M,M,M,78.83,VVTS 041930Z 14006KT 9999 SCT017 25/24 Q1011 NOSIG,M
VVTS,4/4/2012 20:00,106.6667,10.8167,77,75.2,94.19,140,5,0,29.85,M,6.21,M,SCT,M,M,M,1700,M,M,M,M,M,M,M,M,M,M,78.83,VVTS 042000Z 14005KT 9999 SCT017 25/24 Q1011 NOSIG,M
VVTS,4/4/2012 20:30,106.6667,10.8167,77,75.2,94.19,130,5,0,29.85,M,6.21,M,SCT,M,M,M,1700,M,M,M,M,M,M,M,M,M,M,78.83,VVTS 042030Z 13005KT 9999 SCT017 25/24 Q1011 NOSIG,M
VVTS,4/4/2012 21:00,106.6667,10.8167,77,75.2,94.19,110,5,0,29.85,M,6.21,M,SCT,M,M,M,1700,M,M,M,M,M,M,M,M,M,M,78.83,VVTS 042100Z 11005KT 9999 SCT017 25/24 Q1011 NOSIG,M
VVTS,4/4/2012 21:30,106.6667,10.8167,77,75.2,94.19,120,5,0,29.85,M,6.21,M,SCT,M,M,M,1700,M,M,M,M,M,M,M,M,M,M,78.83,VVTS 042130Z 12005KT 9999 SCT017 25/24 Q1011 NOSIG,M
VVTS,4/4/2012 22:00,106.6667,10.8167,77,75.2,94.19,120,5,0,29.85,M,6.21,M,SCT,M,M,M,1700,M,M,M,M,M,M,M,M,M,M,78.83,VVTS 042200Z 12005KT 9999 SCT017 25/24 Q1011 NOSIG,M
VVTS,4/4/2012 22:30,106.6667,10.8167,75.2,75.2,100,120,6,0,29.85,M,6.21,M,SCT,M,M,M,1700,M,M,M,M,M,M,M,M,M,M,77.12,VVTS 042230Z 12006KT 9999 SCT017 24/24 Q1011 NOSIG,M
VVTS,4/4/2012 23:00,106.6667,10.8167,77,75.2,94.19,110,4,0,29.85,M,6.21,M,FEW,M,M,M,1700,M,M,M,M,M,M,M,M,M,M,78.83,VVTS 042300Z 11004KT 9999 FEW017 25/24 Q1011 NOSIG,M
VVTS,4/4/2012 23:30,106.6667,10.8167,77,75.2,94.19,M,3,0,29.88,M,5.59,M,FEW,M,M,M,1700,M,M,M,M,M,M,M,M,M,M,78.83,VVTS 042330Z VRB03KT 9000 FEW017 25/24 Q1012 NOSIG,M
VVTS,4/5/2012 0:00,106.6667,10.8167,78.8,75.2,88.75,120,5,0,29.88,M,6.21,M,FEW,M,M,M,1700,M,M,M,M,M,M,M,M,M,M,82.38,VVTS 050000Z 12005KT 9999 FEW017 26/24 Q1012 NOSIG,M
VVTS,4/5/2012 0:30,106.6667,10.8167,80.6,75.2,83.66,120,6,0,29.91,M,6.21,M,SCT,M,M,M,1700,M,M,M,M,M,M,M,M,M,M,86.17,VVTS 050030Z 12006KT 090V170 9999 SCT017 27/24 Q1013 NOSIG,M
VVTS,4/5/2012 1:00,106.6667,10.8167,82.4,75.2,78.9,110,6,0,29.91,M,6.21,M,SCT,M,M,M,1700,M,M,M,M,M,M,M,M,M,M,89.48,VVTS 050100Z 11006KT 090V180 9999 SCT017 28/24 Q1013 NOSIG,M
VVTS,4/5/2012 1:30,106.6667,10.8167,82.4,75.2,78.9,120,7,0,29.91,M,6.21,M,SCT,M,M,M,1700,M,M,M,M,M,M,M,M,M,M,89.48,VVTS 050130Z 12007KT 9999 SCT017 28/24 Q1013 NOSIG,M
VVTS,4/5/2012 2:00,106.6667,10.8167,82.4,73.4,74.28,120,8,0,29.91,M,6.21,M,SCT,M,M,M,1700,M,M,M,M,M,M,M,M,M,M,88.26,VVTS 050200Z 12008KT 9999 SCT017 28/23 Q1013 NOSIG,M
VVTS,4/5/2012 2:30,106.6667,10.8167,86,73.4,66.15,120,6,0,29.94,M,6.21,M,SCT,M,M,M,1700,M,M,M,M,M,M,M,M,M,M,93.45,VVTS 050230Z 12006KT 100V160 9999 SCT017 30/23 Q1014 NOSIG,M
VVTS,4/5/2012 3:00,106.6667,10.8167,86,75.2,70.27,120,8,0,29.94,M,6.21,M,BKN,M,M,M,1700,M,M,M,M,M,M,M,M,M,M,95.19,VVTS 050300Z 12008KT 080V170 9999 BKN017 30/24 Q1014 NOSIG,M
VVTS,4/5/2012 3:30,106.6667,10.8167,87.8,73.4,62.47,120,7,0,29.91,M,6.21,M,BKN,M,M,M,1700,M,M,M,M,M,M,M,M,M,M,95.86,VVTS 050330Z 12007KT 090V170 9999 BKN017 31/23 Q1013 NOSIG,M
VVTS,4/5/2012 4:00,106.6667,10.8167,87.8,73.4,62.47,120,7,0,29.91,M,6.21,M,BKN,M,M,M,1700,M,M,M,M,M,M,M,M,M,M,95.86,VVTS 050400Z 12007KT 080V180 9999 BKN017 31/23 Q1013 NOSIG,M
VVTS,4/5/2012 4:30,106.6667,10.8167,89.6,73.4,59.01,130,6,0,29.91,M,6.21,M,BKN,M,M,M,1700,M,M,M,M,M,M,M,M,M,M,98.2,VVTS 050430Z 13006KT 070V190 9999 BKN017 32/23 Q1013 NOSIG,M
VVTS,4/5/2012 5:00,106.6667,10.8167,89.6,73.4,59.01,160,4,0,29.88,M,6.21,M,BKN,M,M,M,2000,M,M,M,M,M,M,M,M,M,M,98.2,VVTS 050500Z 16004KT 110V220 9999 BKN020 32/23 Q1012 NOSIG,M
VVTS,4/5/2012 5:30,106.6667,10.8167,91.4,71.6,52.48,100,5,0,29.85,M,6.21,M,SCT,M,M,M,2000,M,M,M,M,M,M,M,M,M,M,98.64,VVTS 050530Z 10005KT 050V170 9999 SCT020 33/22 Q1011 NOSIG,M
VVTS,4/5/2012 6:00,106.6667,10.8167,89.6,71.6,55.53,150,5,0,29.83,M,6.21,M,SCT,M,M,M,2000,M,M,M,M,M,M,M,M,M,M,96.41,VVTS 050600Z 15005KT 090V270 9999 SCT020 32/22 Q1010 NOSIG,M
VVTS,4/5/2012 6:30,106.6667,10.8167,91.4,71.6,52.48,100,6,0,29.83,M,6.21,M,SCT,M,M,M,2000,M,M,M,M,M,M,M,M,M,M,98.64,VVTS 050630Z 10006KT 060V180 9999 SCT020 33/22 Q1010 NOSIG,M
VVTS,4/5/2012 7:00,106.6667,10.8167,93.2,73.4,52.73,170,6,0,29.8,M,6.21,M,SCT,M,M,M,2000,M,M,M,M,M,M,M,M,M,M,102.82,VVTS 050700Z 17006KT 140V200 9999 SCT020 34/23 Q1009 NOSIG,M
VVTS,4/5/2012 7:30,106.6667,10.8167,91.4,73.4,55.77,140,7,0,29.8,M,6.21,M,SCT,M,M,M,2000,M,M,M,M,M,M,M,M,M,M,100.52,VVTS 050730Z 14007KT 080V180 9999 SCT020 33/23 Q1009 NOSIG,M
VVTS,4/5/2012 8:00,106.6667,10.8167,89.6,73.4,59.01,170,10,0,29.77,M,6.21,M,SCT,M,M,M,2000,M,M,M,M,M,M,M,M,M,M,98.2,VVTS 050800Z 17010KT 130V200 9999 SCT020 32/23 Q1008 NOSIG,M
VVTS,4/5/2012 8:30,106.6667,10.8167,89.6,75.2,62.68,180,10,0,29.77,M,6.21,M,SCT,M,M,M,2000,M,M,M,M,M,M,M,M,M,M,100.23,VVTS 050830Z 18010KT 140V200 9999 SCT020 32/24 Q1008 NOSIG,M
VVTS,4/5/2012 9:30,106.6667,10.8167,87.8,75.2,66.35,160,9,0,29.77,M,6.21,M,SCT,M,M,M,2000,M,M,M,M,M,M,M,M,M,M,97.76,VVTS 050930Z 16009KT 9999 SCT020 31/24 Q1008 NOSIG,M
VVTS,4/5/2012 10:00,106.6667,10.8167,86,75.2,70.27,170,10,0,29.77,M,6.21,M,SCT,M,M,M,2000,M,M,M,M,M,M,M,M,M,M,95.19,VVTS 051000Z 17010KT 9999 SCT020 30/24 Q1008 NOSIG,M
VVTS,4/5/2012 10:30,106.6667,10.8167,84.2,73.4,70.08,160,10,0,29.77,M,6.21,M,FEW,M,M,M,2000,M,M,M,M,M,M,M,M,M,M,90.94,VVTS 051030Z 16010KT 9999 FEW020 29/23 Q1008 NOSIG,M
VVTS,4/5/2012 11:00,106.6667,10.8167,82.4,73.4,74.28,160,9,0,29.8,M,6.21,M,FEW,M,M,M,2000,M,M,M,M,M,M,M,M,M,M,88.26,VVTS 051100Z 16009KT 120V200 9999 FEW020 28/23 Q1009 NOSIG,M
VVTS,4/5/2012 11:30,106.6667,10.8167,82.4,73.4,74.28,160,9,0,29.8,M,6.21,M,FEW,M,M,M,2000,M,M,M,M,M,M,M,M,M,M,88.26,VVTS 051130Z 16009KT 9999 FEW020 28/23 Q1009 NOSIG,M
VVTS,4/5/2012 12:00,106.6667,10.8167,82.4,73.4,74.28,140,7,0,29.8,M,6.21,M,FEW,M,M,M,2000,M,M,M,M,M,M,M,M,M,M,88.26,VVTS 051200Z 14007KT 9999 FEW020 28/23 Q1009 NOSIG,M
VVTS,4/5/2012 12:30,106.6667,10.8167,82.4,73.4,74.28,140,6,0,29.83,M,6.21,M,FEW,M,M,M,2000,M,M,M,M,M,M,M,M,M,M,88.26,VVTS 051230Z 14006KT 110V190 9999 FEW020 28/23 Q1010 NOSIG,M
VVTS,4/5/2012 13:00,106.6667,10.8167,80.6,73.4,78.76,150,7,0,29.85,M,6.21,M,FEW,M,M,M,2000,M,M,M,M,M,M,M,M,M,M,85.32,VVTS 051300Z 15007KT 110V180 9999 FEW020 27/23 Q1011 NOSIG,M
VVTS,4/5/2012 13:30,106.6667,10.8167,80.6,75.2,83.66,150,10,0,29.85,M,6.21,M,FEW,M,M,M,2000,M,M,M,M,M,M,M,M,M,M,86.17,VVTS 051330Z 15010KT 120V190 9999 FEW020 27/24 Q1011 NOSIG,M
VVTS,4/5/2012 14:00,106.6667,10.8167,80.6,75.2,83.66,140,5,0,29.85,M,6.21,M,FEW,M,M,M,1700,M,M,M,M,M,M,M,M,M,M,86.17,VVTS 051400Z 14005KT 110V200 9999 FEW017 27/24 Q1011 NOSIG,M
VVTS,4/5/2012 14:30,106.6667,10.8167,80.6,75.2,83.66,130,6,0,29.88,M,6.21,M,FEW,M,M,M,1700,M,M,M,M,M,M,M,M,M,M,86.17,VVTS 051430Z 13006KT 9999 FEW017 27/24 Q1012 NOSIG,M
VVTS,4/5/2012 15:00,106.6667,10.8167,80.6,75.2,83.66,120,8,0,29.88,M,6.21,M,FEW,M,M,M,1700,M,M,M,M,M,M,M,M,M,M,86.17,VVTS 051500Z 12008KT 9999 FEW017 27/24 Q1012 NOSIG,M
VVTS,4/5/2012 15:30,106.6667,10.8167,80.6,75.2,83.66,130,5,0,29.91,M,6.21,M,FEW,SCT,M,M,1700,4000,M,M,M,M,M,M,M,M,M,86.17,VVTS 051530Z 13005KT 9999 FEW017 SCT040 27/24 Q1013 NOSIG,M
VVTS,4/5/2012 16:00,106.6667,10.8167,80.6,75.2,83.66,120,8,0,29.91,M,6.21,M,FEW,SCT,M,M,1700,4000,M,M,M,M,M,M,M,M,M,86.17,VVTS 051600Z 12008KT 9999 FEW017 SCT040 27/24 Q1013 NOSIG,M
VVTS,4/5/2012 16:30,106.6667,10.8167,78.8,75.2,88.75,120,7,0,29.91,M,6.21,M,FEW,SCT,M,M,1700,4000,M,M,M,M,M,M,M,M,M,82.38,VVTS 051630Z 12007KT 9999 FEW017 SCT040 26/24 Q1013 NOSIG,M
VVTS,4/5/2012 17:00,106.6667,10.8167,78.8,75.2,88.75,130,7,0,29.88,M,6.21,M,FEW,SCT,M,M,1700,4000,M,M,M,M,M,M,M,M,M,82.38,VVTS 051700Z 13007KT 100V170 9999 FEW017 SCT040 26/24 Q1012 NOSIG,M
VVTS,4/5/2012 17:30,106.6667,10.8167,78.8,75.2,88.75,110,6,0,29.88,M,6.21,M,FEW,SCT,M,M,1700,4000,M,M,M,M,M,M,M,M,M,82.38,VVTS 051730Z 11006KT 090V170 9999 FEW017 SCT040 26/24 Q1012 NOSIG,M
VVTS,4/5/2012 18:00,106.6667,10.8167,78.8,75.2,88.75,110,4,0,29.88,M,6.21,M,FEW,SCT,M,M,1700,4000,M,M,M,M,M,M,M,M,M,82.38,VVTS 051800Z 11004KT 9999 FEW017 SCT040 26/24 Q1012 NOSIG,M
VVTS,4/5/2012 18:30,106.6667,10.8167,78.8,75.2,88.75,120,5,0,29.85,M,6.21,M,FEW,SCT,M,M,1700,4000,M,M,M,M,M,M,M,M,M,82.38,VVTS 051830Z 12005KT 9999 FEW017 SCT040 26/24 Q1011 NOSIG,M
VVTS,4/5/2012 19:00,106.6667,10.8167,78.8,75.2,88.75,120,4,0,29.85,M,6.21,M,FEW,SCT,M,M,1700,4000,M,M,M,M,M,M,M,M,M,82.38,VVTS 051900Z 12004KT 9999 FEW017 SCT040 26/24 Q1011 NOSIG,M
VVTS,4/5/2012 19:30,106.6667,10.8167,78.8,75.2,88.75,M,3,0,29.85,M,6.21,M,FEW,SCT,M,M,1700,4000,M,M,M,M,M,M,M,M,M,82.38,VVTS 051930Z VRB03KT 9999 FEW017 SCT040 26/24 Q1011 NOSIG,M
VVTS,4/5/2012 20:00,106.6667,10.8167,78.8,75.2,88.75,110,4,0,29.85,M,6.21,M,FEW,SCT,M,M,1700,4000,M,M,M,M,M,M,M,M,M,82.38,VVTS 052000Z 11004KT 040V150 9999 FEW017 SCT040 26/24 Q1011 NOSIG,M
VVTS,4/5/2012 20:30,106.6667,10.8167,78.8,75.2,88.75,M,2,0,29.85,M,6.21,M,FEW,SCT,M,M,1700,4000,M,M,M,M,M,M,M,M,M,82.38,VVTS 052030Z VRB02KT 9999 FEW017 SCT040 26/24 Q1011 NOSIG,M
VVTS,4/5/2012 21:00,106.6667,10.8167,78.8,75.2,88.75,150,4,0,29.85,M,6.21,M,FEW,SCT,M,M,1700,4000,M,M,M,M,M,M,M,M,M,82.38,VVTS 052100Z 15004KT 110V170 9999 FEW017 SCT040 26/24 Q1011 NOSIG,M
VVTS,4/5/2012 21:30,106.6667,10.8167,78.8,75.2,88.75,150,4,0,29.85,M,6.21,M,FEW,SCT,M,M,1700,4000,M,M,M,M,M,M,M,M,M,82.38,VVTS 052130Z 15004KT 110V180 9999 FEW017 SCT040 26/24 Q1011 NOSIG,M
VVTS,4/5/2012 22:00,106.6667,10.8167,78.8,75.2,88.75,140,4,0,29.85,M,6.21,M,FEW,SCT,M,M,1700,4000,M,M,M,M,M,M,M,M,M,82.38,VVTS 052200Z 14004KT 100V170 9999 FEW017 SCT040 26/24 Q1011 NOSIG,M
VVTS,4/5/2012 22:30,106.6667,10.8167,78.8,75.2,88.75,M,3,0,29.85,M,6.21,M,FEW,SCT,M,M,1700,4000,M,M,M,M,M,M,M,M,M,82.38,VVTS 052230Z VRB03KT 9999 FEW017 SCT040 26/24 Q1011 NOSIG,M
VVTS,4/5/2012 23:00,106.6667,10.8167,78.8,75.2,88.75,90,4,0,29.85,M,6.21,M,FEW,SCT,M,M,1700,4000,M,M,M,M,M,M,M,M,M,82.38,VVTS 052300Z 09004KT 9999 FEW017 SCT040 26/24 Q1011 NOSIG,M
VVTS,4/5/2012 23:30,106.6667,10.8167,78.8,75.2,88.75,150,4,0,29.85,M,6.21,M,FEW,M,M,M,1700,M,M,M,M,M,M,M,M,M,M,82.38,VVTS 052330Z 15004KT 100V180 9999 FEW017 26/24 Q1011 NOSIG,M
VVTS,4/6/2012 0:00,106.6667,10.8167,80.6,75.2,83.66,120,5,0,29.88,M,6.21,M,SCT,M,M,M,1700,M,M,M,M,M,M,M,M,M,M,86.17,VVTS 060000Z 12005KT 090V150 9999 SCT017 27/24 Q1012 NOSIG,M
VVTS,4/6/2012 0:30,106.6667,10.8167,82.4,75.2,78.9,140,5,0,29.88,M,6.21,M,SCT,M,M,M,1700,M,M,M,M,M,M,M,M,M,M,89.48,VVTS 060030Z 14005KT 9999 SCT017 28/24 Q1012 NOSIG,M
VVTS,4/6/2012 1:00,106.6667,10.8167,84.2,75.2,74.44,140,7,0,29.88,M,6.21,M,SCT,M,M,M,1700,M,M,M,M,M,M,M,M,M,M,92.45,VVTS 060100Z 14007KT 9999 SCT017 29/24 Q1012 NOSIG,M
VVTS,4/6/2012 1:30,106.6667,10.8167,84.2,75.2,74.44,120,7,0,29.88,M,6.21,M,SCT,M,M,M,1700,M,M,M,M,M,M,M,M,M,M,92.45,VVTS 060130Z 12007KT 080V180 9999 SCT017 29/24 Q1012 NOSIG,M
VVTS,4/6/2012 2:00,106.6667,10.8167,86,73.4,66.15,140,8,0,29.88,M,6.21,M,SCT,M,M,M,1700,M,M,M,M,M,M,M,M,M,M,93.45,VVTS 060200Z 14008KT 9999 SCT017 30/23 Q1012 NOSIG,M
VVTS,4/6/2012 2:30,106.6667,10.8167,87.8,75.2,66.35,130,7,0,29.88,M,6.21,M,SCT,M,M,M,1700,M,M,M,M,M,M,M,M,M,M,97.76,VVTS 060230Z 13007KT 110V170 9999 SCT017 31/24 Q1012 NOSIG,M
VVTS,4/6/2012 3:00,106.6667,10.8167,87.8,75.2,66.35,120,7,0,29.88,M,6.21,M,SCT,M,M,M,1700,M,M,M,M,M,M,M,M,M,M,97.76,VVTS 060300Z 12007KT 9999 SCT017 31/24 Q1012 NOSIG,M
VVTS,4/6/2012 3:30,106.6667,10.8167,89.6,73.4,59.01,130,6,0,29.88,M,6.21,M,SCT,M,M,M,1700,M,M,M,M,M,M,M,M,M,M,98.2,VVTS 060330Z 13006KT 070V200 9999 SCT017 32/23 Q1012 NOSIG,M
VVTS,4/6/2012 4:00,106.6667,10.8167,89.6,73.4,59.01,140,8,0,29.88,M,6.21,M,SCT,M,M,M,1700,M,M,M,M,M,M,M,M,M,M,98.2,VVTS 060400Z 14008KT 100V190 9999 SCT017 32/23 Q1012 NOSIG,M
VVTS,4/6/2012 4:30,106.6667,10.8167,89.6,73.4,59.01,120,9,0,29.85,M,6.21,M,SCT,M,M,M,1700,M,M,M,M,M,M,M,M,M,M,98.2,VVTS 060430Z 12009KT 060V160 9999 SCT017 32/23 Q1011 NOSIG,M
VVTS,4/6/2012 5:00,106.6667,10.8167,89.6,73.4,59.01,150,6,0,29.85,M,6.21,M,BKN,M,M,M,1700,M,M,M,M,M,M,M,M,M,M,98.2,VVTS 060500Z 15006KT 090V220 9999 BKN017 32/23 Q1011 NOSIG,M
VVTS,4/6/2012 5:30,106.6667,10.8167,89.6,73.4,59.01,130,7,0,29.83,M,6.21,M,BKN,M,M,M,1700,M,M,M,M,M,M,M,M,M,M,98.2,VVTS 060530Z 13007KT 090V190 9999 BKN017 32/23 Q1010 NOSIG,M
VVTS,4/6/2012 6:00,106.6667,10.8167,89.6,73.4,59.01,140,6,0,29.83,M,6.21,M,SCT,M,M,M,1700,M,M,M,M,M,M,M,M,M,M,98.2,VVTS 060600Z 14006KT 070V200 9999 SCT017 32/23 Q1010 NOSIG,M
VVTS,4/6/2012 6:30,106.6667,10.8167,91.4,73.4,55.77,140,5,0,29.8,M,6.21,M,SCT,M,M,M,1700,M,M,M,M,M,M,M,M,M,M,100.52,VVTS 060630Z 14005KT 090V300 9999 SCT017 33/23 Q1009 NOSIG,M
VVTS,4/6/2012 7:00,106.6667,10.8167,89.6,73.4,59.01,170,7,0,29.77,M,6.21,M,SCT,M,M,M,1700,M,M,M,M,M,M,M,M,M,M,98.2,VVTS 060700Z 17007KT 130V200 9999 SCT017 32/23 Q1008 NOSIG,M
VVTS,4/6/2012 7:30,106.6667,10.8167,91.4,73.4,55.77,140,9,0,29.77,M,6.21,M,SCT,M,M,M,1700,M,M,M,M,M,M,M,M,M,M,100.52,VVTS 060730Z 14009KT 110V170 9999 SCT017 33/23 Q1008 NOSIG,M
VVTS,4/6/2012 8:00,106.6667,10.8167,89.6,73.4,59.01,140,10,0,29.77,M,6.21,M,SCT,M,M,M,1700,M,M,M,M,M,M,M,M,M,M,98.2,VVTS 060800Z 14010KT 110V180 9999 SCT017 32/23 Q1008 NOSIG,M
VVTS,4/6/2012 8:30,106.6667,10.8167,89.6,71.6,55.53,150,9,0,29.77,M,6.21,M,FEW,M,M,M,1700,M,M,M,M,M,M,M,M,M,M,96.41,VVTS 060830Z 15009KT 110V180 9999 FEW017 32/22 Q1008 NOSIG,M
VVTS,4/6/2012 9:00,106.6667,10.8167,89.6,73.4,59.01,150,9,0,29.77,M,6.21,M,FEW,M,M,M,1700,M,M,M,M,M,M,M,M,M,M,98.2,VVTS 060900Z 15009KT 110V180 9999 FEW017 32/23 Q1008 NOSIG,M
VVTS,4/6/2012 9:30,106.6667,10.8167,87.8,73.4,62.47,150,10,0,29.77,M,6.21,M,FEW,M,M,M,1700,M,M,M,M,M,M,M,M,M,M,95.86,VVTS 060930Z 15010KT 9999 FEW017 31/23 Q1008 NOSIG,M
VVTS,4/6/2012 10:00,106.6667,10.8167,87.8,71.6,58.78,170,10,0,29.77,M,6.21,M,FEW,M,M,M,1700,M,M,M,M,M,M,M,M,M,M,94.18,VVTS 061000Z 17010KT 9999 FEW017 31/22 Q1008 NOSIG,M
VVTS,4/6/2012 10:30,106.6667,10.8167,84.2,69.8,62.03,150,10,0,29.77,M,6.21,M,FEW,M,M,M,1700,M,M,M,M,M,M,M,M,M,M,88.43,VVTS 061030Z 15010KT 9999 FEW017 29/21 Q1008 NOSIG,M
VVTS,4/6/2012 11:00,106.6667,10.8167,82.4,71.6,69.9,150,12,0,29.77,M,6.21,M,FEW,M,M,M,1700,M,M,M,M,M,M,M,M,M,M,87.18,VVTS 061100Z 15012KT 9999 FEW017 28/22 Q1008 NOSIG,M
VVTS,4/6/2012 11:30,106.6667,10.8167,82.4,73.4,74.28,140,9,0,29.8,M,6.21,M,FEW,M,M,M,1700,M,M,M,M,M,M,M,M,M,M,88.26,VVTS 061130Z 14009KT 100V160 9999 FEW017 28/23 Q1009 NOSIG,M
VVTS,4/6/2012 12:00,106.6667,10.8167,80.6,71.6,74.11,150,8,0,29.8,M,6.21,M,FEW,M,M,M,1700,M,M,M,M,M,M,M,M,M,M,84.57,VVTS 061200Z 15008KT 9999 FEW017 27/22 Q1009 NOSIG,M
VVTS,4/6/2012 12:30,106.6667,10.8167,80.6,73.4,78.76,160,7,0,29.8,M,6.21,M,FEW,M,M,M,1700,M,M,M,M,M,M,M,M,M,M,85.32,VVTS 061230Z 16007KT 9999 FEW017 27/23 Q1009 NOSIG,M
VVTS,4/6/2012 13:00,106.6667,10.8167,80.6,73.4,78.76,140,7,0,29.83,M,6.21,M,FEW,M,M,M,1700,M,M,M,M,M,M,M,M,M,M,85.32,VVTS 061300Z 14007KT 100V190 9999 FEW017 27/23 Q1010 NOSIG,M
VVTS,4/6/2012 13:30,106.6667,10.8167,80.6,73.4,78.76,130,6,0,29.83,M,6.21,M,FEW,M,M,M,1700,M,M,M,M,M,M,M,M,M,M,85.32,VVTS 061330Z 13006KT 100V190 9999 FEW017 27/23 Q1010 NOSIG,M
VVTS,4/6/2012 14:00,106.6667,10.8167,80.6,75.2,83.66,130,7,0,29.85,M,6.21,M,FEW,M,M,M,1700,M,M,M,M,M,M,M,M,M,M,86.17,VVTS 061400Z 13007KT 090V190 9999 FEW017 27/24 Q1011 NOSIG,M
VVTS,4/6/2012 14:30,106.6667,10.8167,80.6,73.4,78.76,130,7,0,29.85,M,6.21,M,FEW,M,M,M,1700,M,M,M,M,M,M,M,M,M,M,85.32,VVTS 061430Z 13007KT 110V170 9999 FEW017 27/23 Q1011 NOSIG,M
VVTS,4/6/2012 15:00,106.6667,10.8167,78.8,75.2,88.75,130,5,0,29.85,M,6.21,M,FEW,M,M,M,1700,M,M,M,M,M,M,M,M,M,M,82.38,VVTS 061500Z 13005KT 110V170 9999 FEW017 26/24 Q1011 NOSIG,M
VVTS,4/6/2012 15:30,106.6667,10.8167,78.8,75.2,88.75,130,5,0,29.85,M,6.21,M,SCT,M,M,M,1700,M,M,M,M,M,M,M,M,M,M,82.38,VVTS 061530Z 13005KT 9999 SCT017 26/24 Q1011 NOSIG,M
VVTS,4/6/2012 16:00,106.6667,10.8167,78.8,75.2,88.75,110,6,0,29.85,M,6.21,M,SCT,M,M,M,1700,M,M,M,M,M,M,M,M,M,M,82.38,VVTS 061600Z 11006KT 9999 SCT017 26/24 Q1011 NOSIG,M
VVTS,4/6/2012 16:30,106.6667,10.8167,78.8,75.2,88.75,110,6,0,29.85,M,6.21,M,SCT,M,M,M,1700,M,M,M,M,M,M,M,M,M,M,82.38,VVTS 061630Z 11006KT 9999 SCT017 26/24 Q1011 NOSIG,M
VVTS,4/6/2012 17:00,106.6667,10.8167,78.8,75.2,88.75,130,4,0,29.85,M,6.21,M,SCT,M,M,M,1700,M,M,M,M,M,M,M,M,M,M,82.38,VVTS 061700Z 13004KT 100V180 9999 SCT017 26/24 Q1011 NOSIG,M
VVTS,4/6/2012 17:30,106.6667,10.8167,78.8,73.4,83.55,130,4,0,29.85,M,6.21,M,SCT,M,M,M,1700,M,M,M,M,M,M,M,M,M,M,82.03,VVTS 061730Z 13004KT 100V170 9999 SCT017 26/23 Q1011 NOSIG,M
VVTS,4/6/2012 18:00,106.6667,10.8167,78.8,73.4,83.55,110,5,0,29.85,M,6.21,M,SCT,M,M,M,1700,M,M,M,M,M,M,M,M,M,M,82.03,VVTS 061800Z 11005KT 9999 SCT017 26/23 Q1011 NOSIG,M
VVTS,4/6/2012 18:30,106.6667,10.8167,77,73.4,88.67,M,3,0,29.85,M,6.21,M,SCT,M,M,M,1700,M,M,M,M,M,M,M,M,M,M,78.57,VVTS 061830Z VRB03KT 9999 SCT017 25/23 Q1011 NOSIG,M
VVTS,4/6/2012 19:00,106.6667,10.8167,75.2,73.4,94.14,40,2,0,29.83,M,6.21,M,SCT,M,M,M,1700,M,M,M,M,M,M,M,M,M,M,76.84,VVTS 061900Z 04002KT 9999 SCT017 24/23 Q1010 NOSIG,M
VVTS,4/6/2012 19:30,106.6667,10.8167,75.2,75.2,100,20,2,0,29.83,M,6.21,M,SCT,M,M,M,1700,M,M,M,M,M,M,M,M,M,M,77.12,VVTS 061930Z 02002KT 9999 SCT017 24/24 Q1010 NOSIG,M
VVTS,4/6/2012 20:00,106.6667,10.8167,75.2,73.4,94.14,30,2,0,29.83,M,6.21,M,SCT,M,M,M,1700,M,M,M,M,M,M,M,M,M,M,76.84,VVTS 062000Z 03002KT 9999 SCT017 24/23 Q1010 NOSIG,M
VVTS,4/6/2012 20:30,106.6667,10.8167,75.2,75.2,100,40,3,0,29.83,M,6.21,M,SCT,M,M,M,1700,M,M,M,M,M,M,M,M,M,M,77.12,VVTS 062030Z 04003KT 9999 SCT017 24/24 Q1010 NOSIG,M
VVTS,4/6/2012 21:00,106.6667,10.8167,75.2,75.2,100,50,4,0,29.85,M,4.35,M,FEW,SCT,M,M,1500,4000,M,M,M,M,M,M,M,M,M,77.12,VVTS 062100Z 05004KT 7000 FEW015 SCT040 24/24 Q1011 NOSIG,M
VVTS,4/6/2012 21:30,106.6667,10.8167,75.2,75.2,100,50,4,0,29.85,M,4.97,M,FEW,SCT,M,M,1500,4000,M,M,M,M,M,M,M,M,M,77.12,VVTS 062130Z 05004KT 8000 FEW015 SCT040 24/24 Q1011 NOSIG,M
VVTS,4/6/2012 22:00,106.6667,10.8167,75.2,75.2,100,60,3,0,29.85,M,4.97,M,SCT,M,M,M,1500,M,M,M,M,M,M,M,M,M,M,77.12,VVTS 062200Z 06003KT 8000 SCT015 24/24 Q1011 NOSIG,M
VVTS,4/6/2012 22:30,106.6667,10.8167,75.2,73.4,94.14,80,5,0,29.85,M,4.97,M,SCT,M,M,M,1500,M,M,M,M,M,M,M,M,M,M,76.84,VVTS 062230Z 08005KT 8000 SCT015 24/23 Q1011 NOSIG,M
VVTS,4/6/2012 23:00,106.6667,10.8167,75.2,75.2,100,70,5,0,29.85,M,5.59,M,SCT,M,M,M,1500,M,M,M,M,M,M,M,M,M,M,77.12,VVTS 062300Z 07005KT 9000 SCT015 24/24 Q1011 NOSIG,M
VVTS,4/6/2012 23:30,106.6667,10.8167,75.2,75.2,100,50,4,0,29.88,M,2.98,M,SCT,M,M,M,1500,M,M,M,BR,M,M,M,M,M,M,77.12,VVTS 062330Z 05004KT 4800 BR SCT015 24/24 Q1012 NOSIG,M
VVTS,4/7/2012 0:00,106.6667,10.8167,77,77,100,50,4,0,29.88,M,1.86,M,SCT,M,M,M,1500,M,M,M,BR,M,M,M,M,M,M,77,VVTS 070000Z 05004KT 3000 BR SCT015 25/25 Q1012 BECMG TL0100 5000,M
VVTS,4/7/2012 0:30,106.6667,10.8167,78.8,75.2,88.75,60,4,0,29.91,M,4.35,M,SCT,M,M,M,1500,M,M,M,M,M,M,M,M,M,M,82.38,VVTS 070030Z 06004KT 7000 SCT015 26/24 Q1013 NOSIG,M
VVTS,4/7/2012 1:00,106.6667,10.8167,80.6,75.2,83.66,80,6,0,29.91,M,6.21,M,SCT,M,M,M,1500,M,M,M,M,M,M,M,M,M,M,86.17,VVTS 070100Z 08006KT 9999 SCT015 27/24 Q1013 NOSIG,M
VVTS,4/7/2012 1:30,106.6667,10.8167,82.4,75.2,78.9,100,7,0,29.91,M,6.21,M,SCT,M,M,M,1500,M,M,M,M,M,M,M,M,M,M,89.48,VVTS 070130Z 10007KT 060V120 9999 SCT015 28/24 Q1013 NOSIG,M
VVTS,4/7/2012 2:00,106.6667,10.8167,84.2,73.4,70.08,120,6,0,29.91,M,6.21,M,SCT,M,M,M,1500,M,M,M,M,M,M,M,M,M,M,90.94,VVTS 070200Z 12006KT 9999 SCT015 29/23 Q1013 NOSIG,M
VVTS,4/7/2012 2:30,106.6667,10.8167,86,73.4,66.15,120,6,0,29.91,M,6.21,M,SCT,M,M,M,1700,M,M,M,M,M,M,M,M,M,M,93.45,VVTS 070230Z 12006KT 090V170 9999 SCT017 30/23 Q1013 NOSIG,M
VVTS,4/7/2012 3:00,106.6667,10.8167,87.8,71.6,58.78,100,7,0,29.88,M,6.21,M,SCT,M,M,M,1700,M,M,M,M,M,M,M,M,M,M,94.18,VVTS 070300Z 10007KT 070V150 9999 SCT017 31/22 Q1012 NOSIG,M
VVTS,4/7/2012 3:30,106.6667,10.8167,89.6,71.6,55.53,90,6,0,29.88,M,6.21,M,SCT,M,M,M,1700,M,M,M,M,M,M,M,M,M,M,96.41,VVTS 070330Z 09006KT 060V140 9999 SCT017 32/22 Q1012 NOSIG,M
VVTS,4/7/2012 4:00,106.6667,10.8167,87.8,71.6,58.78,90,6,0,29.88,M,6.21,M,SCT,M,M,M,1700,M,M,M,M,M,M,M,M,M,M,94.18,VVTS 070400Z 09006KT 020V160 9999 SCT017 31/22 Q1012 NOSIG,M
VVTS,4/7/2012 4:30,106.6667,10.8167,89.6,71.6,55.53,70,5,0,29.85,M,6.21,M,SCT,M,M,M,1700,M,M,M,M,M,M,M,M,M,M,96.41,VVTS 070430Z 07005KT 030V100 9999 SCT017 32/22 Q1011 NOSIG,M
VVTS,4/7/2012 5:00,106.6667,10.8167,89.6,69.8,52.23,100,5,0,29.85,M,6.21,M,SCT,M,M,M,1700,M,M,M,M,M,M,M,M,M,M,94.85,VVTS 070500Z 10005KT 030V170 9999 SCT017 32/21 Q1011 NOSIG,M
VVTS,4/7/2012 5:30,106.6667,10.8167,91.4,71.6,52.48,110,6,0,29.83,M,6.21,M,SCT,M,M,M,1700,M,M,M,M,M,M,M,M,M,M,98.64,VVTS 070530Z 11006KT 050V240 9999 SCT017 33/22 Q1010 NOSIG,M
VVTS,4/7/2012 6:00,106.6667,10.8167,89.6,69.8,52.23,120,4,0,29.8,M,6.21,M,SCT,M,M,M,1700,M,M,M,M,M,M,M,M,M,M,94.85,VVTS 070600Z 12004KT 330V260 9999 SCT017 32/21 Q1009 NOSIG,M
VVTS,4/7/2012 6:30,106.6667,10.8167,91.4,71.6,52.48,150,5,0,29.77,M,6.21,M,SCT,M,M,M,1700,M,M,M,M,M,M,M,M,M,M,98.64,VVTS 070630Z 15005KT 100V190 9999 SCT017 33/22 Q1008 NOSIG,M
VVTS,4/7/2012 7:00,106.6667,10.8167,91.4,69.8,49.36,150,4,0,29.77,M,6.21,M,SCT,M,M,M,1700,M,M,M,M,M,M,M,M,M,M,96.99,VVTS 070700Z 15004KT 080V210 9999 SCT017 33/21 Q1008 NOSIG,M
VVTS,4/7/2012 7:30,106.6667,10.8167,91.4,69.8,49.36,M,3,0,29.77,M,6.21,M,SCT,M,M,M,1700,M,M,M,M,M,M,M,M,M,M,96.99,VVTS 070730Z VRB03KT 9999 SCT017 33/21 Q1008 NOSIG,M
VVTS,4/7/2012 8:00,106.6667,10.8167,91.4,73.4,55.77,130,6,0,29.74,M,6.21,M,SCT,M,M,M,1700,M,M,M,M,M,M,M,M,M,M,100.52,VVTS 070800Z 13006KT 090V220 9999 SCT017 33/23 Q1007 NOSIG,M
VVTS,4/7/2012 8:30,106.6667,10.8167,91.4,73.4,55.77,160,9,0,29.74,M,6.21,M,FEW,M,M,M,2000,M,M,M,M,M,M,M,M,M,M,100.52,VVTS 070830Z 16009KT 130V200 9999 FEW020 33/23 Q1007 NOSIG,M
VVTS,4/7/2012 9:00,106.6667,10.8167,89.6,73.4,59.01,160,10,0,29.74,M,6.21,M,FEW,M,M,M,2000,M,M,M,M,M,M,M,M,M,M,98.2,VVTS 070900Z 16010KT 130V190 9999 FEW020 32/23 Q1007 NOSIG,M
VVTS,4/7/2012 9:30,106.6667,10.8167,87.8,73.4,62.47,160,10,0,29.74,M,6.21,M,FEW,M,M,M,2000,M,M,M,M,M,M,M,M,M,M,95.86,VVTS 070930Z 16010KT 130V190 9999 FEW020 31/23 Q1007 NOSIG,M
VVTS,4/7/2012 10:00,106.6667,10.8167,87.8,71.6,58.78,170,9,0,29.74,M,6.21,M,FEW,M,M,M,2000,M,M,M,M,M,M,M,M,M,M,94.18,VVTS 071000Z 17009KT 9999 FEW020 31/22 Q1007 NOSIG,M
VVTS,4/7/2012 10:30,106.6667,10.8167,86,69.8,58.55,140,10,0,29.74,M,6.21,M,FEW,M,M,M,2000,M,M,M,M,M,M,M,M,M,M,90.58,VVTS 071030Z 14010KT 9999 FEW020 30/21 Q1007 NOSIG,M
VVTS,4/7/2012 11:00,106.6667,10.8167,84.2,69.8,62.03,140,9,0,29.74,M,6.21,M,FEW,M,M,M,2000,M,M,M,M,M,M,M,M,M,M,88.43,VVTS 071100Z 14009KT 110V180 9999 FEW020 29/21 Q1007 NOSIG,M
VVTS,4/7/2012 11:30,106.6667,10.8167,84.2,69.8,62.03,140,8,0,29.77,M,6.21,M,FEW,M,M,M,2000,M,M,M,M,M,M,M,M,M,M,88.43,VVTS 071130Z 14008KT 9999 FEW020 29/21 Q1008 NOSIG,M
VVTS,4/7/2012 12:00,106.6667,10.8167,82.4,71.6,69.9,140,9,0,29.77,M,6.21,M,FEW,M,M,M,2000,M,M,M,M,M,M,M,M,M,M,87.18,VVTS 071200Z 14009KT 9999 FEW020 28/22 Q1008 NOSIG,M
VVTS,4/7/2012 12:30,106.6667,10.8167,82.4,71.6,69.9,150,7,0,29.8,M,6.21,M,FEW,M,M,M,2000,M,M,M,M,M,M,M,M,M,M,87.18,VVTS 071230Z 15007KT 110V200 9999 FEW020 28/22 Q1009 NOSIG,M
VVTS,4/7/2012 13:00,106.6667,10.8167,82.4,71.6,69.9,140,6,0,29.83,M,6.21,M,FEW,M,M,M,2000,M,M,M,M,M,M,M,M,M,M,87.18,VVTS 071300Z 14006KT 110V170 9999 FEW020 28/22 Q1010 NOSIG,M
VVTS,4/7/2012 13:30,106.6667,10.8167,82.4,73.4,74.28,130,6,0,29.83,M,6.21,M,SCT,M,M,M,1700,M,M,M,M,M,M,M,M,M,M,88.26,VVTS 071330Z 13006KT 090V200 9999 SCT017 28/23 Q1010 NOSIG,M
VVTS,4/7/2012 14:00,106.6667,10.8167,80.6,73.4,78.76,130,7,0,29.83,M,6.21,M,SCT,M,M,M,1700,M,M,M,M,M,M,M,M,M,M,85.32,VVTS 071400Z 13007KT 110V170 9999 SCT017 27/23 Q1010 NOSIG,M
VVTS,4/7/2012 14:30,106.6667,10.8167,80.6,73.4,78.76,120,6,0,29.85,M,6.21,M,FEW,M,M,M,1700,M,M,M,M,M,M,M,M,M,M,85.32,VVTS 071430Z 12006KT 9999 FEW017 27/23 Q1011 NOSIG,M
VVTS,4/7/2012 15:00,106.6667,10.8167,80.6,73.4,78.76,110,6,0,29.85,M,6.21,M,SCT,M,M,M,1700,M,M,M,M,M,M,M,M,M,M,85.32,VVTS 071500Z 11006KT 9999 SCT017 27/23 Q1011 NOSIG,M
VVTS,4/7/2012 15:30,106.6667,10.8167,80.6,73.4,78.76,120,9,0,29.85,M,6.21,M,SCT,M,M,M,1700,M,M,M,M,M,M,M,M,M,M,85.32,VVTS 071530Z 12009KT 9999 SCT017 27/23 Q1011 NOSIG,M
VVTS,4/7/2012 16:00,106.6667,10.8167,80.6,73.4,78.76,120,7,0,29.85,M,6.21,M,SCT,M,M,M,1700,M,M,M,M,M,M,M,M,M,M,85.32,VVTS 071600Z 12007KT 9999 SCT017 27/23 Q1011 NOSIG,M
VVTS,4/7/2012 16:30,106.6667,10.8167,78.8,73.4,83.55,130,6,0,29.85,M,6.21,M,SCT,M,M,M,1700,M,M,M,M,M,M,M,M,M,M,82.03,VVTS 071630Z 13006KT 9999 SCT017 26/23 Q1011 NOSIG,M
VVTS,4/7/2012 17:00,106.6667,10.8167,80.6,75.2,83.66,120,6,0,29.85,M,6.21,M,SCT,M,M,M,1700,M,M,M,M,M,M,M,M,M,M,86.17,VVTS 071700Z 12006KT 080V180 9999 SCT017 27/24 Q1011 NOSIG,M
VVTS,4/7/2012 17:30,106.6667,10.8167,78.8,75.2,88.75,130,4,0,29.85,M,6.21,M,SCT,M,M,M,1700,M,M,M,M,M,M,M,M,M,M,82.38,VVTS 071730Z 13004KT 090V190 9999 SCT017 26/24 Q1011 NOSIG,M
VVTS,4/7/2012 18:00,106.6667,10.8167,80.6,73.4,78.76,140,6,0,29.83,M,6.21,M,SCT,M,M,M,1700,M,M,M,M,M,M,M,M,M,M,85.32,VVTS 071800Z 14006KT 100V180 9999 SCT017 27/23 Q1010 NOSIG,M
VVTS,4/7/2012 18:30,106.6667,10.8167,78.8,73.4,83.55,120,6,0,29.83,M,6.21,M,SCT,M,M,M,1700,M,M,M,M,M,M,M,M,M,M,82.03,VVTS 071830Z 12006KT 9999 SCT017 26/23 Q1010 NOSIG,M
VVTS,4/7/2012 19:00,106.6667,10.8167,78.8,73.4,83.55,130,5,0,29.83,M,6.21,M,SCT,M,M,M,1700,M,M,M,M,M,M,M,M,M,M,82.03,VVTS 071900Z 13005KT 100V160 9999 SCT017 26/23 Q1010 NOSIG,M
VVTS,4/7/2012 19:30,106.6667,10.8167,78.8,73.4,83.55,120,5,0,29.83,M,6.21,M,SCT,M,M,M,1700,M,M,M,M,M,M,M,M,M,M,82.03,VVTS 071930Z 12005KT 9999 SCT017 26/23 Q1010 NOSIG,M
VVTS,4/7/2012 20:00,106.6667,10.8167,78.8,73.4,83.55,110,5,0,29.83,M,6.21,M,SCT,M,M,M,1700,M,M,M,M,M,M,M,M,M,M,82.03,VVTS 072000Z 11005KT 9999 SCT017 26/23 Q1010 NOSIG,M
VVTS,4/7/2012 20:30,106.6667,10.8167,78.8,73.4,83.55,110,6,0,29.83,M,6.21,M,SCT,M,M,M,1700,M,M,M,M,M,M,M,M,M,M,82.03,VVTS 072030Z 11006KT 9999 SCT017 26/23 Q1010 NOSIG,M
VVTS,4/7/2012 21:00,106.6667,10.8167,78.8,73.4,83.55,100,5,0,29.83,M,6.21,M,SCT,M,M,M,1700,M,M,M,M,M,M,M,M,M,M,82.03,VVTS 072100Z 10005KT 9999 SCT017 26/23 Q1010 NOSIG,M
VVTS,4/7/2012 21:30,106.6667,10.8167,78.8,73.4,83.55,70,4,0,29.83,M,6.21,M,SCT,M,M,M,1700,M,M,M,M,M,M,M,M,M,M,82.03,VVTS 072130Z 07004KT 9999 SCT017 26/23 Q1010 NOSIG,M
VVTS,4/7/2012 22:00,106.6667,10.8167,78.8,75.2,88.75,40,5,0,29.85,M,6.21,M,SCT,M,M,M,1700,M,M,M,M,M,M,M,M,M,M,82.38,VVTS 072200Z 04005KT 9999 SCT017 26/24 Q1011 NOSIG,M
VVTS,4/7/2012 22:30,106.6667,10.8167,75.2,75.2,100,60,3,0,29.85,M,6.21,M,SCT,M,M,M,1700,M,M,M,M,M,M,M,M,M,M,77.12,VVTS 072230Z 06003KT 9999 SCT017 24/24 Q1011 NOSIG,M
VVTS,4/7/2012 23:00,106.6667,10.8167,75.2,75.2,100,50,2,0,29.85,M,6.21,M,FEW,M,M,M,1700,M,M,M,M,M,M,M,M,M,M,77.12,VVTS 072300Z 05002KT 9999 FEW017 24/24 Q1011 NOSIG,M
VVTS,4/7/2012 23:30,106.6667,10.8167,77,75.2,94.19,30,4,0,29.85,M,4.97,M,SCT,M,M,M,1700,M,M,M,M,M,M,M,M,M,M,78.83,VVTS 072330Z 03004KT 8000 SCT017 25/24 Q1011 NOSIG,M
VVTS,4/8/2012 0:00,106.6667,10.8167,78.8,75.2,88.75,10,5,0,29.88,M,4.97,M,SCT,M,M,M,1700,M,M,M,M,M,M,M,M,M,M,82.38,VVTS 080000Z 01005KT 340V040 8000 SCT017 26/24 Q1012 NOSIG,M
VVTS,4/8/2012 0:30,106.6667,10.8167,80.6,75.2,83.66,10,4,0,29.88,M,4.97,M,FEW,SCT,M,M,1700,4000,M,M,M,M,M,M,M,M,M,86.17,VVTS 080030Z 01004KT 8000 FEW017 SCT040 27/24 Q1012 NOSIG,M
VVTS,4/8/2012 1:00,106.6667,10.8167,80.6,75.2,83.66,360,5,0,29.88,M,6.21,M,SCT,M,M,M,1700,M,M,M,M,M,M,M,M,M,M,86.17,VVTS 080100Z 36005KT 9999 SCT017 27/24 Q1012 NOSIG,M
VVTS,4/8/2012 1:30,106.6667,10.8167,82.4,75.2,78.9,40,5,0,29.88,M,6.21,M,SCT,M,M,M,1700,M,M,M,M,M,M,M,M,M,M,89.48,VVTS 080130Z 04005KT 360V070 9999 SCT017 28/24 Q1012 NOSIG,M
VVTS,4/8/2012 2:00,106.6667,10.8167,82.4,73.4,74.28,360,4,0,29.88,M,6.21,M,SCT,M,M,M,1700,M,M,M,M,M,M,M,M,M,M,88.26,VVTS 080200Z 36004KT 330V050 9999 SCT017 28/23 Q1012 NOSIG,M
VVTS,4/8/2012 2:30,106.6667,10.8167,86,73.4,66.15,M,3,0,29.88,M,6.21,M,SCT,M,M,M,1700,M,M,M,M,M,M,M,M,M,M,93.45,VVTS 080230Z VRB03KT 9999 SCT017 30/23 Q1012 NOSIG,M
VVTS,4/8/2012 3:00,106.6667,10.8167,87.8,73.4,62.47,20,5,0,29.85,M,6.21,M,SCT,M,M,M,1700,M,M,M,M,M,M,M,M,M,M,95.86,VVTS 080300Z 02005KT 340V060 9999 SCT017 31/23 Q1011 NOSIG,M
VVTS,4/8/2012 3:30,106.6667,10.8167,87.8,71.6,58.78,20,5,0,29.85,M,6.21,M,SCT,M,M,M,1700,M,M,M,M,M,M,M,M,M,M,94.18,VVTS 080330Z 02005KT 320V110 9999 SCT017 31/22 Q1011 NOSIG,M
VVTS,4/8/2012 4:00,106.6667,10.8167,89.6,71.6,55.53,110,5,0,29.85,M,6.21,M,SCT,M,M,M,1700,M,M,M,M,M,M,M,M,M,M,96.41,VVTS 080400Z 11005KT 070V180 9999 SCT017 32/22 Q1011 NOSIG,M
VVTS,4/8/2012 4:30,106.6667,10.8167,91.4,71.6,52.48,110,6,0,29.85,M,6.21,M,SCT,M,M,M,1700,M,M,M,M,M,M,M,M,M,M,98.64,VVTS 080430Z 11006KT 030V150 9999 SCT017 33/22 Q1011 NOSIG,M
VVTS,4/8/2012 5:00,106.6667,10.8167,91.4,71.6,52.48,100,6,0,29.83,M,6.21,M,SCT,M,M,M,1700,M,M,M,M,M,M,M,M,M,M,98.64,VVTS 080500Z 10006KT 050V130 9999 SCT017 33/22 Q1010 NOSIG,M
VVTS,4/8/2012 5:30,106.6667,10.8167,91.4,71.6,52.48,90,5,0,29.8,M,6.21,M,SCT,M,M,M,2000,M,M,M,M,M,M,M,M,M,M,98.64,VVTS 080530Z 09005KT 040V150 9999 SCT020 33/22 Q1009 NOSIG,M
VVTS,4/8/2012 6:00,106.6667,10.8167,91.4,71.6,52.48,80,6,0,29.8,M,6.21,M,SCT,M,M,M,2000,M,M,M,M,M,M,M,M,M,M,98.64,VVTS 080600Z 08006KT 350V200 9999 SCT020 33/22 Q1009 NOSIG,M
VVTS,4/8/2012 6:30,106.6667,10.8167,91.4,71.6,52.48,70,4,0,29.77,M,6.21,M,FEW,SCT,M,M,1500,1700,M,M,M,M,M,M,M,M,M,98.64,VVTS 080630Z 07004KT 030V120 9999 FEW015TCU SCT017 33/22 Q1008 NOSIG,M
VVTS,4/8/2012 7:00,106.6667,10.8167,91.4,69.8,49.36,160,5,0,29.77,M,6.21,M,FEW,SCT,M,M,1500,1700,M,M,M,M,M,M,M,M,M,96.99,VVTS 080700Z 16005KT 070V230 9999 FEW015TCU SCT017 33/21 Q1008 NOSIG,M
VVTS,4/8/2012 7:30,106.6667,10.8167,93.2,71.6,49.62,150,6,0,29.74,M,6.21,M,BKN,M,M,M,1700,M,M,M,M,M,M,M,M,M,M,100.88,VVTS 080730Z 15006KT 100V190 9999 BKN017 34/22 Q1007 NOSIG,M
VVTS,4/8/2012 8:00,106.6667,10.8167,91.4,71.6,52.48,150,9,0,29.74,M,6.21,M,FEW,SCT,M,M,1700,2000,M,M,M,M,M,M,M,M,M,98.64,VVTS 080800Z 15009KT 120V200 9999 FEW017CB SCT020 33/22 Q1007 NOSIG,M
VVTS,4/8/2012 8:30,106.6667,10.8167,91.4,73.4,55.77,150,11,0,29.74,M,6.21,M,FEW,SCT,M,M,1700,2000,M,M,M,M,M,M,M,M,M,100.52,VVTS 080830Z 15011KT 120V190 9999 FEW017CB SCT020 33/23 Q1007 NOSIG,M
VVTS,4/8/2012 9:00,106.6667,10.8167,89.6,73.4,59.01,140,10,0,29.74,M,6.21,M,FEW,SCT,M,M,1700,2000,M,M,M,M,M,M,M,M,M,98.2,VVTS 080900Z 14010KT 110V170 9999 FEW017CB SCT020 32/23 Q1007 NOSIG,M
VVTS,4/8/2012 9:30,106.6667,10.8167,89.6,73.4,59.01,130,9,0,29.74,M,6.21,M,FEW,SCT,M,M,1700,2000,M,M,M,M,M,M,M,M,M,98.2,VVTS 080930Z 13009KT 9999 FEW017CB SCT020 32/23 Q1007 NOSIG,M
VVTS,4/8/2012 10:00,106.6667,10.8167,87.8,73.4,62.47,130,10,0,29.74,M,6.21,M,FEW,SCT,M,M,1700,2000,M,M,M,M,M,M,M,M,M,95.86,VVTS 081000Z 13010KT 100V170 9999 FEW017CB SCT020 31/23 Q1007 NOSIG,M
VVTS,4/8/2012 10:30,106.6667,10.8167,87.8,71.6,58.78,140,10,0,29.77,M,6.21,M,FEW,SCT,M,M,1700,2000,M,M,M,M,M,M,M,M,M,94.18,VVTS 081030Z 14010KT 110V180 9999 FEW017CB SCT020 31/22 Q1008 NOSIG,M
VVTS,4/8/2012 11:30,106.6667,10.8167,82.4,69.8,65.74,90,9,0,29.8,M,6.21,M,FEW,SCT,M,M,1500,1700,M,M,M,M,M,M,M,M,M,86.22,VVTS 081130Z 09009KT 9999 FEW015TCU SCT017 28/21 Q1009 NOSIG,M
VVTS,4/8/2012 12:30,106.6667,10.8167,78.8,71.6,78.62,60,6,0,29.8,M,6.21,M,SCT,M,M,M,1700,M,M,M,M,M,M,M,M,M,M,81.7,VVTS 081230Z 06006KT 9999 SCT017 26/22 Q1009 NOSIG,M
VVTS,4/8/2012 13:00,106.6667,10.8167,78.8,71.6,78.62,80,5,0,29.83,M,6.21,M,FEW,M,M,M,1700,M,M,M,M,M,M,M,M,M,M,81.7,VVTS 081300Z 08005KT 9999 FEW017 26/22 Q1010 NOSIG,M
VVTS,4/8/2012 13:30,106.6667,10.8167,80.6,71.6,74.11,140,8,0,29.83,M,6.21,M,FEW,M,M,M,1700,M,M,M,M,M,M,M,M,M,M,84.57,VVTS 081330Z 14008KT 9999 FEW017 27/22 Q1010 NOSIG,M
VVTS,4/8/2012 14:00,106.6667,10.8167,80.6,73.4,78.76,120,10,0,29.83,M,6.21,M,FEW,M,M,M,1700,M,M,M,M,M,M,M,M,M,M,85.32,VVTS 081400Z 12010KT 9999 FEW017 27/23 Q1010 NOSIG,M
VVTS,4/8/2012 14:30,106.6667,10.8167,80.6,73.4,78.76,120,11,0,29.83,M,6.21,M,FEW,M,M,M,1700,M,M,M,M,M,M,M,M,M,M,85.32,VVTS 081430Z 12011KT 9999 FEW017 27/23 Q1010 NOSIG,M
VVTS,4/8/2012 15:00,106.6667,10.8167,80.6,73.4,78.76,120,8,0,29.85,M,6.21,M,FEW,M,M,M,1700,M,M,M,M,M,M,M,M,M,M,85.32,VVTS 081500Z 12008KT 9999 FEW017 27/23 Q1011 NOSIG,M
VVTS,4/8/2012 15:30,106.6667,10.8167,80.6,73.4,78.76,120,11,0,29.85,M,6.21,M,FEW,M,M,M,1700,M,M,M,M,M,M,M,M,M,M,85.32,VVTS 081530Z 12011KT 9999 FEW017 27/23 Q1011 NOSIG,M
VVTS,4/8/2012 16:00,106.6667,10.8167,80.6,73.4,78.76,130,10,0,29.83,M,6.21,M,FEW,M,M,M,1700,M,M,M,M,M,M,M,M,M,M,85.32,VVTS 081600Z 13010KT 9999 FEW017 27/23 Q1010 NOSIG,M
VVTS,4/8/2012 16:30,106.6667,10.8167,78.8,73.4,83.55,120,10,0,29.83,M,6.21,M,FEW,M,M,M,1700,M,M,M,M,M,M,M,M,M,M,82.03,VVTS 081630Z 12010KT 9999 FEW017 26/23 Q1010 NOSIG,M
VVTS,4/8/2012 17:00,106.6667,10.8167,78.8,73.4,83.55,130,8,0,29.83,M,6.21,M,FEW,M,M,M,1700,M,M,M,M,M,M,M,M,M,M,82.03,VVTS 081700Z 13008KT 100V160 9999 FEW017 26/23 Q1010 NOSIG,M
VVTS,4/8/2012 17:30,106.6667,10.8167,78.8,73.4,83.55,120,10,0,29.8,M,6.21,M,FEW,M,M,M,1700,M,M,M,M,M,M,M,M,M,M,82.03,VVTS 081730Z 12010KT 9999 FEW017 26/23 Q1009 NOSIG,M
VVTS,4/8/2012 18:00,106.6667,10.8167,78.8,73.4,83.55,120,8,0,29.8,M,6.21,M,FEW,M,M,M,1700,M,M,M,M,M,M,M,M,M,M,82.03,VVTS 081800Z 12008KT 9999 FEW017 26/23 Q1009 NOSIG,M
VVTS,4/8/2012 18:30,106.6667,10.8167,78.8,73.4,83.55,120,9,0,29.8,M,6.21,M,FEW,M,M,M,1700,M,M,M,M,M,M,M,M,M,M,82.03,VVTS 081830Z 12009KT 9999 FEW017 26/23 Q1009 NOSIG,M
VVTS,4/8/2012 19:00,106.6667,10.8167,78.8,71.6,78.62,110,7,0,29.8,M,6.21,M,FEW,M,M,M,1700,M,M,M,M,M,M,M,M,M,M,81.7,VVTS 081900Z 11007KT 9999 FEW017 26/22 Q1009 NOSIG,M
VVTS,4/8/2012 19:30,106.6667,10.8167,78.8,71.6,78.62,120,8,0,29.8,M,6.21,M,FEW,M,M,M,1700,M,M,M,M,M,M,M,M,M,M,81.7,VVTS 081930Z 12008KT 9999 FEW017 26/22 Q1009 NOSIG,M
VVTS,4/8/2012 20:00,106.6667,10.8167,78.8,71.6,78.62,110,6,0,29.8,M,6.21,M,FEW,M,M,M,1700,M,M,M,M,M,M,M,M,M,M,81.7,VVTS 082000Z 11006KT 9999 FEW017 26/22 Q1009 NOSIG,M
VVTS,4/8/2012 20:30,106.6667,10.8167,75.2,71.6,88.59,50,4,0,29.8,M,6.21,M,FEW,M,M,M,1700,M,M,M,M,M,M,M,M,M,M,76.58,VVTS 082030Z 05004KT 9999 FEW017 24/22 Q1009 NOSIG,M
VVTS,4/8/2012 21:00,106.6667,10.8167,75.2,71.6,88.59,70,5,0,29.8,M,6.21,M,FEW,M,M,M,4000,M,M,M,M,M,M,M,M,M,M,76.58,VVTS 082100Z 07005KT 9999 FEW040 24/22 Q1009 NOSIG,M
VVTS,4/8/2012 21:30,106.6667,10.8167,75.2,71.6,88.59,50,3,0,29.8,M,6.21,M,FEW,M,M,M,4000,M,M,M,M,M,M,M,M,M,M,76.58,VVTS 082130Z 05003KT 9999 FEW040 24/22 Q1009 NOSIG,M
VVTS,4/8/2012 22:00,106.6667,10.8167,73.4,71.6,94.1,50,3,0,29.83,M,6.21,M,FEW,M,M,M,4000,M,M,M,M,M,M,M,M,M,M,74.86,VVTS 082200Z 05003KT 9999 FEW040 23/22 Q1010 NOSIG,M
VVTS,4/8/2012 22:30,106.6667,10.8167,75.2,73.4,94.14,40,3,0,29.83,M,6.21,M,FEW,M,M,M,4000,M,M,M,M,M,M,M,M,M,M,76.84,VVTS 082230Z 04003KT 9999 FEW040 24/23 Q1010 NOSIG,M
VVTS,4/8/2012 23:00,106.6667,10.8167,73.4,73.4,100,20,3,0,29.83,M,4.97,M,FEW,SCT,M,M,1700,4000,M,M,M,M,M,M,M,M,M,75.14,VVTS 082300Z 02003KT 8000 FEW017 SCT040 23/23 Q1010 NOSIG,M
VVTS,4/8/2012 23:30,106.6667,10.8167,75.2,73.4,94.14,360,5,0,29.85,M,6.21,M,SCT,M,M,M,1700,M,M,M,M,M,M,M,M,M,M,76.84,VVTS 082330Z 36005KT 9999 SCT017 24/23 Q1011 NOSIG,M
VVTS,4/9/2012 0:00,106.6667,10.8167,77,73.4,88.67,40,4,0,29.85,M,4.97,M,SCT,M,M,M,1700,M,M,M,M,M,M,M,M,M,M,78.57,VVTS 090000Z 04004KT 350V070 8000 SCT017 25/23 Q1011 NOSIG,M
VVTS,4/9/2012 0:30,106.6667,10.8167,80.6,73.4,78.76,M,3,0,29.85,M,6.21,M,FEW,M,M,M,1700,M,M,M,M,M,M,M,M,M,M,85.32,VVTS 090030Z VRB03KT 9999 FEW017 27/23 Q1011 NOSIG,M
VVTS,4/9/2012 1:00,106.6667,10.8167,80.6,73.4,78.76,70,4,0,29.88,M,6.21,M,FEW,M,M,M,1700,M,M,M,M,M,M,M,M,M,M,85.32,VVTS 090100Z 07004KT 030V110 9999 FEW017 27/23 Q1012 NOSIG,M
VVTS,4/9/2012 1:30,106.6667,10.8167,84.2,71.6,65.95,80,5,0,29.88,M,6.21,M,FEW,M,M,M,1700,M,M,M,M,M,M,M,M,M,M,89.6,VVTS 090130Z 08005KT 9999 FEW017 29/22 Q1012 NOSIG,M
VVTS,4/9/2012 2:00,106.6667,10.8167,87.8,69.8,55.29,90,6,0,29.88,M,6.21,M,FEW,M,M,M,1700,M,M,M,M,M,M,M,M,M,M,92.71,VVTS 090200Z 09006KT 040V130 9999 FEW017 31/21 Q1012 NOSIG,M
VVTS,4/9/2012 2:30,106.6667,10.8167,87.8,69.8,55.29,100,6,0,29.88,M,6.21,M,FEW,M,M,M,1700,M,M,M,M,M,M,M,M,M,M,92.71,VVTS 090230Z 10006KT 060V140 9999 FEW017 31/21 Q1012 NOSIG,M
VVTS,4/9/2012 3:00,106.6667,10.8167,89.6,69.8,52.23,80,6,0,29.88,M,6.21,M,FEW,M,M,M,1700,M,M,M,M,M,M,M,M,M,M,94.85,VVTS 090300Z 08006KT 040V140 9999 FEW017 32/21 Q1012 NOSIG,M
VVTS,4/9/2012 3:30,106.6667,10.8167,89.6,69.8,52.23,90,9,0,29.88,M,6.21,M,FEW,M,M,M,1700,M,M,M,M,M,M,M,M,M,M,94.85,VVTS 090330Z 09009KT 9999 FEW017 32/21 Q1012 NOSIG,M
VVTS,4/9/2012 4:00,106.6667,10.8167,91.4,69.8,49.36,70,6,0,29.85,M,6.21,M,FEW,M,M,M,1700,M,M,M,M,M,M,M,M,M,M,96.99,VVTS 090400Z 07006KT 010V100 9999 FEW017 33/21 Q1011 NOSIG,M
VVTS,4/9/2012 4:30,106.6667,10.8167,91.4,69.8,49.36,80,8,0,29.85,M,6.21,M,FEW,M,M,M,1700,M,M,M,M,M,M,M,M,M,M,96.99,VVTS 090430Z 08008KT 040V150 9999 FEW017 33/21 Q1011 NOSIG,M
VVTS,4/9/2012 5:00,106.6667,10.8167,93.2,69.8,46.67,90,9,0,29.83,M,6.21,M,SCT,M,M,M,1700,M,M,M,M,M,M,M,M,M,M,99.17,VVTS 090500Z 09009KT 050V120 9999 SCT017 34/21 Q1010 NOSIG,M
VVTS,4/9/2012 5:30,106.6667,10.8167,93.2,68,43.88,80,8,0,29.83,M,6.21,M,SCT,M,M,M,1700,M,M,M,M,M,M,M,M,M,M,97.67,VVTS 090530Z 08008KT 050V120 9999 SCT017 34/20 Q1010 NOSIG,M
VVTS,4/9/2012 6:00,106.6667,10.8167,93.2,68,43.88,130,7,0,29.8,M,6.21,M,SCT,M,M,M,2000,M,M,M,M,M,M,M,M,M,M,97.67,VVTS 090600Z 13007KT 070V160 9999 SCT020 34/20 Q1009 NOSIG,M
VVTS,4/9/2012 6:30,106.6667,10.8167,93.2,66.2,41.23,90,6,0,29.77,M,6.21,M,SCT,M,M,M,2000,M,M,M,M,M,M,M,M,M,M,96.35,VVTS 090630Z 09006KT 350V140 9999 SCT020 34/19 Q1008 NOSIG,M
VVTS,4/9/2012 7:00,106.6667,10.8167,93.2,66.2,41.23,100,5,0,29.77,M,6.21,M,BKN,M,M,M,2000,M,M,M,M,M,M,M,M,M,M,96.35,VVTS 090700Z 10005KT 010V150 9999 BKN020 34/19 Q1008 NOSIG,M
VVTS,4/9/2012 7:30,106.6667,10.8167,91.4,66.2,43.61,100,6,0,29.74,M,6.21,M,FEW,SCT,M,M,1700,2000,M,M,M,M,M,M,M,M,M,94.29,VVTS 090730Z 10006KT 030V190 9999 FEW017TCU SCT020 33/19 Q1007 NOSIG,M
VVTS,4/9/2012 8:00,106.6667,10.8167,91.4,69.8,49.36,180,8,0,29.74,M,6.21,M,FEW,SCT,M,M,1700,2000,M,M,M,M,M,M,M,M,M,96.99,VVTS 090800Z 18008KT 140V210 9999 FEW017TCU SCT020 33/21 Q1007 NOSIG,M
VVTS,4/9/2012 8:30,106.6667,10.8167,89.6,69.8,52.23,140,11,0,29.74,M,6.21,M,FEW,SCT,M,M,1700,2000,M,M,M,M,M,M,M,M,M,94.85,VVTS 090830Z 14011KT 9999 FEW017TCU SCT020 32/21 Q1007 NOSIG,M
VVTS,4/9/2012 9:00,106.6667,10.8167,89.6,71.6,55.53,160,10,0,29.74,M,6.21,M,FEW,SCT,M,M,1700,2000,M,M,M,M,M,M,M,M,M,96.41,VVTS 090900Z 16010KT 130V200 9999 FEW017CB SCT020 32/22 Q1007 TEMPO TL0915 5000 SHRA,M
VVTS,4/9/2012 9:30,106.6667,10.8167,87.8,69.8,55.29,150,10,0,29.74,M,6.21,M,FEW,SCT,M,M,1700,2000,M,M,M,M,M,M,M,M,M,92.71,VVTS 090930Z 15010KT 120V180 9999 FEW017CB SCT020 31/21 Q1007 NOSIG,M
VVTS,4/9/2012 10:00,106.6667,10.8167,87.8,69.8,55.29,150,10,0,29.77,M,6.21,M,FEW,SCT,M,M,1700,2000,M,M,M,M,M,M,M,M,M,92.71,VVTS 091000Z 15010KT 120V200 9999 FEW017CB SCT020 31/21 Q1008 NOSIG,M
VVTS,4/9/2012 10:30,106.6667,10.8167,87.8,69.8,55.29,150,10,0,29.77,M,6.21,M,SCT,M,M,M,1700,M,M,M,M,M,M,M,M,M,M,92.71,VVTS 091030Z 15010KT 110V180 9999 SCT017 31/21 Q1008 NOSIG,M
VVTS,4/9/2012 11:00,106.6667,10.8167,86,71.6,62.25,130,11,0,29.77,M,6.21,M,SCT,M,M,M,1700,M,M,M,M,M,M,M,M,M,M,91.92,VVTS 091100Z 13011KT 9999 SCT017 30/22 Q1008 NOSIG,M
VVTS,4/9/2012 11:30,106.6667,10.8167,84.2,71.6,65.95,140,10,0,29.8,M,6.21,M,SCT,M,M,M,1700,M,M,M,M,M,M,M,M,M,M,89.6,VVTS 091130Z 14010KT 9999 SCT017 29/22 Q1009 NOSIG,M
VVTS,4/9/2012 12:00,106.6667,10.8167,82.4,71.6,69.9,130,8,0,29.8,M,6.21,M,SCT,M,M,M,1700,M,M,M,M,M,M,M,M,M,M,87.18,VVTS 091200Z 13008KT 9999 SCT017 28/22 Q1009 NOSIG,M
VVTS,4/9/2012 12:30,106.6667,10.8167,82.4,69.8,65.74,130,7,0,29.83,M,6.21,M,FEW,M,M,M,1700,M,M,M,M,M,M,M,M,M,M,86.22,VVTS 091230Z 13007KT 9999 FEW017 28/21 Q1010 NOSIG,M
VVTS,4/9/2012 13:00,106.6667,10.8167,82.4,71.6,69.9,130,7,0,29.83,M,6.21,M,FEW,M,M,M,1700,M,M,M,M,M,M,M,M,M,M,87.18,VVTS 091300Z 13007KT 9999 FEW017 28/22 Q1010 NOSIG,M
VVTS,4/9/2012 13:30,106.6667,10.8167,82.4,71.6,69.9,120,6,0,29.83,M,6.21,M,FEW,M,M,M,1700,M,M,M,M,M,M,M,M,M,M,87.18,VVTS 091330Z 12006KT 9999 FEW017 28/22 Q1010 NOSIG,M
VVTS,4/9/2012 14:00,106.6667,10.8167,80.6,71.6,74.11,120,7,0,29.85,M,6.21,M,FEW,M,M,M,1700,M,M,M,M,M,M,M,M,M,M,84.57,VVTS 091400Z 12007KT 080V180 9999 FEW017 27/22 Q1011 NOSIG,M
VVTS,4/9/2012 14:30,106.6667,10.8167,80.6,71.6,74.11,120,9,0,29.85,M,6.21,M,FEW,M,M,M,1700,M,M,M,M,M,M,M,M,M,M,84.57,VVTS 091430Z 12009KT 9999 FEW017 27/22 Q1011 NOSIG,M
VVTS,4/9/2012 15:00,106.6667,10.8167,80.6,71.6,74.11,130,9,0,29.85,M,6.21,M,FEW,M,M,M,1700,M,M,M,M,M,M,M,M,M,M,84.57,VVTS 091500Z 13009KT 9999 FEW017 27/22 Q1011 NOSIG,M
VVTS,4/9/2012 15:30,106.6667,10.8167,80.6,71.6,74.11,110,6,0,29.85,M,6.21,M,FEW,M,M,M,1700,M,M,M,M,M,M,M,M,M,M,84.57,VVTS 091530Z 11006KT 070V140 9999 FEW017 27/22 Q1011 NOSIG,M
VVTS,4/9/2012 16:00,106.6667,10.8167,80.6,71.6,74.11,110,8,0,29.85,M,6.21,M,FEW,M,M,M,1700,M,M,M,M,M,M,M,M,M,M,84.57,VVTS 091600Z 11008KT 070V140 9999 FEW017 27/22 Q1011 NOSIG,M
VVTS,4/9/2012 16:30,106.6667,10.8167,80.6,71.6,74.11,120,5,0,29.85,M,6.21,M,FEW,M,M,M,1700,M,M,M,M,M,M,M,M,M,M,84.57,VVTS 091630Z 12005KT 9999 FEW017 27/22 Q1011 NOSIG,M
VVTS,4/9/2012 17:00,106.6667,10.8167,80.6,73.4,78.76,130,8,0,29.85,M,6.21,M,FEW,M,M,M,1700,M,M,M,M,M,M,M,M,M,M,85.32,VVTS 091700Z 13008KT 090V160 9999 FEW017 27/23 Q1011 NOSIG,M
VVTS,4/9/2012 17:30,106.6667,10.8167,78.8,71.6,78.62,120,8,0,29.85,M,6.21,M,FEW,M,M,M,1700,M,M,M,M,M,M,M,M,M,M,81.7,VVTS 091730Z 12008KT 090V180 9999 FEW017 26/22 Q1011 NOSIG,M
VVTS,4/9/2012 18:00,106.6667,10.8167,78.8,71.6,78.62,120,9,0,29.85,M,6.21,M,FEW,M,M,M,1700,M,M,M,M,M,M,M,M,M,M,81.7,VVTS 091800Z 12009KT 9999 FEW017 26/22 Q1011 NOSIG,M
VVTS,4/9/2012 18:30,106.6667,10.8167,78.8,71.6,78.62,120,7,0,29.83,M,6.21,M,FEW,M,M,M,1700,M,M,M,M,M,M,M,M,M,M,81.7,VVTS 091830Z 12007KT 9999 FEW017 26/22 Q1010 NOSIG,M
VVTS,4/9/2012 19:00,106.6667,10.8167,78.8,71.6,78.62,120,6,0,29.85,M,6.21,M,FEW,M,M,M,1700,M,M,M,M,M,M,M,M,M,M,81.7,VVTS 091900Z 12006KT 9999 FEW017 26/22 Q1011 NOSIG,M
VVTS,4/9/2012 19:30,106.6667,10.8167,78.8,71.6,78.62,130,5,0,29.83,M,6.21,M,FEW,M,M,M,1700,M,M,M,M,M,M,M,M,M,M,81.7,VVTS 091930Z 13005KT 9999 FEW017 26/22 Q1010 NOSIG,M
VVTS,4/9/2012 20:00,106.6667,10.8167,78.8,71.6,78.62,140,6,0,29.83,M,6.21,M,FEW,M,M,M,1700,M,M,M,M,M,M,M,M,M,M,81.7,VVTS 092000Z 14006KT 9999 FEW017 26/22 Q1010 NOSIG,M
VVTS,4/9/2012 20:30,106.6667,10.8167,78.8,73.4,83.55,120,6,0,29.83,M,6.21,M,FEW,M,M,M,1700,M,M,M,M,M,M,M,M,M,M,82.03,VVTS 092030Z 12006KT 9999 FEW017 26/23 Q1010 NOSIG,M
VVTS,4/9/2012 21:00,106.6667,10.8167,78.8,73.4,83.55,120,4,0,29.83,M,6.21,M,FEW,M,M,M,1700,M,M,M,M,M,M,M,M,M,M,82.03,VVTS 092100Z 12004KT 9999 FEW017 26/23 Q1010 NOSIG,M
VVTS,4/9/2012 21:30,106.6667,10.8167,78.8,73.4,83.55,120,6,0,29.83,M,6.21,M,FEW,M,M,M,1700,M,M,M,M,M,M,M,M,M,M,82.03,VVTS 092130Z 12006KT 9999 FEW017 26/23 Q1010 NOSIG,M
VVTS,4/9/2012 22:00,106.6667,10.8167,78.8,73.4,83.55,120,7,0,29.83,M,6.21,M,FEW,M,M,M,1700,M,M,M,M,M,M,M,M,M,M,82.03,VVTS 092200Z 12007KT 9999 FEW017 26/23 Q1010 NOSIG,M
VVTS,4/9/2012 22:30,106.6667,10.8167,78.8,73.4,83.55,110,6,0,29.83,M,6.21,M,FEW,M,M,M,1700,M,M,M,M,M,M,M,M,M,M,82.03,VVTS 092230Z 11006KT 9999 FEW017 26/23 Q1010 NOSIG,M
VVTS,4/9/2012 23:00,106.6667,10.8167,78.8,73.4,83.55,100,6,0,29.83,M,6.21,M,FEW,M,M,M,1700,M,M,M,M,M,M,M,M,M,M,82.03,VVTS 092300Z 10006KT 9999 FEW017 26/23 Q1010 NOSIG,M
VVTS,4/9/2012 23:30,106.6667,10.8167,78.8,73.4,83.55,100,5,0,29.85,M,6.21,M,FEW,M,M,M,1700,M,M,M,M,M,M,M,M,M,M,82.03,VVTS 092330Z 10005KT 070V130 9999 FEW017 26/23 Q1011 NOSIG,M
VVTS,4/10/2012 0:00,106.6667,10.8167,80.6,73.4,78.76,90,8,0,29.85,M,6.21,M,FEW,M,M,M,1700,M,M,M,M,M,M,M,M,M,M,85.32,VVTS 100000Z 09008KT 9999 FEW017 27/23 Q1011 NOSIG,M
VVTS,4/10/2012 0:30,106.6667,10.8167,82.4,73.4,74.28,90,8,0,29.85,M,6.21,M,FEW,M,M,M,1700,M,M,M,M,M,M,M,M,M,M,88.26,VVTS 100030Z 09008KT 9999 FEW017 28/23 Q1011 NOSIG,M
VVTS,4/10/2012 1:00,106.6667,10.8167,82.4,73.4,74.28,60,6,0,29.88,M,6.21,M,FEW,M,M,M,1700,M,M,M,M,M,M,M,M,M,M,88.26,VVTS 100100Z 06006KT 9999 FEW017 28/23 Q1012 NOSIG,M
VVTS,4/10/2012 1:30,106.6667,10.8167,84.2,71.6,65.95,70,7,0,29.88,M,6.21,M,FEW,M,M,M,1700,M,M,M,M,M,M,M,M,M,M,89.6,VVTS 100130Z 07007KT 9999 FEW017 29/22 Q1012 NOSIG,M
VVTS,4/10/2012 2:00,106.6667,10.8167,86,69.8,58.55,80,8,0,29.88,M,6.21,M,FEW,M,M,M,1700,M,M,M,M,M,M,M,M,M,M,90.58,VVTS 100200Z 08008KT 9999 FEW017 30/21 Q1012 NOSIG,M
VVTS,4/10/2012 2:30,106.6667,10.8167,87.8,69.8,55.29,80,7,0,29.85,M,6.21,M,FEW,M,M,M,1700,M,M,M,M,M,M,M,M,M,M,92.71,VVTS 100230Z 08007KT 040V130 9999 FEW017 31/21 Q1011 NOSIG,M
VVTS,4/10/2012 3:00,106.6667,10.8167,87.8,69.8,55.29,60,5,0,29.85,M,6.21,M,FEW,M,M,M,1700,M,M,M,M,M,M,M,M,M,M,92.71,VVTS 100300Z 06005KT 010V110 9999 FEW017 31/21 Q1011 NOSIG,M
VVTS,4/10/2012 3:30,106.6667,10.8167,89.6,69.8,52.23,50,7,0,29.85,M,6.21,M,FEW,M,M,M,1700,M,M,M,M,M,M,M,M,M,M,94.85,VVTS 100330Z 05007KT 9999 FEW017 32/21 Q1011 NOSIG,M
VVTS,4/10/2012 4:00,106.6667,10.8167,91.4,69.8,49.36,70,8,0,29.85,M,6.21,M,FEW,M,M,M,2000,M,M,M,M,M,M,M,M,M,M,96.99,VVTS 100400Z 07008KT 040V100 9999 FEW020 33/21 Q1011 NOSIG,M
VVTS,4/10/2012 4:30,106.6667,10.8167,89.6,69.8,52.23,70,4,0,29.85,M,6.21,M,SCT,M,M,M,2000,M,M,M,M,M,M,M,M,M,M,94.85,VVTS 100430Z 07004KT 350V150 9999 SCT020 32/21 Q1011 NOSIG,M
VVTS,4/10/2012 5:00,106.6667,10.8167,91.4,69.8,49.36,M,2,0,29.83,M,6.21,M,SCT,M,M,M,2000,M,M,M,M,M,M,M,M,M,M,96.99,VVTS 100500Z VRB02KT 9999 SCT020 33/21 Q1010 NOSIG,M
VVTS,4/10/2012 5:30,106.6667,10.8167,91.4,71.6,52.48,70,6,0,29.83,M,6.21,M,SCT,M,M,M,2000,M,M,M,M,M,M,M,M,M,M,98.64,VVTS 100530Z 07006KT 050V110 9999 SCT020 33/22 Q1010 NOSIG,M
VVTS,4/10/2012 6:00,106.6667,10.8167,91.4,69.8,49.36,M,3,0,29.8,M,6.21,M,SCT,M,M,M,2000,M,M,M,M,M,M,M,M,M,M,96.99,VVTS 100600Z VRB03KT 9999 SCT020 33/21 Q1009 NOSIG,M
VVTS,4/10/2012 6:30,106.6667,10.8167,93.2,69.8,46.67,M,2,0,29.8,M,6.21,M,SCT,M,M,M,2000,M,M,M,M,M,M,M,M,M,M,99.17,VVTS 100630Z VRB02KT 9999 SCT020 34/21 Q1009 NOSIG,M
VVTS,4/10/2012 7:00,106.6667,10.8167,93.2,69.8,46.67,M,2,0,29.77,M,6.21,M,FEW,SCT,M,M,1700,2000,M,M,M,M,M,M,M,M,M,99.17,VVTS 100700Z VRB02KT 9999 FEW017TCU SCT020 34/21 Q1008 NOSIG,M
VVTS,4/10/2012 7:30,106.6667,10.8167,93.2,71.6,49.62,M,3,0,29.77,M,6.21,M,FEW,SCT,M,M,1700,2000,M,M,M,M,M,M,M,M,M,100.88,VVTS 100730Z VRB03KT 9999 FEW017TCU SCT020 34/22 Q1008 NOSIG,M
VVTS,4/10/2012 8:00,106.6667,10.8167,93.2,71.6,49.62,M,2,0,29.74,M,6.21,M,FEW,SCT,M,M,1700,2000,M,M,M,M,M,M,M,M,M,100.88,VVTS 100800Z VRB02KT 9999 FEW017TCU SCT020 34/22 Q1007 NOSIG,M
VVTS,4/10/2012 8:30,106.6667,10.8167,93.2,73.4,52.73,160,7,0,29.74,M,6.21,M,FEW,SCT,M,M,1700,2000,M,M,M,M,M,M,M,M,M,102.82,VVTS 100830Z 16007KT 9999 FEW017CB SCT020 34/23 Q1007 NOSIG,M
VVTS,4/10/2012 9:00,106.6667,10.8167,89.6,71.6,55.53,160,7,0,29.74,M,4.97,M,SCT,SCT,M,M,1700,2000,M,M,#NAME?,M,M,M,M,M,M,96.41,VVTS 100900Z 16007KT 120V180 8000 -SHRA SCT017 SCT020CB 32/22 Q1007 NOSIG,M
VVTS,4/10/2012 9:30,106.6667,10.8167,75.2,71.6,88.59,300,12,0,29.74,M,1.24,M,BKN,SCT,M,M,1000,1500,M,M,#NAME?,M,M,M,M,M,M,76.58,VVTS 100930Z 30012KT 2000 R25R/0800V1500U +TSRA BKN010 SCT015CB 24/22 Q1007 BECMG TL0950 5000 TSRA CB OV ERWY,M
VVTS,4/10/2012 10:00,106.6667,10.8167,75.2,75.2,100,120,7,0,29.74,M,3.11,M,BKN,SCT,M,M,1300,1500,M,M,#NAME?,M,M,M,M,M,M,77.12,VVTS 101000Z 12007KT 5000 -TSRA BKN013 SCT015CB 24/24 Q1007 NOSIG,M
VVTS,4/10/2012 10:30,106.6667,10.8167,78.8,75.2,88.75,M,1,0,29.77,M,4.97,M,SCT,SCT,M,M,1300,1500,M,M,#NAME?,M,M,M,M,M,M,82.38,VVTS 101030Z VRB01KT 8000 -RA SCT013 SCT015CB 26/24 Q1008 NOSIG,M
VVTS,4/10/2012 11:00,106.6667,10.8167,80.6,75.2,83.66,100,6,0,29.77,M,6.21,M,FEW,SCT,M,M,1500,1700,M,M,M,M,M,M,M,M,M,86.17,VVTS 101100Z 10006KT 080V150 9999 FEW015CB SCT017 27/24 Q1008 NOSIG,M
VVTS,4/10/2012 11:30,106.6667,10.8167,80.6,75.2,83.66,120,6,0,29.77,M,6.21,M,FEW,SCT,M,M,1500,1700,M,M,#NAME?,M,M,M,M,M,M,86.17,VVTS 101130Z 12006KT 100V170 9999 -RA FEW015TCU SCT017 27/24 Q1008 NOSIG,M
VVTS,4/10/2012 12:00,106.6667,10.8167,80.6,75.2,83.66,130,6,0,29.8,M,6.21,M,SCT,SCT,M,M,1700,4000,M,M,#NAME?,M,M,M,M,M,M,86.17,VVTS 101200Z 13006KT 9999 -RA SCT017 SCT040 27/24 Q1009 NOSIG,M
VVTS,4/10/2012 12:30,106.6667,10.8167,82.4,73.4,74.28,140,8,0,29.8,M,6.21,M,FEW,SCT,M,M,1700,4000,M,M,M,M,M,M,M,M,M,88.26,VVTS 101230Z 14008KT 110V200 9999 FEW017 SCT040 28/23 Q1009 NOSIG,M
VVTS,4/10/2012 13:00,106.6667,10.8167,82.4,73.4,74.28,140,7,0,29.8,M,6.21,M,FEW,SCT,M,M,1700,4000,M,M,M,M,M,M,M,M,M,88.26,VVTS 101300Z 14007KT 110V180 9999 FEW017 SCT040 28/23 Q1009 NOSIG,M
VVTS,4/10/2012 13:30,106.6667,10.8167,80.6,73.4,78.76,120,9,0,29.83,M,6.21,M,FEW,SCT,M,M,1700,4000,M,M,M,M,M,M,M,M,M,85.32,VVTS 101330Z 12009KT 090V190 9999 FEW017 SCT040 27/23 Q1010 NOSIG,M
VVTS,4/10/2012 14:00,106.6667,10.8167,80.6,73.4,78.76,100,7,0,29.85,M,6.21,M,FEW,SCT,M,M,1700,4000,M,M,M,M,M,M,M,M,M,85.32,VVTS 101400Z 10007KT 060V140 9999 FEW017 SCT040 27/23 Q1011 NOSIG,M
VVTS,4/10/2012 14:30,106.6667,10.8167,80.6,75.2,83.66,90,7,0,29.85,M,6.21,M,FEW,SCT,M,M,1700,4000,M,M,M,M,M,M,M,M,M,86.17,VVTS 101430Z 09007KT 9999 FEW017 SCT040 27/24 Q1011 NOSIG,M
VVTS,4/10/2012 15:00,106.6667,10.8167,80.6,75.2,83.66,110,4,0,29.88,M,6.21,M,FEW,SCT,M,M,1700,4000,M,M,M,M,M,M,M,M,M,86.17,VVTS 101500Z 11004KT 080V160 9999 FEW017 SCT040 27/24 Q1012 NOSIG,M
VVTS,4/10/2012 15:30,106.6667,10.8167,80.6,75.2,83.66,100,7,0,29.88,M,6.21,M,FEW,SCT,M,M,1700,4000,M,M,M,M,M,M,M,M,M,86.17,VVTS 101530Z 10007KT 9999 FEW017 SCT040 27/24 Q1012 NOSIG,M
VVTS,4/10/2012 16:00,106.6667,10.8167,80.6,75.2,83.66,110,6,0,29.85,M,6.21,M,FEW,SCT,M,M,1700,4000,M,M,M,M,M,M,M,M,M,86.17,VVTS 101600Z 11006KT 030V120 9999 FEW017 SCT040 27/24 Q1011 NOSIG,M
VVTS,4/10/2012 16:30,106.6667,10.8167,78.8,75.2,88.75,120,6,0,29.85,M,6.21,M,FEW,SCT,M,M,1700,4000,M,M,M,M,M,M,M,M,M,82.38,VVTS 101630Z 12006KT 9999 FEW017 SCT040 26/24 Q1011 NOSIG,M
VVTS,4/10/2012 17:00,106.6667,10.8167,78.8,75.2,88.75,120,7,0,29.85,M,6.21,M,FEW,SCT,M,M,1700,4000,M,M,M,M,M,M,M,M,M,82.38,VVTS 101700Z 12007KT 080V170 9999 FEW017 SCT040 26/24 Q1011 NOSIG,M
VVTS,4/10/2012 17:30,106.6667,10.8167,78.8,75.2,88.75,120,5,0,29.85,M,6.21,M,FEW,SCT,M,M,1700,4000,M,M,M,M,M,M,M,M,M,82.38,VVTS 101730Z 12005KT 060V190 9999 FEW017 SCT040 26/24 Q1011 NOSIG,M
VVTS,4/10/2012 18:00,106.6667,10.8167,78.8,75.2,88.75,120,5,0,29.83,M,6.21,M,FEW,SCT,M,M,1700,4000,M,M,M,M,M,M,M,M,M,82.38,VVTS 101800Z 12005KT 9999 FEW017 SCT040 26/24 Q1010 NOSIG,M
VVTS,4/10/2012 18:30,106.6667,10.8167,78.8,75.2,88.75,120,5,0,29.83,M,6.21,M,FEW,SCT,M,M,1700,4000,M,M,M,M,M,M,M,M,M,82.38,VVTS 101830Z 12005KT 9999 FEW017 SCT040 26/24 Q1010 NOSIG,M
VVTS,4/10/2012 19:00,106.6667,10.8167,78.8,75.2,88.75,130,7,0,29.83,M,6.21,M,FEW,SCT,M,M,1700,4000,M,M,M,M,M,M,M,M,M,82.38,VVTS 101900Z 13007KT 9999 FEW017 SCT040 26/24 Q1010 NOSIG,M
VVTS,4/10/2012 19:30,106.6667,10.8167,78.8,75.2,88.75,130,8,0,29.83,M,6.21,M,FEW,SCT,M,M,1700,4000,M,M,M,M,M,M,M,M,M,82.38,VVTS 101930Z 13008KT 9999 FEW017 SCT040 26/24 Q1010 NOSIG,M
VVTS,4/10/2012 20:00,106.6667,10.8167,78.8,75.2,88.75,130,5,0,29.8,M,6.21,M,FEW,SCT,M,M,1700,4000,M,M,M,M,M,M,M,M,M,82.38,VVTS 102000Z 13005KT 9999 FEW017 SCT040 26/24 Q1009 NOSIG,M
VVTS,4/10/2012 20:30,106.6667,10.8167,78.8,75.2,88.75,M,3,0,29.8,M,6.21,M,FEW,SCT,M,M,1700,4000,M,M,M,M,M,M,M,M,M,82.38,VVTS 102030Z VRB03KT 9999 FEW017 SCT040 26/24 Q1009 NOSIG,M
VVTS,4/10/2012 21:00,106.6667,10.8167,78.8,75.2,88.75,170,3,0,29.8,M,6.21,M,FEW,M,M,M,1700,M,M,M,M,M,M,M,M,M,M,82.38,VVTS 102100Z 17003KT 9999 FEW017 26/24 Q1009 NOSIG,M
VVTS,4/10/2012 21:30,106.6667,10.8167,78.8,75.2,88.75,150,4,0,29.8,M,6.21,M,FEW,SCT,M,M,1700,4000,M,M,M,M,M,M,M,M,M,82.38,VVTS 102130Z 15004KT 9999 FEW017 SCT040 26/24 Q1009 NOSIG,M
VVTS,4/10/2012 22:00,106.6667,10.8167,78.8,75.2,88.75,130,4,0,29.8,M,6.21,M,FEW,SCT,M,M,1700,4000,M,M,M,M,M,M,M,M,M,82.38,VVTS 102200Z 13004KT 9999 FEW017 SCT040 26/24 Q1009 NOSIG,M
VVTS,4/10/2012 22:30,106.6667,10.8167,78.8,75.2,88.75,110,4,0,29.8,M,6.21,M,FEW,SCT,M,M,1700,4000,M,M,M,M,M,M,M,M,M,82.38,VVTS 102230Z 11004KT 9999 FEW017 SCT040 26/24 Q1009 NOSIG,M
VVTS,4/10/2012 23:00,106.6667,10.8167,78.8,75.2,88.75,130,4,0,29.8,M,6.21,M,FEW,SCT,M,M,1700,4000,M,M,M,M,M,M,M,M,M,82.38,VVTS 102300Z 13004KT 9999 FEW017 SCT040 26/24 Q1009 NOSIG,M
VVTS,4/10/2012 23:30,106.6667,10.8167,78.8,75.2,88.75,120,4,0,29.83,M,6.21,M,FEW,SCT,M,M,1700,4000,M,M,M,M,M,M,M,M,M,82.38,VVTS 102330Z 12004KT 090V160 9999 FEW017 SCT040 26/24 Q1010 NOSIG,M
VVTS,4/11/2012 0:00,106.6667,10.8167,80.6,75.2,83.66,100,7,0,29.83,M,6.21,M,FEW,SCT,M,M,1700,4000,M,M,M,M,M,M,M,M,M,86.17,VVTS 110000Z 10007KT 9999 FEW017 SCT040 27/24 Q1010 NOSIG,M
VVTS,4/11/2012 0:30,106.6667,10.8167,82.4,75.2,78.9,90,9,0,29.83,M,6.21,M,FEW,SCT,M,M,1700,4000,M,M,M,M,M,M,M,M,M,89.48,VVTS 110030Z 09009KT 9999 FEW017 SCT040 28/24 Q1010 NOSIG,M
VVTS,4/11/2012 1:00,106.6667,10.8167,84.2,75.2,74.44,120,9,0,29.85,M,6.21,M,SCT,M,M,M,1700,M,M,M,M,M,M,M,M,M,M,92.45,VVTS 110100Z 12009KT 9999 SCT017 29/24 Q1011 NOSIG,M
VVTS,4/11/2012 1:30,106.6667,10.8167,84.2,73.4,70.08,110,8,0,29.85,M,6.21,M,SCT,M,M,M,1700,M,M,M,M,M,M,M,M,M,M,90.94,VVTS 110130Z 11008KT 080V160 9999 SCT017 29/23 Q1011 NOSIG,M
VVTS,4/11/2012 2:00,106.6667,10.8167,84.2,73.4,70.08,130,10,0,29.85,M,6.21,M,SCT,M,M,M,1700,M,M,M,M,M,M,M,M,M,M,90.94,VVTS 110200Z 13010KT 9999 SCT017 29/23 Q1011 NOSIG,M
VVTS,4/11/2012 2:30,106.6667,10.8167,87.8,73.4,62.47,110,9,0,29.83,M,6.21,M,SCT,M,M,M,1700,M,M,M,M,M,M,M,M,M,M,95.86,VVTS 110230Z 11009KT 9999 SCT017 31/23 Q1010 NOSIG,M
VVTS,4/11/2012 3:00,106.6667,10.8167,87.8,73.4,62.47,130,8,0,29.83,M,6.21,M,SCT,M,M,M,1700,M,M,M,M,M,M,M,M,M,M,95.86,VVTS 110300Z 13008KT 9999 SCT017 31/23 Q1010 NOSIG,M
VVTS,4/11/2012 3:30,106.6667,10.8167,89.6,73.4,59.01,110,6,0,29.83,M,6.21,M,SCT,M,M,M,1700,M,M,M,M,M,M,M,M,M,M,98.2,VVTS 110330Z 11006KT 080V150 9999 SCT017 32/23 Q1010 NOSIG,M
VVTS,4/11/2012 4:00,106.6667,10.8167,89.6,73.4,59.01,120,8,0,29.83,M,6.21,M,BKN,M,M,M,1700,M,M,M,M,M,M,M,M,M,M,98.2,VVTS 110400Z 12008KT 9999 BKN017 32/23 Q1010 NOSIG,M
VVTS,4/11/2012 4:30,106.6667,10.8167,89.6,73.4,59.01,140,7,0,29.8,M,6.21,M,BKN,M,M,M,1700,M,M,M,M,M,M,M,M,M,M,98.2,VVTS 110430Z 14007KT 090V230 9999 BKN017 32/23 Q1009 NOSIG,M
VVTS,4/11/2012 5:00,106.6667,10.8167,91.4,73.4,55.77,140,5,0,29.8,M,6.21,M,SCT,M,M,M,1700,M,M,M,M,M,M,M,M,M,M,100.52,VVTS 110500Z 14005KT 070V210 9999 SCT017 33/23 Q1009 NOSIG,M
VVTS,4/11/2012 5:30,106.6667,10.8167,89.6,73.4,59.01,130,5,0,29.77,M,6.21,M,SCT,M,M,M,1700,M,M,M,M,M,M,M,M,M,M,98.2,VVTS 110530Z 13005KT 100V190 9999 SCT017 32/23 Q1008 NOSIG,M
VVTS,4/11/2012 6:00,106.6667,10.8167,91.4,71.6,52.48,190,5,0,29.77,M,6.21,M,SCT,M,M,M,1700,M,M,M,M,M,M,M,M,M,M,98.64,VVTS 110600Z 19005KT 140V240 9999 SCT017 33/22 Q1008 NOSIG,M
VVTS,4/11/2012 6:30,106.6667,10.8167,89.6,73.4,59.01,160,7,0,29.74,M,6.21,M,BKN,M,M,M,1700,M,M,M,M,M,M,M,M,M,M,98.2,VVTS 110630Z 16007KT 120V230 9999 BKN017 32/23 Q1007 NOSIG,M
VVTS,4/11/2012 7:00,106.6667,10.8167,91.4,73.4,55.77,170,8,0,29.74,M,6.21,M,FEW,SCT,M,M,1500,1700,M,M,M,M,M,M,M,M,M,100.52,VVTS 110700Z 17008KT 120V210 9999 FEW015TCU SCT017 33/23 Q1007 NOSIG,M
VVTS,4/11/2012 7:30,106.6667,10.8167,89.6,75.2,62.68,150,8,0,29.71,M,6.21,M,FEW,SCT,M,M,1500,1700,M,M,M,M,M,M,M,M,M,100.23,VVTS 110730Z 15008KT 110V190 9999 FEW015TCU SCT017 32/24 Q1006 NOSIG,M
VVTS,4/11/2012 8:00,106.6667,10.8167,91.4,75.2,59.24,170,10,0,29.71,M,6.21,M,FEW,SCT,M,M,1500,1700,M,M,M,M,M,M,M,M,M,102.65,VVTS 110800Z 17010KT 120V210 9999 FEW015TCU SCT017 33/24 Q1006 NOSIG,M
VVTS,4/11/2012 8:30,106.6667,10.8167,87.8,73.4,62.47,180,14,0,29.68,M,6.21,M,SCT,SCT,M,M,1500,1700,M,M,M,M,M,M,M,M,M,95.86,VVTS 110830Z 18014KT 9999 SCT015 SCT017CB 31/23 Q1005 TEMPO TL0840 32015G28KT 5000 TSRA,M
VVTS,4/11/2012 9:00,106.6667,10.8167,87.8,73.4,62.47,170,11,0,29.71,M,6.21,M,SCT,SCT,M,M,1500,1700,M,M,TS,M,M,M,M,M,M,95.86,VVTS 110900Z 17011KT 9999 TS SCT015 SCT017CB 31/23 Q1006 NOSIG,M
VVTS,4/11/2012 9:30,106.6667,10.8167,87.8,73.4,62.47,160,10,0,29.71,M,6.21,M,SCT,SCT,M,M,1500,1700,M,M,TS,M,M,M,M,M,M,95.86,VVTS 110930Z 16010KT 120V190 9999 TS SCT015 SCT017CB 31/23 Q1006 NOSIG,M
VVTS,4/11/2012 10:00,106.6667,10.8167,84.2,73.4,70.08,160,11,0,29.71,M,6.21,M,FEW,SCT,M,M,1500,1700,M,M,M,M,M,M,M,M,M,90.94,VVTS 111000Z 16011KT 9999 FEW015CB SCT017 29/23 Q1006 NOSIG,M
VVTS,4/11/2012 10:30,106.6667,10.8167,84.2,73.4,70.08,160,9,0,29.71,M,6.21,M,FEW,M,M,M,1700,M,M,M,M,M,M,M,M,M,M,90.94,VVTS 111030Z 16009KT 9999 FEW017 29/23 Q1006 NOSIG,M
VVTS,4/11/2012 11:00,106.6667,10.8167,82.4,73.4,74.28,160,9,0,29.71,M,6.21,M,FEW,M,M,M,1700,M,M,M,M,M,M,M,M,M,M,88.26,VVTS 111100Z 16009KT 9999 FEW017 28/23 Q1006 NOSIG,M
VVTS,4/11/2012 11:30,106.6667,10.8167,82.4,73.4,74.28,160,8,0,29.74,M,6.21,M,FEW,M,M,M,1700,M,M,M,M,M,M,M,M,M,M,88.26,VVTS 111130Z 16008KT 9999 FEW017 28/23 Q1007 NOSIG,M
VVTS,4/11/2012 12:00,106.6667,10.8167,82.4,75.2,78.9,140,9,0,29.74,M,6.21,M,FEW,M,M,M,1700,M,M,M,M,M,M,M,M,M,M,89.48,VVTS 111200Z 14009KT 9999 FEW017 28/24 Q1007 NOSIG,M
VVTS,4/11/2012 12:30,106.6667,10.8167,80.6,75.2,83.66,150,7,0,29.77,M,6.21,M,FEW,M,M,M,1700,M,M,M,M,M,M,M,M,M,M,86.17,VVTS 111230Z 15007KT 110V180 9999 FEW017 27/24 Q1008 NOSIG,M
VVTS,4/11/2012 13:00,106.6667,10.8167,80.6,75.2,83.66,130,9,0,29.77,M,6.21,M,FEW,M,M,M,1700,M,M,M,M,M,M,M,M,M,M,86.17,VVTS 111300Z 13009KT 9999 FEW017 27/24 Q1008 NOSIG,M
VVTS,4/11/2012 13:30,106.6667,10.8167,80.6,75.2,83.66,130,8,0,29.8,M,6.21,M,FEW,M,M,M,1700,M,M,M,M,M,M,M,M,M,M,86.17,VVTS 111330Z 13008KT 100V170 9999 FEW017 27/24 Q1009 NOSIG,M
VVTS,4/11/2012 14:00,106.6667,10.8167,80.6,75.2,83.66,130,7,0,29.8,M,6.21,M,FEW,M,M,M,1700,M,M,M,M,M,M,M,M,M,M,86.17,VVTS 111400Z 13007KT 100V170 9999 FEW017 27/24 Q1009 NOSIG,M
VVTS,4/11/2012 14:30,106.6667,10.8167,80.6,75.2,83.66,110,7,0,29.8,M,6.21,M,FEW,M,M,M,1700,M,M,M,M,M,M,M,M,M,M,86.17,VVTS 111430Z 11007KT 090V150 9999 FEW017 27/24 Q1009 NOSIG,M
VVTS,4/11/2012 15:00,106.6667,10.8167,80.6,75.2,83.66,120,6,0,29.8,M,6.21,M,FEW,M,M,M,1700,M,M,M,M,M,M,M,M,M,M,86.17,VVTS 111500Z 12006KT 9999 FEW017 27/24 Q1009 NOSIG,M
VVTS,4/11/2012 15:30,106.6667,10.8167,80.6,75.2,83.66,110,8,0,29.8,M,6.21,M,SCT,M,M,M,1700,M,M,M,M,M,M,M,M,M,M,86.17,VVTS 111530Z 11008KT 9999 SCT017 27/24 Q1009 NOSIG,M
VVTS,4/11/2012 16:00,106.6667,10.8167,80.6,75.2,83.66,M,3,0,29.8,M,6.21,M,SCT,M,M,M,1700,M,M,M,M,M,M,M,M,M,M,86.17,VVTS 111600Z VRB03KT 9999 SCT017 27/24 Q1009 NOSIG,M
VVTS,4/11/2012 16:30,106.6667,10.8167,80.6,75.2,83.66,80,3,0,29.8,M,6.21,M,SCT,M,M,M,1700,M,M,M,M,M,M,M,M,M,M,86.17,VVTS 111630Z 08003KT 9999 SCT017 27/24 Q1009 NOSIG,M
VVTS,4/11/2012 17:00,106.6667,10.8167,78.8,75.2,88.75,70,5,0,29.8,M,6.21,M,SCT,M,M,M,1700,M,M,M,M,M,M,M,M,M,M,82.38,VVTS 111700Z 07005KT 030V130 9999 SCT017 26/24 Q1009 NOSIG,M
VVTS,4/11/2012 17:30,106.6667,10.8167,78.8,75.2,88.75,100,5,0,29.8,M,6.21,M,SCT,M,M,M,1700,M,M,M,M,M,M,M,M,M,M,82.38,VVTS 111730Z 10005KT 060V160 9999 SCT017 26/24 Q1009 NOSIG,M
VVTS,4/11/2012 18:00,106.6667,10.8167,78.8,75.2,88.75,90,6,0,29.8,M,6.21,M,BKN,M,M,M,1700,M,M,M,M,M,M,M,M,M,M,82.38,VVTS 111800Z 09006KT 9999 BKN017 26/24 Q1009 NOSIG,M
VVTS,4/11/2012 18:30,106.6667,10.8167,78.8,75.2,88.75,100,6,0,29.77,M,6.21,M,BKN,M,M,M,1700,M,M,M,M,M,M,M,M,M,M,82.38,VVTS 111830Z 10006KT 9999 BKN017 26/24 Q1008 NOSIG,M
VVTS,4/11/2012 19:00,106.6667,10.8167,78.8,75.2,88.75,100,7,0,29.77,M,6.21,M,BKN,M,M,M,1700,M,M,M,M,M,M,M,M,M,M,82.38,VVTS 111900Z 10007KT 070V140 9999 BKN017 26/24 Q1008 NOSIG,M
VVTS,4/11/2012 19:30,106.6667,10.8167,78.8,75.2,88.75,110,6,0,29.77,M,6.21,M,BKN,M,M,M,1700,M,M,M,M,M,M,M,M,M,M,82.38,VVTS 111930Z 11006KT 9999 BKN017 26/24 Q1008 NOSIG,M
VVTS,4/11/2012 20:00,106.6667,10.8167,78.8,75.2,88.75,80,6,0,29.77,M,6.21,M,BKN,M,M,M,1700,M,M,M,M,M,M,M,M,M,M,82.38,VVTS 112000Z 08006KT 9999 BKN017 26/24 Q1008 NOSIG,M
VVTS,4/11/2012 20:30,106.6667,10.8167,78.8,75.2,88.75,70,5,0,29.77,M,6.21,M,BKN,M,M,M,1700,M,M,M,M,M,M,M,M,M,M,82.38,VVTS 112030Z 07005KT 9999 BKN017 26/24 Q1008 NOSIG,M
VVTS,4/11/2012 21:00,106.6667,10.8167,78.8,75.2,88.75,110,6,0,29.77,M,6.21,M,SCT,M,M,M,1500,M,M,M,M,M,M,M,M,M,M,82.38,VVTS 112100Z 11006KT 9999 SCT015 26/24 Q1008 NOSIG,M
VVTS,4/11/2012 21:30,106.6667,10.8167,78.8,75.2,88.75,130,4,0,29.77,M,6.21,M,SCT,M,M,M,1500,M,M,M,M,M,M,M,M,M,M,82.38,VVTS 112130Z 13004KT 9999 SCT015 26/24 Q1008 NOSIG,M
VVTS,4/11/2012 22:00,106.6667,10.8167,78.8,75.2,88.75,140,5,0,29.77,M,6.21,M,SCT,M,M,M,1500,M,M,M,M,M,M,M,M,M,M,82.38,VVTS 112200Z 14005KT 9999 SCT015 26/24 Q1008 NOSIG,M
VVTS,4/11/2012 22:30,106.6667,10.8167,78.8,75.2,88.75,110,5,0,29.77,M,6.21,M,SCT,M,M,M,1500,M,M,M,M,M,M,M,M,M,M,82.38,VVTS 112230Z 11005KT 9999 SCT015 26/24 Q1008 NOSIG,M
VVTS,4/11/2012 23:00,106.6667,10.8167,78.8,75.2,88.75,M,2,0,29.77,M,6.21,M,SCT,M,M,M,1500,M,M,M,M,M,M,M,M,M,M,82.38,VVTS 112300Z VRB02KT 9999 SCT015 26/24 Q1008 NOSIG,M
VVTS,4/11/2012 23:30,106.6667,10.8167,78.8,75.2,88.75,M,2,0,29.8,M,6.21,M,FEW,SCT,M,M,1500,4000,M,M,M,M,M,M,M,M,M,82.38,VVTS 112330Z VRB02KT 9999 FEW015 SCT040 26/24 Q1009 NOSIG,M
VVTS,4/12/2012 0:00,106.6667,10.8167,80.6,75.2,83.66,110,3,0,29.8,M,6.21,M,SCT,M,M,M,1700,M,M,M,M,M,M,M,M,M,M,86.17,VVTS 120000Z 11003KT 9999 SCT017 27/24 Q1009 NOSIG,M
VVTS,4/12/2012 0:30,106.6667,10.8167,80.6,75.2,83.66,100,7,0,29.83,M,6.21,M,FEW,SCT,M,M,1700,4000,M,M,M,M,M,M,M,M,M,86.17,VVTS 120030Z 10007KT 9999 FEW017 SCT040 27/24 Q1010 NOSIG,M
VVTS,4/12/2012 1:00,106.6667,10.8167,82.4,75.2,78.9,110,4,0,29.83,M,6.21,M,SCT,SCT,M,M,1700,4000,M,M,M,M,M,M,M,M,M,89.48,VVTS 120100Z 11004KT 080V160 9999 SCT017 SCT040 28/24 Q1010 NOSIG,M
VVTS,4/12/2012 1:30,106.6667,10.8167,82.4,75.2,78.9,130,5,0,29.83,M,6.21,M,SCT,SCT,M,M,1700,4000,M,M,M,M,M,M,M,M,M,89.48,VVTS 120130Z 13005KT 080V180 9999 SCT017 SCT040 28/24 Q1010 NOSIG,M
VVTS,4/12/2012 2:00,106.6667,10.8167,84.2,75.2,74.44,120,7,0,29.83,M,6.21,M,SCT,M,M,M,1700,M,M,M,M,M,M,M,M,M,M,92.45,VVTS 120200Z 12007KT 080V150 9999 SCT017 29/24 Q1010 NOSIG,M
VVTS,4/12/2012 2:30,106.6667,10.8167,87.8,73.4,62.47,120,8,0,29.83,M,6.21,M,SCT,M,M,M,1700,M,M,M,M,M,M,M,M,M,M,95.86,VVTS 120230Z 12008KT 9999 SCT017 31/23 Q1010 NOSIG,M
VVTS,4/12/2012 3:00,106.6667,10.8167,87.8,73.4,62.47,110,10,0,29.8,M,6.21,M,SCT,M,M,M,1700,M,M,M,M,M,M,M,M,M,M,95.86,VVTS 120300Z 11010KT 9999 SCT017 31/23 Q1009 NOSIG,M
VVTS,4/12/2012 3:30,106.6667,10.8167,89.6,73.4,59.01,130,7,0,29.8,M,6.21,M,SCT,M,M,M,1700,M,M,M,M,M,M,M,M,M,M,98.2,VVTS 120330Z 13007KT 070V230 9999 SCT017 32/23 Q1009 NOSIG,M
VVTS,4/12/2012 4:00,106.6667,10.8167,89.6,73.4,59.01,130,6,0,29.8,M,6.21,M,SCT,M,M,M,1700,M,M,M,M,M,M,M,M,M,M,98.2,VVTS 120400Z 13006KT 9999 SCT017 32/23 Q1009 NOSIG,M
VVTS,4/12/2012 4:30,106.6667,10.8167,89.6,73.4,59.01,150,7,0,29.8,M,6.21,M,SCT,M,M,M,1700,M,M,M,M,M,M,M,M,M,M,98.2,VVTS 120430Z 15007KT 080V180 9999 SCT017 32/23 Q1009 NOSIG,M
VVTS,4/12/2012 5:00,106.6667,10.8167,91.4,73.4,55.77,160,7,0,29.77,M,6.21,M,SCT,M,M,M,1700,M,M,M,M,M,M,M,M,M,M,100.52,VVTS 120500Z 16007KT 110V180 9999 SCT017 33/23 Q1008 NOSIG,M
VVTS,4/12/2012 5:30,106.6667,10.8167,89.6,73.4,59.01,150,7,0,29.77,M,6.21,M,BKN,M,M,M,1700,M,M,M,M,M,M,M,M,M,M,98.2,VVTS 120530Z 15007KT 100V180 9999 BKN017 32/23 Q1008 NOSIG,M
VVTS,4/12/2012 6:00,106.6667,10.8167,89.6,73.4,59.01,160,10,0,29.74,M,6.21,M,FEW,SCT,M,M,1500,1700,M,M,M,M,M,M,M,M,M,98.2,VVTS 120600Z 16010KT 9999 FEW015TCU SCT017 32/23 Q1007 NOSIG,M
VVTS,4/12/2012 6:30,106.6667,10.8167,91.4,73.4,55.77,150,9,0,29.74,M,6.21,M,FEW,SCT,M,M,1500,1700,M,M,M,M,M,M,M,M,M,100.52,VVTS 120630Z 15009KT 110V190 9999 FEW015CB SCT017 33/23 Q1007 NOSIG,M
VVTS,4/12/2012 7:00,106.6667,10.8167,89.6,73.4,59.01,160,9,0,29.71,M,6.21,M,FEW,SCT,M,M,1500,1700,M,M,M,M,M,M,M,M,M,98.2,VVTS 120700Z 16009KT 120V190 9999 FEW015CB SCT017 32/23 Q1006 NOSIG,M
VVTS,4/12/2012 7:30,106.6667,10.8167,91.4,73.4,55.77,140,9,0,29.71,M,6.21,M,SCT,SCT,M,M,1700,2000,M,M,TS,M,M,M,M,M,M,100.52,VVTS 120730Z 14009KT 110V170 9999 TS SCT017 SCT020CB 33/23 Q1006 NOSIG,M
VVTS,4/12/2012 8:00,106.6667,10.8167,89.6,73.4,59.01,140,9,0,29.71,M,6.21,M,SCT,SCT,M,M,1700,2000,M,M,TS,M,M,M,M,M,M,98.2,VVTS 120800Z 14009KT 100V180 9999 TS SCT017 SCT020CB 32/23 Q1006 NOSIG,M
VVTS,4/12/2012 8:30,106.6667,10.8167,89.6,73.4,59.01,140,8,0,29.71,M,6.21,M,FEW,SCT,M,M,1700,2000,M,M,M,M,M,M,M,M,M,98.2,VVTS 120830Z 14008KT 110V180 9999 FEW017CB SCT020 32/23 Q1006 NOSIG,M
VVTS,4/12/2012 9:00,106.6667,10.8167,87.8,71.6,58.78,130,9,0,29.71,M,6.21,M,FEW,SCT,M,M,1700,2000,M,M,M,M,M,M,M,M,M,94.18,VVTS 120900Z 13009KT 100V160 9999 FEW017CB SCT020 31/22 Q1006 NOSIG,M
VVTS,4/12/2012 9:30,106.6667,10.8167,87.8,71.6,58.78,150,10,0,29.71,M,6.21,M,FEW,SCT,M,M,1700,2000,M,M,M,M,M,M,M,M,M,94.18,VVTS 120930Z 15010KT 120V180 9999 FEW017CB SCT020 31/22 Q1006 NOSIG,M
VVTS,4/12/2012 10:00,106.6667,10.8167,86,71.6,62.25,150,12,0,29.71,M,6.21,M,FEW,SCT,M,M,1700,2000,M,M,M,M,M,M,M,M,M,91.92,VVTS 121000Z 15012KT 110V180 9999 FEW017CB SCT020 30/22 Q1006 NOSIG,M
VVTS,4/12/2012 10:30,106.6667,10.8167,84.2,73.4,70.08,130,9,0,29.71,M,6.21,M,FEW,SCT,M,M,1700,4000,M,M,M,M,M,M,M,M,M,90.94,VVTS 121030Z 13009KT 9999 FEW017 SCT040 29/23 Q1006 NOSIG,M
VVTS,4/12/2012 11:00,106.6667,10.8167,82.4,73.4,74.28,150,9,0,29.74,M,6.21,M,FEW,SCT,M,M,1700,4000,M,M,M,M,M,M,M,M,M,88.26,VVTS 121100Z 15009KT 130V200 9999 FEW017 SCT040 28/23 Q1007 NOSIG,M
VVTS,4/12/2012 11:30,106.6667,10.8167,82.4,73.4,74.28,140,8,0,29.74,M,6.21,M,FEW,SCT,M,M,1700,4000,M,M,M,M,M,M,M,M,M,88.26,VVTS 121130Z 14008KT 9999 FEW017 SCT040 28/23 Q1007 NOSIG,M
VVTS,4/12/2012 12:00,106.6667,10.8167,82.4,73.4,74.28,140,8,0,29.74,M,6.21,M,FEW,SCT,M,M,1700,4000,M,M,M,M,M,M,M,M,M,88.26,VVTS 121200Z 14008KT 100V170 9999 FEW017 SCT040 28/23 Q1007 NOSIG,M
VVTS,4/12/2012 12:30,106.6667,10.8167,82.4,73.4,74.28,150,10,0,29.77,M,6.21,M,FEW,M,M,M,1700,M,M,M,M,M,M,M,M,M,M,88.26,VVTS 121230Z 15010KT 9999 FEW017 28/23 Q1008 NOSIG,M
VVTS,4/12/2012 13:00,106.6667,10.8167,80.6,73.4,78.76,140,7,0,29.77,M,6.21,M,FEW,M,M,M,1700,M,M,M,M,M,M,M,M,M,M,85.32,VVTS 121300Z 14007KT 110V190 9999 FEW017 27/23 Q1008 NOSIG,M
VVTS,4/12/2012 13:30,106.6667,10.8167,80.6,75.2,83.66,130,8,0,29.77,M,6.21,M,FEW,M,M,M,1700,M,M,M,M,M,M,M,M,M,M,86.17,VVTS 121330Z 13008KT 110V180 9999 FEW017 27/24 Q1008 NOSIG,M
VVTS,4/12/2012 14:00,106.6667,10.8167,80.6,75.2,83.66,130,7,0,29.8,M,6.21,M,FEW,M,M,M,1700,M,M,M,M,M,M,M,M,M,M,86.17,VVTS 121400Z 13007KT 100V180 9999 FEW017 27/24 Q1009 NOSIG,M
VVTS,4/12/2012 14:30,106.6667,10.8167,80.6,75.2,83.66,110,6,0,29.8,M,6.21,M,FEW,M,M,M,1700,M,M,M,M,M,M,M,M,M,M,86.17,VVTS 121430Z 11006KT 9999 FEW017 27/24 Q1009 NOSIG,M
VVTS,4/12/2012 15:00,106.6667,10.8167,80.6,75.2,83.66,100,6,0,29.8,M,6.21,M,FEW,M,M,M,1700,M,M,M,M,M,M,M,M,M,M,86.17,VVTS 121500Z 10006KT 9999 FEW017 27/24 Q1009 NOSIG,M
VVTS,4/12/2012 15:30,106.6667,10.8167,80.6,75.2,83.66,120,4,0,29.8,M,6.21,M,FEW,M,M,M,1700,M,M,M,M,M,M,M,M,M,M,86.17,VVTS 121530Z 12004KT 9999 FEW017 27/24 Q1009 NOSIG,M
VVTS,4/12/2012 16:00,106.6667,10.8167,80.6,75.2,83.66,110,5,0,29.77,M,6.21,M,FEW,M,M,M,1700,M,M,M,M,M,M,M,M,M,M,86.17,VVTS 121600Z 11005KT 9999 FEW017 27/24 Q1008 NOSIG,M
VVTS,4/12/2012 16:30,106.6667,10.8167,80.6,75.2,83.66,130,5,0,29.77,M,6.21,M,FEW,M,M,M,1700,M,M,M,M,M,M,M,M,M,M,86.17,VVTS 121630Z 13005KT 9999 FEW017 27/24 Q1008 NOSIG,M
VVTS,4/12/2012 17:00,106.6667,10.8167,78.8,75.2,88.75,110,4,0,29.77,M,6.21,M,FEW,M,M,M,1700,M,M,M,M,M,M,M,M,M,M,82.38,VVTS 121700Z 11004KT 090V170 9999 FEW017 26/24 Q1008 NOSIG,M
VVTS,4/12/2012 17:30,106.6667,10.8167,78.8,75.2,88.75,110,5,0,29.77,M,6.21,M,FEW,M,M,M,1700,M,M,M,M,M,M,M,M,M,M,82.38,VVTS 121730Z 11005KT 9999 FEW017 26/24 Q1008 NOSIG,M
VVTS,4/12/2012 18:00,106.6667,10.8167,78.8,75.2,88.75,110,5,0,29.77,M,6.21,M,FEW,M,M,M,1700,M,M,M,M,M,M,M,M,M,M,82.38,VVTS 121800Z 11005KT 9999 FEW017 26/24 Q1008 NOSIG,M
VVTS,4/12/2012 18:30,106.6667,10.8167,78.8,75.2,88.75,90,6,0,29.74,M,6.21,M,FEW,M,M,M,1700,M,M,M,M,M,M,M,M,M,M,82.38,VVTS 121830Z 09006KT 9999 FEW017 26/24 Q1007 NOSIG,M
VVTS,4/12/2012 19:00,106.6667,10.8167,78.8,75.2,88.75,90,5,0,29.74,M,6.21,M,FEW,M,M,M,1700,M,M,M,M,M,M,M,M,M,M,82.38,VVTS 121900Z 09005KT 9999 FEW017 26/24 Q1007 NOSIG,M
VVTS,4/12/2012 19:30,106.6667,10.8167,78.8,75.2,88.75,90,5,0,29.74,M,6.21,M,FEW,M,M,M,1700,M,M,M,M,M,M,M,M,M,M,82.38,VVTS 121930Z 09005KT 9999 FEW017 26/24 Q1007 NOSIG,M
VVTS,4/12/2012 20:00,106.6667,10.8167,78.8,77,94.23,110,5,0,29.74,M,6.21,M,FEW,M,M,M,1700,M,M,M,M,M,M,M,M,M,M,82.75,VVTS 122000Z 11005KT 080V150 9999 FEW017 26/25 Q1007 NOSIG,M
VVTS,4/12/2012 20:30,106.6667,10.8167,78.8,75.2,88.75,100,5,0,29.74,M,6.21,M,SCT,M,M,M,1700,M,M,M,M,M,M,M,M,M,M,82.38,VVTS 122030Z 10005KT 9999 SCT017 26/24 Q1007 NOSIG,M
VVTS,4/12/2012 21:00,106.6667,10.8167,78.8,75.2,88.75,90,5,0,29.74,M,6.21,M,SCT,M,M,M,1700,M,M,M,M,M,M,M,M,M,M,82.38,VVTS 122100Z 09005KT 9999 SCT017 26/24 Q1007 NOSIG,M
VVTS,4/12/2012 21:30,106.6667,10.8167,78.8,75.2,88.75,100,6,0,29.77,M,6.21,M,SCT,M,M,M,1700,M,M,M,M,M,M,M,M,M,M,82.38,VVTS 122130Z 10006KT 9999 SCT017 26/24 Q1008 NOSIG,M
VVTS,4/12/2012 22:00,106.6667,10.8167,78.8,75.2,88.75,90,5,0,29.77,M,6.21,M,SCT,M,M,M,1700,M,M,M,M,M,M,M,M,M,M,82.38,VVTS 122200Z 09005KT 070V130 9999 SCT017 26/24 Q1008 NOSIG,M
VVTS,4/12/2012 22:30,106.6667,10.8167,77,75.2,94.19,90,5,0,29.8,M,6.21,M,FEW,M,M,M,1700,M,M,M,M,M,M,M,M,M,M,78.83,VVTS 122230Z 09005KT 9999 FEW017 25/24 Q1009 NOSIG,M
VVTS,4/12/2012 23:00,106.6667,10.8167,77,75.2,94.19,90,4,0,29.8,M,6.21,M,FEW,SCT,M,M,1700,4000,M,M,M,M,M,M,M,M,M,78.83,VVTS 122300Z 09004KT 060V130 9999 FEW017 SCT040 25/24 Q1009 NOSIG,M
VVTS,4/12/2012 23:30,106.6667,10.8167,78.8,75.2,88.75,90,5,0,29.8,M,6.21,M,FEW,M,M,M,1700,M,M,M,M,M,M,M,M,M,M,82.38,VVTS 122330Z 09005KT 9999 FEW017 26/24 Q1009 NOSIG,M
VVTS,4/13/2012 0:00,106.6667,10.8167,80.6,75.2,83.66,90,8,0,29.8,M,6.21,M,SCT,M,M,M,1700,M,M,M,M,M,M,M,M,M,M,86.17,VVTS 130000Z 09008KT 9999 SCT017 27/24 Q1009 NOSIG,M
VVTS,4/13/2012 0:30,106.6667,10.8167,82.4,75.2,78.9,110,8,0,29.83,M,6.21,M,SCT,M,M,M,1700,M,M,M,M,M,M,M,M,M,M,89.48,VVTS 130030Z 11008KT 070V140 9999 SCT017 28/24 Q1010 NOSIG,M
VVTS,4/13/2012 1:00,106.6667,10.8167,82.4,75.2,78.9,100,7,0,29.83,M,6.21,M,BKN,M,M,M,1700,M,M,M,M,M,M,M,M,M,M,89.48,VVTS 130100Z 10007KT 080V150 9999 BKN017 28/24 Q1010 NOSIG,M
VVTS,4/13/2012 1:30,106.6667,10.8167,84.2,75.2,74.44,130,7,0,29.83,M,6.21,M,BKN,M,M,M,1700,M,M,M,M,M,M,M,M,M,M,92.45,VVTS 130130Z 13007KT 100V170 9999 BKN017 29/24 Q1010 NOSIG,M
VVTS,4/13/2012 2:00,106.6667,10.8167,86,73.4,66.15,130,7,0,29.85,M,6.21,M,BKN,M,M,M,1700,M,M,M,M,M,M,M,M,M,M,93.45,VVTS 130200Z 13007KT 090V180 9999 BKN017 30/23 Q1011 NOSIG,M
VVTS,4/13/2012 2:30,106.6667,10.8167,87.8,73.4,62.47,100,9,0,29.85,M,6.21,M,BKN,M,M,M,1700,M,M,M,M,M,M,M,M,M,M,95.86,VVTS 130230Z 10009KT 070V130 9999 BKN017 31/23 Q1011 NOSIG,M
VVTS,4/13/2012 3:00,106.6667,10.8167,89.6,73.4,59.01,120,8,0,29.85,M,6.21,M,BKN,M,M,M,1700,M,M,M,M,M,M,M,M,M,M,98.2,VVTS 130300Z 12008KT 090V160 9999 BKN017 32/23 Q1011 NOSIG,M
VVTS,4/13/2012 3:30,106.6667,10.8167,89.6,73.4,59.01,110,5,0,29.83,M,6.21,M,BKN,M,M,M,1700,M,M,M,M,M,M,M,M,M,M,98.2,VVTS 130330Z 11005KT 070V170 9999 BKN017 32/23 Q1010 NOSIG,M
VVTS,4/13/2012 4:00,106.6667,10.8167,87.8,73.4,62.47,110,5,0,29.83,M,6.21,M,BKN,M,M,M,1700,M,M,M,M,M,M,M,M,M,M,95.86,VVTS 130400Z 11005KT 340V200 9999 BKN017 31/23 Q1010 NOSIG,M
VVTS,4/13/2012 4:30,106.6667,10.8167,89.6,73.4,59.01,130,5,0,29.8,M,6.21,M,BKN,M,M,M,1700,M,M,M,M,M,M,M,M,M,M,98.2,VVTS 130430Z 13005KT 040V200 9999 BKN017 32/23 Q1009 NOSIG,M
VVTS,4/13/2012 5:00,106.6667,10.8167,91.4,73.4,55.77,110,5,0,29.8,M,6.21,M,FEW,SCT,M,M,1700,2000,M,M,M,M,M,M,M,M,M,100.52,VVTS 130500Z 11005KT 040V150 9999 FEW017TCU SCT020 33/23 Q1009 NOSIG,M
VVTS,4/13/2012 5:30,106.6667,10.8167,89.6,73.4,59.01,110,7,0,29.77,M,6.21,M,FEW,SCT,M,M,1700,2000,M,M,M,M,M,M,M,M,M,98.2,VVTS 130530Z 11007KT 010V160 9999 FEW017TCU SCT020 32/23 Q1008 NOSIG,M
VVTS,4/13/2012 6:00,106.6667,10.8167,87.8,73.4,62.47,160,11,0,29.77,M,6.21,M,FEW,SCT,M,M,1500,1700,M,M,M,M,M,M,M,M,M,95.86,VVTS 130600Z 16011KT 9999 FEW015CB SCT017 31/23 Q1008 TEMPO FM0615 TL0700 11015G25KT 3000 TSRA,M
VVTS,4/13/2012 6:30,106.6667,10.8167,84.2,73.4,70.08,140,10,0,29.74,M,4.97,M,FEW,SCT,M,M,1500,1700,M,M,#NAME?,M,M,M,M,M,M,90.94,VVTS 130630Z 14010KT 110V190 8000 -SHRA FEW015CB SCT017 29/23 Q1007 TEMPO TL0700 11015G25KT 3000 TSRA,M
VVTS,4/13/2012 7:00,106.6667,10.8167,84.2,75.2,74.44,140,6,0,29.74,M,6.21,M,FEW,SCT,M,M,1500,1700,M,M,M,M,M,M,M,M,M,92.45,VVTS 130700Z 14006KT 9999 FEW015TCU SCT017 29/24 Q1007 NOSIG,M
VVTS,4/13/2012 7:30,106.6667,10.8167,87.8,75.2,66.35,150,6,0,29.74,M,6.21,M,FEW,SCT,M,M,1500,1700,M,M,M,M,M,M,M,M,M,97.76,VVTS 130730Z 15006KT 120V190 9999 FEW015TCU SCT017 31/24 Q1007 NOSIG,M
VVTS,4/13/2012 8:00,106.6667,10.8167,89.6,73.4,59.01,150,5,0,29.71,M,6.21,M,FEW,SCT,M,M,1700,2000,M,M,M,M,M,M,M,M,M,98.2,VVTS 130800Z 15005KT 120V180 9999 FEW017TCU SCT020 32/23 Q1006 NOSIG,M
VVTS,4/13/2012 8:30,106.6667,10.8167,89.6,75.2,62.68,170,7,0,29.71,M,6.21,M,FEW,SCT,M,M,1700,2000,M,M,M,M,M,M,M,M,M,100.23,VVTS 130830Z 17007KT 130V200 9999 FEW017TCU SCT020 32/24 Q1006 NOSIG,M
VVTS,4/13/2012 9:00,106.6667,10.8167,87.8,73.4,62.47,140,8,0,29.71,M,6.21,M,FEW,SCT,M,M,1500,1700,M,M,M,M,M,M,M,M,M,95.86,VVTS 130900Z 14008KT 120V190 9999 FEW015CB SCT017 31/23 Q1006 TEMPO FM0920 TL1000 5000 TSRA,M
VVTS,4/13/2012 9:30,106.6667,10.8167,86,75.2,70.27,110,12,0,29.71,M,3.11,M,SCT,SCT,M,M,1300,1500,M,M,TSRA,M,M,M,M,M,M,95.19,VVTS 130930Z 11012KT 080V170 5000 R25R/1400D TSRA SCT013 SCT015CB 30/24 Q1006 TEMPO TL1000 12015G25KT 3000 TSRA,M
VVTS,4/13/2012 10:00,106.6667,10.8167,82.4,78.8,88.9,170,4,0,29.71,M,6.21,M,FEW,SCT,M,M,1500,1700,M,M,M,M,M,M,M,M,M,92.4,VVTS 131000Z 17004KT 110V220 9999 FEW015TCU SCT017 28/26 Q1006 NOSIG,M
VVTS,4/13/2012 10:30,106.6667,10.8167,82.4,75.2,78.9,160,7,0,29.74,M,6.21,M,FEW,SCT,M,M,1700,4000,M,M,M,M,M,M,M,M,M,89.48,VVTS 131030Z 16007KT 9999 FEW017 SCT040 28/24 Q1007 NOSIG,M
VVTS,4/13/2012 11:00,106.6667,10.8167,82.4,73.4,74.28,150,5,0,29.74,M,6.21,M,FEW,SCT,M,M,1700,4000,M,M,M,M,M,M,M,M,M,88.26,VVTS 131100Z 15005KT 080V190 9999 FEW017 SCT040 28/23 Q1007 NOSIG,M
VVTS,4/13/2012 11:30,106.6667,10.8167,82.4,75.2,78.9,160,8,0,29.74,M,6.21,M,FEW,SCT,M,M,1700,4000,M,M,M,M,M,M,M,M,M,89.48,VVTS 131130Z 16008KT 9999 FEW017 SCT040 28/24 Q1007 NOSIG,M
VVTS,4/13/2012 12:00,106.6667,10.8167,82.4,75.2,78.9,130,6,0,29.74,M,6.21,M,FEW,SCT,M,M,1700,4000,M,M,M,M,M,M,M,M,M,89.48,VVTS 131200Z 13006KT 9999 FEW017 SCT040 28/24 Q1007 NOSIG,M
VVTS,4/13/2012 12:30,106.6667,10.8167,82.4,73.4,74.28,130,6,0,29.77,M,6.21,M,FEW,SCT,M,M,1700,4000,M,M,M,M,M,M,M,M,M,88.26,VVTS 131230Z 13006KT 100V170 9999 FEW017 SCT040 28/23 Q1008 NOSIG,M
VVTS,4/13/2012 13:00,106.6667,10.8167,82.4,73.4,74.28,120,4,0,29.77,M,6.21,M,FEW,SCT,M,M,1700,4000,M,M,M,M,M,M,M,M,M,88.26,VVTS 131300Z 12004KT 9999 FEW017 SCT040 28/23 Q1008 NOSIG,M
VVTS,4/13/2012 13:30,106.6667,10.8167,80.6,73.4,78.76,120,6,0,29.8,M,6.21,M,FEW,SCT,M,M,1700,4000,M,M,M,M,M,M,M,M,M,85.32,VVTS 131330Z 12006KT 100V170 9999 FEW017 SCT040 27/23 Q1009 NOSIG,M
VVTS,4/13/2012 14:00,106.6667,10.8167,80.6,75.2,83.66,M,3,0,29.8,M,6.21,M,FEW,SCT,M,M,1700,4000,M,M,M,M,M,M,M,M,M,86.17,VVTS 131400Z VRB03KT 9999 FEW017 SCT040 27/24 Q1009 NOSIG,M
VVTS,4/13/2012 14:30,106.6667,10.8167,80.6,75.2,83.66,130,6,0,29.83,M,6.21,M,FEW,SCT,M,M,1700,4000,M,M,M,M,M,M,M,M,M,86.17,VVTS 131430Z 13006KT 110V180 9999 FEW017 SCT040 27/24 Q1010 NOSIG,M
VVTS,4/13/2012 15:00,106.6667,10.8167,80.6,75.2,83.66,120,5,0,29.83,M,6.21,M,FEW,SCT,M,M,1700,4000,M,M,M,M,M,M,M,M,M,86.17,VVTS 131500Z 12005KT 9999 FEW017 SCT040 27/24 Q1010 NOSIG,M
VVTS,4/13/2012 15:30,106.6667,10.8167,80.6,75.2,83.66,120,4,0,29.85,M,6.21,M,FEW,SCT,M,M,1700,4000,M,M,M,M,M,M,M,M,M,86.17,VVTS 131530Z 12004KT 9999 FEW017 SCT040 27/24 Q1011 NOSIG,M
VVTS,4/13/2012 16:00,106.6667,10.8167,78.8,75.2,88.75,M,3,0,29.83,M,6.21,M,FEW,SCT,M,M,1700,4000,M,M,M,M,M,M,M,M,M,82.38,VVTS 131600Z VRB03KT 9999 FEW017 SCT040 26/24 Q1010 NOSIG,M
VVTS,4/13/2012 16:30,106.6667,10.8167,80.6,75.2,83.66,120,8,0,29.83,M,6.21,M,FEW,SCT,M,M,1700,4000,M,M,M,M,M,M,M,M,M,86.17,VVTS 131630Z 12008KT 9999 FEW017 SCT040 27/24 Q1010 NOSIG,M
VVTS,4/13/2012 17:00,106.6667,10.8167,80.6,75.2,83.66,130,7,0,29.83,M,6.21,M,FEW,SCT,M,M,1700,4000,M,M,M,M,M,M,M,M,M,86.17,VVTS 131700Z 13007KT 100V160 9999 FEW017 SCT040 27/24 Q1010 NOSIG,M
VVTS,4/13/2012 18:00,106.6667,10.8167,78.8,75.2,88.75,120,9,0,29.8,M,6.21,M,FEW,SCT,M,M,1700,4000,M,M,M,M,M,M,M,M,M,82.38,VVTS 131800Z 12009KT 9999 FEW017 SCT040 26/24 Q1009 NOSIG,M
VVTS,4/13/2012 18:30,106.6667,10.8167,78.8,75.2,88.75,120,6,0,29.8,M,6.21,M,FEW,SCT,M,M,1700,4000,M,M,M,M,M,M,M,M,M,82.38,VVTS 131830Z 12006KT 9999 FEW017 SCT040 26/24 Q1009 NOSIG,M
VVTS,4/13/2012 19:00,106.6667,10.8167,78.8,75.2,88.75,110,7,0,29.77,M,6.21,M,FEW,SCT,M,M,1700,4000,M,M,M,M,M,M,M,M,M,82.38,VVTS 131900Z 11007KT 9999 FEW017 SCT040 26/24 Q1008 NOSIG,M
VVTS,4/13/2012 19:30,106.6667,10.8167,78.8,75.2,88.75,110,4,0,29.77,M,6.21,M,FEW,SCT,M,M,1700,4000,M,M,M,M,M,M,M,M,M,82.38,VVTS 131930Z 11004KT 9999 FEW017 SCT040 26/24 Q1008 NOSIG,M
VVTS,4/13/2012 20:00,106.6667,10.8167,78.8,75.2,88.75,120,6,0,29.77,M,6.21,M,FEW,SCT,M,M,1700,4000,M,M,M,M,M,M,M,M,M,82.38,VVTS 132000Z 12006KT 9999 FEW017 SCT040 26/24 Q1008 NOSIG,M
VVTS,4/13/2012 20:30,106.6667,10.8167,78.8,73.4,83.55,120,6,0,29.77,M,6.21,M,FEW,SCT,M,M,1700,4000,M,M,M,M,M,M,M,M,M,82.03,VVTS 132030Z 12006KT 9999 FEW017 SCT040 26/23 Q1008 NOSIG,M
VVTS,4/13/2012 21:00,106.6667,10.8167,78.8,73.4,83.55,120,7,0,29.77,M,6.21,M,FEW,SCT,M,M,1700,4000,M,M,M,M,M,M,M,M,M,82.03,VVTS 132100Z 12007KT 9999 FEW017 SCT040 26/23 Q1008 NOSIG,M
VVTS,4/13/2012 21:30,106.6667,10.8167,78.8,73.4,83.55,120,8,0,29.77,M,6.21,M,FEW,SCT,M,M,1700,4000,M,M,M,M,M,M,M,M,M,82.03,VVTS 132130Z 12008KT 9999 FEW017 SCT040 26/23 Q1008 NOSIG,M
VVTS,4/13/2012 22:00,106.6667,10.8167,78.8,73.4,83.55,120,8,0,29.77,M,6.21,M,FEW,SCT,M,M,1700,4000,M,M,M,M,M,M,M,M,M,82.03,VVTS 132200Z 12008KT 9999 FEW017 SCT040 26/23 Q1008 NOSIG,M
VVTS,4/13/2012 22:30,106.6667,10.8167,77,73.4,88.67,120,7,0,29.77,M,6.21,M,FEW,SCT,M,M,1700,4000,M,M,M,M,M,M,M,M,M,78.57,VVTS 132230Z 12007KT 9999 FEW017 SCT040 25/23 Q1008 NOSIG,M
VVTS,4/13/2012 23:00,106.6667,10.8167,77,75.2,94.19,110,7,0,29.8,M,6.21,M,FEW,M,M,M,1700,M,M,M,M,M,M,M,M,M,M,78.83,VVTS 132300Z 11007KT 9999 FEW017 25/24 Q1009 NOSIG,M
VVTS,4/13/2012 23:30,106.6667,10.8167,78.8,75.2,88.75,100,6,0,29.8,M,6.21,M,FEW,M,M,M,1700,M,M,M,M,M,M,M,M,M,M,82.38,VVTS 132330Z 10006KT 9999 FEW017 26/24 Q1009 NOSIG,M
VVTS,4/14/2012 0:00,106.6667,10.8167,80.6,75.2,83.66,110,8,0,29.8,M,6.21,M,FEW,M,M,M,1700,M,M,M,M,M,M,M,M,M,M,86.17,VVTS 140000Z 11008KT 9999 FEW017 27/24 Q1009 NOSIG,M
VVTS,4/14/2012 0:30,106.6667,10.8167,82.4,75.2,78.9,110,11,0,29.83,M,6.21,M,FEW,M,M,M,1700,M,M,M,M,M,M,M,M,M,M,89.48,VVTS 140030Z 11011KT 9999 FEW017 28/24 Q1010 NOSIG,M
VVTS,4/14/2012 1:00,106.6667,10.8167,82.4,75.2,78.9,110,10,0,29.83,M,6.21,M,SCT,M,M,M,1700,M,M,M,M,M,M,M,M,M,M,89.48,VVTS 140100Z 11010KT 9999 SCT017 28/24 Q1010 NOSIG,M
VVTS,4/14/2012 1:30,106.6667,10.8167,84.2,75.2,74.44,110,12,0,29.85,M,6.21,M,SCT,M,M,M,1700,M,M,M,M,M,M,M,M,M,M,92.45,VVTS 140130Z 11012KT 9999 SCT017 29/24 Q1011 NOSIG,M
VVTS,4/14/2012 2:00,106.6667,10.8167,84.2,75.2,74.44,110,12,0,29.85,M,6.21,M,SCT,M,M,M,1700,M,M,M,M,M,M,M,M,M,M,92.45,VVTS 140200Z 11012KT 9999 SCT017 29/24 Q1011 NOSIG,M
VVTS,4/14/2012 2:30,106.6667,10.8167,87.8,75.2,66.35,120,11,0,29.85,M,6.21,M,SCT,M,M,M,1700,M,M,M,M,M,M,M,M,M,M,97.76,VVTS 140230Z 12011KT 090V160 9999 SCT017 31/24 Q1011 NOSIG,M
VVTS,4/14/2012 3:00,106.6667,10.8167,87.8,75.2,66.35,110,11,0,29.83,M,6.21,M,BKN,M,M,M,1700,M,M,M,M,M,M,M,M,M,M,97.76,VVTS 140300Z 11011KT 9999 BKN017 31/24 Q1010 NOSIG,M
VVTS,4/14/2012 3:30,106.6667,10.8167,87.8,75.2,66.35,110,11,0,29.83,M,6.21,M,BKN,M,M,M,1700,M,M,M,M,M,M,M,M,M,M,97.76,VVTS 140330Z 11011KT 070V140 9999 BKN017 31/24 Q1010 NOSIG,M
VVTS,4/14/2012 4:00,106.6667,10.8167,89.6,73.4,59.01,110,9,0,29.83,M,6.21,M,BKN,M,M,M,1700,M,M,M,M,M,M,M,M,M,M,98.2,VVTS 140400Z 11009KT 070V150 9999 BKN017 32/23 Q1010 NOSIG,M
VVTS,4/14/2012 4:30,106.6667,10.8167,89.6,75.2,62.68,110,10,0,29.8,M,6.21,M,BKN,M,M,M,1700,M,M,M,M,M,M,M,M,M,M,100.23,VVTS 140430Z 11010KT 9999 BKN017 32/24 Q1009 NOSIG,M
VVTS,4/14/2012 5:00,106.6667,10.8167,91.4,73.4,55.77,100,10,0,29.8,M,6.21,M,BKN,M,M,M,1700,M,M,M,M,M,M,M,M,M,M,100.52,VVTS 140500Z 10010KT 070V130 9999 BKN017 33/23 Q1009 NOSIG,M
VVTS,4/14/2012 5:30,106.6667,10.8167,91.4,73.4,55.77,120,8,0,29.77,M,6.21,M,BKN,M,M,M,1700,M,M,M,M,M,M,M,M,M,M,100.52,VVTS 140530Z 12008KT 9999 BKN017 33/23 Q1008 NOSIG,M
VVTS,4/14/2012 6:00,106.6667,10.8167,91.4,73.4,55.77,110,8,0,29.77,M,6.21,M,BKN,M,M,M,1700,M,M,M,M,M,M,M,M,M,M,100.52,VVTS 140600Z 11008KT 070V150 9999 BKN017 33/23 Q1008 NOSIG,M
VVTS,4/14/2012 6:30,106.6667,10.8167,93.2,73.4,52.73,130,5,0,29.74,M,6.21,M,BKN,M,M,M,1700,M,M,M,M,M,M,M,M,M,M,102.82,VVTS 140630Z 13005KT 090V160 9999 BKN017 34/23 Q1007 NOSIG,M
VVTS,4/14/2012 7:00,106.6667,10.8167,91.4,71.6,52.48,120,8,0,29.74,M,6.21,M,BKN,M,M,M,1700,M,M,M,M,M,M,M,M,M,M,98.64,VVTS 140700Z 12008KT 070V160 9999 BKN017 33/22 Q1007 NOSIG,M
VVTS,4/14/2012 7:30,106.6667,10.8167,93.2,73.4,52.73,160,8,0,29.74,M,6.21,M,FEW,SCT,M,M,1500,1700,M,M,M,M,M,M,M,M,M,102.82,VVTS 140730Z 16008KT 120V190 9999 FEW015TCU SCT017 34/23 Q1007 NOSIG,M
VVTS,4/14/2012 8:00,106.6667,10.8167,91.4,73.4,55.77,160,9,0,29.71,M,6.21,M,FEW,SCT,M,M,1500,1700,M,M,M,M,M,M,M,M,M,100.52,VVTS 140800Z 16009KT 130V210 9999 FEW015TCU SCT017 33/23 Q1006 NOSIG,M
VVTS,4/14/2012 8:30,106.6667,10.8167,91.4,73.4,55.77,160,10,0,29.71,M,6.21,M,FEW,SCT,M,M,1500,1700,M,M,M,M,M,M,M,M,M,100.52,VVTS 140830Z 16010KT 120V200 9999 FEW015CB SCT017 33/23 Q1006 NOSIG,M
VVTS,4/14/2012 9:00,106.6667,10.8167,89.6,73.4,59.01,150,10,0,29.71,M,6.21,M,FEW,SCT,M,M,1500,1700,M,M,M,M,M,M,M,M,M,98.2,VVTS 140900Z 15010KT 9999 FEW015CB SCT017 32/23 Q1006 NOSIG,M
VVTS,4/14/2012 9:30,106.6667,10.8167,89.6,71.6,55.53,150,12,0,29.71,M,6.21,M,FEW,SCT,M,M,1500,1700,M,M,M,M,M,M,M,M,M,96.41,VVTS 140930Z 15012KT 110V180 9999 FEW015CB SCT017 32/22 Q1006 NOSIG,M
VVTS,4/14/2012 10:00,106.6667,10.8167,87.8,73.4,62.47,150,11,0,29.71,M,6.21,M,FEW,SCT,M,M,1500,1700,M,M,M,M,M,M,M,M,M,95.86,VVTS 141000Z 15011KT 9999 FEW015CB SCT017 31/23 Q1006 NOSIG,M
VVTS,4/14/2012 10:30,106.6667,10.8167,86,71.6,62.25,150,9,0,29.74,M,6.21,M,FEW,M,M,M,1700,M,M,M,M,M,M,M,M,M,M,91.92,VVTS 141030Z 15009KT 9999 FEW017 30/22 Q1007 NOSIG,M
VVTS,4/14/2012 11:00,106.6667,10.8167,84.2,71.6,65.95,150,10,0,29.74,M,6.21,M,FEW,M,M,M,1700,M,M,M,M,M,M,M,M,M,M,89.6,VVTS 141100Z 15010KT 9999 FEW017 29/22 Q1007 NOSIG,M
VVTS,4/14/2012 11:30,106.6667,10.8167,82.4,73.4,74.28,150,10,0,29.74,M,6.21,M,FEW,M,M,M,1700,M,M,M,M,M,M,M,M,M,M,88.26,VVTS 141130Z 15010KT 9999 FEW017 28/23 Q1007 NOSIG,M
VVTS,4/14/2012 12:00,106.6667,10.8167,82.4,73.4,74.28,150,9,0,29.77,M,6.21,M,FEW,M,M,M,1700,M,M,M,M,M,M,M,M,M,M,88.26,VVTS 141200Z 15009KT 100V190 9999 FEW017 28/23 Q1008 NOSIG,M
VVTS,4/14/2012 12:30,106.6667,10.8167,82.4,73.4,74.28,140,10,0,29.77,M,6.21,M,FEW,M,M,M,1700,M,M,M,M,M,M,M,M,M,M,88.26,VVTS 141230Z 14010KT 9999 FEW017 28/23 Q1008 NOSIG,M
VVTS,4/14/2012 13:00,106.6667,10.8167,82.4,75.2,78.9,140,8,0,29.8,M,6.21,M,FEW,M,M,M,1700,M,M,M,M,M,M,M,M,M,M,89.48,VVTS 141300Z 14008KT 110V180 9999 FEW017 28/24 Q1009 NOSIG,M
VVTS,4/14/2012 13:30,106.6667,10.8167,80.6,75.2,83.66,120,7,0,29.8,M,6.21,M,FEW,M,M,M,1700,M,M,M,M,M,M,M,M,M,M,86.17,VVTS 141330Z 12007KT 090V160 9999 FEW017 27/24 Q1009 NOSIG,M
VVTS,4/14/2012 14:00,106.6667,10.8167,80.6,75.2,83.66,120,7,0,29.8,M,6.21,M,FEW,M,M,M,1700,M,M,M,M,M,M,M,M,M,M,86.17,VVTS 141400Z 12007KT 090V180 9999 FEW017 27/24 Q1009 NOSIG,M
VVTS,4/14/2012 14:30,106.6667,10.8167,80.6,75.2,83.66,130,5,0,29.83,M,6.21,M,FEW,M,M,M,1700,M,M,M,M,M,M,M,M,M,M,86.17,VVTS 141430Z 13005KT 9999 FEW017 27/24 Q1010 NOSIG,M
VVTS,4/14/2012 15:00,106.6667,10.8167,80.6,75.2,83.66,120,7,0,29.83,M,6.21,M,FEW,M,M,M,1700,M,M,M,M,M,M,M,M,M,M,86.17,VVTS 141500Z 12007KT 9999 FEW017 27/24 Q1010 NOSIG,M
VVTS,4/14/2012 15:30,106.6667,10.8167,80.6,75.2,83.66,100,6,0,29.83,M,6.21,M,FEW,M,M,M,1700,M,M,M,M,M,M,M,M,M,M,86.17,VVTS 141530Z 10006KT 9999 FEW017 27/24 Q1010 NOSIG,M
VVTS,4/14/2012 16:00,106.6667,10.8167,80.6,75.2,83.66,100,5,0,29.83,M,6.21,M,FEW,M,M,M,1700,M,M,M,M,M,M,M,M,M,M,86.17,VVTS 141600Z 10005KT 080V190 9999 FEW017 27/24 Q1010 NOSIG,M
VVTS,4/14/2012 16:30,106.6667,10.8167,80.6,75.2,83.66,120,6,0,29.83,M,6.21,M,FEW,M,M,M,1700,M,M,M,M,M,M,M,M,M,M,86.17,VVTS 141630Z 12006KT 9999 FEW017 27/24 Q1010 NOSIG,M
VVTS,4/14/2012 17:00,106.6667,10.8167,80.6,75.2,83.66,110,7,0,29.83,M,6.21,M,FEW,M,M,M,1700,M,M,M,M,M,M,M,M,M,M,86.17,VVTS 141700Z 11007KT 090V170 9999 FEW017 27/24 Q1010 NOSIG,M
VVTS,4/14/2012 17:30,106.6667,10.8167,80.6,75.2,83.66,100,5,0,29.83,M,6.21,M,FEW,M,M,M,1700,M,M,M,M,M,M,M,M,M,M,86.17,VVTS 141730Z 10005KT 060V160 9999 FEW017 27/24 Q1010 NOSIG,M
VVTS,4/14/2012 18:00,106.6667,10.8167,78.8,75.2,88.75,130,7,0,29.8,M,6.21,M,FEW,M,M,M,1700,M,M,M,M,M,M,M,M,M,M,82.38,VVTS 141800Z 13007KT 9999 FEW017 26/24 Q1009 NOSIG,M
VVTS,4/14/2012 18:30,106.6667,10.8167,78.8,75.2,88.75,120,7,0,29.8,M,6.21,M,FEW,M,M,M,1700,M,M,M,M,M,M,M,M,M,M,82.38,VVTS 141830Z 12007KT 9999 FEW017 26/24 Q1009 NOSIG,M
VVTS,4/14/2012 19:00,106.6667,10.8167,78.8,75.2,88.75,110,6,0,29.77,M,6.21,M,FEW,M,M,M,1700,M,M,M,M,M,M,M,M,M,M,82.38,VVTS 141900Z 11006KT 9999 FEW017 26/24 Q1008 NOSIG,M
VVTS,4/14/2012 19:30,106.6667,10.8167,78.8,75.2,88.75,100,5,0,29.77,M,6.21,M,FEW,M,M,M,1700,M,M,M,M,M,M,M,M,M,M,82.38,VVTS 141930Z 10005KT 060V140 9999 FEW017 26/24 Q1008 NOSIG,M
VVTS,4/14/2012 20:00,106.6667,10.8167,78.8,75.2,88.75,110,5,0,29.77,M,6.21,M,FEW,M,M,M,1700,M,M,M,M,M,M,M,M,M,M,82.38,VVTS 142000Z 11005KT 9999 FEW017 26/24 Q1008 NOSIG,M
VVTS,4/14/2012 20:30,106.6667,10.8167,78.8,75.2,88.75,120,4,0,29.77,M,6.21,M,FEW,M,M,M,1700,M,M,M,M,M,M,M,M,M,M,82.38,VVTS 142030Z 12004KT 9999 FEW017 26/24 Q1008 NOSIG,M
VVTS,4/14/2012 21:00,106.6667,10.8167,78.8,75.2,88.75,100,4,0,29.77,M,6.21,M,FEW,M,M,M,1700,M,M,M,M,M,M,M,M,M,M,82.38,VVTS 142100Z 10004KT 9999 FEW017 26/24 Q1008 NOSIG,M
VVTS,4/14/2012 21:30,106.6667,10.8167,78.8,75.2,88.75,130,3,0,29.77,M,6.21,M,FEW,M,M,M,1700,M,M,M,M,M,M,M,M,M,M,82.38,VVTS 142130Z 13003KT 9999 FEW017 26/24 Q1008 NOSIG,M
VVTS,4/14/2012 22:00,106.6667,10.8167,78.8,75.2,88.75,110,4,0,29.8,M,6.21,M,FEW,M,M,M,1700,M,M,M,M,M,M,M,M,M,M,82.38,VVTS 142200Z 11004KT 9999 FEW017 26/24 Q1009 NOSIG,M
VVTS,4/14/2012 22:30,106.6667,10.8167,78.8,75.2,88.75,120,4,0,29.8,M,6.21,M,FEW,M,M,M,1700,M,M,M,M,M,M,M,M,M,M,82.38,VVTS 142230Z 12004KT 9999 FEW017 26/24 Q1009 NOSIG,M
VVTS,4/14/2012 23:00,106.6667,10.8167,78.8,75.2,88.75,130,4,0,29.8,M,6.21,M,FEW,M,M,M,1700,M,M,M,M,M,M,M,M,M,M,82.38,VVTS 142300Z 13004KT 9999 FEW017 26/24 Q1009 NOSIG,M
VVTS,4/14/2012 23:30,106.6667,10.8167,80.6,75.2,83.66,130,7,0,29.8,M,6.21,M,FEW,M,M,M,1700,M,M,M,M,M,M,M,M,M,M,86.17,VVTS 142330Z 13007KT 9999 FEW017 27/24 Q1009 NOSIG,M
VVTS,4/15/2012 0:00,106.6667,10.8167,80.6,75.2,83.66,110,6,0,29.8,M,6.21,M,FEW,M,M,M,1700,M,M,M,M,M,M,M,M,M,M,86.17,VVTS 150000Z 11006KT 9999 FEW017 27/24 Q1009 NOSIG,M
VVTS,4/15/2012 0:30,106.6667,10.8167,82.4,75.2,78.9,140,9,0,29.83,M,6.21,M,FEW,M,M,M,1700,M,M,M,M,M,M,M,M,M,M,89.48,VVTS 150030Z 14009KT 9999 FEW017 28/24 Q1010 NOSIG,M
VVTS,4/15/2012 1:00,106.6667,10.8167,84.2,75.2,74.44,140,10,0,29.83,M,6.21,M,FEW,M,M,M,1700,M,M,M,M,M,M,M,M,M,M,92.45,VVTS 150100Z 14010KT 9999 FEW017 29/24 Q1010 NOSIG,M
VVTS,4/15/2012 1:30,106.6667,10.8167,84.2,75.2,74.44,140,9,0,29.83,M,6.21,M,SCT,M,M,M,1700,M,M,M,M,M,M,M,M,M,M,92.45,VVTS 150130Z 14009KT 9999 SCT017 29/24 Q1010 NOSIG,M
VVTS,4/15/2012 2:00,106.6667,10.8167,87.8,75.2,66.35,160,8,0,29.85,M,6.21,M,SCT,M,M,M,1700,M,M,M,M,M,M,M,M,M,M,97.76,VVTS 150200Z 16008KT 120V200 9999 SCT017 31/24 Q1011 NOSIG,M
VVTS,4/15/2012 2:30,106.6667,10.8167,86,73.4,66.15,120,9,0,29.83,M,6.21,M,BKN,M,M,M,1700,M,M,M,M,M,M,M,M,M,M,93.45,VVTS 150230Z 12009KT 9999 BKN017 30/23 Q1010 NOSIG,M
VVTS,4/15/2012 3:00,106.6667,10.8167,87.8,75.2,66.35,130,9,0,29.83,M,6.21,M,BKN,M,M,M,1700,M,M,M,M,M,M,M,M,M,M,97.76,VVTS 150300Z 13009KT 100V160 9999 BKN017 31/24 Q1010 NOSIG,M
VVTS,4/15/2012 3:30,106.6667,10.8167,87.8,73.4,62.47,120,10,0,29.83,M,6.21,M,BKN,M,M,M,1700,M,M,M,M,M,M,M,M,M,M,95.86,VVTS 150330Z 12010KT 9999 BKN017 31/23 Q1010 NOSIG,M
VVTS,4/15/2012 4:00,106.6667,10.8167,89.6,73.4,59.01,140,10,0,29.8,M,6.21,M,SCT,M,M,M,1700,M,M,M,M,M,M,M,M,M,M,98.2,VVTS 150400Z 14010KT 110V170 9999 SCT017 32/23 Q1009 NOSIG,M
VVTS,4/15/2012 4:30,106.6667,10.8167,89.6,73.4,59.01,150,8,0,29.8,M,6.21,M,SCT,M,M,M,1700,M,M,M,M,M,M,M,M,M,M,98.2,VVTS 150430Z 15008KT 100V210 9999 SCT017 32/23 Q1009 NOSIG,M
VVTS,4/15/2012 5:00,106.6667,10.8167,89.6,71.6,55.53,120,9,0,29.8,M,6.21,M,SCT,M,M,M,1700,M,M,M,M,M,M,M,M,M,M,96.41,VVTS 150500Z 12009KT 9999 SCT017 32/22 Q1009 NOSIG,M
VVTS,4/15/2012 5:30,106.6667,10.8167,91.4,73.4,55.77,120,9,0,29.77,M,6.21,M,SCT,M,M,M,1700,M,M,M,M,M,M,M,M,M,M,100.52,VVTS 150530Z 12009KT 090V160 9999 SCT017 33/23 Q1008 NOSIG,M
VVTS,4/15/2012 6:00,106.6667,10.8167,91.4,73.4,55.77,150,8,0,29.77,M,6.21,M,SCT,M,M,M,1700,M,M,M,M,M,M,M,M,M,M,100.52,VVTS 150600Z 15008KT 9999 SCT017 33/23 Q1008 NOSIG,M
VVTS,4/15/2012 6:30,106.6667,10.8167,91.4,71.6,52.48,160,7,0,29.77,M,6.21,M,SCT,M,M,M,1700,M,M,M,M,M,M,M,M,M,M,98.64,VVTS 150630Z 16007KT 110V210 9999 SCT017 33/22 Q1008 NOSIG,M
VVTS,4/15/2012 7:00,106.6667,10.8167,91.4,73.4,55.77,160,8,0,29.74,M,6.21,M,SCT,M,M,M,1700,M,M,M,M,M,M,M,M,M,M,100.52,VVTS 150700Z 16008KT 120V190 9999 SCT017 33/23 Q1007 NOSIG,M
VVTS,4/15/2012 7:30,106.6667,10.8167,91.4,73.4,55.77,170,8,0,29.74,M,6.21,M,SCT,M,M,M,1700,M,M,M,M,M,M,M,M,M,M,100.52,VVTS 150730Z 17008KT 090V210 9999 SCT017 33/23 Q1007 NOSIG,M
VVTS,4/15/2012 8:00,106.6667,10.8167,91.4,73.4,55.77,170,9,0,29.71,M,6.21,M,SCT,M,M,M,1700,M,M,M,M,M,M,M,M,M,M,100.52,VVTS 150800Z 17009KT 130V210 9999 SCT017 33/23 Q1006 NOSIG,M
VVTS,4/15/2012 8:30,106.6667,10.8167,89.6,71.6,55.53,150,9,0,29.71,M,6.21,M,SCT,M,M,M,2000,M,M,M,M,M,M,M,M,M,M,96.41,VVTS 150830Z 15009KT 120V190 9999 SCT020 32/22 Q1006 NOSIG,M
VVTS,4/15/2012 9:00,106.6667,10.8167,89.6,73.4,59.01,160,9,0,29.71,M,6.21,M,SCT,M,M,M,2000,M,M,M,M,M,M,M,M,M,M,98.2,VVTS 150900Z 16009KT 9999 SCT020 32/23 Q1006 NOSIG,M
VVTS,4/15/2012 9:30,106.6667,10.8167,89.6,71.6,55.53,140,8,0,29.68,M,6.21,M,FEW,M,M,M,2000,M,M,M,M,M,M,M,M,M,M,96.41,VVTS 150930Z 14008KT 9999 FEW020 32/22 Q1005 NOSIG,M
VVTS,4/15/2012 10:00,106.6667,10.8167,87.8,73.4,62.47,160,8,0,29.71,M,6.21,M,FEW,M,M,M,2000,M,M,M,M,M,M,M,M,M,M,95.86,VVTS 151000Z 16008KT 9999 FEW020 31/23 Q1006 NOSIG,M
VVTS,4/15/2012 10:30,106.6667,10.8167,87.8,73.4,62.47,130,8,0,29.71,M,6.21,M,FEW,M,M,M,2000,M,M,M,M,M,M,M,M,M,M,95.86,VVTS 151030Z 13008KT 9999 FEW020 31/23 Q1006 NOSIG,M
VVTS,4/15/2012 11:00,106.6667,10.8167,84.2,73.4,70.08,170,7,0,29.71,M,6.21,M,FEW,M,M,M,2000,M,M,M,M,M,M,M,M,M,M,90.94,VVTS 151100Z 17007KT 9999 FEW020 29/23 Q1006 NOSIG,M
VVTS,4/15/2012 11:30,106.6667,10.8167,84.2,73.4,70.08,140,6,0,29.71,M,6.21,M,FEW,M,M,M,2000,M,M,M,M,M,M,M,M,M,M,90.94,VVTS 151130Z 14006KT 110V190 9999 FEW020 29/23 Q1006 NOSIG,M
VVTS,4/15/2012 12:00,106.6667,10.8167,82.4,73.4,74.28,160,6,0,29.74,M,6.21,M,FEW,M,M,M,1700,M,M,M,M,M,M,M,M,M,M,88.26,VVTS 151200Z 16006KT 110V190 9999 FEW017 28/23 Q1007 NOSIG,M
VVTS,4/15/2012 12:30,106.6667,10.8167,82.4,73.4,74.28,160,8,0,29.74,M,6.21,M,FEW,M,M,M,1700,M,M,M,M,M,M,M,M,M,M,88.26,VVTS 151230Z 16008KT 130V210 9999 FEW017 28/23 Q1007 NOSIG,M
VVTS,4/15/2012 13:00,106.6667,10.8167,82.4,73.4,74.28,150,10,0,29.77,M,6.21,M,FEW,M,M,M,1700,M,M,M,M,M,M,M,M,M,M,88.26,VVTS 151300Z 15010KT 9999 FEW017 28/23 Q1008 NOSIG,M
VVTS,4/15/2012 13:30,106.6667,10.8167,82.4,75.2,78.9,160,9,0,29.77,M,6.21,M,FEW,M,M,M,1700,M,M,M,M,M,M,M,M,M,M,89.48,VVTS 151330Z 16009KT 9999 FEW017 28/24 Q1008 NOSIG,M
VVTS,4/15/2012 14:00,106.6667,10.8167,82.4,75.2,78.9,150,8,0,29.8,M,6.21,M,FEW,M,M,M,1700,M,M,M,M,M,M,M,M,M,M,89.48,VVTS 151400Z 15008KT 130V190 9999 FEW017 28/24 Q1009 NOSIG,M
VVTS,4/15/2012 14:30,106.6667,10.8167,82.4,73.4,74.28,140,7,0,29.8,M,6.21,M,FEW,M,M,M,1700,M,M,M,M,M,M,M,M,M,M,88.26,VVTS 151430Z 14007KT 9999 FEW017 28/23 Q1009 NOSIG,M
VVTS,4/15/2012 15:00,106.6667,10.8167,82.4,75.2,78.9,140,6,0,29.83,M,6.21,M,FEW,M,M,M,1700,M,M,M,M,M,M,M,M,M,M,89.48,VVTS 151500Z 14006KT 9999 FEW017 28/24 Q1010 NOSIG,M
VVTS,4/15/2012 15:30,106.6667,10.8167,80.6,75.2,83.66,110,5,0,29.8,M,6.21,M,FEW,M,M,M,1700,M,M,M,M,M,M,M,M,M,M,86.17,VVTS 151530Z 11005KT 9999 FEW017 27/24 Q1009 NOSIG,M
VVTS,4/15/2012 16:00,106.6667,10.8167,80.6,75.2,83.66,120,6,0,29.83,M,6.21,M,FEW,M,M,M,1700,M,M,M,M,M,M,M,M,M,M,86.17,VVTS 151600Z 12006KT 9999 FEW017 27/24 Q1010 NOSIG,M
VVTS,4/15/2012 16:30,106.6667,10.8167,80.6,75.2,83.66,120,5,0,29.8,M,6.21,M,FEW,M,M,M,1700,M,M,M,M,M,M,M,M,M,M,86.17,VVTS 151630Z 12005KT 9999 FEW017 27/24 Q1009 NOSIG,M
VVTS,4/15/2012 17:00,106.6667,10.8167,80.6,75.2,83.66,140,5,0,29.8,M,6.21,M,FEW,M,M,M,1700,M,M,M,M,M,M,M,M,M,M,86.17,VVTS 151700Z 14005KT 110V190 9999 FEW017 27/24 Q1009 NOSIG,M
VVTS,4/15/2012 17:30,106.6667,10.8167,80.6,75.2,83.66,130,4,0,29.77,M,6.21,M,FEW,M,M,M,1700,M,M,M,M,M,M,M,M,M,M,86.17,VVTS 151730Z 13004KT 100V170 9999 FEW017 27/24 Q1008 NOSIG,M
VVTS,4/15/2012 18:00,106.6667,10.8167,80.6,75.2,83.66,130,4,0,29.77,M,6.21,M,FEW,M,M,M,1700,M,M,M,M,M,M,M,M,M,M,86.17,VVTS 151800Z 13004KT 100V160 9999 FEW017 27/24 Q1008 NOSIG,M
VVTS,4/15/2012 18:30,106.6667,10.8167,80.6,75.2,83.66,120,3,0,29.77,M,6.21,M,FEW,M,M,M,1700,M,M,M,M,M,M,M,M,M,M,86.17,VVTS 151830Z 12003KT 9999 FEW017 27/24 Q1008 NOSIG,M
VVTS,4/15/2012 19:00,106.6667,10.8167,80.6,75.2,83.66,110,3,0,29.74,M,6.21,M,FEW,M,M,M,1700,M,M,M,M,M,M,M,M,M,M,86.17,VVTS 151900Z 11003KT 9999 FEW017 27/24 Q1007 NOSIG,M
VVTS,4/15/2012 19:30,106.6667,10.8167,80.6,75.2,83.66,110,4,0,29.74,M,6.21,M,FEW,M,M,M,1700,M,M,M,M,M,M,M,M,M,M,86.17,VVTS 151930Z 11004KT 9999 FEW017 27/24 Q1007 NOSIG,M
VVTS,4/15/2012 20:00,106.6667,10.8167,78.8,77,94.23,120,5,0,29.74,M,6.21,M,FEW,M,M,M,1700,M,M,M,M,M,M,M,M,M,M,82.75,VVTS 152000Z 12005KT 9999 FEW017 26/25 Q1007 NOSIG,M
VVTS,4/15/2012 20:30,106.6667,10.8167,78.8,77,94.23,130,5,0,29.74,M,6.21,M,FEW,M,M,M,1700,M,M,M,M,M,M,M,M,M,M,82.75,VVTS 152030Z 13005KT 9999 FEW017 26/25 Q1007 NOSIG,M
VVTS,4/15/2012 21:00,106.6667,10.8167,78.8,77,94.23,160,5,0,29.74,M,6.21,M,FEW,M,M,M,1700,M,M,M,M,M,M,M,M,M,M,82.75,VVTS 152100Z 16005KT 9999 FEW017 26/25 Q1007 NOSIG,M
VVTS,4/15/2012 21:30,106.6667,10.8167,78.8,77,94.23,140,3,0,29.74,M,6.21,M,FEW,M,M,M,1700,M,M,M,M,M,M,M,M,M,M,82.75,VVTS 152130Z 14003KT 9999 FEW017 26/25 Q1007 NOSIG,M
VVTS,4/15/2012 22:00,106.6667,10.8167,78.8,77,94.23,110,3,0,29.74,M,6.21,M,FEW,M,M,M,1700,M,M,M,M,M,M,M,M,M,M,82.75,VVTS 152200Z 11003KT 9999 FEW017 26/25 Q1007 NOSIG,M
VVTS,4/15/2012 22:30,106.6667,10.8167,78.8,77,94.23,120,4,0,29.74,M,6.21,M,FEW,M,M,M,1700,M,M,M,M,M,M,M,M,M,M,82.75,VVTS 152230Z 12004KT 9999 FEW017 26/25 Q1007 NOSIG,M
VVTS,4/15/2012 23:00,106.6667,10.8167,78.8,77,94.23,110,4,0,29.77,M,6.21,M,FEW,M,M,M,1700,M,M,M,M,M,M,M,M,M,M,82.75,VVTS 152300Z 11004KT 090V160 9999 FEW017 26/25 Q1008 NOSIG,M
VVTS,4/15/2012 23:30,106.6667,10.8167,80.6,78.8,94.27,110,5,0,29.77,M,6.21,M,SCT,M,M,M,1700,M,M,M,M,M,M,M,M,M,M,89.33,VVTS 152330Z 11005KT 9999 SCT017 27/26 Q1008 NOSIG,M
VVTS,4/16/2012 0:00,106.6667,10.8167,80.6,77,88.83,110,6,0,29.77,M,6.21,M,SCT,M,M,M,1700,M,M,M,M,M,M,M,M,M,M,87.1,VVTS 160000Z 11006KT 9999 SCT017 27/25 Q1008 NOSIG,M
VVTS,4/16/2012 0:30,106.6667,10.8167,82.4,77,83.77,120,6,0,29.77,M,6.21,M,SCT,M,M,M,1700,M,M,M,M,M,M,M,M,M,M,90.85,VVTS 160030Z 12006KT 090V160 9999 SCT017 28/25 Q1008 NOSIG,M
VVTS,4/16/2012 1:00,106.6667,10.8167,82.4,77,83.77,120,5,0,29.8,M,6.21,M,SCT,M,M,M,1700,M,M,M,M,M,M,M,M,M,M,90.85,VVTS 160100Z 12005KT 080V150 9999 SCT017 28/25 Q1009 NOSIG,M
VVTS,4/16/2012 1:30,106.6667,10.8167,84.2,75.2,74.44,140,6,0,29.8,M,6.21,M,SCT,M,M,M,1700,M,M,M,M,M,M,M,M,M,M,92.45,VVTS 160130Z 14006KT 110V170 9999 SCT017 29/24 Q1009 NOSIG,M
VVTS,4/16/2012 2:00,106.6667,10.8167,87.8,75.2,66.35,90,5,0,29.8,M,6.21,M,SCT,M,M,M,1700,M,M,M,M,M,M,M,M,M,M,97.76,VVTS 160200Z 09005KT 060V130 9999 SCT017 31/24 Q1009 NOSIG,M
VVTS,4/16/2012 2:30,106.6667,10.8167,87.8,75.2,66.35,110,4,0,29.8,M,6.21,M,SCT,M,M,M,1700,M,M,M,M,M,M,M,M,M,M,97.76,VVTS 160230Z 11004KT 030V150 9999 SCT017 31/24 Q1009 NOSIG,M
VVTS,4/16/2012 3:00,106.6667,10.8167,87.8,73.4,62.47,100,8,0,29.8,M,6.21,M,SCT,M,M,M,1700,M,M,M,M,M,M,M,M,M,M,95.86,VVTS 160300Z 10008KT 060V130 9999 SCT017 31/23 Q1009 NOSIG,M
VVTS,4/16/2012 3:30,106.6667,10.8167,89.6,73.4,59.01,110,6,0,29.8,M,6.21,M,SCT,M,M,M,1700,M,M,M,M,M,M,M,M,M,M,98.2,VVTS 160330Z 11006KT 070V160 9999 SCT017 32/23 Q1009 NOSIG,M
VVTS,4/16/2012 4:00,106.6667,10.8167,91.4,73.4,55.77,140,4,0,29.8,M,6.21,M,SCT,M,M,M,1700,M,M,M,M,M,M,M,M,M,M,100.52,VVTS 160400Z 14004KT 090V210 9999 SCT017 33/23 Q1009 NOSIG,M
VVTS,4/16/2012 4:30,106.6667,10.8167,89.6,73.4,59.01,130,6,0,29.77,M,6.21,M,SCT,M,M,M,1700,M,M,M,M,M,M,M,M,M,M,98.2,VVTS 160430Z 13006KT 090V170 9999 SCT017 32/23 Q1008 NOSIG,M
VVTS,4/16/2012 5:00,106.6667,10.8167,91.4,73.4,55.77,170,5,0,29.77,M,6.21,M,BKN,M,M,M,1700,M,M,M,M,M,M,M,M,M,M,100.52,VVTS 160500Z 17005KT 080V220 9999 BKN017 33/23 Q1008 NOSIG,M
VVTS,4/16/2012 5:30,106.6667,10.8167,89.6,73.4,59.01,170,7,0,29.74,M,6.21,M,BKN,M,M,M,1700,M,M,M,M,M,M,M,M,M,M,98.2,VVTS 160530Z 17007KT 130V200 9999 BKN017 32/23 Q1007 NOSIG,M
VVTS,4/16/2012 6:00,106.6667,10.8167,91.4,73.4,55.77,190,4,0,29.74,M,6.21,M,BKN,M,M,M,1700,M,M,M,M,M,M,M,M,M,M,100.52,VVTS 160600Z 19004KT 010V290 9999 BKN017 33/23 Q1007 NOSIG,M
VVTS,4/16/2012 6:30,106.6667,10.8167,91.4,73.4,55.77,200,7,0,29.71,M,6.21,M,BKN,M,M,M,1700,M,M,M,M,M,M,M,M,M,M,100.52,VVTS 160630Z 20007KT 9999 BKN017 33/23 Q1006 NOSIG,M
VVTS,4/16/2012 7:00,106.6667,10.8167,91.4,75.2,59.24,150,6,0,29.71,M,6.21,M,BKN,M,M,M,1700,M,M,M,M,M,M,M,M,M,M,102.65,VVTS 160700Z 15006KT 100V180 9999 BKN017 33/24 Q1006 NOSIG,M
VVTS,4/16/2012 7:30,106.6667,10.8167,91.4,75.2,59.24,180,9,0,29.68,M,6.21,M,FEW,SCT,M,M,1500,1700,M,M,M,M,M,M,M,M,M,102.65,VVTS 160730Z 18009KT 9999 FEW015TCU SCT017 33/24 Q1005 NOSIG,M
VVTS,4/16/2012 8:00,106.6667,10.8167,89.6,75.2,62.68,150,9,0,29.68,M,6.21,M,SCT,M,M,M,1700,M,M,M,M,M,M,M,M,M,M,100.23,VVTS 160800Z 15009KT 9999 SCT017 32/24 Q1005 NOSIG,M
VVTS,4/16/2012 8:30,106.6667,10.8167,89.6,73.4,59.01,150,10,0,29.68,M,6.21,M,SCT,M,M,M,1700,M,M,M,M,M,M,M,M,M,M,98.2,VVTS 160830Z 15010KT 9999 SCT017 32/23 Q1005 NOSIG,M
VVTS,4/16/2012 9:00,106.6667,10.8167,89.6,71.6,55.53,140,9,0,29.68,M,6.21,M,SCT,M,M,M,1700,M,M,M,M,M,M,M,M,M,M,96.41,VVTS 160900Z 14009KT 9999 SCT017 32/22 Q1005 NOSIG,M
VVTS,4/16/2012 9:30,106.6667,10.8167,87.8,69.8,55.29,160,9,0,29.68,M,6.21,M,SCT,M,M,M,1700,M,M,M,M,M,M,M,M,M,M,92.71,VVTS 160930Z 16009KT 9999 SCT017 31/21 Q1005 NOSIG,M
VVTS,4/16/2012 10:00,106.6667,10.8167,87.8,71.6,58.78,160,8,0,29.68,M,6.21,M,SCT,M,M,M,1700,M,M,M,M,M,M,M,M,M,M,94.18,VVTS 161000Z 16008KT 9999 SCT017 31/22 Q1005 NOSIG,M
VVTS,4/16/2012 10:30,106.6667,10.8167,86,71.6,62.25,150,9,0,29.68,M,6.21,M,SCT,M,M,M,1700,M,M,M,M,M,M,M,M,M,M,91.92,VVTS 161030Z 15009KT 9999 SCT017 30/22 Q1005 NOSIG,M
VVTS,4/16/2012 11:00,106.6667,10.8167,84.2,73.4,70.08,140,7,0,29.68,M,6.21,M,FEW,M,M,M,1700,M,M,M,M,M,M,M,M,M,M,90.94,VVTS 161100Z 14007KT 9999 FEW017 29/23 Q1005 NOSIG,M
VVTS,4/16/2012 11:30,106.6667,10.8167,84.2,75.2,74.44,130,7,0,29.68,M,6.21,M,FEW,M,M,M,1700,M,M,M,M,M,M,M,M,M,M,92.45,VVTS 161130Z 13007KT 110V180 9999 FEW017 29/24 Q1005 NOSIG,M
VVTS,4/16/2012 12:00,106.6667,10.8167,84.2,75.2,74.44,140,8,0,29.71,M,6.21,M,FEW,M,M,M,1700,M,M,M,M,M,M,M,M,M,M,92.45,VVTS 161200Z 14008KT 110V170 9999 FEW017 29/24 Q1006 NOSIG,M
VVTS,4/16/2012 12:30,106.6667,10.8167,82.4,75.2,78.9,120,8,0,29.71,M,6.21,M,FEW,M,M,M,1700,M,M,M,M,M,M,M,M,M,M,89.48,VVTS 161230Z 12008KT 9999 FEW017 28/24 Q1006 NOSIG,M
VVTS,4/16/2012 13:00,106.6667,10.8167,82.4,75.2,78.9,110,7,0,29.74,M,6.21,M,FEW,M,M,M,1700,M,M,M,M,M,M,M,M,M,M,89.48,VVTS 161300Z 11007KT 090V160 9999 FEW017 28/24 Q1007 NOSIG,M
VVTS,4/16/2012 13:30,106.6667,10.8167,82.4,75.2,78.9,120,5,0,29.74,M,6.21,M,FEW,M,M,M,1700,M,M,M,M,M,M,M,M,M,M,89.48,VVTS 161330Z 12005KT 090V190 9999 FEW017 28/24 Q1007 NOSIG,M
VVTS,4/16/2012 14:00,106.6667,10.8167,82.4,77,83.77,150,7,0,29.77,M,6.21,M,FEW,M,M,M,1700,M,M,M,M,M,M,M,M,M,M,90.85,VVTS 161400Z 15007KT 120V200 9999 FEW017 28/25 Q1008 NOSIG,M
VVTS,4/16/2012 14:30,106.6667,10.8167,82.4,77,83.77,140,8,0,29.77,M,6.21,M,FEW,M,M,M,1700,M,M,M,M,M,M,M,M,M,M,90.85,VVTS 161430Z 14008KT 9999 FEW017 28/25 Q1008 NOSIG,M
VVTS,4/16/2012 15:00,106.6667,10.8167,82.4,77,83.77,140,6,0,29.8,M,6.21,M,SCT,M,M,M,1700,M,M,M,M,M,M,M,M,M,M,90.85,VVTS 161500Z 14006KT 100V170 9999 SCT017 28/25 Q1009 NOSIG,M
VVTS,4/16/2012 15:30,106.6667,10.8167,82.4,77,83.77,110,5,0,29.8,M,6.21,M,SCT,M,M,M,1700,M,M,M,M,M,M,M,M,M,M,90.85,VVTS 161530Z 11005KT 9999 SCT017 28/25 Q1009 NOSIG,M
VVTS,4/16/2012 16:00,106.6667,10.8167,82.4,77,83.77,120,6,0,29.8,M,6.21,M,SCT,M,M,M,1700,M,M,M,M,M,M,M,M,M,M,90.85,VVTS 161600Z 12006KT 9999 SCT017 28/25 Q1009 NOSIG,M
VVTS,4/16/2012 16:30,106.6667,10.8167,82.4,77,83.77,110,6,0,29.8,M,6.21,M,SCT,M,M,M,1700,M,M,M,M,M,M,M,M,M,M,90.85,VVTS 161630Z 11006KT 080V140 9999 SCT017 28/25 Q1009 NOSIG,M
VVTS,4/16/2012 17:00,106.6667,10.8167,80.6,78.8,94.27,140,6,0,29.8,M,6.21,M,SCT,M,M,M,1700,M,M,M,M,M,M,M,M,M,M,89.33,VVTS 161700Z 14006KT 9999 SCT017 27/26 Q1009 NOSIG,M
VVTS,4/16/2012 17:30,106.6667,10.8167,80.6,78.8,94.27,160,5,0,29.77,M,6.21,M,SCT,M,M,M,1700,M,M,M,M,M,M,M,M,M,M,89.33,VVTS 161730Z 16005KT 120V200 9999 SCT017 27/26 Q1008 NOSIG,M
VVTS,4/16/2012 18:00,106.6667,10.8167,80.6,77,88.83,140,5,0,29.77,M,6.21,M,SCT,M,M,M,1700,M,M,M,M,M,M,M,M,M,M,87.1,VVTS 161800Z 14005KT 9999 SCT017 27/25 Q1008 NOSIG,M
VVTS,4/16/2012 18:30,106.6667,10.8167,80.6,78.8,94.27,140,4,0,29.77,M,6.21,M,SCT,M,M,M,1700,M,M,M,M,M,M,M,M,M,M,89.33,VVTS 161830Z 14004KT 9999 SCT017 27/26 Q1008 NOSIG,M
VVTS,4/16/2012 19:00,106.6667,10.8167,80.6,77,88.83,150,5,0,29.74,M,6.21,M,SCT,M,M,M,1700,M,M,M,M,M,M,M,M,M,M,87.1,VVTS 161900Z 15005KT 110V180 9999 SCT017 27/25 Q1007 NOSIG,M
VVTS,4/16/2012 19:30,106.6667,10.8167,80.6,77,88.83,150,4,0,29.74,M,6.21,M,SCT,M,M,M,1700,M,M,M,M,M,M,M,M,M,M,87.1,VVTS 161930Z 15004KT 120V200 9999 SCT017 27/25 Q1007 NOSIG,M
VVTS,4/16/2012 20:00,106.6667,10.8167,80.6,77,88.83,150,5,0,29.74,M,6.21,M,SCT,M,M,M,1700,M,M,M,M,M,M,M,M,M,M,87.1,VVTS 162000Z 15005KT 9999 SCT017 27/25 Q1007 NOSIG,M
VVTS,4/16/2012 20:30,106.6667,10.8167,80.6,78.8,94.27,130,4,0,29.74,M,6.21,M,SCT,M,M,M,1700,M,M,M,M,M,M,M,M,M,M,89.33,VVTS 162030Z 13004KT 9999 SCT017 27/26 Q1007 NOSIG,M
VVTS,4/16/2012 21:00,106.6667,10.8167,80.6,78.8,94.27,150,5,0,29.74,M,6.21,M,SCT,M,M,M,1700,M,M,M,M,M,M,M,M,M,M,89.33,VVTS 162100Z 15005KT 9999 SCT017 27/26 Q1007 NOSIG,M
VVTS,4/16/2012 21:30,106.6667,10.8167,80.6,78.8,94.27,150,5,0,29.74,M,6.21,M,SCT,M,M,M,1700,M,M,M,M,M,M,M,M,M,M,89.33,VVTS 162130Z 15005KT 9999 SCT017 27/26 Q1007 NOSIG,M
VVTS,4/16/2012 22:00,106.6667,10.8167,80.6,78.8,94.27,100,5,0,29.74,M,6.21,M,SCT,M,M,M,1700,M,M,M,M,M,M,M,M,M,M,89.33,VVTS 162200Z 10005KT 9999 SCT017 27/26 Q1007 NOSIG,M
VVTS,4/16/2012 22:30,106.6667,10.8167,80.6,78.8,94.27,100,4,0,29.74,M,6.21,M,SCT,M,M,M,1700,M,M,M,M,M,M,M,M,M,M,89.33,VVTS 162230Z 10004KT 9999 SCT017 27/26 Q1007 NOSIG,M
VVTS,4/16/2012 23:00,106.6667,10.8167,80.6,78.8,94.27,100,4,0,29.77,M,6.21,M,SCT,M,M,M,1700,M,M,M,M,M,M,M,M,M,M,89.33,VVTS 162300Z 10004KT 9999 SCT017 27/26 Q1008 NOSIG,M
VVTS,4/16/2012 23:30,106.6667,10.8167,80.6,78.8,94.27,70,4,0,29.77,M,4.35,M,FEW,SCT,M,M,1500,1700,M,M,M,M,M,M,M,M,M,89.33,VVTS 162330Z 07004KT 7000 FEW015TCU SCT017 27/26 Q1008 NOSIG,M
VVTS,4/17/2012 0:00,106.6667,10.8167,80.6,78.8,94.27,70,4,0,29.77,M,4.97,M,FEW,SCT,M,M,1500,1700,M,M,M,M,M,M,M,M,M,89.33,VVTS 170000Z 07004KT 8000 FEW015TCU SCT017 27/26 Q1008 NOSIG,M
VVTS,4/17/2012 0:30,106.6667,10.8167,82.4,78.8,88.9,90,5,0,29.77,M,4.97,M,FEW,SCT,M,M,1500,1700,M,M,M,M,M,M,M,M,M,92.4,VVTS 170030Z 09005KT 060V120 8000 FEW015TCU SCT017 28/26 Q1008 NOSIG,M
VVTS,4/17/2012 1:00,106.6667,10.8167,84.2,77,79.04,100,4,0,29.8,M,6.21,M,BKN,M,M,M,1700,M,M,M,M,M,M,M,M,M,M,94.16,VVTS 170100Z 10004KT 040V140 9999 BKN017 29/25 Q1009 NOSIG,M
VVTS,4/17/2012 1:30,106.6667,10.8167,84.2,77,79.04,110,6,0,29.8,M,6.21,M,BKN,M,M,M,1700,M,M,M,M,M,M,M,M,M,M,94.16,VVTS 170130Z 11006KT 080V150 9999 BKN017 29/25 Q1009 NOSIG,M
VVTS,4/17/2012 2:00,106.6667,10.8167,84.2,77,79.04,170,6,0,29.8,M,6.21,M,BKN,M,M,M,1700,M,M,M,M,M,M,M,M,M,M,94.16,VVTS 170200Z 17006KT 140V200 9999 BKN017 29/25 Q1009 NOSIG,M
VVTS,4/17/2012 2:30,106.6667,10.8167,89.6,77,66.55,150,6,0,29.77,M,6.21,M,BKN,M,M,M,1700,M,M,M,M,M,M,M,M,M,M,102.54,VVTS 170230Z 15006KT 090V190 9999 BKN017 32/25 Q1008 NOSIG,M
VVTS,4/17/2012 3:00,106.6667,10.8167,89.6,75.2,62.68,140,7,0,29.77,M,6.21,M,BKN,M,M,M,1700,M,M,M,M,M,M,M,M,M,M,100.23,VVTS 170300Z 14007KT 100V190 9999 BKN017 32/24 Q1008 NOSIG,M
VVTS,4/17/2012 3:30,106.6667,10.8167,87.8,75.2,66.35,140,7,0,29.77,M,6.21,M,BKN,M,M,M,1700,M,M,M,M,M,M,M,M,M,M,97.76,VVTS 170330Z 14007KT 090V180 9999 BKN017 31/24 Q1008 NOSIG,M
VVTS,4/17/2012 4:00,106.6667,10.8167,89.6,75.2,62.68,130,7,0,29.77,M,6.21,M,BKN,M,M,M,1700,M,M,M,M,M,M,M,M,M,M,100.23,VVTS 170400Z 13007KT 060V170 9999 BKN017 32/24 Q1008 NOSIG,M
VVTS,4/17/2012 4:30,106.6667,10.8167,91.4,75.2,59.24,150,7,0,29.74,M,6.21,M,BKN,M,M,M,1700,M,M,M,M,M,M,M,M,M,M,102.65,VVTS 170430Z 15007KT 090V200 9999 BKN017 33/24 Q1007 NOSIG,M
VVTS,4/17/2012 5:00,106.6667,10.8167,91.4,73.4,55.77,160,6,0,29.71,M,6.21,M,BKN,M,M,M,1700,M,M,M,M,M,M,M,M,M,M,100.52,VVTS 170500Z 16006KT 120V210 9999 BKN017 33/23 Q1006 NOSIG,M
VVTS,4/17/2012 5:30,106.6667,10.8167,93.2,75.2,56.01,140,6,0,29.71,M,6.21,M,BKN,M,M,M,1700,M,M,M,M,M,M,M,M,M,M,105.02,VVTS 170530Z 14006KT 330V230 9999 BKN017 34/24 Q1006 NOSIG,M
VVTS,4/17/2012 6:00,106.6667,10.8167,93.2,75.2,56.01,150,8,0,29.68,M,6.21,M,BKN,M,M,M,1700,M,M,M,M,M,M,M,M,M,M,105.02,VVTS 170600Z 15008KT 110V190 9999 BKN017 34/24 Q1005 NOSIG,M
VVTS,4/17/2012 6:30,106.6667,10.8167,91.4,75.2,59.24,160,7,0,29.68,M,6.21,M,BKN,M,M,M,1700,M,M,M,M,M,M,M,M,M,M,102.65,VVTS 170630Z 16007KT 130V210 9999 BKN017 33/24 Q1005 NOSIG,M
VVTS,4/17/2012 7:00,106.6667,10.8167,93.2,75.2,56.01,180,7,0,29.65,M,6.21,M,BKN,M,M,M,2000,M,M,M,M,M,M,M,M,M,M,105.02,VVTS 170700Z 18007KT 110V250 9999 BKN020 34/24 Q1004 NOSIG,M
VVTS,4/17/2012 7:30,106.6667,10.8167,91.4,75.2,59.24,150,7,0,29.65,M,6.21,M,SCT,M,M,M,2000,M,M,M,M,M,M,M,M,M,M,102.65,VVTS 170730Z 15007KT 100V190 9999 SCT020 33/24 Q1004 NOSIG,M
VVTS,4/17/2012 8:00,106.6667,10.8167,91.4,75.2,59.24,150,9,0,29.65,M,6.21,M,SCT,M,M,M,2000,M,M,M,M,M,M,M,M,M,M,102.65,VVTS 170800Z 15009KT 9999 SCT020 33/24 Q1004 NOSIG,M
VVTS,4/17/2012 8:30,106.6667,10.8167,91.4,73.4,55.77,170,8,0,29.65,M,6.21,M,SCT,M,M,M,2000,M,M,M,M,M,M,M,M,M,M,100.52,VVTS 170830Z 17008KT 9999 SCT020 33/23 Q1004 NOSIG,M
VVTS,4/17/2012 9:00,106.6667,10.8167,91.4,73.4,55.77,160,9,0,29.62,M,6.21,M,SCT,M,M,M,2000,M,M,M,M,M,M,M,M,M,M,100.52,VVTS 170900Z 16009KT 9999 SCT020 33/23 Q1003 NOSIG,M
VVTS,4/17/2012 9:30,106.6667,10.8167,91.4,73.4,55.77,160,9,0,29.65,M,6.21,M,SCT,M,M,M,2000,M,M,M,M,M,M,M,M,M,M,100.52,VVTS 170930Z 16009KT 130V190 9999 SCT020 33/23 Q1004 NOSIG,M
VVTS,4/17/2012 10:00,106.6667,10.8167,89.6,73.4,59.01,150,9,0,29.65,M,6.21,M,SCT,M,M,M,2000,M,M,M,M,M,M,M,M,M,M,98.2,VVTS 171000Z 15009KT 110V190 9999 SCT020 32/23 Q1004 NOSIG,M
VVTS,4/17/2012 10:30,106.6667,10.8167,87.8,73.4,62.47,150,11,0,29.65,M,6.21,M,FEW,M,M,M,2000,M,M,M,M,M,M,M,M,M,M,95.86,VVTS 171030Z 15011KT 9999 FEW020 31/23 Q1004 NOSIG,M
VVTS,4/17/2012 11:00,106.6667,10.8167,86,73.4,66.15,150,9,0,29.65,M,6.21,M,FEW,M,M,M,2000,M,M,M,M,M,M,M,M,M,M,93.45,VVTS 171100Z 15009KT 120V180 9999 FEW020 30/23 Q1004 NOSIG,M
VVTS,4/17/2012 11:30,106.6667,10.8167,84.2,75.2,74.44,150,8,0,29.65,M,6.21,M,FEW,M,M,M,2000,M,M,M,M,M,M,M,M,M,M,92.45,VVTS 171130Z 15008KT 9999 FEW020 29/24 Q1004 NOSIG,M
VVTS,4/17/2012 12:00,106.6667,10.8167,84.2,77,79.04,150,10,0,29.68,M,6.21,M,FEW,M,M,M,2000,M,M,M,M,M,M,M,M,M,M,94.16,VVTS 171200Z 15010KT 9999 FEW020 29/25 Q1005 NOSIG,M
VVTS,4/17/2012 12:30,106.6667,10.8167,82.4,77,83.77,140,11,0,29.68,M,6.21,M,FEW,M,M,M,2000,M,M,M,M,M,M,M,M,M,M,90.85,VVTS 171230Z 14011KT 9999 FEW020 28/25 Q1005 NOSIG,M
VVTS,4/17/2012 13:30,106.6667,10.8167,82.4,77,83.77,150,8,0,29.71,M,6.21,M,FEW,M,M,M,2000,M,M,M,M,M,M,M,M,M,M,90.85,VVTS 171330Z 15008KT 110V200 9999 FEW020 28/25 Q1006 NOSIG,M
VVTS,4/17/2012 14:00,106.6667,10.8167,82.4,77,83.77,140,6,0,29.71,M,6.21,M,FEW,M,M,M,2000,M,M,M,M,M,M,M,M,M,M,90.85,VVTS 171400Z 14006KT 100V190 9999 FEW020 28/25 Q1006 NOSIG,M
VVTS,4/17/2012 14:30,106.6667,10.8167,82.4,77,83.77,120,7,0,29.74,M,6.21,M,FEW,M,M,M,2000,M,M,M,M,M,M,M,M,M,M,90.85,VVTS 171430Z 12007KT 100V180 9999 FEW020 28/25 Q1007 NOSIG,M
VVTS,4/17/2012 15:00,106.6667,10.8167,82.4,77,83.77,140,8,0,29.74,M,6.21,M,FEW,M,M,M,1700,M,M,M,M,M,M,M,M,M,M,90.85,VVTS 171500Z 14008KT 9999 FEW017 28/25 Q1007 NOSIG,M
VVTS,4/17/2012 15:30,106.6667,10.8167,82.4,77,83.77,140,6,0,29.74,M,6.21,M,FEW,M,M,M,1700,M,M,M,M,M,M,M,M,M,M,90.85,VVTS 171530Z 14006KT 9999 FEW017 28/25 Q1007 NOSIG,M
VVTS,4/17/2012 16:00,106.6667,10.8167,82.4,77,83.77,120,6,0,29.74,M,6.21,M,FEW,M,M,M,1700,M,M,M,M,M,M,M,M,M,M,90.85,VVTS 171600Z 12006KT 090V160 9999 FEW017 28/25 Q1007 NOSIG,M
VVTS,4/17/2012 16:30,106.6667,10.8167,82.4,77,83.77,140,7,0,29.74,M,6.21,M,FEW,M,M,M,1700,M,M,M,M,M,M,M,M,M,M,90.85,VVTS 171630Z 14007KT 9999 FEW017 28/25 Q1007 NOSIG,M
VVTS,4/17/2012 17:00,106.6667,10.8167,82.4,77,83.77,150,7,0,29.74,M,6.21,M,FEW,M,M,M,1700,M,M,M,M,M,M,M,M,M,M,90.85,VVTS 171700Z 15007KT 110V200 9999 FEW017 28/25 Q1007 NOSIG,M
VVTS,4/17/2012 17:30,106.6667,10.8167,82.4,77,83.77,140,4,0,29.74,M,6.21,M,FEW,M,M,M,1700,M,M,M,M,M,M,M,M,M,M,90.85,VVTS 171730Z 14004KT 110V200 9999 FEW017 28/25 Q1007 NOSIG,M
VVTS,4/17/2012 18:00,106.6667,10.8167,80.6,77,88.83,150,4,0,29.74,M,6.21,M,FEW,M,M,M,1700,M,M,M,M,M,M,M,M,M,M,87.1,VVTS 171800Z 15004KT 130V220 9999 FEW017 27/25 Q1007 NOSIG,M
VVTS,4/17/2012 18:30,106.6667,10.8167,80.6,77,88.83,M,3,0,29.74,M,6.21,M,FEW,M,M,M,1700,M,M,M,M,M,M,M,M,M,M,87.1,VVTS 171830Z VRB03KT 9999 FEW017 27/25 Q1007 NOSIG,M
VVTS,4/17/2012 19:00,106.6667,10.8167,80.6,77,88.83,150,5,0,29.71,M,6.21,M,FEW,M,M,M,1700,M,M,M,M,M,M,M,M,M,M,87.1,VVTS 171900Z 15005KT 9999 FEW017 27/25 Q1006 NOSIG,M
VVTS,4/17/2012 19:30,106.6667,10.8167,80.6,77,88.83,150,4,0,29.71,M,6.21,M,FEW,M,M,M,1700,M,M,M,M,M,M,M,M,M,M,87.1,VVTS 171930Z 15004KT 9999 FEW017 27/25 Q1006 NOSIG,M
VVTS,4/17/2012 20:00,106.6667,10.8167,80.6,77,88.83,160,3,0,29.71,M,6.21,M,FEW,M,M,M,1700,M,M,M,M,M,M,M,M,M,M,87.1,VVTS 172000Z 16003KT 9999 FEW017 27/25 Q1006 NOSIG,M
VVTS,4/17/2012 20:30,106.6667,10.8167,80.6,77,88.83,160,4,0,29.71,M,6.21,M,FEW,M,M,M,1700,M,M,M,M,M,M,M,M,M,M,87.1,VVTS 172030Z 16004KT 9999 FEW017 27/25 Q1006 NOSIG,M
VVTS,4/17/2012 21:00,106.6667,10.8167,80.6,77,88.83,160,4,0,29.71,M,6.21,M,FEW,M,M,M,1700,M,M,M,M,M,M,M,M,M,M,87.1,VVTS 172100Z 16004KT 9999 FEW017 27/25 Q1006 NOSIG,M
VVTS,4/17/2012 21:30,106.6667,10.8167,80.6,77,88.83,150,3,0,29.71,M,6.21,M,FEW,M,M,M,1700,M,M,M,M,M,M,M,M,M,M,87.1,VVTS 172130Z 15003KT 9999 FEW017 27/25 Q1006 NOSIG,M
VVTS,4/17/2012 22:00,106.6667,10.8167,80.6,78.8,94.27,150,4,0,29.74,M,6.21,M,FEW,M,M,M,1700,M,M,M,M,M,M,M,M,M,M,89.33,VVTS 172200Z 15004KT 9999 FEW017 27/26 Q1007 NOSIG,M
VVTS,4/17/2012 22:30,106.6667,10.8167,80.6,78.8,94.27,M,1,0,29.74,M,6.21,M,SCT,M,M,M,1500,M,M,M,M,M,M,M,M,M,M,89.33,VVTS 172230Z VRB01KT 9999 SCT015 27/26 Q1007 NOSIG,M
VVTS,4/17/2012 23:00,106.6667,10.8167,80.6,78.8,94.27,M,2,0,29.74,M,4.97,M,SCT,M,M,M,1500,M,M,M,M,M,M,M,M,M,M,89.33,VVTS 172300Z VRB02KT 8000 SCT015 27/26 Q1007 NOSIG,M
VVTS,4/17/2012 23:30,106.6667,10.8167,80.6,78.8,94.27,140,6,0,29.74,M,6.21,M,SCT,M,M,M,1500,M,M,M,M,M,M,M,M,M,M,89.33,VVTS 172330Z 14006KT 100V180 9999 SCT015 27/26 Q1007 NOSIG,M
VVTS,4/18/2012 0:00,106.6667,10.8167,82.4,78.8,88.9,120,6,0,29.74,M,6.21,M,SCT,M,M,M,1500,M,M,M,M,M,M,M,M,M,M,92.4,VVTS 180000Z 12006KT 9999 SCT015 28/26 Q1007 NOSIG,M
VVTS,4/18/2012 0:30,106.6667,10.8167,84.2,77,79.04,120,7,0,29.77,M,6.21,M,SCT,M,M,M,1500,M,M,M,M,M,M,M,M,M,M,94.16,VVTS 180030Z 12007KT 090V160 9999 SCT015 29/25 Q1008 NOSIG,M
VVTS,4/18/2012 1:00,106.6667,10.8167,84.2,75.2,74.44,110,7,0,29.77,M,6.21,M,SCT,M,M,M,1700,M,M,M,M,M,M,M,M,M,M,92.45,VVTS 180100Z 11007KT 090V160 9999 SCT017 29/24 Q1008 NOSIG,M
VVTS,4/18/2012 1:30,106.6667,10.8167,86,75.2,70.27,150,7,0,29.77,M,6.21,M,SCT,M,M,M,1700,M,M,M,M,M,M,M,M,M,M,95.19,VVTS 180130Z 15007KT 120V190 9999 SCT017 30/24 Q1008 NOSIG,M
VVTS,4/18/2012 2:00,106.6667,10.8167,87.8,73.4,62.47,120,10,0,29.77,M,6.21,M,SCT,M,M,M,1700,M,M,M,M,M,M,M,M,M,M,95.86,VVTS 180200Z 12010KT 9999 SCT017 31/23 Q1008 NOSIG,M
VVTS,4/18/2012 2:30,106.6667,10.8167,87.8,73.4,62.47,140,9,0,29.77,M,6.21,M,SCT,M,M,M,1700,M,M,M,M,M,M,M,M,M,M,95.86,VVTS 180230Z 14009KT 9999 SCT017 31/23 Q1008 NOSIG,M
VVTS,4/18/2012 3:00,106.6667,10.8167,89.6,75.2,62.68,150,8,0,29.77,M,6.21,M,SCT,M,M,M,1700,M,M,M,M,M,M,M,M,M,M,100.23,VVTS 180300Z 15008KT 110V180 9999 SCT017 32/24 Q1008 NOSIG,M
VVTS,4/18/2012 3:30,106.6667,10.8167,91.4,73.4,55.77,150,7,0,29.74,M,6.21,M,SCT,M,M,M,1700,M,M,M,M,M,M,M,M,M,M,100.52,VVTS 180330Z 15007KT 060V180 9999 SCT017 33/23 Q1007 NOSIG,M
VVTS,4/18/2012 4:00,106.6667,10.8167,89.6,73.4,59.01,110,9,0,29.74,M,6.21,M,SCT,M,M,M,1700,M,M,M,M,M,M,M,M,M,M,98.2,VVTS 180400Z 11009KT 080V150 9999 SCT017 32/23 Q1007 NOSIG,M
VVTS,4/18/2012 4:30,106.6667,10.8167,91.4,73.4,55.77,130,8,0,29.74,M,6.21,M,SCT,M,M,M,1700,M,M,M,M,M,M,M,M,M,M,100.52,VVTS 180430Z 13008KT 090V170 9999 SCT017 33/23 Q1007 NOSIG,M
VVTS,4/18/2012 5:00,106.6667,10.8167,91.4,73.4,55.77,130,8,0,29.74,M,6.21,M,SCT,M,M,M,1700,M,M,M,M,M,M,M,M,M,M,100.52,VVTS 180500Z 13008KT 090V180 9999 SCT017 33/23 Q1007 NOSIG,M
VVTS,4/18/2012 5:30,106.6667,10.8167,93.2,73.4,52.73,150,7,0,29.71,M,6.21,M,SCT,M,M,M,1700,M,M,M,M,M,M,M,M,M,M,102.82,VVTS 180530Z 15007KT 080V200 9999 SCT017 34/23 Q1006 NOSIG,M
VVTS,4/18/2012 6:00,106.6667,10.8167,93.2,73.4,52.73,150,6,0,29.71,M,6.21,M,SCT,M,M,M,1700,M,M,M,M,M,M,M,M,M,M,102.82,VVTS 180600Z 15006KT 110V200 9999 SCT017 34/23 Q1006 NOSIG,M
VVTS,4/18/2012 6:30,106.6667,10.8167,93.2,73.4,52.73,160,8,0,29.68,M,6.21,M,SCT,M,M,M,1700,M,M,M,M,M,M,M,M,M,M,102.82,VVTS 180630Z 16008KT 110V200 9999 SCT017 34/23 Q1005 NOSIG,M
VVTS,4/18/2012 7:00,106.6667,10.8167,91.4,73.4,55.77,140,9,0,29.68,M,6.21,M,SCT,M,M,M,1700,M,M,M,M,M,M,M,M,M,M,100.52,VVTS 180700Z 14009KT 9999 SCT017 33/23 Q1005 NOSIG,M
VVTS,4/18/2012 7:30,106.6667,10.8167,93.2,75.2,56.01,150,10,0,29.68,M,6.21,M,SCT,M,M,M,1700,M,M,M,M,M,M,M,M,M,M,105.02,VVTS 180730Z 15010KT 120V180 9999 SCT017 34/24 Q1005 NOSIG,M
VVTS,4/18/2012 8:00,106.6667,10.8167,91.4,75.2,59.24,190,12,0,29.65,M,6.21,M,SCT,M,M,M,1700,M,M,M,M,M,M,M,M,M,M,102.65,VVTS 180800Z 19012KT 140V210 9999 SCT017 33/24 Q1004 NOSIG,M
VVTS,4/18/2012 8:30,106.6667,10.8167,91.4,73.4,55.77,180,10,0,29.65,M,6.21,M,SCT,M,M,M,1700,M,M,M,M,M,M,M,M,M,M,100.52,VVTS 180830Z 18010KT 9999 SCT017 33/23 Q1004 NOSIG,M
VVTS,4/18/2012 9:30,106.6667,10.8167,89.6,73.4,59.01,160,8,0,29.65,M,6.21,M,FEW,M,M,M,1700,M,M,M,M,M,M,M,M,M,M,98.2,VVTS 180930Z 16008KT 130V200 9999 FEW017 32/23 Q1004 NOSIG,M
VVTS,4/18/2012 10:00,106.6667,10.8167,89.6,73.4,59.01,170,10,0,29.65,M,6.21,M,FEW,M,M,M,1700,M,M,M,M,M,M,M,M,M,M,98.2,VVTS 181000Z 17010KT 9999 FEW017 32/23 Q1004 NOSIG,M
VVTS,4/18/2012 10:30,106.6667,10.8167,87.8,75.2,66.35,140,9,0,29.65,M,6.21,M,FEW,M,M,M,1700,M,M,M,M,M,M,M,M,M,M,97.76,VVTS 181030Z 14009KT 9999 FEW017 31/24 Q1004 NOSIG,M
VVTS,4/18/2012 11:00,106.6667,10.8167,86,73.4,66.15,150,9,0,29.68,M,6.21,M,FEW,M,M,M,1700,M,M,M,M,M,M,M,M,M,M,93.45,VVTS 181100Z 15009KT 120V200 9999 FEW017 30/23 Q1005 NOSIG,M
VVTS,4/18/2012 11:30,106.6667,10.8167,84.2,73.4,70.08,140,8,0,29.68,M,6.21,M,FEW,M,M,M,1700,M,M,M,M,M,M,M,M,M,M,90.94,VVTS 181130Z 14008KT 100V180 9999 FEW017 29/23 Q1005 NOSIG,M
VVTS,4/18/2012 12:00,106.6667,10.8167,84.2,75.2,74.44,140,8,0,29.71,M,6.21,M,FEW,M,M,M,1700,M,M,M,M,M,M,M,M,M,M,92.45,VVTS 181200Z 14008KT 9999 FEW017 29/24 Q1006 NOSIG,M
VVTS,4/18/2012 12:30,106.6667,10.8167,84.2,75.2,74.44,140,8,0,29.71,M,6.21,M,FEW,M,M,M,1500,M,M,M,M,M,M,M,M,M,M,92.45,VVTS 181230Z 14008KT 110V190 9999 FEW015TCU 29/24 Q1006 NOSIG,M
VVTS,4/18/2012 13:00,106.6667,10.8167,82.4,77,83.77,140,8,0,29.74,M,6.21,M,FEW,M,M,M,1700,M,M,M,M,M,M,M,M,M,M,90.85,VVTS 181300Z 14008KT 9999 FEW017 28/25 Q1007 NOSIG,M
VVTS,4/18/2012 13:30,106.6667,10.8167,82.4,77,83.77,130,7,0,29.77,M,6.21,M,FEW,M,M,M,1700,M,M,M,M,M,M,M,M,M,M,90.85,VVTS 181330Z 13007KT 100V170 9999 FEW017 28/25 Q1008 NOSIG,M
VVTS,4/18/2012 14:00,106.6667,10.8167,82.4,75.2,78.9,130,6,0,29.77,M,6.21,M,FEW,M,M,M,1700,M,M,M,M,M,M,M,M,M,M,89.48,VVTS 181400Z 13006KT 100V170 9999 FEW017 28/24 Q1008 NOSIG,M
VVTS,4/18/2012 14:30,106.6667,10.8167,82.4,75.2,78.9,150,6,0,29.8,M,6.21,M,FEW,M,M,M,1700,M,M,M,M,M,M,M,M,M,M,89.48,VVTS 181430Z 15006KT 120V200 9999 FEW017 28/24 Q1009 NOSIG,M
VVTS,4/18/2012 15:00,106.6667,10.8167,82.4,75.2,78.9,140,7,0,29.8,M,6.21,M,FEW,M,M,M,1700,M,M,M,M,M,M,M,M,M,M,89.48,VVTS 181500Z 14007KT 9999 FEW017 28/24 Q1009 NOSIG,M
VVTS,4/18/2012 15:30,106.6667,10.8167,82.4,75.2,78.9,160,6,0,29.8,M,6.21,M,FEW,M,M,M,1700,M,M,M,M,M,M,M,M,M,M,89.48,VVTS 181530Z 16006KT 9999 FEW017 28/24 Q1009 NOSIG,M
VVTS,4/18/2012 16:00,106.6667,10.8167,82.4,75.2,78.9,150,8,0,29.77,M,6.21,M,FEW,M,M,M,1700,M,M,M,M,M,M,M,M,M,M,89.48,VVTS 181600Z 15008KT 9999 FEW017 28/24 Q1008 NOSIG,M
VVTS,4/18/2012 16:30,106.6667,10.8167,80.6,75.2,83.66,150,7,0,29.77,M,6.21,M,FEW,M,M,M,1700,M,M,M,M,M,M,M,M,M,M,86.17,VVTS 181630Z 15007KT 9999 FEW017 27/24 Q1008 NOSIG,M
VVTS,4/18/2012 17:00,106.6667,10.8167,80.6,75.2,83.66,150,7,0,29.77,M,6.21,M,FEW,M,M,M,1700,M,M,M,M,M,M,M,M,M,M,86.17,VVTS 181700Z 15007KT 130V190 9999 FEW017 27/24 Q1008 NOSIG,M
VVTS,4/18/2012 17:30,106.6667,10.8167,80.6,75.2,83.66,M,3,0,29.77,M,6.21,M,FEW,M,M,M,1700,M,M,M,M,M,M,M,M,M,M,86.17,VVTS 181730Z VRB03KT 9999 FEW017 27/24 Q1008 NOSIG,M
VVTS,4/18/2012 18:00,106.6667,10.8167,80.6,75.2,83.66,170,5,0,29.77,M,6.21,M,FEW,M,M,M,1700,M,M,M,M,M,M,M,M,M,M,86.17,VVTS 181800Z 17005KT 9999 FEW017 27/24 Q1008 NOSIG,M
VVTS,4/18/2012 18:30,106.6667,10.8167,80.6,75.2,83.66,160,5,0,29.74,M,6.21,M,FEW,M,M,M,1700,M,M,M,M,M,M,M,M,M,M,86.17,VVTS 181830Z 16005KT 9999 FEW017 27/24 Q1007 NOSIG,M
VVTS,4/18/2012 19:00,106.6667,10.8167,80.6,75.2,83.66,M,3,0,29.74,M,6.21,M,FEW,M,M,M,1700,M,M,M,M,M,M,M,M,M,M,86.17,VVTS 181900Z VRB03KT 9999 FEW017 27/24 Q1007 NOSIG,M
VVTS,4/18/2012 19:30,106.6667,10.8167,80.6,75.2,83.66,140,4,0,29.74,M,6.21,M,FEW,M,M,M,1700,M,M,M,M,M,M,M,M,M,M,86.17,VVTS 181930Z 14004KT 9999 FEW017 27/24 Q1007 NOSIG,M
VVTS,4/18/2012 20:00,106.6667,10.8167,80.6,75.2,83.66,160,3,0,29.74,M,6.21,M,FEW,M,M,M,1700,M,M,M,M,M,M,M,M,M,M,86.17,VVTS 182000Z 16003KT 9999 FEW017 27/24 Q1007 NOSIG,M
VVTS,4/18/2012 20:30,106.6667,10.8167,80.6,75.2,83.66,150,4,0,29.71,M,6.21,M,FEW,M,M,M,1700,M,M,M,M,M,M,M,M,M,M,86.17,VVTS 182030Z 15004KT 9999 FEW017 27/24 Q1006 NOSIG,M
VVTS,4/18/2012 21:30,106.6667,10.8167,80.6,75.2,83.66,140,3,0,29.74,M,6.21,M,FEW,M,M,M,1700,M,M,M,M,M,M,M,M,M,M,86.17,VVTS 182130Z 14003KT 9999 FEW017 27/24 Q1007 NOSIG,M
VVTS,4/18/2012 22:30,106.6667,10.8167,80.6,75.2,83.66,110,3,0,29.74,M,6.21,M,FEW,M,M,M,1700,M,M,M,M,M,M,M,M,M,M,86.17,VVTS 182230Z 11003KT 9999 FEW017 27/24 Q1007 NOSIG,M
VVTS,4/18/2012 23:00,106.6667,10.8167,78.8,75.2,88.75,100,5,0,29.74,M,6.21,M,FEW,M,M,M,1700,M,M,M,M,M,M,M,M,M,M,82.38,VVTS 182300Z 10005KT 9999 FEW017 26/24 Q1007 NOSIG,M
VVTS,4/18/2012 23:30,106.6667,10.8167,80.6,75.2,83.66,M,2,0,29.77,M,6.21,M,FEW,M,M,M,1700,M,M,M,M,M,M,M,M,M,M,86.17,VVTS 182330Z VRB02KT 9999 FEW017 27/24 Q1008 NOSIG,M
VVTS,4/19/2012 0:00,106.6667,10.8167,82.4,77,83.77,M,1,0,29.77,M,6.21,M,BKN,M,M,M,1700,M,M,M,M,M,M,M,M,M,M,90.85,VVTS 190000Z VRB01KT 9999 BKN017 28/25 Q1008 NOSIG,M
VVTS,4/19/2012 0:30,106.6667,10.8167,84.2,77,79.04,M,2,0,29.77,M,6.21,M,BKN,M,M,M,1700,M,M,M,M,M,M,M,M,M,M,94.16,VVTS 190030Z VRB02KT 9999 BKN017 29/25 Q1008 NOSIG,M
VVTS,4/19/2012 1:00,106.6667,10.8167,84.2,75.2,74.44,M,3,0,29.8,M,6.21,M,BKN,M,M,M,1700,M,M,M,M,M,M,M,M,M,M,92.45,VVTS 190100Z VRB03KT 9999 BKN017 29/24 Q1009 NOSIG,M
VVTS,4/19/2012 1:30,106.6667,10.8167,84.2,75.2,74.44,110,5,0,29.8,M,6.21,M,BKN,M,M,M,1700,M,M,M,M,M,M,M,M,M,M,92.45,VVTS 190130Z 11005KT 080V150 9999 BKN017 29/24 Q1009 NOSIG,M
VVTS,4/19/2012 2:00,106.6667,10.8167,86,73.4,66.15,140,4,0,29.8,M,6.21,M,BKN,M,M,M,1700,M,M,M,M,M,M,M,M,M,M,93.45,VVTS 190200Z 14004KT 110V200 9999 BKN017 30/23 Q1009 NOSIG,M
VVTS,4/19/2012 2:30,106.6667,10.8167,87.8,75.2,66.35,120,5,0,29.8,M,6.21,M,SCT,M,M,M,1700,M,M,M,M,M,M,M,M,M,M,97.76,VVTS 190230Z 12005KT 070V170 9999 SCT017 31/24 Q1009 NOSIG,M
VVTS,4/19/2012 3:00,106.6667,10.8167,89.6,73.4,59.01,170,5,0,29.8,M,6.21,M,SCT,M,M,M,1700,M,M,M,M,M,M,M,M,M,M,98.2,VVTS 190300Z 17005KT 140V210 9999 SCT017 32/23 Q1009 NOSIG,M
VVTS,4/19/2012 3:30,106.6667,10.8167,91.4,73.4,55.77,M,3,0,29.8,M,6.21,M,SCT,M,M,M,1700,M,M,M,M,M,M,M,M,M,M,100.52,VVTS 190330Z VRB03KT 9999 SCT017 33/23 Q1009 NOSIG,M
VVTS,4/19/2012 4:00,106.6667,10.8167,91.4,73.4,55.77,M,3,0,29.8,M,6.21,M,SCT,M,M,M,1700,M,M,M,M,M,M,M,M,M,M,100.52,VVTS 190400Z VRB03KT 9999 SCT017 33/23 Q1009 NOSIG,M
VVTS,4/19/2012 4:30,106.6667,10.8167,91.4,73.4,55.77,130,6,0,29.8,M,6.21,M,BKN,M,M,M,1700,M,M,M,M,M,M,M,M,M,M,100.52,VVTS 190430Z 13006KT 090V170 9999 BKN017 33/23 Q1009 NOSIG,M
VVTS,4/19/2012 5:00,106.6667,10.8167,93.2,71.6,49.62,160,5,0,29.77,M,6.21,M,BKN,M,M,M,1700,M,M,M,M,M,M,M,M,M,M,100.88,VVTS 190500Z 16005KT 100V210 9999 BKN017 34/22 Q1008 NOSIG,M
VVTS,4/19/2012 5:30,106.6667,10.8167,93.2,71.6,49.62,140,4,0,29.77,M,6.21,M,BKN,M,M,M,1700,M,M,M,M,M,M,M,M,M,M,100.88,VVTS 190530Z 14004KT 080V210 9999 BKN017 34/22 Q1008 NOSIG,M
VVTS,4/19/2012 6:00,106.6667,10.8167,91.4,71.6,52.48,140,6,0,29.74,M,6.21,M,BKN,M,M,M,1700,M,M,M,M,M,M,M,M,M,M,98.64,VVTS 190600Z 14006KT 100V170 9999 BKN017 33/22 Q1007 NOSIG,M
VVTS,4/19/2012 6:30,106.6667,10.8167,95,73.4,49.87,140,4,0,29.71,M,6.21,M,SCT,M,M,M,1700,M,M,M,M,M,M,M,M,M,M,105.13,VVTS 190630Z 14004KT 060V200 9999 SCT017 35/23 Q1006 NOSIG,M
VVTS,4/19/2012 7:00,106.6667,10.8167,93.2,73.4,52.73,160,7,0,29.71,M,6.21,M,SCT,M,M,M,1700,M,M,M,M,M,M,M,M,M,M,102.82,VVTS 190700Z 16007KT 120V210 9999 SCT017 34/23 Q1006 NOSIG,M
VVTS,4/19/2012 7:30,106.6667,10.8167,93.2,73.4,52.73,130,6,0,29.68,M,6.21,M,SCT,M,M,M,1700,M,M,M,M,M,M,M,M,M,M,102.82,VVTS 190730Z 13006KT 060V180 9999 SCT017 34/23 Q1005 NOSIG,M
VVTS,4/19/2012 8:00,106.6667,10.8167,93.2,71.6,49.62,160,6,0,29.68,M,6.21,M,SCT,M,M,M,1700,M,M,M,M,M,M,M,M,M,M,100.88,VVTS 190800Z 16006KT 100V210 9999 SCT017 34/22 Q1005 NOSIG,M
VVTS,4/19/2012 8:30,106.6667,10.8167,93.2,69.8,46.67,180,9,0,29.65,M,6.21,M,FEW,M,M,M,2000,M,M,M,M,M,M,M,M,M,M,99.17,VVTS 190830Z 18009KT 9999 FEW020 34/21 Q1004 NOSIG,M
VVTS,4/19/2012 9:00,106.6667,10.8167,91.4,69.8,49.36,160,10,0,29.65,M,6.21,M,FEW,M,M,M,2000,M,M,M,M,M,M,M,M,M,M,96.99,VVTS 190900Z 16010KT 9999 FEW020 33/21 Q1004 NOSIG,M
VVTS,4/19/2012 9:30,106.6667,10.8167,91.4,71.6,52.48,170,10,0,29.65,M,6.21,M,FEW,M,M,M,2000,M,M,M,M,M,M,M,M,M,M,98.64,VVTS 190930Z 17010KT 9999 FEW020 33/22 Q1004 NOSIG,M
VVTS,4/19/2012 10:00,106.6667,10.8167,89.6,71.6,55.53,160,10,0,29.68,M,6.21,M,FEW,M,M,M,2000,M,M,M,M,M,M,M,M,M,M,96.41,VVTS 191000Z 16010KT 9999 FEW020 32/22 Q1005 NOSIG,M
VVTS,4/19/2012 10:30,106.6667,10.8167,87.8,71.6,58.78,160,9,0,29.68,M,6.21,M,FEW,M,M,M,2000,M,M,M,M,M,M,M,M,M,M,94.18,VVTS 191030Z 16009KT 9999 FEW020 31/22 Q1005 NOSIG,M
VVTS,4/19/2012 11:00,106.6667,10.8167,84.2,73.4,70.08,150,10,0,29.71,M,6.21,M,FEW,M,M,M,2000,M,M,M,M,M,M,M,M,M,M,90.94,VVTS 191100Z 15010KT 9999 FEW020 29/23 Q1006 NOSIG,M
VVTS,4/19/2012 11:30,106.6667,10.8167,84.2,73.4,70.08,150,9,0,29.71,M,6.21,M,FEW,M,M,M,2000,M,M,M,M,M,M,M,M,M,M,90.94,VVTS 191130Z 15009KT 9999 FEW020 29/23 Q1006 NOSIG,M
VVTS,4/19/2012 12:30,106.6667,10.8167,82.4,75.2,78.9,160,8,0,29.74,M,6.21,M,FEW,M,M,M,2000,M,M,M,M,M,M,M,M,M,M,89.48,VVTS 191230Z 16008KT 9999 FEW020 28/24 Q1007 NOSIG,M
VVTS,4/19/2012 13:00,106.6667,10.8167,82.4,75.2,78.9,170,8,0,29.74,M,6.21,M,FEW,M,M,M,2000,M,M,M,M,M,M,M,M,M,M,89.48,VVTS 191300Z 17008KT 9999 FEW020 28/24 Q1007 NOSIG,M
VVTS,4/19/2012 13:30,106.6667,10.8167,82.4,75.2,78.9,150,7,0,29.77,M,6.21,M,FEW,M,M,M,2000,M,M,M,M,M,M,M,M,M,M,89.48,VVTS 191330Z 15007KT 120V200 9999 FEW020 28/24 Q1008 NOSIG,M
VVTS,4/19/2012 14:00,106.6667,10.8167,82.4,75.2,78.9,160,9,0,29.77,M,6.21,M,FEW,M,M,M,2000,M,M,M,M,M,M,M,M,M,M,89.48,VVTS 191400Z 16009KT 140V210 9999 FEW020 28/24 Q1008 NOSIG,M
VVTS,4/19/2012 14:30,106.6667,10.8167,82.4,75.2,78.9,170,8,0,29.77,M,6.21,M,FEW,M,M,M,1700,M,M,M,M,M,M,M,M,M,M,89.48,VVTS 191430Z 17008KT 9999 FEW017 28/24 Q1008 NOSIG,M
VVTS,4/19/2012 15:00,106.6667,10.8167,82.4,75.2,78.9,170,7,0,29.8,M,6.21,M,FEW,M,M,M,1700,M,M,M,M,M,M,M,M,M,M,89.48,VVTS 191500Z 17007KT 9999 FEW017 28/24 Q1009 NOSIG,M
VVTS,4/19/2012 15:30,106.6667,10.8167,82.4,75.2,78.9,170,6,0,29.8,M,6.21,M,FEW,M,M,M,1700,M,M,M,M,M,M,M,M,M,M,89.48,VVTS 191530Z 17006KT 9999 FEW017 28/24 Q1009 NOSIG,M
VVTS,4/19/2012 16:00,106.6667,10.8167,82.4,75.2,78.9,180,7,0,29.8,M,6.21,M,FEW,M,M,M,1700,M,M,M,M,M,M,M,M,M,M,89.48,VVTS 191600Z 18007KT 9999 FEW017 28/24 Q1009 NOSIG,M
VVTS,4/19/2012 16:30,106.6667,10.8167,82.4,75.2,78.9,160,6,0,29.8,M,6.21,M,FEW,M,M,M,1700,M,M,M,M,M,M,M,M,M,M,89.48,VVTS 191630Z 16006KT 9999 FEW017 28/24 Q1009 NOSIG,M
VVTS,4/19/2012 17:00,106.6667,10.8167,82.4,75.2,78.9,180,6,0,29.8,M,6.21,M,FEW,M,M,M,1700,M,M,M,M,M,M,M,M,M,M,89.48,VVTS 191700Z 18006KT 160V220 9999 FEW017 28/24 Q1009 NOSIG,M
VVTS,4/19/2012 17:30,106.6667,10.8167,82.4,75.2,78.9,160,6,0,29.8,M,6.21,M,FEW,M,M,M,1700,M,M,M,M,M,M,M,M,M,M,89.48,VVTS 191730Z 16006KT 140V200 9999 FEW017 28/24 Q1009 NOSIG,M
VVTS,4/19/2012 18:00,106.6667,10.8167,82.4,75.2,78.9,160,7,0,29.77,M,6.21,M,FEW,M,M,M,1700,M,M,M,M,M,M,M,M,M,M,89.48,VVTS 191800Z 16007KT 9999 FEW017 28/24 Q1008 NOSIG,M
VVTS,4/19/2012 18:30,106.6667,10.8167,80.6,75.2,83.66,160,7,0,29.77,M,6.21,M,FEW,M,M,M,1700,M,M,M,M,M,M,M,M,M,M,86.17,VVTS 191830Z 16007KT 9999 FEW017 27/24 Q1008 NOSIG,M
VVTS,4/19/2012 19:00,106.6667,10.8167,80.6,75.2,83.66,170,6,0,29.74,M,6.21,M,FEW,M,M,M,1700,M,M,M,M,M,M,M,M,M,M,86.17,VVTS 191900Z 17006KT 9999 FEW017 27/24 Q1007 NOSIG,M
VVTS,4/19/2012 19:30,106.6667,10.8167,80.6,75.2,83.66,M,3,0,29.74,M,6.21,M,FEW,M,M,M,1700,M,M,M,M,M,M,M,M,M,M,86.17,VVTS 191930Z VRB03KT 9999 FEW017 27/24 Q1007 NOSIG,M
VVTS,4/19/2012 20:00,106.6667,10.8167,80.6,75.2,83.66,160,3,0,29.74,M,6.21,M,FEW,M,M,M,1700,M,M,M,M,M,M,M,M,M,M,86.17,VVTS 192000Z 16003KT 9999 FEW017 27/24 Q1007 NOSIG,M
VVTS,4/19/2012 20:30,106.6667,10.8167,80.6,75.2,83.66,160,4,0,29.74,M,6.21,M,FEW,M,M,M,1700,M,M,M,M,M,M,M,M,M,M,86.17,VVTS 192030Z 16004KT 9999 FEW017 27/24 Q1007 NOSIG,M
VVTS,4/19/2012 22:00,106.6667,10.8167,80.6,75.2,83.66,160,3,0,29.77,M,6.21,M,FEW,M,M,M,1700,M,M,M,M,M,M,M,M,M,M,86.17,VVTS 192200Z 16003KT 9999 FEW017 27/24 Q1008 NOSIG,M
VVTS,4/19/2012 22:30,106.6667,10.8167,80.6,75.2,83.66,160,3,0,29.77,M,6.21,M,FEW,M,M,M,1700,M,M,M,M,M,M,M,M,M,M,86.17,VVTS 192230Z 16003KT 9999 FEW017 27/24 Q1008 NOSIG,M
VVTS,4/19/2012 23:00,106.6667,10.8167,80.6,77,88.83,50,3,0,29.8,M,6.21,M,SCT,M,M,M,1700,M,M,M,M,M,M,M,M,M,M,87.1,VVTS 192300Z 05003KT 9999 SCT017 27/25 Q1009 NOSIG,M
VVTS,4/19/2012 23:30,106.6667,10.8167,80.6,77,88.83,340,3,0,29.8,M,6.21,M,SCT,M,M,M,1700,M,M,M,M,M,M,M,M,M,M,87.1,VVTS 192330Z 34003KT 9999 SCT017 27/25 Q1009 NOSIG,M
VVTS,4/20/2012 0:00,106.6667,10.8167,80.6,78.8,94.27,M,1,0,29.8,M,6.21,M,SCT,M,M,M,1700,M,M,M,M,M,M,M,M,M,M,89.33,VVTS 200000Z VRB01KT 9999 SCT017 27/26 Q1009 NOSIG,M
VVTS,4/20/2012 0:30,106.6667,10.8167,82.4,78.8,88.9,M,1,0,29.8,M,6.21,M,SCT,M,M,M,1700,M,M,M,M,M,M,M,M,M,M,92.4,VVTS 200030Z VRB01KT 9999 SCT017 28/26 Q1009 NOSIG,M
VVTS,4/20/2012 1:00,106.6667,10.8167,82.4,78.8,88.9,M,2,0,29.83,M,4.97,M,BKN,M,M,M,1500,M,M,M,M,M,M,M,M,M,M,92.4,VVTS 200100Z VRB02KT 8000 BKN015 28/26 Q1010 NOSIG,M
VVTS,4/20/2012 1:30,106.6667,10.8167,84.2,77,79.04,M,1,0,29.83,M,6.21,M,BKN,M,M,M,1500,M,M,M,M,M,M,M,M,M,M,94.16,VVTS 200130Z VRB01KT 9999 BKN015 29/25 Q1010 NOSIG,M
VVTS,4/20/2012 2:00,106.6667,10.8167,87.8,75.2,66.35,M,2,0,29.83,M,6.21,M,BKN,M,M,M,1500,M,M,M,M,M,M,M,M,M,M,97.76,VVTS 200200Z VRB02KT 9999 BKN015 31/24 Q1010 NOSIG,M
VVTS,4/20/2012 2:30,106.6667,10.8167,84.2,77,79.04,M,3,0,29.83,M,5.59,M,BKN,M,M,M,1500,M,M,M,M,M,M,M,M,M,M,94.16,VVTS 200230Z VRB03KT 9000 BKN015 29/25 Q1010 NOSIG,M
VVTS,4/20/2012 3:00,106.6667,10.8167,87.8,77,70.45,M,2,0,29.83,M,4.35,M,BKN,M,M,M,1500,M,M,M,M,M,M,M,M,M,M,99.92,VVTS 200300Z VRB02KT 7000 BKN015 31/25 Q1010 NOSIG,M
VVTS,4/20/2012 3:30,106.6667,10.8167,89.6,75.2,62.68,M,3,0,29.83,M,6.21,M,BKN,M,M,M,1500,M,M,M,M,M,M,M,M,M,M,100.23,VVTS 200330Z VRB03KT 9999 BKN015 32/24 Q1010 NOSIG,M
VVTS,4/20/2012 4:00,106.6667,10.8167,89.6,77,66.55,M,1,0,29.8,M,4.97,M,BKN,M,M,M,1500,M,M,M,M,M,M,M,M,M,M,102.54,VVTS 200400Z VRB01KT 8000 BKN015 32/25 Q1009 NOSIG,M
VVTS,4/20/2012 4:30,106.6667,10.8167,91.4,75.2,59.24,M,2,0,29.8,M,6.21,M,BKN,M,M,M,1500,M,M,M,M,M,M,M,M,M,M,102.65,VVTS 200430Z VRB02KT 9999 BKN015 33/24 Q1009 NOSIG,M
VVTS,4/20/2012 5:00,106.6667,10.8167,93.2,75.2,56.01,M,3,0,29.77,M,6.21,M,BKN,M,M,M,1500,M,M,M,M,M,M,M,M,M,M,105.02,VVTS 200500Z VRB03KT 9999 BKN015 34/24 Q1008 NOSIG,M
VVTS,4/20/2012 5:30,106.6667,10.8167,93.2,75.2,56.01,M,3,0,29.74,M,6.21,M,BKN,M,M,M,1500,M,M,M,M,M,M,M,M,M,M,105.02,VVTS 200530Z VRB03KT 9999 BKN015 34/24 Q1007 NOSIG,M
VVTS,4/20/2012 6:00,106.6667,10.8167,91.4,75.2,59.24,M,3,0,29.74,M,6.21,M,BKN,M,M,M,1500,M,M,M,M,M,M,M,M,M,M,102.65,VVTS 200600Z VRB03KT 9999 BKN015 33/24 Q1007 NOSIG,M
VVTS,4/20/2012 6:30,106.6667,10.8167,91.4,73.4,55.77,M,2,0,29.71,M,6.21,M,BKN,M,M,M,1500,M,M,M,M,M,M,M,M,M,M,100.52,VVTS 200630Z VRB02KT 9999 BKN015 33/23 Q1006 NOSIG,M
VVTS,4/20/2012 7:00,106.6667,10.8167,95,73.4,49.87,M,2,0,29.71,M,6.21,M,BKN,M,M,M,1500,M,M,M,M,M,M,M,M,M,M,105.13,VVTS 200700Z VRB02KT 9999 BKN015 35/23 Q1006 NOSIG,M
VVTS,4/20/2012 7:30,106.6667,10.8167,93.2,73.4,52.73,120,4,0,29.68,M,6.21,M,BKN,M,M,M,1500,M,M,M,M,M,M,M,M,M,M,102.82,VVTS 200730Z 12004KT 360V160 9999 BKN015 34/23 Q1005 NOSIG,M
VVTS,4/20/2012 8:00,106.6667,10.8167,91.4,73.4,55.77,M,3,0,29.68,M,6.21,M,BKN,M,M,M,1500,M,M,M,M,M,M,M,M,M,M,100.52,VVTS 200800Z VRB03KT 9999 BKN015 33/23 Q1005 NOSIG,M
VVTS,4/20/2012 8:30,106.6667,10.8167,91.4,73.4,55.77,190,6,0,29.68,M,6.21,M,FEW,SCT,M,M,1500,1700,M,M,M,M,M,M,M,M,M,100.52,VVTS 200830Z 19006KT 160V240 9999 FEW015TCU SCT017 33/23 Q1005 NOSIG,M
VVTS,4/20/2012 9:00,106.6667,10.8167,91.4,73.4,55.77,160,7,0,29.68,M,6.21,M,FEW,SCT,M,M,1500,1700,M,M,M,M,M,M,M,M,M,100.52,VVTS 200900Z 16007KT 9999 FEW015TCU SCT017 33/23 Q1005 NOSIG,M
VVTS,4/20/2012 9:30,106.6667,10.8167,91.4,73.4,55.77,160,7,0,29.68,M,6.21,M,FEW,SCT,M,M,1500,1700,M,M,M,M,M,M,M,M,M,100.52,VVTS 200930Z 16007KT 130V200 9999 FEW015TCU SCT017 33/23 Q1005 NOSIG,M
VVTS,4/20/2012 10:00,106.6667,10.8167,87.8,73.4,62.47,150,9,0,29.68,M,6.21,M,FEW,SCT,M,M,1500,1700,M,M,M,M,M,M,M,M,M,95.86,VVTS 201000Z 15009KT 130V190 9999 FEW015TCU SCT017 31/23 Q1005 NOSIG,M
VVTS,4/20/2012 10:30,106.6667,10.8167,87.8,71.6,58.78,160,8,0,29.71,M,6.21,M,FEW,SCT,M,M,1500,1700,M,M,M,M,M,M,M,M,M,94.18,VVTS 201030Z 16008KT 9999 FEW015CB SCT017 31/22 Q1006 NOSIG,M
VVTS,4/20/2012 11:00,106.6667,10.8167,86,71.6,62.25,150,11,0,29.71,M,6.21,M,FEW,SCT,M,M,1500,1700,M,M,M,M,M,M,M,M,M,91.92,VVTS 201100Z 15011KT 9999 FEW015TCU SCT017 30/22 Q1006 NOSIG,M
VVTS,4/20/2012 11:30,106.6667,10.8167,84.2,71.6,65.95,160,9,0,29.74,M,6.21,M,SCT,M,M,M,1700,M,M,M,M,M,M,M,M,M,M,89.6,VVTS 201130Z 16009KT 9999 SCT017 29/22 Q1007 NOSIG,M
VVTS,4/20/2012 12:30,106.6667,10.8167,84.2,73.4,70.08,150,9,0,29.74,M,6.21,M,SCT,M,M,M,1700,M,M,M,M,M,M,M,M,M,M,90.94,VVTS 201230Z 15009KT 130V190 9999 SCT017 29/23 Q1007 NOSIG,M
VVTS,4/20/2012 13:00,106.6667,10.8167,84.2,73.4,70.08,160,8,0,29.74,M,6.21,M,SCT,M,M,M,1700,M,M,M,M,M,M,M,M,M,M,90.94,VVTS 201300Z 16008KT 140V200 9999 SCT017 29/23 Q1007 NOSIG,M
VVTS,4/20/2012 13:30,106.6667,10.8167,84.2,73.4,70.08,150,8,0,29.77,M,6.21,M,SCT,M,M,M,1700,M,M,M,M,M,M,M,M,M,M,90.94,VVTS 201330Z 15008KT 130V200 9999 SCT017 29/23 Q1008 NOSIG,M
VVTS,4/20/2012 14:00,106.6667,10.8167,84.2,73.4,70.08,170,8,0,29.77,M,6.21,M,SCT,M,M,M,1700,M,M,M,M,M,M,M,M,M,M,90.94,VVTS 201400Z 17008KT 9999 SCT017 29/23 Q1008 NOSIG,M
VVTS,4/20/2012 14:30,106.6667,10.8167,84.2,73.4,70.08,160,7,0,29.8,M,6.21,M,FEW,M,M,M,1700,M,M,M,M,M,M,M,M,M,M,90.94,VVTS 201430Z 16007KT 130V200 9999 FEW017 29/23 Q1009 NOSIG,M
VVTS,4/20/2012 15:00,106.6667,10.8167,82.4,73.4,74.28,160,5,0,29.8,M,6.21,M,FEW,SCT,M,M,1700,4000,M,M,M,M,M,M,M,M,M,88.26,VVTS 201500Z 16005KT 130V200 9999 FEW017 SCT040 28/23 Q1009 NOSIG,M
VVTS,4/20/2012 15:30,106.6667,10.8167,82.4,73.4,74.28,150,5,0,29.8,M,6.21,M,FEW,SCT,M,M,1700,4000,M,M,M,M,M,M,M,M,M,88.26,VVTS 201530Z 15005KT 9999 FEW017 SCT040 28/23 Q1009 NOSIG,M
VVTS,4/20/2012 16:00,106.6667,10.8167,82.4,73.4,74.28,180,8,0,29.8,M,6.21,M,FEW,M,M,M,1700,M,M,M,M,M,M,M,M,M,M,88.26,VVTS 201600Z 18008KT 150V210 9999 FEW017 28/23 Q1009 NOSIG,M
VVTS,4/20/2012 16:30,106.6667,10.8167,82.4,73.4,74.28,190,6,0,29.77,M,6.21,M,FEW,M,M,M,1700,M,M,M,M,M,M,M,M,M,M,88.26,VVTS 201630Z 19006KT 9999 FEW017 28/23 Q1008 NOSIG,M
VVTS,4/20/2012 17:00,106.6667,10.8167,82.4,73.4,74.28,200,7,0,29.77,M,6.21,M,FEW,SCT,M,M,1700,4000,M,M,M,M,M,M,M,M,M,88.26,VVTS 201700Z 20007KT 160V240 9999 FEW017 SCT040 28/23 Q1008 NOSIG,M
VVTS,4/20/2012 17:30,106.6667,10.8167,82.4,73.4,74.28,200,5,0,29.77,M,6.21,M,FEW,SCT,M,M,1700,4000,M,M,M,M,M,M,M,M,M,88.26,VVTS 201730Z 20005KT 160V220 9999 FEW017 SCT040 28/23 Q1008 NOSIG,M
VVTS,4/20/2012 18:00,106.6667,10.8167,82.4,73.4,74.28,190,6,0,29.77,M,6.21,M,FEW,SCT,M,M,1700,4000,M,M,M,M,M,M,M,M,M,88.26,VVTS 201800Z 19006KT 9999 FEW017 SCT040 28/23 Q1008 NOSIG,M
VVTS,4/20/2012 18:30,106.6667,10.8167,82.4,73.4,74.28,180,7,0,29.74,M,6.21,M,FEW,SCT,M,M,1700,4000,M,M,M,M,M,M,M,M,M,88.26,VVTS 201830Z 18007KT 9999 FEW017 SCT040 28/23 Q1007 NOSIG,M
VVTS,4/20/2012 19:00,106.6667,10.8167,80.6,75.2,83.66,170,6,0,29.74,M,6.21,M,FEW,SCT,M,M,1700,4000,M,M,M,M,M,M,M,M,M,86.17,VVTS 201900Z 17006KT 9999 FEW017 SCT040 27/24 Q1007 NOSIG,M
VVTS,4/20/2012 19:30,106.6667,10.8167,80.6,75.2,83.66,150,6,0,29.74,M,6.21,M,FEW,SCT,M,M,1700,4000,M,M,M,M,M,M,M,M,M,86.17,VVTS 201930Z 15006KT 9999 FEW017 SCT040 27/24 Q1007 NOSIG,M
VVTS,4/20/2012 20:00,106.6667,10.8167,80.6,75.2,83.66,160,7,0,29.71,M,6.21,M,FEW,SCT,M,M,1700,4000,M,M,M,M,M,M,M,M,M,86.17,VVTS 202000Z 16007KT 9999 FEW017 SCT040 27/24 Q1006 NOSIG,M
VVTS,4/20/2012 20:30,106.6667,10.8167,80.6,75.2,83.66,170,6,0,29.74,M,6.21,M,FEW,SCT,M,M,1700,4000,M,M,M,M,M,M,M,M,M,86.17,VVTS 202030Z 17006KT 9999 FEW017 SCT040 27/24 Q1007 NOSIG,M
VVTS,4/20/2012 21:00,106.6667,10.8167,80.6,75.2,83.66,170,6,0,29.74,M,6.21,M,FEW,SCT,M,M,1700,4000,M,M,M,M,M,M,M,M,M,86.17,VVTS 202100Z 17006KT 9999 FEW017 SCT040 27/24 Q1007 NOSIG,M
VVTS,4/20/2012 21:30,106.6667,10.8167,80.6,75.2,83.66,170,6,0,29.74,M,6.21,M,FEW,SCT,M,M,1700,4000,M,M,M,M,M,M,M,M,M,86.17,VVTS 202130Z 17006KT 9999 FEW017 SCT040 27/24 Q1007 NOSIG,M
VVTS,4/20/2012 22:00,106.6667,10.8167,80.6,75.2,83.66,170,5,0,29.74,M,6.21,M,FEW,SCT,M,M,1700,4000,M,M,M,M,M,M,M,M,M,86.17,VVTS 202200Z 17005KT 140V210 9999 FEW017 SCT040 27/24 Q1007 NOSIG,M
VVTS,4/20/2012 22:30,106.6667,10.8167,80.6,75.2,83.66,180,5,0,29.74,M,6.21,M,FEW,SCT,M,M,1700,4000,M,M,M,M,M,M,M,M,M,86.17,VVTS 202230Z 18005KT 9999 FEW017 SCT040 27/24 Q1007 NOSIG,M
VVTS,4/20/2012 23:00,106.6667,10.8167,80.6,75.2,83.66,180,5,0,29.77,M,6.21,M,FEW,SCT,M,M,1500,1700,M,M,M,M,M,M,M,M,M,86.17,VVTS 202300Z 18005KT 9999 FEW015TCU SCT017 27/24 Q1008 NOSIG,M
VVTS,4/20/2012 23:30,106.6667,10.8167,82.4,75.2,78.9,220,4,0,29.77,M,6.21,M,FEW,SCT,M,M,1700,4000,M,M,M,M,M,M,M,M,M,89.48,VVTS 202330Z 22004KT 9999 FEW017 SCT040 28/24 Q1008 NOSIG,M
VVTS,4/21/2012 0:00,106.6667,10.8167,82.4,75.2,78.9,210,5,0,29.77,M,6.21,M,FEW,M,M,M,1700,M,M,M,M,M,M,M,M,M,M,89.48,VVTS 210000Z 21005KT 9999 FEW017 28/24 Q1008 NOSIG,M
VVTS,4/21/2012 0:30,106.6667,10.8167,84.2,77,79.04,220,5,0,29.8,M,6.21,M,FEW,M,M,M,1700,M,M,M,M,M,M,M,M,M,M,94.16,VVTS 210030Z 22005KT 9999 FEW017 29/25 Q1009 NOSIG,M
VVTS,4/21/2012 1:00,106.6667,10.8167,87.8,75.2,66.35,230,5,0,29.8,M,6.21,M,FEW,M,M,M,1700,M,M,M,M,M,M,M,M,M,M,97.76,VVTS 210100Z 23005KT 200V270 9999 FEW017 31/24 Q1009 NOSIG,M
VVTS,4/21/2012 1:30,106.6667,10.8167,87.8,75.2,66.35,210,8,0,29.8,M,6.21,M,SCT,M,M,M,1700,M,M,M,M,M,M,M,M,M,M,97.76,VVTS 210130Z 21008KT 190V260 9999 SCT017 31/24 Q1009 NOSIG,M
VVTS,4/21/2012 2:00,106.6667,10.8167,89.6,75.2,62.68,220,9,0,29.8,M,6.21,M,SCT,M,M,M,1700,M,M,M,M,M,M,M,M,M,M,100.23,VVTS 210200Z 22009KT 9999 SCT017 32/24 Q1009 NOSIG,M
VVTS,4/21/2012 2:30,106.6667,10.8167,89.6,73.4,59.01,240,8,0,29.8,M,6.21,M,FEW,SCT,M,M,1700,2000,M,M,M,M,M,M,M,M,M,98.2,VVTS 210230Z 24008KT 210V280 9999 FEW017TCU SCT020 32/23 Q1009 NOSIG,M
VVTS,4/21/2012 3:00,106.6667,10.8167,91.4,73.4,55.77,240,7,0,29.8,M,6.21,M,FEW,SCT,M,M,1500,1700,M,M,M,M,M,M,M,M,M,100.52,VVTS 210300Z 24007KT 200V260 9999 FEW015TCU SCT017 33/23 Q1009 NOSIG,M
VVTS,4/21/2012 3:30,106.6667,10.8167,89.6,73.4,59.01,250,8,0,29.8,M,6.21,M,BKN,M,M,M,1700,M,M,M,M,M,M,M,M,M,M,98.2,VVTS 210330Z 25008KT 9999 BKN017 32/23 Q1009 NOSIG,M
VVTS,4/21/2012 4:00,106.6667,10.8167,93.2,73.4,52.73,220,6,0,29.77,M,6.21,M,BKN,M,M,M,1700,M,M,M,M,M,M,M,M,M,M,102.82,VVTS 210400Z 22006KT 180V260 9999 BKN017 34/23 Q1008 NOSIG,M
VVTS,4/21/2012 4:30,106.6667,10.8167,93.2,73.4,52.73,220,5,0,29.77,M,6.21,M,BKN,M,M,M,1700,M,M,M,M,M,M,M,M,M,M,102.82,VVTS 210430Z 22005KT 180V260 9999 BKN017 34/23 Q1008 NOSIG,M
VVTS,4/21/2012 5:00,106.6667,10.8167,93.2,73.4,52.73,230,8,0,29.74,M,6.21,M,BKN,M,M,M,1700,M,M,M,M,M,M,M,M,M,M,102.82,VVTS 210500Z 23008KT 180V260 9999 BKN017 34/23 Q1007 NOSIG,M
VVTS,4/21/2012 5:30,106.6667,10.8167,93.2,73.4,52.73,220,6,0,29.74,M,6.21,M,BKN,M,M,M,1700,M,M,M,M,M,M,M,M,M,M,102.82,VVTS 210530Z 22006KT 180V280 9999 BKN017 34/23 Q1007 NOSIG,M
VVTS,4/21/2012 6:00,106.6667,10.8167,91.4,71.6,52.48,190,7,0,29.71,M,6.21,M,BKN,M,M,M,2000,M,M,M,M,M,M,M,M,M,M,98.64,VVTS 210600Z 19007KT 150V220 9999 BKN020 33/22 Q1006 NOSIG,M
VVTS,4/21/2012 6:30,106.6667,10.8167,93.2,71.6,49.62,210,8,0,29.68,M,6.21,M,FEW,SCT,M,M,1500,1700,M,M,M,M,M,M,M,M,M,100.88,VVTS 210630Z 21008KT 140V310 9999 FEW015TCU SCT017 34/22 Q1005 NOSIG,M
VVTS,4/21/2012 7:00,106.6667,10.8167,91.4,71.6,52.48,190,6,0,29.68,M,6.21,M,FEW,SCT,M,M,1500,1700,M,M,M,M,M,M,M,M,M,98.64,VVTS 210700Z 19006KT 160V230 9999 FEW015CB SCT017 33/22 Q1005 NOSIG,M
VVTS,4/21/2012 7:30,106.6667,10.8167,91.4,71.6,52.48,200,8,0,29.68,M,6.21,M,FEW,SCT,M,M,1500,1700,M,M,M,M,M,M,M,M,M,98.64,VVTS 210730Z 20008KT 9999 FEW015CB SCT017 33/22 Q1005 NOSIG,M
VVTS,4/21/2012 8:00,106.6667,10.8167,80.6,75.2,83.66,340,9,0,29.68,M,1.24,M,SCT,SCT,M,M,1500,1700,M,M,#NAME?,M,M,M,M,M,M,86.17,VVTS 210800Z 34009KT 260V030 2000W +TSRA SCT015 SCT017CB 27/24 Q1005 TEMPO TL0840 23015G25KT 1500 +TSRA,M
VVTS,4/21/2012 8:30,106.6667,10.8167,75.2,75.2,100,300,18,0,29.68,M,0.93,M,SCT,SCT,M,M,1300,1500,M,M,#NAME?,M,M,M,M,M,M,77.12,VVTS 210830Z 30018KT 1500W +TSRA SCT013 SCT015CB 24/24 Q1005 TEMPO TL0840 27015G25KT 1000 +TSRA,M
VVTS,4/21/2012 9:30,106.6667,10.8167,75.2,73.4,94.14,270,5,0,29.71,M,4.97,M,BKN,SCT,M,M,1300,1500,M,M,#NAME?,M,M,M,M,M,M,76.84,VVTS 210930Z 27005KT 210V310 8000 -TSRA BKN013 SCT015CB 24/23 Q1006 NOSIG,M
VVTS,4/21/2012 10:00,106.6667,10.8167,75.2,75.2,100,M,3,0,29.71,M,4.97,M,SCT,SCT,M,M,1500,1700,M,M,TS,M,M,M,M,M,M,77.12,VVTS 211000Z VRB03KT 8000 TS SCT015 SCT017CB 24/24 Q1006 NOSIG,M
VVTS,4/21/2012 10:30,106.6667,10.8167,75.2,75.2,100,140,5,0,29.71,M,6.21,M,FEW,SCT,BKN,M,1500,1700,4000,M,M,M,M,M,M,M,M,77.12,VVTS 211030Z 14005KT 110V180 9999 FEW015CB SCT017 BKN040 24/24 Q1006 NOSIG,M
VVTS,4/21/2012 11:00,106.6667,10.8167,78.8,75.2,88.75,100,4,0,29.71,M,6.21,M,FEW,SCT,BKN,M,1500,1700,4000,M,M,M,M,M,M,M,M,82.38,VVTS 211100Z 10004KT 9999 FEW015TCU SCT017 BKN040 26/24 Q1006 NOSIG,M
VVTS,4/21/2012 11:30,106.6667,10.8167,78.8,73.4,83.55,110,5,0,29.71,M,6.21,M,SCT,BKN,M,M,1500,4000,M,M,M,M,M,M,M,M,M,82.03,VVTS 211130Z 11005KT 9999 SCT015 BKN040 26/23 Q1006 NOSIG,M
VVTS,4/21/2012 12:00,106.6667,10.8167,77,73.4,88.67,70,4,0,29.74,M,6.21,M,FEW,SCT,M,M,1700,4000,M,M,M,M,M,M,M,M,M,78.57,VVTS 211200Z 07004KT 9999 FEW017 SCT040 25/23 Q1007 NOSIG,M
VVTS,4/21/2012 12:30,106.6667,10.8167,78.8,73.4,83.55,80,5,0,29.74,M,6.21,M,FEW,SCT,M,M,1700,4000,M,M,M,M,M,M,M,M,M,82.03,VVTS 211230Z 08005KT 9999 FEW017 SCT040 26/23 Q1007 NOSIG,M
VVTS,4/21/2012 13:00,106.6667,10.8167,78.8,73.4,83.55,100,5,0,29.74,M,6.21,M,FEW,SCT,M,M,1700,4000,M,M,M,M,M,M,M,M,M,82.03,VVTS 211300Z 10005KT 9999 FEW017 SCT040 26/23 Q1007 NOSIG,M
VVTS,4/21/2012 13:30,106.6667,10.8167,78.8,73.4,83.55,M,3,0,29.77,M,6.21,M,FEW,SCT,M,M,1700,4000,M,M,M,M,M,M,M,M,M,82.03,VVTS 211330Z VRB03KT 9999 FEW017 SCT040 26/23 Q1008 NOSIG,M
VVTS,4/21/2012 14:00,106.6667,10.8167,78.8,73.4,83.55,110,5,0,29.77,M,6.21,M,FEW,SCT,M,M,1700,4000,M,M,M,M,M,M,M,M,M,82.03,VVTS 211400Z 11005KT 080V150 9999 FEW017 SCT040 26/23 Q1008 NOSIG,M
VVTS,4/21/2012 15:00,106.6667,10.8167,78.8,75.2,88.75,70,4,0,29.8,M,6.21,M,FEW,SCT,M,M,1700,4000,M,M,M,M,M,M,M,M,M,82.38,VVTS 211500Z 07004KT 9999 FEW017 SCT040 26/24 Q1009 NOSIG,M
VVTS,4/21/2012 15:30,106.6667,10.8167,78.8,75.2,88.75,80,3,0,29.8,M,5.59,M,FEW,SCT,M,M,1700,4000,M,M,M,M,M,M,M,M,M,82.38,VVTS 211530Z 08003KT 9000 FEW017 SCT040 26/24 Q1009 NOSIG,M
VVTS,4/21/2012 16:00,106.6667,10.8167,78.8,75.2,88.75,M,3,0,29.8,M,5.59,M,FEW,SCT,M,M,1700,4000,M,M,M,M,M,M,M,M,M,82.38,VVTS 211600Z VRB03KT 9000 FEW017 SCT040 26/24 Q1009 NOSIG,M
VVTS,4/21/2012 16:30,106.6667,10.8167,78.8,77,94.23,360,2,0,29.8,M,4.97,M,FEW,SCT,M,M,1700,4000,M,M,M,M,M,M,M,M,M,82.75,VVTS 211630Z 36002KT 8000 FEW017 SCT040 26/25 Q1009 NOSIG,M
VVTS,4/21/2012 17:00,106.6667,10.8167,77,77,100,M,2,0,29.8,M,6.21,M,FEW,SCT,M,M,1700,4000,M,M,M,M,M,M,M,M,M,77,VVTS 211700Z VRB02KT 9999 FEW017 SCT040 25/25 Q1009 NOSIG,M
VVTS,4/21/2012 17:30,106.6667,10.8167,78.8,77,94.23,350,3,0,29.8,M,6.21,M,FEW,SCT,M,M,1700,4000,M,M,M,M,M,M,M,M,M,82.75,VVTS 211730Z 35003KT 9999 FEW017 SCT040 26/25 Q1009 NOSIG,M
VVTS,4/21/2012 18:00,106.6667,10.8167,77,77,100,320,1,0,29.77,M,3.73,M,FEW,BKN,M,M,1700,4000,M,M,M,M,M,M,M,M,M,77,VVTS 211800Z 32001KT 6000 FEW017 BKN040 25/25 Q1008 NOSIG,M
VVTS,4/21/2012 18:30,106.6667,10.8167,77,77,100,320,3,0,29.77,M,3.11,M,FEW,BKN,M,M,1700,4000,M,M,BR,M,M,M,M,M,M,77,VVTS 211830Z 32003KT 5000 BR FEW017 BKN040 25/25 Q1008 NOSIG,M
VVTS,4/21/2012 19:00,106.6667,10.8167,77,77,100,M,1,0,29.74,M,4.35,M,FEW,BKN,M,M,1700,4000,M,M,M,M,M,M,M,M,M,77,VVTS 211900Z VRB01KT 7000 FEW017 BKN040 25/25 Q1007 NOSIG,M
VVTS,4/21/2012 19:30,106.6667,10.8167,75.2,75.2,100,M,1,0,29.71,M,3.73,M,FEW,BKN,M,M,1700,4000,M,M,M,M,M,M,M,M,M,77.12,VVTS 211930Z VRB01KT 6000 FEW017 BKN040 24/24 Q1006 NOSIG,M
VVTS,4/21/2012 20:00,106.6667,10.8167,75.2,75.2,100,310,1,0,29.71,M,4.35,M,FEW,BKN,M,M,1700,4000,M,M,M,M,M,M,M,M,M,77.12,VVTS 212000Z 31001KT 7000 FEW017 BKN040 24/24 Q1006 NOSIG,M
VVTS,4/21/2012 20:30,106.6667,10.8167,75.2,75.2,100,0,0,0,29.68,M,5.59,M,FEW,BKN,M,M,1700,4000,M,M,M,M,M,M,M,M,M,77.12,VVTS 212030Z 00000KT 9000 FEW017 BKN040 24/24 Q1005 NOSIG,M
VVTS,4/21/2012 21:00,106.6667,10.8167,75.2,75.2,100,M,1,0,29.68,M,5.59,M,FEW,BKN,M,M,1700,4000,M,M,M,M,M,M,M,M,M,77.12,VVTS 212100Z VRB01KT 9000 FEW017 BKN040 24/24 Q1005 NOSIG,M
VVTS,4/21/2012 21:30,106.6667,10.8167,75.2,75.2,100,90,3,0,29.68,M,4.35,M,FEW,BKN,M,M,1700,4000,M,M,M,M,M,M,M,M,M,77.12,VVTS 212130Z 09003KT 7000 FEW017 BKN040 24/24 Q1005 NOSIG,M
VVTS,4/21/2012 22:00,106.6667,10.8167,75.2,75.2,100,70,3,0,29.68,M,3.73,M,FEW,BKN,M,M,1700,4000,M,M,M,M,M,M,M,M,M,77.12,VVTS 212200Z 07003KT 6000 FEW017 BKN040 24/24 Q1005 NOSIG,M
VVTS,4/21/2012 23:00,106.6667,10.8167,75.2,75.2,100,M,1,0,29.68,M,2.3,M,FEW,SCT,M,M,1700,4000,M,M,BR,M,M,M,M,M,M,77.12,VVTS 212300Z VRB01KT 3700 BR FEW017 SCT040 24/24 Q1005 NOSIG,M
VVTS,4/21/2012 23:30,106.6667,10.8167,77,77,100,30,1,0,29.71,M,2.55,M,FEW,SCT,M,M,1700,4000,M,M,BR,M,M,M,M,M,M,77,VVTS 212330Z 03001KT 4100 BR FEW017 SCT040 25/25 Q1006 NOSIG,M
VVTS,4/22/2012 0:00,106.6667,10.8167,80.6,78.8,94.27,M,3,0,29.74,M,2.05,M,FEW,SCT,M,M,1700,4000,M,M,BR,M,M,M,M,M,M,89.33,VVTS 220000Z VRB03KT 3300 BR FEW017 SCT040 27/26 Q1007 BECMG TL0030 5000,M
VVTS,4/22/2012 0:30,106.6667,10.8167,80.6,78.8,94.27,360,5,0,29.74,M,2.17,M,FEW,SCT,M,M,1700,4000,M,M,BR,M,M,M,M,M,M,89.33,VVTS 220030Z 36005KT 3500 BR FEW017 SCT040 27/26 Q1007 N OSIG,M
VVTS,4/22/2012 1:00,106.6667,10.8167,82.4,78.8,88.9,M,2,0,29.77,M,2.3,M,FEW,M,M,M,1700,M,M,M,HZ,M,M,M,M,M,M,92.4,VVTS 220100Z VRB02KT 3700 HZ FEW017 28/26 Q1008 NOSIG,M
VVTS,4/22/2012 1:30,106.6667,10.8167,84.2,78.8,83.88,M,1,0,29.77,M,2.42,M,FEW,M,M,M,1700,M,M,M,BR,M,M,M,M,M,M,96.1,VVTS 220130Z VRB01KT 3900 BR FEW017 29/26 Q1008 NOSIG,M
VVTS,4/22/2012 2:00,106.6667,10.8167,86,78.8,79.18,M,3,0,29.77,M,4.35,M,SCT,M,M,M,1700,M,M,M,M,M,M,M,M,M,M,99.38,VVTS 220200Z VRB03KT 7000 SCT017 30/26 Q1008 NOSIG,M
VVTS,4/22/2012 2:30,106.6667,10.8167,87.8,78.8,74.77,M,2,0,29.77,M,4.97,M,SCT,M,M,M,1700,M,M,M,M,M,M,M,M,M,M,102.37,VVTS 220230Z VRB02KT 8000 SCT017 31/26 Q1008 NOSIG,M
VVTS,4/22/2012 3:00,106.6667,10.8167,89.6,77,66.55,M,3,0,29.77,M,4.97,M,SCT,M,M,M,1700,M,M,M,M,M,M,M,M,M,M,102.54,VVTS 220300Z VRB03KT 8000 SCT017 32/25 Q1008 NOSIG,M
VVTS,4/22/2012 3:30,106.6667,10.8167,89.6,78.8,70.63,M,1,0,29.77,M,4.97,M,BKN,M,M,M,1700,M,M,M,M,M,M,M,M,M,M,105.15,VVTS 220330Z VRB01KT 8000 BKN017 32/26 Q1008 NOSIG,M
VVTS,4/22/2012 4:00,106.6667,10.8167,89.6,75.2,62.68,M,2,0,29.77,M,4.97,M,FEW,BKN,M,M,1500,1700,M,M,M,M,M,M,M,M,M,100.23,VVTS 220400Z VRB02KT 8000 FEW015TCU BKN017 32/24 Q1008 NOSIG,M
VVTS,4/22/2012 4:30,106.6667,10.8167,89.6,77,66.55,M,3,0,29.77,M,4.97,M,BKN,M,M,M,1700,M,M,M,M,M,M,M,M,M,M,102.54,VVTS 220430Z VRB03KT 8000 BKN017 32/25 Q1008 NOSIG,M
VVTS,4/22/2012 5:00,106.6667,10.8167,93.2,75.2,56.01,M,3,0,29.74,M,6.21,M,FEW,SCT,M,M,1500,1700,M,M,M,M,M,M,M,M,M,105.02,VVTS 220500Z VRB03KT 9999 FEW015TCU SCT017 34/24 Q1007 NOSIG,M
VVTS,4/22/2012 5:30,106.6667,10.8167,93.2,73.4,52.73,160,4,0,29.74,M,6.21,M,FEW,SCT,M,M,1500,1700,M,M,M,M,M,M,M,M,M,102.82,VVTS 220530Z 16004KT 060V250 9999 FEW015CB SCT017 34/23 Q1007 NOSIG,M
VVTS,4/22/2012 6:00,106.6667,10.8167,93.2,75.2,56.01,60,7,0,29.71,M,5.59,M,SCT,SCT,M,M,1500,1700,M,M,M,M,M,M,M,M,M,105.02,VVTS 220600Z 06007KT 030V130 9000 SCT015 SCT017CB 34/24 Q1006 TEMPO FM0650 4000 TSRA,M
VVTS,4/22/2012 6:30,106.6667,10.8167,87.8,77,70.45,110,12,0,29.71,M,6.21,M,SCT,SCT,M,M,1500,1700,M,M,M,M,M,M,M,M,M,99.92,VVTS 220630Z 11012KT 080V140 9999 SCT015 SCT017CB 31/25 Q1006 TEMPO FM0650 4000 TSRA,M
VVTS,4/22/2012 7:00,106.6667,10.8167,86,75.2,70.27,110,11,0,29.68,M,6.21,M,SCT,SCT,M,M,1500,1700,M,M,M,M,M,M,M,M,M,95.19,VVTS 220700Z 11011KT 9999 SCT015 SCT017CB 30/24 Q1005 TEMPO TL0750 4000 TSRA,M
VVTS,4/22/2012 7:30,106.6667,10.8167,86,77,74.61,170,11,0,29.68,M,6.21,21,SCT,SCT,M,M,1500,1700,M,M,TS,M,M,M,M,M,M,97.15,VVTS 220730Z 17011G21KT 110V230 9999 TS SCT015 SCT017CB 30/25 Q1005 TEMPO TL0750 4000 TSRA,M
VVTS,4/22/2012 8:00,106.6667,10.8167,82.4,71.6,69.9,190,8,0,29.71,M,6.21,M,BKN,SCT,M,M,1500,1700,M,M,TS,M,M,M,M,M,M,87.18,VVTS 220800Z 19008KT 9999 TS BKN015 SCT017CB 28/22 Q1006 TEMPO TL0835 4000 TSRA,M
VVTS,4/22/2012 8:30,106.6667,10.8167,82.4,73.4,74.28,170,5,0,29.71,M,6.21,M,SCT,SCT,M,M,1500,1700,M,M,M,M,M,M,M,M,M,88.26,VVTS 220830Z 17005KT 080V260 9999 SCT015 SCT017CB 28/23 Q1006 TEMPO TL0835 4000 TSRA,M
VVTS,4/22/2012 9:00,106.6667,10.8167,82.4,75.2,78.9,190,5,0,29.71,M,6.21,M,SCT,BKN,M,M,1700,4000,M,M,M,M,M,M,M,M,M,89.48,VVTS 220900Z 19005KT 140V230 9999 SCT017 BKN040 28/24 Q1006 NOSIG,M
VVTS,4/22/2012 9:30,106.6667,10.8167,82.4,75.2,78.9,M,2,0,29.71,M,6.21,M,SCT,BKN,M,M,1700,4000,M,M,M,M,M,M,M,M,M,89.48,VVTS 220930Z VRB02KT 9999 SCT017 BKN040 28/24 Q1006 NOSIG,M
VVTS,4/22/2012 10:00,106.6667,10.8167,82.4,75.2,78.9,180,5,0,29.71,M,6.21,M,SCT,BKN,M,M,1700,4000,M,M,M,M,M,M,M,M,M,89.48,VVTS 221000Z 18005KT 9999 SCT017 BKN040 28/24 Q1006 NOSIG,M
VVTS,4/22/2012 10:30,106.6667,10.8167,84.2,78.8,83.88,160,5,0,29.74,M,6.21,M,SCT,BKN,M,M,1700,4000,M,M,M,M,M,M,M,M,M,96.1,VVTS 221030Z 16005KT 080V200 9999 SCT017 BKN040 29/26 Q1007 NOSIG,M
VVTS,4/22/2012 11:00,106.6667,10.8167,84.2,78.8,83.88,140,6,0,29.74,M,6.21,M,SCT,BKN,M,M,1500,4000,M,M,M,M,M,M,M,M,M,96.1,VVTS 221100Z 14006KT 9999 SCT015 BKN040 29/26 Q1007 NOSIG,M
VVTS,4/22/2012 11:30,106.6667,10.8167,84.2,78.8,83.88,150,8,0,29.74,M,6.21,M,SCT,BKN,M,M,1500,4000,M,M,M,M,M,M,M,M,M,96.1,VVTS 221130Z 15008KT 9999 SCT015 BKN040 29/26 Q1007 NOSIG,M
VVTS,4/22/2012 12:00,106.6667,10.8167,82.4,78.8,88.9,150,8,0,29.74,M,6.21,M,BKN,M,M,M,1500,M,M,M,M,M,M,M,M,M,M,92.4,VVTS 221200Z 15008KT 9999 BKN015 28/26 Q1007 NOSIG,M
VVTS,4/22/2012 12:30,106.6667,10.8167,82.4,78.8,88.9,140,8,0,29.74,M,6.21,M,BKN,M,M,M,1500,M,M,M,M,M,M,M,M,M,M,92.4,VVTS 221230Z 14008KT 9999 BKN015 28/26 Q1007 NOSIG,M
VVTS,4/22/2012 13:00,106.6667,10.8167,82.4,78.8,88.9,130,8,0,29.74,M,6.21,M,SCT,M,M,M,1500,M,M,M,M,M,M,M,M,M,M,92.4,VVTS 221300Z 13008KT 100V190 9999 SCT015 28/26 Q1007 NOSIG,M
VVTS,4/22/2012 13:30,106.6667,10.8167,82.4,78.8,88.9,110,7,0,29.77,M,6.21,M,SCT,M,M,M,1500,M,M,M,M,M,M,M,M,M,M,92.4,VVTS 221330Z 11007KT 9999 SCT015 28/26 Q1008 NOSIG,M
VVTS,4/22/2012 14:00,106.6667,10.8167,82.4,77,83.77,110,6,0,29.8,M,6.21,M,SCT,M,M,M,1500,M,M,M,M,M,M,M,M,M,M,90.85,VVTS 221400Z 11006KT 090V160 9999 SCT015 28/25 Q1009 NOSIG,M
VVTS,4/22/2012 14:30,106.6667,10.8167,82.4,77,83.77,M,3,0,29.8,M,6.21,M,FEW,SCT,M,M,1500,1700,M,M,M,M,M,M,M,M,M,90.85,VVTS 221430Z VRB03KT 9999 FEW015CB SCT017 28/25 Q1009 NOSIG,M
VVTS,4/22/2012 15:00,106.6667,10.8167,80.6,77,88.83,M,2,0,29.83,M,6.21,M,FEW,SCT,M,M,1500,1700,M,M,M,M,M,M,M,M,M,87.1,VVTS 221500Z VRB02KT 9999 FEW015CB SCT017 27/25 Q1010 NOSIG,M
VVTS,4/22/2012 15:30,106.6667,10.8167,80.6,75.2,83.66,M,1,0,29.8,M,6.21,M,FEW,SCT,M,M,1500,1700,M,M,M,M,M,M,M,M,M,86.17,VVTS 221530Z VRB01KT 9999 FEW015CB SCT017 27/24 Q1009 NOSIG,M
VVTS,4/22/2012 16:00,106.6667,10.8167,82.4,75.2,78.9,110,7,0,29.8,M,6.21,M,FEW,SCT,M,M,1500,1700,M,M,M,M,M,M,M,M,M,89.48,VVTS 221600Z 11007KT 9999 FEW015CB SCT017 28/24 Q1009 NOSIG,M
VVTS,4/22/2012 16:30,106.6667,10.8167,80.6,75.2,83.66,M,2,0,29.77,M,6.21,M,FEW,SCT,M,M,1500,1700,M,M,M,M,M,M,M,M,M,86.17,VVTS 221630Z VRB02KT 9999 FEW015CB SCT017 27/24 Q1008 NOSIG,M
VVTS,4/22/2012 17:00,106.6667,10.8167,80.6,75.2,83.66,170,6,0,29.77,M,6.21,M,SCT,M,M,M,1700,M,M,M,M,M,M,M,M,M,M,86.17,VVTS 221700Z 17006KT 140V210 9999 SCT017 27/24 Q1008 NOSIG,M
VVTS,4/22/2012 17:30,106.6667,10.8167,80.6,73.4,78.76,M,3,0,29.77,M,6.21,M,SCT,M,M,M,1700,M,M,M,M,M,M,M,M,M,M,85.32,VVTS 221730Z VRB03KT 9999 SCT017 27/23 Q1008 NOSIG,M
VVTS,4/22/2012 18:00,106.6667,10.8167,80.6,75.2,83.66,170,4,0,29.77,M,6.21,M,SCT,M,M,M,1700,M,M,M,M,M,M,M,M,M,M,86.17,VVTS 221800Z 17004KT 9999 SCT017 27/24 Q1008 NOSIG,M
VVTS,4/22/2012 18:30,106.6667,10.8167,78.8,73.4,83.55,180,4,0,29.74,M,6.21,M,SCT,M,M,M,1700,M,M,M,M,M,M,M,M,M,M,82.03,VVTS 221830Z 18004KT 9999 SCT017 26/23 Q1007 NOSIG,M
VVTS,4/22/2012 19:00,106.6667,10.8167,78.8,73.4,83.55,140,2,0,29.74,M,6.21,M,SCT,M,M,M,1700,M,M,M,M,M,M,M,M,M,M,82.03,VVTS 221900Z 14002KT 9999 SCT017 26/23 Q1007 NOSIG,M
VVTS,4/22/2012 19:30,106.6667,10.8167,78.8,75.2,88.75,90,1,0,29.74,M,6.21,M,SCT,M,M,M,1700,M,M,M,M,M,M,M,M,M,M,82.38,VVTS 221930Z 09001KT 9999 SCT017 26/24 Q1007 NOSIG,M
VVTS,4/22/2012 20:00,106.6667,10.8167,78.8,75.2,88.75,M,1,0,29.71,M,6.21,M,SCT,M,M,M,1700,M,M,M,M,M,M,M,M,M,M,82.38,VVTS 222000Z VRB01KT 9999 SCT017 26/24 Q1006 NOSIG,M
VVTS,4/22/2012 20:30,106.6667,10.8167,77,75.2,94.19,0,0,0,29.74,M,6.21,M,SCT,M,M,M,1700,M,M,M,M,M,M,M,M,M,M,78.83,VVTS 222030Z 00000KT 9999 SCT017 25/24 Q1007 NOSIG,M
VVTS,4/22/2012 21:00,106.6667,10.8167,75.2,75.2,100,M,1,0,29.74,M,6.21,M,SCT,M,M,M,1700,M,M,M,M,M,M,M,M,M,M,77.12,VVTS 222100Z VRB01KT 9999 SCT017 24/24 Q1007 NOSIG,M
VVTS,4/22/2012 21:30,106.6667,10.8167,77,75.2,94.19,320,2,0,29.74,M,6.21,M,SCT,M,M,M,1700,M,M,M,M,M,M,M,M,M,M,78.83,VVTS 222130Z 32002KT 9999 SCT017 25/24 Q1007 NOSIG,M
VVTS,4/22/2012 22:00,106.6667,10.8167,75.2,75.2,100,20,1,0,29.74,M,6.21,M,SCT,M,M,M,1700,M,M,M,M,M,M,M,M,M,M,77.12,VVTS 222200Z 02001KT 9999 SCT017 24/24 Q1007 NOSIG,M
VVTS,4/22/2012 22:30,106.6667,10.8167,M,M,M,M,1,0,29.74,M,5.59,M,SCT,M,M,M,1700,M,M,M,M,M,M,M,M,M,M,M,VVTS 222230Z VRB01KT 9000 SCT017 Q1007 NOSIG,M
VVTS,4/22/2012 23:00,106.6667,10.8167,77,73.4,88.67,M,1,0,29.74,M,3.11,M,SCT,M,M,M,1700,M,M,M,BR,M,M,M,M,M,M,78.57,VVTS 222300Z VRB01KT 5000 BR SCT017 25/23 Q1007 BECMG TL2330 2000 BR,M
VVTS,4/22/2012 23:30,106.6667,10.8167,77,73.4,88.67,M,3,0,29.77,M,3.11,M,FEW,SCT,M,M,1700,4000,M,M,BR,M,M,M,M,M,M,78.57,VVTS 222330Z VRB03KT 5000 BR FEW017 SCT040 25/23 Q1008 NOSIG,M
VVTS,4/23/2012 0:00,106.6667,10.8167,80.6,78.8,94.27,360,3,0,29.77,M,3.73,M,FEW,SCT,M,M,1700,4000,M,M,M,M,M,M,M,M,M,89.33,VVTS 230000Z 36003KT 6000 FEW017 SCT040 27/26 Q1008 NOSIG,M
VVTS,4/23/2012 0:30,106.6667,10.8167,80.6,77,88.83,M,3,0,29.8,M,4.97,M,SCT,M,M,M,1700,M,M,M,M,M,M,M,M,M,M,87.1,VVTS 230030Z VRB03KT 8000 SCT017 27/25 Q1009 NOSIG,M
VVTS,4/23/2012 1:00,106.6667,10.8167,82.4,78.8,88.9,M,2,0,29.8,M,4.97,M,SCT,M,M,M,1700,M,M,M,M,M,M,M,M,M,M,92.4,VVTS 230100Z VRB02KT 8000 SCT017 28/26 Q1009 NOSIG,M
VVTS,4/23/2012 1:30,106.6667,10.8167,82.4,77,83.77,M,2,0,29.8,M,6.21,M,SCT,M,M,M,1700,M,M,M,M,M,M,M,M,M,M,90.85,VVTS 230130Z VRB02KT 9999 SCT017 28/25 Q1009 NOSIG,M
VVTS,4/23/2012 2:00,106.6667,10.8167,84.2,75.2,74.44,M,1,0,29.8,M,6.21,M,SCT,M,M,M,1700,M,M,M,M,M,M,M,M,M,M,92.45,VVTS 230200Z VRB01KT 9999 SCT017 29/24 Q1009 NOSIG,M
VVTS,4/23/2012 2:30,106.6667,10.8167,87.8,73.4,62.47,M,3,0,29.8,M,6.21,M,BKN,M,M,M,1700,M,M,M,M,M,M,M,M,M,M,95.86,VVTS 230230Z VRB03KT 9999 BKN017 31/23 Q1009 NOSIG,M
VVTS,4/23/2012 3:00,106.6667,10.8167,87.8,73.4,62.47,M,3,0,29.8,M,6.21,M,SCT,M,M,M,1700,M,M,M,M,M,M,M,M,M,M,95.86,VVTS 230300Z VRB03KT 9999 SCT017 31/23 Q1009 NOSIG,M
VVTS,4/23/2012 3:30,106.6667,10.8167,89.6,73.4,59.01,M,3,0,29.8,M,6.21,M,SCT,M,M,M,1700,M,M,M,M,M,M,M,M,M,M,98.2,VVTS 230330Z VRB03KT 9999 SCT017 32/23 Q1009 NOSIG,M
VVTS,4/23/2012 4:00,106.6667,10.8167,91.4,73.4,55.77,M,3,0,29.77,M,6.21,M,SCT,M,M,M,1700,M,M,M,M,M,M,M,M,M,M,100.52,VVTS 230400Z VRB03KT 9999 SCT017 33/23 Q1008 NOSIG,M
VVTS,4/23/2012 4:30,106.6667,10.8167,91.4,75.2,59.24,180,6,0,29.77,M,6.21,M,SCT,M,M,M,1700,M,M,M,M,M,M,M,M,M,M,102.65,VVTS 230430Z 18006KT 040V330 9999 SCT017 33/24 Q1008 NOSIG,M
VVTS,4/23/2012 5:00,106.6667,10.8167,91.4,73.4,55.77,170,6,0,29.77,M,6.21,M,SCT,M,M,M,1700,M,M,M,M,M,M,M,M,M,M,100.52,VVTS 230500Z 17006KT 090V200 9999 SCT017 33/23 Q1008 NOSIG,M
VVTS,4/23/2012 5:30,106.6667,10.8167,93.2,73.4,52.73,180,6,0,29.74,M,6.21,M,SCT,M,M,M,1700,M,M,M,M,M,M,M,M,M,M,102.82,VVTS 230530Z 18006KT 140V260 9999 SCT017 34/23 Q1007 NOSIG,M
VVTS,4/23/2012 6:00,106.6667,10.8167,93.2,71.6,49.62,140,7,0,29.74,M,6.21,M,FEW,SCT,M,M,1500,1700,M,M,M,M,M,M,M,M,M,100.88,VVTS 230600Z 14007KT 100V170 9999 FEW015TCU SCT017 34/22 Q1007 NOSIG,M
VVTS,4/23/2012 6:30,106.6667,10.8167,95,69.8,44.14,170,6,0,29.71,M,M,M,FEW,SCT,M,M,1500,1700,M,M,M,M,M,M,M,M,M,101.37,VVTS 230630Z 17006KT 12099 FEW015CB SCT017 35/21 Q1006 NOSIG,M
VVTS,4/23/2012 7:00,106.6667,10.8167,93.2,71.6,49.62,190,8,0,29.68,M,6.21,M,FEW,SCT,M,M,1500,1700,M,M,M,M,M,M,M,M,M,100.88,VVTS 230700Z 19008KT 140V220 9999 FEW015CB SCT017 34/22 Q1005 NOSIG,M
VVTS,4/23/2012 7:30,106.6667,10.8167,91.4,73.4,55.77,150,8,0,29.68,M,6.21,M,FEW,SCT,M,M,1500,1700,M,M,M,M,M,M,M,M,M,100.52,VVTS 230730Z 15008KT 9999 FEW015CB SCT017 33/23 Q1005 NOSIG,M
VVTS,4/23/2012 8:00,106.6667,10.8167,93.2,75.2,56.01,180,12,0,29.68,M,6.21,M,FEW,SCT,M,M,1500,1700,M,M,M,M,M,M,M,M,M,105.02,VVTS 230800Z 18012KT 9999 FEW015CB SCT017 34/24 Q1005 NOSIG,M
VVTS,4/23/2012 8:30,106.6667,10.8167,89.6,73.4,59.01,160,11,0,29.68,M,6.21,M,SCT,SCT,M,M,1500,1700,M,M,M,M,M,M,M,M,M,98.2,VVTS 230830Z 16011KT 9999 SCT015 SCT017CB 32/23 Q1005 NOSIG,M
VVTS,4/23/2012 9:30,106.6667,10.8167,86,75.2,70.27,160,11,0,29.68,M,6.21,M,FEW,SCT,M,M,1500,1700,M,M,M,M,M,M,M,M,M,95.19,VVTS 230930Z 16011KT 9999 FEW015CB SCT017 30/24 Q1005 NOSIG,M
VVTS,4/23/2012 10:00,106.6667,10.8167,84.2,75.2,74.44,160,8,0,29.68,M,6.21,M,FEW,SCT,M,M,1500,1700,M,M,M,M,M,M,M,M,M,92.45,VVTS 231000Z 16008KT 9999 FEW015CB SCT017 29/24 Q1005 NOSIG,M
VVTS,4/23/2012 10:30,106.6667,10.8167,84.2,75.2,74.44,130,7,0,29.71,M,6.21,M,FEW,SCT,M,M,1500,1700,M,M,M,M,M,M,M,M,M,92.45,VVTS 231030Z 13007KT 090V160 9999 FEW015CB SCT017 29/24 Q1006 NOSIG,M
VVTS,4/23/2012 11:00,106.6667,10.8167,84.2,75.2,74.44,120,9,0,29.71,M,6.21,M,FEW,SCT,M,M,1700,4000,M,M,M,M,M,M,M,M,M,92.45,VVTS 231100Z 12009KT 9999 FEW017 SCT040 29/24 Q1006 NOSIG,M
VVTS,4/23/2012 11:30,106.6667,10.8167,84.2,75.2,74.44,110,6,0,29.71,M,6.21,M,FEW,SCT,M,M,1700,4000,M,M,M,M,M,M,M,M,M,92.45,VVTS 231130Z 11006KT 080V150 9999 FEW017 SCT040 29/24 Q1006 NOSIG,M
VVTS,4/23/2012 12:00,106.6667,10.8167,84.2,77,79.04,110,9,0,29.71,M,6.21,M,FEW,SCT,M,M,1700,4000,M,M,M,M,M,M,M,M,M,94.16,VVTS 231200Z 11009KT 9999 FEW017 SCT040 29/25 Q1006 NOSIG,M
VVTS,4/23/2012 12:30,106.6667,10.8167,84.2,77,79.04,120,9,0,29.74,M,6.21,M,FEW,SCT,M,M,1700,4000,M,M,M,M,M,M,M,M,M,94.16,VVTS 231230Z 12009KT 9999 FEW017 SCT040 29/25 Q1007 NOSIG,M
VVTS,4/23/2012 13:00,106.6667,10.8167,84.2,75.2,74.44,130,9,0,29.74,M,6.21,M,FEW,SCT,M,M,1700,4000,M,M,M,M,M,M,M,M,M,92.45,VVTS 231300Z 13009KT 9999 FEW017 SCT040 29/24 Q1007 NOSIG,M
VVTS,4/23/2012 13:30,106.6667,10.8167,84.2,77,79.04,120,8,0,29.74,M,6.21,M,FEW,SCT,M,M,1700,4000,M,M,M,M,M,M,M,M,M,94.16,VVTS 231330Z 12008KT 100V180 9999 FEW017 SCT040 29/25 Q1007 NOSIG,M
VVTS,4/23/2012 14:00,106.6667,10.8167,84.2,77,79.04,120,8,0,29.77,M,6.21,M,FEW,SCT,M,M,1500,4000,M,M,M,M,M,M,M,M,M,94.16,VVTS 231400Z 12008KT 100V170 9999 FEW015 SCT040 29/25 Q1008 NOSIG,M
VVTS,4/23/2012 14:30,106.6667,10.8167,82.4,77,83.77,120,7,0,29.77,M,6.21,M,FEW,SCT,M,M,1500,4000,M,M,M,M,M,M,M,M,M,90.85,VVTS 231430Z 12007KT 9999 FEW015 SCT040 28/25 Q1008 NOSIG,M
VVTS,4/23/2012 15:00,106.6667,10.8167,82.4,77,83.77,120,7,0,29.77,M,6.21,M,FEW,SCT,M,M,1500,4000,M,M,M,M,M,M,M,M,M,90.85,VVTS 231500Z 12007KT 9999 FEW015 SCT040 28/25 Q1008 NOSIG,M
VVTS,4/23/2012 15:30,106.6667,10.8167,82.4,77,83.77,120,7,0,29.77,M,6.21,M,FEW,SCT,M,M,1500,4000,M,M,M,M,M,M,M,M,M,90.85,VVTS 231530Z 12007KT 9999 FEW015 SCT040 28/25 Q1008 NOSIG,M
VVTS,4/23/2012 16:00,106.6667,10.8167,82.4,77,83.77,130,7,0,29.77,M,6.21,M,FEW,SCT,M,M,1500,4000,M,M,M,M,M,M,M,M,M,90.85,VVTS 231600Z 13007KT 9999 FEW015 SCT040 28/25 Q1008 NOSIG,M
VVTS,4/23/2012 16:30,106.6667,10.8167,82.4,77,83.77,120,6,0,29.77,M,6.21,M,FEW,SCT,M,M,1500,4000,M,M,M,M,M,M,M,M,M,90.85,VVTS 231630Z 12006KT 9999 FEW015 SCT040 28/25 Q1008 NOSIG,M
VVTS,4/23/2012 17:00,106.6667,10.8167,82.4,77,83.77,120,5,0,29.77,M,6.21,M,FEW,SCT,M,M,1500,4000,M,M,M,M,M,M,M,M,M,90.85,VVTS 231700Z 12005KT 090V170 9999 FEW015 SCT040 28/25 Q1008 NOSIG,M
VVTS,4/23/2012 17:30,106.6667,10.8167,82.4,77,83.77,110,5,0,29.77,M,6.21,M,SCT,SCT,M,M,1700,4000,M,M,M,M,M,M,M,M,M,90.85,VVTS 231730Z 11005KT 090V160 9999 SCT017 SCT040 28/25 Q1008 NOSIG,M
VVTS,4/23/2012 18:00,106.6667,10.8167,80.6,77,88.83,120,4,0,29.74,M,6.21,M,FEW,SCT,M,M,1700,4000,M,M,M,M,M,M,M,M,M,87.1,VVTS 231800Z 12004KT 9999 FEW017 SCT040 27/25 Q1007 NOSIG,M
VVTS,4/23/2012 19:30,106.6667,10.8167,80.6,78.8,94.27,130,4,0,29.74,M,6.21,M,FEW,SCT,M,M,1700,4000,M,M,M,M,M,M,M,M,M,89.33,VVTS 231930Z 13004KT 9999 FEW017 SCT040 27/26 Q1007 NOSIG,M
VVTS,4/23/2012 20:00,106.6667,10.8167,80.6,78.8,94.27,110,4,0,29.74,M,6.21,M,FEW,SCT,M,M,1700,4000,M,M,M,M,M,M,M,M,M,89.33,VVTS 232000Z 11004KT 9999 FEW017 SCT040 27/26 Q1007 NOSIG,M
VVTS,4/23/2012 20:30,106.6667,10.8167,80.6,78.8,94.27,130,3,0,29.74,M,6.21,M,FEW,SCT,M,M,1700,4000,M,M,M,M,M,M,M,M,M,89.33,VVTS 232030Z 13003KT 9999 FEW017 SCT040 27/26 Q1007 NOSIG,M
VVTS,4/23/2012 21:00,106.6667,10.8167,80.6,78.8,94.27,160,2,0,29.74,M,6.21,M,FEW,SCT,M,M,1700,4000,M,M,M,M,M,M,M,M,M,89.33,VVTS 232100Z 16002KT 9999 FEW017 SCT040 27/26 Q1007 NOSIG,M
VVTS,4/23/2012 21:30,106.6667,10.8167,80.6,78.8,94.27,190,4,0,29.74,M,6.21,M,FEW,SCT,M,M,1500,1700,M,M,M,M,M,M,M,M,M,89.33,VVTS 232130Z 19004KT 9999 FEW015TCU SCT017 27/26 Q1007 NOSIG,M
VVTS,4/23/2012 22:00,106.6667,10.8167,80.6,78.8,94.27,140,3,0,29.74,M,6.21,M,FEW,SCT,M,M,1500,1700,M,M,M,M,M,M,M,M,M,89.33,VVTS 232200Z 14003KT 9999 FEW015TCU SCT017 27/26 Q1007 NOSIG,M
VVTS,4/23/2012 22:30,106.6667,10.8167,80.6,78.8,94.27,M,1,0,29.77,M,6.21,M,FEW,SCT,M,M,1500,1700,M,M,M,M,M,M,M,M,M,89.33,VVTS 232230Z VRB01KT 9999 FEW015TCU SCT017 27/26 Q1008 NOSIG,M
VVTS,4/23/2012 23:00,106.6667,10.8167,80.6,75.2,83.66,M,1,0,29.77,M,6.21,M,FEW,SCT,M,M,1500,1700,M,M,M,M,M,M,M,M,M,86.17,VVTS 232300Z VRB01KT 9999 FEW015TCU SCT017 27/24 Q1008 TEMPO FM2330 TL0015 5000 SHRA,M
VVTS,4/23/2012 23:30,106.6667,10.8167,80.6,75.2,83.66,60,1,0,29.77,M,6.21,M,FEW,SCT,M,M,1500,1700,M,M,M,M,M,M,M,M,M,86.17,VVTS 232330Z 06001KT 9999 FEW015TCU SCT017 27/24 Q1008 NOSIG,M
VVTS,4/24/2012 0:00,106.6667,10.8167,82.4,78.8,88.9,120,4,0,29.77,M,6.21,M,SCT,M,M,M,1700,M,M,M,M,M,M,M,M,M,M,92.4,VVTS 240000Z 12004KT 9999 SCT017 28/26 Q1008 NOSIG,M
VVTS,4/24/2012 0:30,106.6667,10.8167,84.2,75.2,74.44,M,3,0,29.8,M,6.21,M,FEW,M,M,M,2000,M,M,M,M,M,M,M,M,M,M,92.45,VVTS 240030Z VRB03KT 9999 FEW020 29/24 Q1009 NOSIG,M
VVTS,4/24/2012 1:00,106.6667,10.8167,86,77,74.61,180,7,0,29.8,M,6.21,M,SCT,M,M,M,2000,M,M,M,M,M,M,M,M,M,M,97.15,VVTS 240100Z 18007KT 150V210 9999 SCT020 30/25 Q1009 NOSIG,M
VVTS,4/24/2012 1:30,106.6667,10.8167,86,77,74.61,160,5,0,29.8,M,6.21,M,SCT,M,M,M,2000,M,M,M,M,M,M,M,M,M,M,97.15,VVTS 240130Z 16005KT 9999 SCT020 30/25 Q1009 NOSIG,M
VVTS,4/24/2012 2:00,106.6667,10.8167,86,75.2,70.27,140,6,0,29.8,M,6.21,M,BKN,M,M,M,1700,M,M,M,M,M,M,M,M,M,M,95.19,VVTS 240200Z 14006KT 090V170 9999 BKN017 30/24 Q1009 NOSIG,M
VVTS,4/24/2012 2:30,106.6667,10.8167,89.6,77,66.55,160,4,0,29.8,M,6.21,M,SCT,M,M,M,1700,M,M,M,M,M,M,M,M,M,M,102.54,VVTS 240230Z 16004KT 110V200 9999 SCT017 32/25 Q1009 NOSIG,M
VVTS,4/24/2012 3:00,106.6667,10.8167,91.4,75.2,59.24,M,2,0,29.8,M,6.21,M,SCT,M,M,M,1700,M,M,M,M,M,M,M,M,M,M,102.65,VVTS 240300Z VRB02KT 9999 SCT017 33/24 Q1009 NOSIG,M
VVTS,4/24/2012 3:30,106.6667,10.8167,89.6,75.2,62.68,M,3,0,29.77,M,6.21,M,SCT,M,M,M,1700,M,M,M,M,M,M,M,M,M,M,100.23,VVTS 240330Z VRB03KT 9999 SCT017 32/24 Q1008 NOSIG,M
VVTS,4/24/2012 4:00,106.6667,10.8167,91.4,73.4,55.77,180,5,0,29.77,M,6.21,M,SCT,M,M,M,1700,M,M,M,M,M,M,M,M,M,M,100.52,VVTS 240400Z 18005KT 150V220 9999 SCT017 33/23 Q1008 NOSIG,M
VVTS,4/24/2012 4:30,106.6667,10.8167,91.4,73.4,55.77,200,4,0,29.77,M,6.21,M,SCT,M,M,M,1700,M,M,M,M,M,M,M,M,M,M,100.52,VVTS 240430Z 20004KT 110V280 9999 SCT017 33/23 Q1008 NOSIG,M
VVTS,4/24/2012 5:00,106.6667,10.8167,91.4,73.4,55.77,M,2,0,29.74,M,6.21,M,SCT,M,M,M,1700,M,M,M,M,M,M,M,M,M,M,100.52,VVTS 240500Z VRB02KT 9999 SCT017 33/23 Q1007 NOSIG,M
VVTS,4/24/2012 5:30,106.6667,10.8167,95,73.4,49.87,M,3,0,29.71,M,6.21,M,BKN,M,M,M,1700,M,M,M,M,M,M,M,M,M,M,105.13,VVTS 240530Z VRB03KT 9999 BKN017 35/23 Q1006 NOSIG,M
VVTS,4/24/2012 6:00,106.6667,10.8167,95,73.4,49.87,M,2,0,29.71,M,6.21,M,BKN,M,M,M,1700,M,M,M,M,M,M,M,M,M,M,105.13,VVTS 240600Z VRB02KT 9999 BKN017 35/23 Q1006 NOSIG,M
VVTS,4/24/2012 6:30,106.6667,10.8167,93.2,73.4,52.73,M,2,0,29.68,M,6.21,M,BKN,M,M,M,1700,M,M,M,M,M,M,M,M,M,M,102.82,VVTS 240630Z VRB02KT 9999 BKN017 34/23 Q1005 NOSIG,M
VVTS,4/24/2012 7:00,106.6667,10.8167,95,75.2,52.98,210,4,0,29.68,M,6.21,M,FEW,SCT,M,M,1500,1700,M,M,M,M,M,M,M,M,M,107.39,VVTS 240700Z 21004KT 130V280 9999 FEW015TCU SCT017 35/24 Q1005 NOSIG,M
VVTS,4/24/2012 7:30,106.6667,10.8167,89.6,77,66.55,80,9,0,29.68,M,4.97,M,SCT,SCT,M,M,1500,1700,M,M,#NAME?,M,M,M,M,M,M,102.54,VVTS 240730Z 08009KT 8000 -SHRA SCT015 SCT017CB 32/25 Q1005 NOSIG,M
VVTS,4/24/2012 8:00,106.6667,10.8167,82.4,78.8,88.9,M,3,0,29.68,M,6.21,M,SCT,SCT,M,M,1500,1700,M,M,#NAME?,M,M,M,M,M,M,92.4,VVTS 240800Z VRB03KT 9999 -TSRA SCT015 SCT017CB 28/26 Q1005 NOSIG,M
VVTS,4/24/2012 8:30,106.6667,10.8167,84.2,80.6,88.98,210,6,0,29.68,M,0.62,19,SCT,SCT,M,M,1300,1500,M,M,#NAME?,M,M,M,M,M,M,98.28,VVTS 240830Z 21006G19KT 150V280 1000 R25R/0675V1500D +TSRA SCT013 SCT015CB 29/27 Q1005 TEMPO TL0850 3000 TSRA,M
VVTS,4/24/2012 9:00,106.6667,10.8167,80.6,78.8,94.27,190,7,0,29.68,M,5.59,M,FEW,SCT,M,M,1500,1700,M,M,#NAME?,M,M,M,M,M,M,89.33,VVTS 240900Z 19007KT 9000 -TSRA FEW015CB SCT017 27/26 Q1005 NOSIG,M
VVTS,4/24/2012 9:39,106.6667,10.8167,84.2,78.8,83.88,M,M,0,29.68,M,M,M,FEW,SCT,M,M,1500,1700,M,M,M,M,M,M,M,M,M,96.1,VVTS 240939Z FEW015CB SCT017 29/26 Q1005 NOSIG,M
VVTS,4/24/2012 10:00,106.6667,10.8167,86,78.8,79.18,170,7,0,29.68,M,6.21,M,FEW,SCT,M,M,1500,1700,M,M,M,M,M,M,M,M,M,99.38,VVTS 241000Z 17007KT 9999 FEW015TCU SCT017 30/26 Q1005 NOSIG,M
VVTS,4/24/2012 10:30,106.6667,10.8167,86,78.8,79.18,160,9,0,29.68,M,6.21,M,SCT,M,M,M,1500,M,M,M,M,M,M,M,M,M,M,99.38,VVTS 241030Z 16009KT 9999 SCT015 30/26 Q1005 NOSIG,M
VVTS,4/24/2012 11:00,106.6667,10.8167,84.2,77,79.04,170,9,0,29.71,M,6.21,M,SCT,M,M,M,1700,M,M,M,M,M,M,M,M,M,M,94.16,VVTS 241100Z 17009KT 140V200 9999 SCT017 29/25 Q1006 NOSIG,M
VVTS,4/24/2012 11:30,106.6667,10.8167,84.2,77,79.04,170,9,0,29.71,M,6.21,M,SCT,M,M,M,1700,M,M,M,M,M,M,M,M,M,M,94.16,VVTS 241130Z 17009KT 9999 SCT017 29/25 Q1006 NOSIG,M
VVTS,4/24/2012 12:00,106.6667,10.8167,84.2,77,79.04,170,6,0,29.71,M,6.21,M,SCT,M,M,M,1700,M,M,M,M,M,M,M,M,M,M,94.16,VVTS 241200Z 17006KT 9999 SCT017 29/25 Q1006 NOSIG,M
VVTS,4/24/2012 12:30,106.6667,10.8167,84.2,77,79.04,160,5,0,29.71,M,6.21,M,SCT,M,M,M,1700,M,M,M,M,M,M,M,M,M,M,94.16,VVTS 241230Z 16005KT 120V210 9999 SCT017 29/25 Q1006 NOSIG,M
VVTS,4/24/2012 13:00,106.6667,10.8167,84.2,78.8,83.88,170,7,0,29.74,M,6.21,M,SCT,M,M,M,1700,M,M,M,M,M,M,M,M,M,M,96.1,VVTS 241300Z 17007KT 140V210 9999 SCT017 29/26 Q1007 NOSIG,M
VVTS,4/24/2012 13:30,106.6667,10.8167,82.4,78.8,88.9,160,8,0,29.74,M,6.21,M,SCT,M,M,M,1700,M,M,M,M,M,M,M,M,M,M,92.4,VVTS 241330Z 16008KT 9999 SCT017 28/26 Q1007 NOSIG,M
VVTS,4/24/2012 14:00,106.6667,10.8167,82.4,78.8,88.9,160,6,0,29.77,M,6.21,M,FEW,M,M,M,1700,M,M,M,M,M,M,M,M,M,M,92.4,VVTS 241400Z 16006KT 130V200 9999 FEW017 28/26 Q1008 NOSIG,M
VVTS,4/24/2012 14:30,106.6667,10.8167,82.4,78.8,88.9,160,7,0,29.77,M,6.21,M,FEW,M,M,M,1700,M,M,M,M,M,M,M,M,M,M,92.4,VVTS 241430Z 16007KT 130V190 9999 FEW017 28/26 Q1008 NOSIG,M
VVTS,4/24/2012 15:00,106.6667,10.8167,82.4,78.8,88.9,160,6,0,29.77,M,6.21,M,FEW,M,M,M,1700,M,M,M,M,M,M,M,M,M,M,92.4,VVTS 241500Z 16006KT 9999 FEW017 28/26 Q1008 NOSIG,M
VVTS,4/24/2012 15:30,106.6667,10.8167,82.4,78.8,88.9,160,7,0,29.77,M,6.21,M,FEW,SCT,M,M,1700,4000,M,M,M,M,M,M,M,M,M,92.4,VVTS 241530Z 16007KT 9999 FEW017 SCT040 28/26 Q1008 NOSIG,M
VVTS,4/24/2012 16:00,106.6667,10.8167,82.4,78.8,88.9,180,8,0,29.77,M,6.21,M,FEW,SCT,M,M,1700,4000,M,M,M,M,M,M,M,M,M,92.4,VVTS 241600Z 18008KT 9999 FEW017 SCT040 28/26 Q1008 NOSIG,M
VVTS,4/24/2012 16:30,106.6667,10.8167,82.4,78.8,88.9,190,8,0,29.77,M,6.21,M,FEW,SCT,M,M,1700,4000,M,M,M,M,M,M,M,M,M,92.4,VVTS 241630Z 19008KT 9999 FEW017 SCT040 28/26 Q1008 NOSIG,M
VVTS,4/24/2012 17:00,106.6667,10.8167,82.4,78.8,88.9,190,10,0,29.77,M,6.21,M,FEW,SCT,M,M,1700,4000,M,M,M,M,M,M,M,M,M,92.4,VVTS 241700Z 19010KT 9999 FEW017 SCT040 28/26 Q1008 NOSIG,M
VVTS,4/24/2012 17:30,106.6667,10.8167,82.4,78.8,88.9,190,9,0,29.77,M,6.21,M,FEW,SCT,M,M,1700,4000,M,M,M,M,M,M,M,M,M,92.4,VVTS 241730Z 19009KT 9999 FEW017 SCT040 28/26 Q1008 NOSIG,M
VVTS,4/24/2012 18:00,106.6667,10.8167,82.4,78.8,88.9,190,8,0,29.74,M,6.21,M,FEW,SCT,M,M,1700,2000,M,M,M,M,M,M,M,M,M,92.4,VVTS 241800Z 19008KT 9999 FEW017TCU SCT020 28/26 Q1007 NOSIG,M
VVTS,4/24/2012 18:30,106.6667,10.8167,82.4,77,83.77,180,11,0,29.74,M,6.21,M,FEW,SCT,M,M,1700,2000,M,M,M,M,M,M,M,M,M,90.85,VVTS 241830Z 18011KT 9999 FEW017TCU SCT020 28/25 Q1007 NOSIG,M
VVTS,4/24/2012 19:00,106.6667,10.8167,82.4,77,83.77,190,11,0,29.74,M,6.21,M,FEW,SCT,M,M,1700,2000,M,M,M,M,M,M,M,M,M,90.85,VVTS 241900Z 19011KT 9999 FEW017TCU SCT020 28/25 Q1007 NOSIG,M
VVTS,4/24/2012 19:30,106.6667,10.8167,80.6,77,88.83,190,9,0,29.74,M,6.21,M,FEW,SCT,M,M,1700,4000,M,M,M,M,M,M,M,M,M,87.1,VVTS 241930Z 19009KT 9999 FEW017 SCT040 27/25 Q1007 NOSIG,M
VVTS,4/24/2012 20:00,106.6667,10.8167,80.6,77,88.83,190,8,0,29.74,M,6.21,M,FEW,SCT,M,M,1700,4000,M,M,M,M,M,M,M,M,M,87.1,VVTS 242000Z 19008KT 9999 FEW017 SCT040 27/25 Q1007 NOSIG,M
VVTS,4/24/2012 20:30,106.6667,10.8167,80.6,77,88.83,190,9,0,29.74,M,6.21,M,SCT,M,M,M,1700,M,M,M,M,M,M,M,M,M,M,87.1,VVTS 242030Z 19009KT 9999 SCT017 27/25 Q1007 NOSIG,M
VVTS,4/24/2012 21:00,106.6667,10.8167,80.6,77,88.83,210,7,0,29.74,M,6.21,M,SCT,SCT,M,M,1700,4000,M,M,M,M,M,M,M,M,M,87.1,VVTS 242100Z 21007KT 9999 SCT017 SCT040 27/25 Q1007 NOSIG,M
VVTS,4/24/2012 21:30,106.6667,10.8167,80.6,77,88.83,210,8,0,29.74,M,6.21,M,SCT,SCT,M,M,1700,4000,M,M,M,M,M,M,M,M,M,87.1,VVTS 242130Z 21008KT 9999 SCT017 SCT040 27/25 Q1007 NOSIG,M
VVTS,4/24/2012 22:00,106.6667,10.8167,80.6,77,88.83,190,8,0,29.74,M,6.21,M,SCT,SCT,M,M,1700,4000,M,M,M,M,M,M,M,M,M,87.1,VVTS 242200Z 19008KT 9999 SCT017 SCT040 27/25 Q1007 NOSIG,M
VVTS,4/24/2012 22:30,106.6667,10.8167,80.6,77,88.83,200,10,0,29.77,M,6.21,M,SCT,SCT,M,M,1700,4000,M,M,M,M,M,M,M,M,M,87.1,VVTS 242230Z 20010KT 9999 SCT017 SCT040 27/25 Q1008 NOSIG,M
VVTS,4/24/2012 23:00,106.6667,10.8167,80.6,77,88.83,170,5,0,29.77,M,6.21,M,FEW,SCT,M,M,1700,4000,M,M,M,M,M,M,M,M,M,87.1,VVTS 242300Z 17005KT 130V200 9999 FEW017 SCT040 27/25 Q1008 NOSIG,M
VVTS,4/24/2012 23:30,106.6667,10.8167,82.4,77,83.77,190,7,0,29.77,M,6.21,M,FEW,SCT,M,M,1700,4000,M,M,M,M,M,M,M,M,M,90.85,VVTS 242330Z 19007KT 9999 FEW017 SCT040 28/25 Q1008 NOSIG,M
VVTS,4/25/2012 0:00,106.6667,10.8167,84.2,78.8,83.88,210,7,0,29.8,M,6.21,M,FEW,SCT,M,M,1700,4000,M,M,M,M,M,M,M,M,M,96.1,VVTS 250000Z 21007KT 9999 FEW017 SCT040 29/26 Q1009 NOSIG,M
VVTS,4/25/2012 0:30,106.6667,10.8167,86,78.8,79.18,210,8,0,29.8,M,6.21,M,FEW,SCT,M,M,1700,4000,M,M,M,M,M,M,M,M,M,99.38,VVTS 250030Z 21008KT 9999 FEW017 SCT040 30/26 Q1009 NOSIG,M
VVTS,4/25/2012 1:00,106.6667,10.8167,86,77,74.61,240,8,0,29.8,M,6.21,M,SCT,SCT,M,M,1700,4000,M,M,M,M,M,M,M,M,M,97.15,VVTS 250100Z 24008KT 9999 SCT017 SCT040 30/25 Q1009 NOSIG,M
VVTS,4/25/2012 1:30,106.6667,10.8167,87.8,77,70.45,220,8,0,29.8,M,6.21,M,SCT,SCT,M,M,1700,4000,M,M,M,M,M,M,M,M,M,99.92,VVTS 250130Z 22008KT 9999 SCT017 SCT040 31/25 Q1009 NOSIG,M
VVTS,4/25/2012 2:00,106.6667,10.8167,87.8,78.8,74.77,230,10,0,29.8,M,6.21,M,BKN,M,M,M,1500,M,M,M,M,M,M,M,M,M,M,102.37,VVTS 250200Z 23010KT 9999 BKN015 31/26 Q1009 NOSIG,M
VVTS,4/25/2012 2:30,106.6667,10.8167,87.8,78.8,74.77,230,7,0,29.8,M,6.21,M,BKN,M,M,M,1500,M,M,M,M,M,M,M,M,M,M,102.37,VVTS 250230Z 23007KT 9999 BKN015 31/26 Q1009 NOSIG,M
VVTS,4/25/2012 3:00,106.6667,10.8167,89.6,78.8,70.63,230,8,0,29.8,M,6.21,M,BKN,M,M,M,1500,M,M,M,M,M,M,M,M,M,M,105.15,VVTS 250300Z 23008KT 9999 BKN015 32/26 Q1009 NOSIG,M
VVTS,4/25/2012 3:30,106.6667,10.8167,91.4,78.8,66.75,260,5,0,29.8,M,6.21,M,SCT,M,M,M,1500,M,M,M,M,M,M,M,M,M,M,107.79,VVTS 250330Z 26005KT 9999 SCT015 33/26 Q1009 NOSIG,M
VVTS,4/25/2012 4:00,106.6667,10.8167,93.2,78.8,63.11,250,5,0,29.77,M,6.21,M,SCT,M,M,M,1500,M,M,M,M,M,M,M,M,M,M,110.34,VVTS 250400Z 25005KT 190V290 9999 SCT015 34/26 Q1008 NOSIG,M
VVTS,4/25/2012 4:30,106.6667,10.8167,93.2,77,59.47,260,4,0,29.77,M,6.21,M,BKN,M,M,M,1700,M,M,M,M,M,M,M,M,M,M,107.52,VVTS 250430Z 26004KT 200V310 9999 BKN017 34/25 Q1008 NOSIG,M
VVTS,4/25/2012 5:00,106.6667,10.8167,95,73.4,49.87,M,3,0,29.74,M,6.21,M,BKN,M,M,M,1700,M,M,M,M,M,M,M,M,M,M,105.13,VVTS 250500Z VRB03KT 9999 BKN017 35/23 Q1007 NOSIG,M
VVTS,4/25/2012 5:30,106.6667,10.8167,95,73.4,49.87,M,3,0,29.74,M,6.21,M,BKN,M,M,M,1700,M,M,M,M,M,M,M,M,M,M,105.13,VVTS 250530Z VRB03KT 9999 BKN017 35/23 Q1007 NOSIG,M
VVTS,4/25/2012 6:00,106.6667,10.8167,96.8,73.4,47.19,240,6,0,29.71,M,6.21,M,BKN,M,M,M,2000,M,M,M,M,M,M,M,M,M,M,107.45,VVTS 250600Z 24006KT 200V290 9999 BKN020 36/23 Q1006 NOSIG,M
VVTS,4/25/2012 6:30,106.6667,10.8167,96.8,75.2,50.13,240,4,0,29.68,M,6.21,M,BKN,M,M,M,2000,M,M,M,M,M,M,M,M,M,M,109.75,VVTS 250630Z 24004KT 200V300 9999 BKN020 36/24 Q1005 NOSIG,M
VVTS,4/25/2012 7:00,106.6667,10.8167,96.8,73.4,47.19,270,4,0,29.68,M,6.21,M,FEW,SCT,M,M,1700,2000,M,M,M,M,M,M,M,M,M,107.45,VVTS 250700Z 27004KT 190V340 9999 FEW017TCU SCT020 36/23 Q1005 NOSIG,M
VVTS,4/25/2012 7:30,106.6667,10.8167,96.8,73.4,47.19,260,4,0,29.65,M,6.21,M,FEW,SCT,M,M,1700,2000,M,M,M,M,M,M,M,M,M,107.45,VVTS 250730Z 26004KT 210V310 9999 FEW017TCU SCT020 36/23 Q1004 NOSIG,M
VVTS,4/25/2012 8:00,106.6667,10.8167,93.2,73.4,52.73,110,11,0,29.65,M,4.97,M,SCT,SCT,M,M,1500,1700,M,M,TS,M,M,M,M,M,M,102.82,VVTS 250800Z 11011KT 070V150 8000 TS SCT015 SCT017CB 34/23 Q1004 TEMPO TL0830 12015G25KT 1500 +T SRA,M
VVTS,4/25/2012 8:30,106.6667,10.8167,82.4,73.4,74.28,100,5,0,29.65,M,4.97,M,SCT,SCT,M,M,1500,1700,M,M,#NAME?,M,M,M,M,M,M,88.26,VVTS 250830Z 10005KT 020V190 8000 -TSRA SCT015 SCT017CB 28/23 Q1004 WS ALL RWY NOSIG,M
VVTS,4/25/2012 9:00,106.6667,10.8167,77,73.4,88.67,280,15,0,29.68,M,2.49,M,BKN,SCT,M,M,1300,1500,M,M,TSRA,M,M,M,M,M,M,78.57,VVTS 250900Z 28015KT 4000W TSRA BKN013 SCT015CB 25/23 Q1005 WS ALL RWY TEMPO TL0945 34020KT 2000 TSRA,M
VVTS,4/25/2012 9:30,106.6667,10.8167,75.2,75.2,100,230,9,0,29.71,M,4.35,M,BKN,SCT,M,M,1300,1500,M,M,#NAME?,M,M,M,M,M,M,77.12,VVTS 250930Z 23009KT 190V280 7000 -TSRA BKN013 SCT015CB 24/24 Q1006 NOSIG,M
VVTS,4/25/2012 10:00,106.6667,10.8167,78.8,75.2,88.75,160,5,0,29.68,M,6.21,M,SCT,SCT,M,M,1500,1700,M,M,#NAME?,M,M,M,M,M,M,82.38,VVTS 251000Z 16005KT 9999 -TSRA SCT015 SCT017CB 26/24 Q1005 NOSIG,M
VVTS,4/25/2012 10:30,106.6667,10.8167,78.8,75.2,88.75,160,7,0,29.71,M,4.97,M,SCT,SCT,BKN,M,1500,1700,4000,M,#NAME?,M,M,M,M,M,M,82.38,VVTS 251030Z 16007KT 8000 -TSRA SCT015 SCT017CB BKN040 26/24 Q1006 NOSIG,M
VVTS,4/25/2012 11:00,106.6667,10.8167,78.8,75.2,88.75,180,12,0,29.74,M,4.97,M,SCT,SCT,M,M,1500,1700,M,M,#NAME?,M,M,M,M,M,M,82.38,VVTS 251100Z 18012KT 8000 -TSRA SCT015 SCT017CB 26/24 Q1007 NOSIG,M
VVTS,4/25/2012 11:30,106.6667,10.8167,78.8,73.4,83.55,160,9,0,29.74,M,4.97,M,FEW,SCT,BKN,M,1500,1700,4000,M,TS,M,M,M,M,M,M,82.03,VVTS 251130Z 16009KT 130V200 8000 TS FEW015CB SCT017 BKN040 26/23 Q1007 NOSIG,M
VVTS,4/25/2012 12:00,106.6667,10.8167,78.8,73.4,83.55,150,5,0,29.74,M,6.21,M,FEW,SCT,BKN,M,1500,1700,4000,M,TS,M,M,M,M,M,M,82.03,VVTS 251200Z 15005KT 120V200 9999 TS FEW015CB SCT017 BKN040 26/23 Q1007 NOSIG,M
VVTS,4/25/2012 12:30,106.6667,10.8167,78.8,75.2,88.75,160,6,0,29.77,M,6.21,M,FEW,BKN,M,M,1700,4000,M,M,M,M,M,M,M,M,M,82.38,VVTS 251230Z 16006KT 9999 FEW017 BKN040 26/24 Q1008 NOSIG,M
VVTS,4/25/2012 13:00,106.6667,10.8167,78.8,73.4,83.55,130,4,0,29.77,M,6.21,M,FEW,BKN,M,M,1700,4000,M,M,M,M,M,M,M,M,M,82.03,VVTS 251300Z 13004KT 9999 FEW017 BKN040 26/23 Q1008 NOSIG,M
VVTS,4/25/2012 13:30,106.6667,10.8167,78.8,73.4,83.55,M,2,0,29.8,M,6.21,M,FEW,BKN,M,M,1700,4000,M,M,M,M,M,M,M,M,M,82.03,VVTS 251330Z VRB02KT 9999 FEW017 BKN040 26/23 Q1009 NOSIG,M
VVTS,4/25/2012 14:00,106.6667,10.8167,78.8,75.2,88.75,120,4,0,29.8,M,6.21,M,FEW,BKN,M,M,1700,4000,M,M,M,M,M,M,M,M,M,82.38,VVTS 251400Z 12004KT 090V210 9999 FEW017 BKN040 26/24 Q1009 NOSIG,M
VVTS,4/25/2012 14:30,106.6667,10.8167,80.6,75.2,83.66,190,6,0,29.8,M,6.21,M,FEW,BKN,M,M,1700,4000,M,M,M,M,M,M,M,M,M,86.17,VVTS 251430Z 19006KT 9999 FEW017 BKN040 27/24 Q1009 NOSIG,M
VVTS,4/25/2012 15:00,106.6667,10.8167,80.6,75.2,83.66,140,5,0,29.83,M,6.21,M,FEW,BKN,M,M,1700,4000,M,M,M,M,M,M,M,M,M,86.17,VVTS 251500Z 14005KT 110V190 9999 FEW017 BKN040 27/24 Q1010 NOSIG,M
VVTS,4/25/2012 15:30,106.6667,10.8167,80.6,75.2,83.66,170,5,0,29.83,M,6.21,M,FEW,BKN,M,M,1700,4000,M,M,M,M,M,M,M,M,M,86.17,VVTS 251530Z 17005KT 9999 FEW017 BKN040 27/24 Q1010 NOSIG,M
VVTS,4/25/2012 16:00,106.6667,10.8167,80.6,75.2,83.66,M,3,0,29.83,M,6.21,M,FEW,BKN,M,M,1700,4000,M,M,M,M,M,M,M,M,M,86.17,VVTS 251600Z VRB03KT 9999 FEW017 BKN040 27/24 Q1010 NOSIG,M
VVTS,4/25/2012 16:30,106.6667,10.8167,80.6,75.2,83.66,M,3,0,29.83,M,6.21,M,FEW,BKN,M,M,1700,4000,M,M,M,M,M,M,M,M,M,86.17,VVTS 251630Z VRB03KT 9999 FEW017 BKN040 27/24 Q1010 NOSIG,M
VVTS,4/25/2012 17:00,106.6667,10.8167,80.6,75.2,83.66,160,4,0,29.8,M,6.21,M,FEW,BKN,M,M,1700,4000,M,M,M,M,M,M,M,M,M,86.17,VVTS 251700Z 16004KT 130V210 9999 FEW017 BKN040 27/24 Q1009 NOSIG,M
VVTS,4/25/2012 17:30,106.6667,10.8167,80.6,75.2,83.66,M,1,0,29.8,M,6.21,M,FEW,BKN,M,M,1700,4000,M,M,M,M,M,M,M,M,M,86.17,VVTS 251730Z VRB01KT 9999 FEW017 BKN040 27/24 Q1009 NOSIG,M
VVTS,4/25/2012 18:00,106.6667,10.8167,80.6,75.2,83.66,200,6,0,29.77,M,6.21,M,FEW,BKN,M,M,1700,4000,M,M,M,M,M,M,M,M,M,86.17,VVTS 251800Z 20006KT 9999 FEW017 BKN040 27/24 Q1008 NOSIG,M
VVTS,4/25/2012 18:30,106.6667,10.8167,80.6,75.2,83.66,200,5,0,29.77,M,6.21,M,FEW,BKN,M,M,1700,4000,M,M,M,M,M,M,M,M,M,86.17,VVTS 251830Z 20005KT 9999 FEW017 BKN040 27/24 Q1008 NOSIG,M
VVTS,4/25/2012 19:00,106.6667,10.8167,80.6,75.2,83.66,200,6,0,29.74,M,6.21,M,FEW,BKN,M,M,1700,4000,M,M,M,M,M,M,M,M,M,86.17,VVTS 251900Z 20006KT 9999 FEW017 BKN040 27/24 Q1007 NOSIG,M
VVTS,4/25/2012 19:30,106.6667,10.8167,78.8,75.2,88.75,190,6,0,29.74,M,6.21,M,FEW,BKN,M,M,1700,4000,M,M,M,M,M,M,M,M,M,82.38,VVTS 251930Z 19006KT 9999 FEW017 BKN040 26/24 Q1007 NOSIG,M
VVTS,4/25/2012 20:00,106.6667,10.8167,80.6,75.2,83.66,140,4,0,29.77,M,6.21,M,FEW,BKN,M,M,1700,4000,M,M,M,M,M,M,M,M,M,86.17,VVTS 252000Z 14004KT 100V180 9999 FEW017 BKN040 27/24 Q1008 NOSIG,M
VVTS,4/25/2012 20:30,106.6667,10.8167,80.6,75.2,83.66,110,4,0,29.77,M,6.21,M,FEW,BKN,M,M,1700,4000,M,M,M,M,M,M,M,M,M,86.17,VVTS 252030Z 11004KT 060V150 9999 FEW017 BKN040 27/24 Q1008 NOSIG,M
VVTS,4/25/2012 21:00,106.6667,10.8167,78.8,75.2,88.75,M,3,0,29.77,M,6.21,M,FEW,SCT,M,M,1700,4000,M,M,M,M,M,M,M,M,M,82.38,VVTS 252100Z VRB03KT 9999 FEW017 SCT040 26/24 Q1008 NOSIG,M
VVTS,4/25/2012 21:30,106.6667,10.8167,78.8,77,94.23,90,2,0,29.77,M,6.21,M,FEW,SCT,M,M,1700,4000,M,M,M,M,M,M,M,M,M,82.75,VVTS 252130Z 09002KT 9999 FEW017 SCT040 26/25 Q1008 NOSIG,M
VVTS,4/25/2012 22:00,106.6667,10.8167,77,77,100,30,2,0,29.77,M,6.21,M,FEW,SCT,M,M,1700,4000,M,M,M,M,M,M,M,M,M,77,VVTS 252200Z 03002KT 9999 FEW017 SCT040 25/25 Q1008 NOSIG,M
VVTS,4/25/2012 22:30,106.6667,10.8167,77,75.2,94.19,50,3,0,29.77,M,4.97,M,FEW,SCT,M,M,1700,4000,M,M,M,M,M,M,M,M,M,78.83,VVTS 252230Z 05003KT 8000 FEW017 SCT040 25/24 Q1008 NOSIG,M
VVTS,4/25/2012 23:00,106.6667,10.8167,77,75.2,94.19,M,1,0,29.77,M,3.73,M,FEW,SCT,M,M,1700,4000,M,M,M,M,M,M,M,M,M,78.83,VVTS 252300Z VRB01KT 6000 FEW017 SCT040 25/24 Q1008 NOSIG,M
VVTS,4/25/2012 23:30,106.6667,10.8167,78.8,78.8,100,M,1,0,29.77,M,4.35,M,FEW,SCT,M,M,1700,4000,M,M,M,M,M,M,M,M,M,83.15,VVTS 252330Z VRB01KT 7000 FEW017 SCT040 26/26 Q1008 NOSIG,M
VVTS,4/26/2012 0:00,106.6667,10.8167,82.4,78.8,88.9,M,3,0,29.8,M,5.59,M,FEW,SCT,M,M,1700,4000,M,M,M,M,M,M,M,M,M,92.4,VVTS 260000Z VRB03KT 9000 FEW017 SCT040 28/26 Q1009 NOSIG,M
VVTS,4/26/2012 0:30,106.6667,10.8167,84.2,78.8,83.88,180,5,0,29.8,M,6.21,M,FEW,SCT,M,M,1700,4000,M,M,M,M,M,M,M,M,M,96.1,VVTS 260030Z 18005KT 150V210 9999 FEW017 SCT040 29/26 Q1009 NOSIG,M
VVTS,4/26/2012 1:00,106.6667,10.8167,84.2,78.8,83.88,210,7,0,29.8,M,6.21,M,FEW,SCT,M,M,1700,4000,M,M,M,M,M,M,M,M,M,96.1,VVTS 260100Z 21007KT 9999 FEW017 SCT040 29/26 Q1009 NOSIG,M
VVTS,4/26/2012 1:30,106.6667,10.8167,84.2,78.8,83.88,200,7,0,29.8,M,6.21,M,FEW,SCT,M,M,1700,4000,M,M,M,M,M,M,M,M,M,96.1,VVTS 260130Z 20007KT 9999 FEW017 SCT040 29/26 Q1009 NOSIG,M
VVTS,4/26/2012 2:00,106.6667,10.8167,87.8,78.8,74.77,200,6,0,29.8,M,6.21,M,FEW,SCT,M,M,1700,4000,M,M,M,M,M,M,M,M,M,102.37,VVTS 260200Z 20006KT 140V250 9999 FEW017 SCT040 31/26 Q1009 NOSIG,M
VVTS,4/26/2012 2:30,106.6667,10.8167,89.6,78.8,70.63,210,4,0,29.8,M,6.21,M,SCT,M,M,M,1700,M,M,M,M,M,M,M,M,M,M,105.15,VVTS 260230Z 21004KT 160V250 9999 SCT017 32/26 Q1009 NOSIG,M
VVTS,4/26/2012 3:00,106.6667,10.8167,89.6,78.8,70.63,M,3,0,29.8,M,6.21,M,BKN,M,M,M,2000,M,M,M,M,M,M,M,M,M,M,105.15,VVTS 260300Z VRB03KT 9999 BKN020 32/26 Q1009 NOSIG,M
VVTS,4/26/2012 3:30,106.6667,10.8167,91.4,78.8,66.75,250,4,0,29.8,M,6.21,M,BKN,M,M,M,2000,M,M,M,M,M,M,M,M,M,M,107.79,VVTS 260330Z 25004KT 210V290 9999 BKN020 33/26 Q1009 NOSIG,M
VVTS,4/26/2012 4:00,106.6667,10.8167,93.2,77,59.47,M,1,0,29.8,M,6.21,M,BKN,M,M,M,2000,M,M,M,M,M,M,M,M,M,M,107.52,VVTS 260400Z VRB01KT 9999 BKN020 34/25 Q1009 NOSIG,M
VVTS,4/26/2012 4:30,106.6667,10.8167,95,75.2,52.98,M,3,0,29.77,M,6.21,M,SCT,M,M,M,2000,M,M,M,M,M,M,M,M,M,M,107.39,VVTS 260430Z VRB03KT 9999 SCT020 35/24 Q1008 NOSIG,M
VVTS,4/26/2012 5:00,106.6667,10.8167,95,75.2,52.98,260,4,0,29.77,M,6.21,M,SCT,M,M,M,2000,M,M,M,M,M,M,M,M,M,M,107.39,VVTS 260500Z 26004KT 210V320 9999 SCT020 35/24 Q1008 NOSIG,M
VVTS,4/26/2012 5:30,106.6667,10.8167,95,77,56.25,M,3,0,29.74,M,6.21,M,BKN,M,M,M,1700,M,M,M,M,M,M,M,M,M,M,109.94,VVTS 260530Z VRB03KT 9999 BKN017 35/25 Q1007 NOSIG,M
VVTS,4/26/2012 6:00,106.6667,10.8167,93.2,75.2,56.01,240,4,0,29.74,M,6.21,M,BKN,M,M,M,1700,M,M,M,M,M,M,M,M,M,M,105.02,VVTS 260600Z 24004KT 200V300 9999 BKN017 34/24 Q1007 NOSIG,M
VVTS,4/26/2012 6:30,106.6667,10.8167,91.4,75.2,59.24,M,3,0,29.71,M,6.21,M,FEW,SCT,M,M,1700,2000,M,M,M,M,M,M,M,M,M,102.65,VVTS 260630Z VRB03KT 9999 FEW017CB SCT020 33/24 Q1006 NOSIG,M
VVTS,4/26/2012 7:00,106.6667,10.8167,93.2,77,59.47,220,4,0,29.71,M,6.21,M,FEW,BKN,M,M,1500,1700,M,M,M,M,M,M,M,M,M,107.52,VVTS 260700Z 22004KT 070V050 9999 FEW015CB BKN017 34/25 Q1006 NOSIG,M
VVTS,4/26/2012 7:30,106.6667,10.8167,93.2,75.2,56.01,M,3,0,29.68,M,6.21,M,SCT,SCT,M,M,1500,1700,M,M,M,M,M,M,M,M,M,105.02,VVTS 260730Z VRB03KT 9999 SCT015 SCT017CB 34/24 Q1005 NOSIG,M
VVTS,4/26/2012 8:00,106.6667,10.8167,82.4,75.2,78.9,160,19,0,29.68,M,0.37,34,BKN,SCT,M,M,1000,1300,M,M,#NAME?,M,M,M,M,M,M,89.48,VVTS 260800Z 16019G34KT 0600 R07L/0725V1500D +SHRA BKN010 SCT013CB 28/24 Q1005 WS ALL RWY TEMPO TL0830 180 12G28KT 0800 +TSRA,M
VVTS,4/26/2012 8:30,106.6667,10.8167,78.8,75.2,88.75,210,13,0,29.65,M,4.35,M,SCT,SCT,M,M,1500,1700,M,M,TS,M,M,M,M,M,M,82.38,VVTS 260830Z 21013KT 7000 TS SCT015 SCT017CB 26/24 Q1004 NOSIG,M
VVTS,4/26/2012 9:00,106.6667,10.8167,78.8,75.2,88.75,240,7,0,29.68,M,6.21,M,FEW,SCT,M,M,1500,1700,M,M,M,M,M,M,M,M,M,82.38,VVTS 260900Z 24007KT 9999 FEW015CB SCT017 26/24 Q1005 NOSIG,M
VVTS,4/26/2012 9:30,106.6667,10.8167,80.6,75.2,83.66,200,11,0,29.68,M,5.59,M,SCT,SCT,M,M,1500,1700,M,M,TS,M,M,M,M,M,M,86.17,VVTS 260930Z 20011KT 9000 R25R/1100V1500D TS SCT015 SCT017CB 27/24 Q1005 NOSIG,M
VVTS,4/26/2012 10:00,106.6667,10.8167,82.4,75.2,78.9,150,9,0,29.68,M,5.59,M,SCT,SCT,M,M,1500,1700,M,M,TS,M,M,M,M,M,M,89.48,VVTS 261000Z 15009KT 9000 TS SCT015 SCT017CB 28/24 Q1005 NOSIG,M
VVTS,4/26/2012 10:30,106.6667,10.8167,80.6,73.4,78.76,170,6,0,29.71,M,5.59,M,SCT,SCT,M,M,1500,1700,M,M,TS,M,M,M,M,M,M,85.32,VVTS 261030Z 17006KT 9000 TS SCT015 SCT017CB 27/23 Q1006 NOSIG,M
VVTS,4/26/2012 11:00,106.6667,10.8167,80.6,75.2,83.66,180,7,0,29.71,M,6.21,M,SCT,BKN,M,M,1500,4000,M,M,M,M,M,M,M,M,M,86.17,VVTS 261100Z 18007KT 9999 SCT015 BKN040 27/24 Q1006 NOSIG,M
VVTS,4/26/2012 11:30,106.6667,10.8167,82.4,75.2,78.9,190,8,0,29.71,M,6.21,M,SCT,BKN,M,M,1500,4000,M,M,M,M,M,M,M,M,M,89.48,VVTS 261130Z 19008KT 9999 SCT015 BKN040 28/24 Q1006 NOSIG,M
VVTS,4/26/2012 12:00,106.6667,10.8167,82.4,73.4,74.28,180,7,0,29.71,M,6.21,M,SCT,BKN,M,M,1500,4000,M,M,M,M,M,M,M,M,M,88.26,VVTS 261200Z 18007KT 9999 SCT015 BKN040 28/23 Q1006 NOSIG,M
VVTS,4/26/2012 12:30,106.6667,10.8167,82.4,73.4,74.28,160,6,0,29.74,M,6.21,M,SCT,BKN,M,M,1500,4000,M,M,M,M,M,M,M,M,M,88.26,VVTS 261230Z 16006KT 9999 SCT015 BKN040 28/23 Q1007 NOSIG,M
VVTS,4/26/2012 13:00,106.6667,10.8167,82.4,75.2,78.9,100,5,0,29.8,M,6.21,M,FEW,SCT,BKN,M,1500,1700,4000,M,M,M,M,M,M,M,M,89.48,VVTS 261300Z 10005KT 080V140 9999 FEW015TCU SCT017 BKN040 28/24 Q1009 NOSIG,M
VVTS,4/26/2012 13:30,106.6667,10.8167,80.6,75.2,83.66,60,9,0,29.8,M,6.21,M,BKN,SCT,M,M,1300,1500,M,M,M,M,M,M,M,M,M,86.17,VVTS 261330Z 06009KT 9999 BKN013 SCT015CB 27/24 Q1009 TEMPO TL1400 07010G25KT 3000 TSRA,M
VVTS,4/26/2012 14:30,106.6667,10.8167,73.4,71.6,94.1,240,5,0,29.8,M,4.97,M,BKN,SCT,M,M,1300,1500,M,M,#NAME?,M,M,M,M,M,M,74.86,VVTS 261430Z 24005KT 8000 -TSRA BKN013 SCT015CB 23/22 Q1009 NOSIG,M
VVTS,4/26/2012 15:30,106.6667,10.8167,73.4,71.6,94.1,M,1,0,29.8,M,4.97,M,FEW,BKN,M,M,1300,1500,M,M,#NAME?,M,M,M,M,M,M,74.86,VVTS 261530Z VRB01KT 8000 -TSRA FEW013CB BKN015 23/22 Q1009 NOSIG,M
VVTS,4/26/2012 16:00,106.6667,10.8167,73.4,73.4,100,200,5,0,29.8,M,6.21,M,FEW,BKN,M,M,1300,1500,M,M,M,M,M,M,M,M,M,75.14,VVTS 261600Z 20005KT 9999 FEW013CB BKN015 23/23 Q1009 NOSIG,M
VVTS,4/26/2012 16:30,106.6667,10.8167,75.2,73.4,94.14,230,7,0,29.83,M,6.21,M,SCT,SCT,M,M,1500,4000,M,M,#NAME?,M,M,M,M,M,M,76.84,VVTS 261630Z 23007KT 9999 -RA SCT015 SCT040 24/23 Q1010 NOSIG,M
VVTS,4/26/2012 17:00,106.6667,10.8167,73.4,73.4,100,230,7,0,29.8,M,6.21,M,SCT,SCT,M,M,1500,4000,M,M,#NAME?,M,M,M,M,M,M,75.14,VVTS 261700Z 23007KT 9999 -RA SCT015 SCT040 23/23 Q1009 NOSIG,M
VVTS,4/26/2012 18:00,106.6667,10.8167,71.6,71.6,100,230,6,0,29.8,M,6.21,M,SCT,SCT,M,M,1500,4000,M,M,#NAME?,M,M,M,M,M,M,73.16,VVTS 261800Z 23006KT 9999 -RA SCT015 SCT040 22/22 Q1009 NOSIG,M
VVTS,4/26/2012 18:30,106.6667,10.8167,71.6,71.6,100,230,5,0,29.77,M,6.21,M,SCT,SCT,M,M,1500,4000,M,M,#NAME?,M,M,M,M,M,M,73.16,VVTS 261830Z 23005KT 9999 -RA SCT015 SCT040 22/22 Q1008 NOSIG,M
VVTS,4/26/2012 19:00,106.6667,10.8167,71.6,71.6,100,230,5,0,29.77,M,4.97,M,SCT,SCT,M,M,1500,4000,M,M,#NAME?,M,M,M,M,M,M,73.16,VVTS 261900Z 23005KT 8000 -RA SCT015 SCT040 22/22 Q1008 NOSIG,M
VVTS,4/26/2012 19:30,106.6667,10.8167,71.6,71.6,100,230,6,0,29.77,M,4.97,M,SCT,SCT,M,M,1500,4000,M,M,#NAME?,M,M,M,M,M,M,73.16,VVTS 261930Z 23006KT 8000 -RA SCT015 SCT040 22/22 Q1008 NOSIG,M
VVTS,4/26/2012 20:00,106.6667,10.8167,71.6,71.6,100,200,7,0,29.74,M,4.97,M,SCT,SCT,M,M,1500,4000,M,M,#NAME?,M,M,M,M,M,M,73.16,VVTS 262000Z 20007KT 8000 -RA SCT015 SCT040 22/22 Q1007 NOSIG,M
VVTS,4/26/2012 20:30,106.6667,10.8167,73.4,73.4,100,180,7,0,29.74,M,6.21,M,SCT,BKN,M,M,1500,4000,M,M,#NAME?,M,M,M,M,M,M,75.14,VVTS 262030Z 18007KT 9999 -RA SCT015 BKN040 23/23 Q1007 NOSIG,M
VVTS,4/26/2012 21:00,106.6667,10.8167,73.4,73.4,100,200,7,0,29.77,M,6.21,M,SCT,BKN,M,M,1500,4000,M,M,#NAME?,M,M,M,M,M,M,75.14,VVTS 262100Z 20007KT 9999 -RA SCT015 BKN040 23/23 Q1008 NOSIG,M
VVTS,4/26/2012 21:30,106.6667,10.8167,73.4,71.6,94.1,210,5,0,29.77,M,6.21,M,SCT,BKN,M,M,1500,4000,M,M,#NAME?,M,M,M,M,M,M,74.86,VVTS 262130Z 21005KT 9999 -RA SCT015 BKN040 23/22 Q1008 NOSIG,M
VVTS,4/26/2012 22:00,106.6667,10.8167,73.4,71.6,94.1,220,4,0,29.77,M,6.21,M,SCT,BKN,M,M,1500,4000,M,M,#NAME?,M,M,M,M,M,M,74.86,VVTS 262200Z 22004KT 9999 -RA SCT015 BKN040 23/22 Q1008 NOSIG,M
VVTS,4/26/2012 22:30,106.6667,10.8167,73.4,73.4,100,M,2,0,29.77,M,6.21,M,SCT,BKN,M,M,1500,4000,M,M,#NAME?,M,M,M,M,M,M,75.14,VVTS 262230Z VRB02KT 9999 -RA SCT015 BKN040 23/23 Q1008 NOSIG,M
VVTS,4/26/2012 23:00,106.6667,10.8167,73.4,71.6,94.1,10,4,0,29.77,M,6.21,M,SCT,BKN,M,M,1500,4000,M,M,#NAME?,M,M,M,M,M,M,74.86,VVTS 262300Z 01004KT 9999 -RA SCT015 BKN040 23/22 Q1008 NOSIG,M
VVTS,4/26/2012 23:30,106.6667,10.8167,73.4,73.4,100,60,4,0,29.8,M,4.35,M,FEW,BKN,M,M,1500,4000,M,M,M,M,M,M,M,M,M,75.14,VVTS 262330Z 06004KT 7000 FEW015 BKN040 23/23 Q1009 NOSIG,M
