station,valid,lon,lat,tmpf,dwpf,relh,drct,sknt,p01i,alti,mslp,vsby,gust,skyc1,skyc2,skyc3,skyc4,skyl1,skyl2,skyl3,skyl4,wxcodes,ice_accretion_1hr,ice_accretion_3hr,ice_accretion_6hr,peak_wind_gust,peak_wind_drct,peak_wind_time,feel,metar,snowdepth
VVTS,1/1/2021 0:00,106.6667,10.8167,73.4,60.8,64.69,20,6,0,29.88,M,6.21,M,FEW,BKN,M,M,2000,5000,M,M,M,M,M,M,M,M,M,73.4,VVTS 010000Z 02006KT 9999 FEW020 BKN050 23/16 Q1012 NOSIG,M
VVTS,1/1/2021 0:30,106.6667,10.8167,73.4,60.8,64.69,10,7,0,29.88,M,6.21,M,FEW,BKN,M,M,2000,5000,M,M,M,M,M,M,M,M,M,73.4,VVTS 010030Z 01007KT 9999 FEW020 BKN050 23/16 Q1012 NOSIG,M
VVTS,1/1/2021 1:00,106.6667,10.8167,73.4,60.8,64.69,10,4,0,29.91,M,6.21,M,FEW,BKN,M,M,1700,5000,M,M,M,M,M,M,M,M,M,73.4,VVTS 010100Z 01004KT 350V050 9999 FEW017 BKN050 23/16 Q1013 NOSIG,M
VVTS,1/1/2021 1:30,106.6667,10.8167,73.4,60.8,64.69,10,5,0,29.91,M,6.21,M,FEW,BKN,M,M,1700,5000,M,M,M,M,M,M,M,M,M,73.4,VVTS 010130Z 01005KT 330V060 9999 FEW017 BKN050 23/16 Q1013 NOSIG,M
VVTS,1/1/2021 2:00,106.6667,10.8167,75.2,60.8,60.9,10,4,0,29.91,M,6.21,M,FEW,BKN,M,M,1700,5000,M,M,M,M,M,M,M,M,M,75.2,VVTS 010200Z 01004KT 340V040 9999 FEW017 BKN050 24/16 Q1013 NOSIG,M
VVTS,1/1/2021 2:30,106.6667,10.8167,77,60.8,57.36,50,7,0,29.91,M,6.21,M,FEW,BKN,M,M,1700,5000,M,M,M,M,M,M,M,M,M,77,VVTS 010230Z 05007KT 9999 FEW017 BKN050 25/16 Q1013 NOSIG,M
VVTS,1/1/2021 3:00,106.6667,10.8167,78.8,60.8,54.05,40,6,0,29.91,M,6.21,M,FEW,SCT,M,M,1700,5000,M,M,M,M,M,M,M,M,M,78.8,VVTS 010300Z 04006KT 010V070 9999 FEW017 SCT050 26/16 Q1013 NOSIG,M
VVTS,1/1/2021 3:30,106.6667,10.8167,78.8,60.8,54.05,40,5,0,29.91,M,6.21,M,FEW,SCT,M,M,1700,5000,M,M,M,M,M,M,M,M,M,78.8,VVTS 010330Z 04005KT 350V070 9999 FEW017 SCT050 26/16 Q1013 NOSIG,M
VVTS,1/1/2021 4:00,106.6667,10.8167,82.4,60.8,48.05,40,6,0,29.91,M,6.21,M,FEW,SCT,M,M,1700,5000,M,M,M,M,M,M,M,M,M,82.9,VVTS 010400Z 04006KT 360V070 9999 FEW017 SCT050 28/16 Q1013 NOSIG,M
VVTS,1/1/2021 5:00,106.6667,10.8167,82.4,60.8,48.05,30,6,0,29.88,M,6.21,M,FEW,BKN,M,M,1700,5000,M,M,M,M,M,M,M,M,M,82.9,VVTS 010500Z 03006KT 350V140 9999 FEW017 BKN050 28/16 Q1012 NOSIG,M
VVTS,1/1/2021 5:30,106.6667,10.8167,84.2,60.8,45.34,20,8,0,29.85,M,6.21,M,FEW,BKN,M,M,1700,5000,M,M,M,M,M,M,M,M,M,84.43,VVTS 010530Z 02008KT 340V080 9999 FEW017 BKN050 29/16 Q1011 NOSIG,M
VVTS,1/1/2021 6:00,106.6667,10.8167,86,62.6,45.61,40,8,0,29.83,M,6.21,M,FEW,BKN,M,M,1700,5000,M,M,M,M,M,M,M,M,M,86.72,VVTS 010600Z 04008KT 360V090 9999 FEW017 BKN050 30/17 Q1010 NOSIG,M
VVTS,1/1/2021 6:30,106.6667,10.8167,84.2,60.8,45.34,50,8,0,29.83,M,6.21,M,FEW,BKN,M,M,1700,5000,M,M,M,M,M,M,M,M,M,84.43,VVTS 010630Z 05008KT 360V090 9999 FEW017 BKN050 29/16 Q1010 NOSIG,M
VVTS,1/1/2021 7:00,106.6667,10.8167,84.2,60.8,45.34,40,10,0,29.83,M,6.21,M,FEW,BKN,M,M,1700,5000,M,M,M,M,M,M,M,M,M,84.43,VVTS 010700Z 04010KT 360V080 9999 FEW017 BKN050 29/16 Q1010 NOSIG,M
VVTS,1/1/2021 7:30,106.6667,10.8167,82.4,62.6,51.21,60,10,0,29.8,M,6.21,M,FEW,BKN,M,M,1700,5000,M,M,M,M,M,M,M,M,M,83.41,VVTS 010730Z 06010KT 9999 FEW017 BKN050 28/17 Q1009 NOSIG,M
VVTS,1/1/2021 8:00,106.6667,10.8167,84.2,60.8,45.34,60,6,0,29.8,M,6.21,M,FEW,BKN,M,M,1700,5000,M,M,M,M,M,M,M,M,M,84.43,VVTS 010800Z 06006KT 020V080 9999 FEW017 BKN050 29/16 Q1009 NOSIG,M
VVTS,1/1/2021 8:30,106.6667,10.8167,82.4,62.6,51.21,50,6,0,29.8,M,6.21,M,FEW,BKN,M,M,1700,5000,M,M,M,M,M,M,M,M,M,83.41,VVTS 010830Z 05006KT 010V080 9999 FEW017 BKN050 28/17 Q1009 NOSIG,M
VVTS,1/1/2021 9:00,106.6667,10.8167,82.4,62.6,51.21,50,8,0,29.83,M,6.21,M,FEW,BKN,M,M,1700,5000,M,M,M,M,M,M,M,M,M,83.41,VVTS 010900Z 05008KT 030V090 9999 FEW017 BKN050 28/17 Q1010 NOSIG,M
VVTS,1/1/2021 9:30,106.6667,10.8167,82.4,60.8,48.05,50,8,0,29.83,M,6.21,M,FEW,BKN,M,M,1700,5000,M,M,M,M,M,M,M,M,M,82.9,VVTS 010930Z 05008KT 9999 FEW017 BKN050 28/16 Q1010 NOSIG,M
VVTS,1/1/2021 10:00,106.6667,10.8167,80.6,60.8,50.95,10,8,0,29.83,M,6.21,M,FEW,BKN,M,M,1700,5000,M,M,M,M,M,M,M,M,M,81.46,VVTS 011000Z 01008KT 340V040 9999 FEW017 BKN050 27/16 Q1010 NOSIG,M
VVTS,1/1/2021 10:30,106.6667,10.8167,80.6,60.8,50.95,20,6,0,29.85,M,6.21,M,FEW,BKN,M,M,1700,5000,M,M,M,M,M,M,M,M,M,81.46,VVTS 011030Z 02006KT 340V050 9999 FEW017 BKN050 27/16 Q1011 NOSIG,M
VVTS,1/1/2021 11:00,106.6667,10.8167,80.6,60.8,50.95,10,7,0,29.85,M,6.21,M,FEW,BKN,M,M,1700,5000,M,M,M,M,M,M,M,M,M,81.46,VVTS 011100Z 01007KT 9999 FEW017 BKN050 27/16 Q1011 NOSIG,M
VVTS,1/1/2021 11:30,106.6667,10.8167,78.8,60.8,54.05,30,7,0,29.85,M,6.21,M,FEW,BKN,M,M,1700,5000,M,M,M,M,M,M,M,M,M,78.8,VVTS 011130Z 03007KT 360V060 9999 FEW017 BKN050 26/16 Q1011 NOSIG,M
VVTS,1/1/2021 12:00,106.6667,10.8167,78.8,60.8,54.05,30,6,0,29.85,M,6.21,M,FEW,BKN,M,M,1700,5000,M,M,M,M,M,M,M,M,M,78.8,VVTS 011200Z 03006KT 360V060 9999 FEW017 BKN050 26/16 Q1011 NOSIG,M
VVTS,1/1/2021 12:30,106.6667,10.8167,78.8,60.8,54.05,20,7,0,29.88,M,6.21,M,FEW,BKN,M,M,1700,5000,M,M,M,M,M,M,M,M,M,78.8,VVTS 011230Z 02007KT 350V050 9999 FEW017 BKN050 26/16 Q1012 NOSIG,M
VVTS,1/1/2021 13:00,106.6667,10.8167,78.8,60.8,54.05,10,7,0,29.88,M,6.21,M,FEW,BKN,M,M,1700,5000,M,M,M,M,M,M,M,M,M,78.8,VVTS 011300Z 01007KT 340V040 9999 FEW017 BKN050 26/16 Q1012 NOSIG,M
VVTS,1/1/2021 13:30,106.6667,10.8167,77,60.8,57.36,20,7,0,29.88,M,6.21,M,FEW,BKN,M,M,1700,5000,M,M,M,M,M,M,M,M,M,77,VVTS 011330Z 02007KT 350V050 9999 FEW017 BKN050 25/16 Q1012 NOSIG,M
VVTS,1/1/2021 14:00,106.6667,10.8167,77,60.8,57.36,30,8,0,29.88,M,6.21,M,FEW,BKN,M,M,1700,5000,M,M,M,M,M,M,M,M,M,77,VVTS 011400Z 03008KT 350V050 9999 FEW017 BKN050 25/16 Q1012 NOSIG,M
VVTS,1/1/2021 14:30,106.6667,10.8167,77,60.8,57.36,10,6,0,29.88,M,6.21,M,FEW,BKN,M,M,1700,5000,M,M,M,M,M,M,M,M,M,77,VVTS 011430Z 01006KT 340V040 9999 FEW017 BKN050 25/16 Q1012 NOSIG,M
VVTS,1/1/2021 15:00,106.6667,10.8167,75.2,60.8,60.9,20,7,0,29.88,M,6.21,M,FEW,BKN,M,M,1700,5000,M,M,M,M,M,M,M,M,M,75.2,VVTS 011500Z 02007KT 9999 FEW017 BKN050 24/16 Q1012 NOSIG,M
VVTS,1/1/2021 15:30,106.6667,10.8167,75.2,60.8,60.9,10,6,0,29.88,M,6.21,M,FEW,BKN,M,M,1700,5000,M,M,M,M,M,M,M,M,M,75.2,VVTS 011530Z 01006KT 9999 FEW017 BKN050 24/16 Q1012 NOSIG,M
VVTS,1/1/2021 16:00,106.6667,10.8167,75.2,60.8,60.9,10,6,0,29.88,M,6.21,M,FEW,BKN,M,M,1700,5000,M,M,M,M,M,M,M,M,M,75.2,VVTS 011600Z 01006KT 350V050 9999 FEW017 BKN050 24/16 Q1012 NOSIG,M
VVTS,1/1/2021 16:30,106.6667,10.8167,75.2,60.8,60.9,10,5,0,29.85,M,6.21,M,FEW,BKN,M,M,1700,5000,M,M,M,M,M,M,M,M,M,75.2,VVTS 011630Z 01005KT 340V040 9999 FEW017 BKN050 24/16 Q1011 NOSIG,M
VVTS,1/1/2021 17:00,106.6667,10.8167,73.4,60.8,64.69,10,6,0,29.85,M,6.21,M,FEW,BKN,M,M,1700,5000,M,M,M,M,M,M,M,M,M,73.4,VVTS 011700Z 01006KT 340V040 9999 FEW017 BKN050 23/16 Q1011 NOSIG,M
VVTS,1/1/2021 17:30,106.6667,10.8167,73.4,60.8,64.69,20,5,0,29.85,M,6.21,M,FEW,BKN,M,M,1700,5000,M,M,M,M,M,M,M,M,M,73.4,VVTS 011730Z 02005KT 9999 FEW017 BKN050 23/16 Q1011 NOSIG,M
VVTS,1/1/2021 18:00,106.6667,10.8167,73.4,60.8,64.69,20,6,0,29.85,M,6.21,M,FEW,BKN,M,M,1700,5000,M,M,M,M,M,M,M,M,M,73.4,VVTS 011800Z 02006KT 340V040 9999 FEW017 BKN050 23/16 Q1011 NOSIG,M
VVTS,1/1/2021 18:30,106.6667,10.8167,73.4,60.8,64.69,10,6,0,29.85,M,6.21,M,FEW,SCT,M,M,1700,5000,M,M,M,M,M,M,M,M,M,73.4,VVTS 011830Z 01006KT 330V040 9999 FEW017 SCT050 23/16 Q1011 NOSIG,M
VVTS,1/1/2021 19:00,106.6667,10.8167,73.4,60.8,64.69,10,6,0,29.85,M,6.21,M,FEW,SCT,M,M,1700,5000,M,M,M,M,M,M,M,M,M,73.4,VVTS 011900Z 01006KT 330V030 9999 FEW017 SCT050 23/16 Q1011 NOSIG,M
VVTS,1/1/2021 19:30,106.6667,10.8167,73.4,60.8,64.69,20,6,0,29.83,M,6.21,M,FEW,SCT,M,M,1700,5000,M,M,M,M,M,M,M,M,M,73.4,VVTS 011930Z 02006KT 9999 FEW017 SCT050 23/16 Q1010 NOSIG,M
VVTS,1/1/2021 20:00,106.6667,10.8167,71.6,60.8,68.75,20,5,0,29.83,M,6.21,M,FEW,SCT,M,M,1700,5000,M,M,M,M,M,M,M,M,M,71.6,VVTS 012000Z 02005KT 340V050 9999 FEW017 SCT050 22/16 Q1010 NOSIG,M
VVTS,1/1/2021 20:30,106.6667,10.8167,71.6,60.8,68.75,20,5,0,29.83,M,6.21,M,FEW,SCT,M,M,1700,5000,M,M,M,M,M,M,M,M,M,71.6,VVTS 012030Z 02005KT 350V050 9999 FEW017 SCT050 22/16 Q1010 NOSIG,M
VVTS,1/1/2021 21:00,106.6667,10.8167,71.6,60.8,68.75,10,4,0,29.83,M,6.21,M,FEW,SCT,M,M,1700,5000,M,M,M,M,M,M,M,M,M,71.6,VVTS 012100Z 01004KT 330V050 9999 FEW017 SCT050 22/16 Q1010 NOSIG,M
VVTS,1/1/2021 21:30,106.6667,10.8167,71.6,60.8,68.75,360,5,0,29.83,M,6.21,M,FEW,SCT,M,M,1700,5000,M,M,M,M,M,M,M,M,M,71.6,VVTS 012130Z 36005KT 320V030 9999 FEW017 SCT050 22/16 Q1010 NOSIG,M
VVTS,1/1/2021 22:00,106.6667,10.8167,71.6,62.6,73.27,360,4,0,29.83,M,6.21,M,FEW,SCT,M,M,1700,5000,M,M,M,M,M,M,M,M,M,71.6,VVTS 012200Z 36004KT 9999 FEW017 SCT050 22/17 Q1010 NOSIG,M
VVTS,1/1/2021 22:30,106.6667,10.8167,71.6,62.6,73.27,M,2,0,29.85,M,6.21,M,FEW,BKN,M,M,1700,5000,M,M,M,M,M,M,M,M,M,71.6,VVTS 012230Z VRB02KT 9999 FEW017 BKN050 22/17 Q1011 NOSIG,M
VVTS,1/1/2021 23:00,106.6667,10.8167,71.6,62.6,73.27,350,3,0,29.85,M,6.21,M,FEW,BKN,M,M,1700,5000,M,M,M,M,M,M,M,M,M,71.6,VVTS 012300Z 35003KT 9999 FEW017 BKN050 22/17 Q1011 NOSIG,M
VVTS,1/1/2021 23:30,106.6667,10.8167,71.6,62.6,73.27,310,4,0,29.85,M,6.21,M,FEW,BKN,M,M,1700,5000,M,M,M,M,M,M,M,M,M,71.6,VVTS 012330Z 31004KT 9999 FEW017 BKN050 22/17 Q1011 NOSIG,M
VVTS,1/2/2021 0:00,106.6667,10.8167,71.6,62.6,73.27,310,2,0,29.88,M,6.21,M,FEW,BKN,M,M,1700,5000,M,M,M,M,M,M,M,M,M,71.6,VVTS 020000Z 31002KT 9999 FEW017 BKN050 22/17 Q1012 NOSIG,M
VVTS,1/2/2021 0:30,106.6667,10.8167,71.6,62.6,73.27,M,3,0,29.88,M,6.21,M,FEW,BKN,M,M,1700,5000,M,M,M,M,M,M,M,M,M,71.6,VVTS 020030Z VRB03KT 9999 FEW017 BKN050 22/17 Q1012 NOSIG,M
VVTS,1/2/2021 1:00,106.6667,10.8167,71.6,62.6,73.27,320,6,0,29.88,M,6.21,M,FEW,BKN,M,M,1700,5000,M,M,M,M,M,M,M,M,M,71.6,VVTS 020100Z 32006KT 9999 FEW017 BKN050 22/17 Q1012 NOSIG,M
VVTS,1/2/2021 1:30,106.6667,10.8167,73.4,62.6,68.94,320,4,0,29.91,M,6.21,M,FEW,BKN,M,M,1700,5000,M,M,M,M,M,M,M,M,M,73.4,VVTS 020130Z 32004KT 280V360 9999 FEW017 BKN050 23/17 Q1013 NOSIG,M
VVTS,1/2/2021 2:00,106.6667,10.8167,75.2,62.6,64.91,330,4,0,29.91,M,6.21,M,FEW,BKN,M,M,1700,5000,M,M,M,M,M,M,M,M,M,75.2,VVTS 020200Z 33004KT 300V040 9999 FEW017 BKN050 24/17 Q1013 NOSIG,M
VVTS,1/2/2021 2:30,106.6667,10.8167,77,62.6,61.13,20,7,0,29.91,M,6.21,M,FEW,BKN,M,M,1700,5000,M,M,M,M,M,M,M,M,M,77,VVTS 020230Z 02007KT 330V050 9999 FEW017 BKN050 25/17 Q1013 NOSIG,M
VVTS,1/2/2021 3:00,106.6667,10.8167,78.8,62.6,57.6,360,6,0,29.88,M,6.21,M,FEW,BKN,M,M,1700,5000,M,M,M,M,M,M,M,M,M,78.8,VVTS 020300Z 36006KT 320V050 9999 FEW017 BKN050 26/17 Q1012 NOSIG,M
VVTS,1/2/2021 3:30,106.6667,10.8167,80.6,64.4,57.84,350,6,0,29.88,M,6.21,M,FEW,SCT,M,M,1700,5000,M,M,M,M,M,M,M,M,M,82.27,VVTS 020330Z 35006KT 310V050 9999 FEW017 SCT050 27/18 Q1012 NOSIG,M
VVTS,1/2/2021 4:00,106.6667,10.8167,82.4,62.6,51.21,20,5,0,29.85,M,6.21,M,FEW,SCT,M,M,1700,5000,M,M,M,M,M,M,M,M,M,83.41,VVTS 020400Z 02005KT 290V070 9999 FEW017 SCT050 28/17 Q1011 NOSIG,M
VVTS,1/2/2021 4:30,106.6667,10.8167,84.2,62.6,48.32,360,5,0,29.85,M,6.21,M,FEW,SCT,M,M,1700,5000,M,M,M,M,M,M,M,M,M,85.03,VVTS 020430Z 36005KT 300V110 9999 FEW017 SCT050 29/17 Q1011 NOSIG,M
VVTS,1/2/2021 5:00,106.6667,10.8167,84.2,64.4,51.47,350,5,0,29.83,M,6.21,M,FEW,M,M,M,1700,M,M,M,M,M,M,M,M,M,M,85.71,VVTS 020500Z 35005KT 270V050 9999 FEW017 29/18 Q1010 NOSIG,M
VVTS,1/2/2021 5:30,106.6667,10.8167,86,62.6,45.61,350,6,0,29.83,M,6.21,M,FEW,M,M,M,1700,M,M,M,M,M,M,M,M,M,M,86.72,VVTS 020530Z 35006KT 290V090 9999 FEW017 30/17 Q1010 NOSIG,M
VVTS,1/2/2021 6:00,106.6667,10.8167,84.2,62.6,48.32,M,6,0,29.83,M,6.21,M,FEW,M,M,M,1700,M,M,M,M,M,M,M,M,M,M,85.03,VVTS 020600Z VRB06KT 9999 FEW017 29/17 Q1010 NOSIG,M
VVTS,1/2/2021 6:30,106.6667,10.8167,86,62.6,45.61,330,6,0,29.8,M,6.21,M,FEW,M,M,M,1700,M,M,M,M,M,M,M,M,M,M,86.72,VVTS 020630Z 33006KT 300V020 9999 FEW017 30/17 Q1009 NOSIG,M
VVTS,1/2/2021 7:00,106.6667,10.8167,86,62.6,45.61,350,7,0,29.8,M,6.21,M,FEW,M,M,M,1700,M,M,M,M,M,M,M,M,M,M,86.72,VVTS 020700Z 35007KT 320V040 9999 FEW017 30/17 Q1009 NOSIG,M
VVTS,1/2/2021 7:30,106.6667,10.8167,86,62.6,45.61,350,7,0,29.8,M,6.21,M,FEW,SCT,M,M,1700,5000,M,M,M,M,M,M,M,M,M,86.72,VVTS 020730Z 35007KT 320V040 9999 FEW017 SCT050 30/17 Q1009 NOSIG,M
VVTS,1/2/2021 8:00,106.6667,10.8167,87.8,64.4,45.88,340,8,0,29.77,M,6.21,M,FEW,SCT,M,M,1700,5000,M,M,M,M,M,M,M,M,M,89.33,VVTS 020800Z 34008KT 310V020 9999 FEW017 SCT050 31/18 Q1008 NOSIG,M
VVTS,1/2/2021 8:30,106.6667,10.8167,86,64.4,48.58,20,10,0,29.77,M,6.21,M,FEW,SCT,M,M,1700,5000,M,M,M,M,M,M,M,M,M,87.49,VVTS 020830Z 02010KT 330V060 9999 FEW017 SCT050 30/18 Q1008 NOSIG,M
VVTS,1/2/2021 9:00,106.6667,10.8167,86,64.4,48.58,360,10,0,29.77,M,6.21,M,FEW,SCT,M,M,1700,5000,M,M,M,M,M,M,M,M,M,87.49,VVTS 020900Z 36010KT 9999 FEW017 SCT050 30/18 Q1008 NOSIG,M
VVTS,1/2/2021 9:30,106.6667,10.8167,84.2,64.4,51.47,10,8,0,29.8,M,6.21,M,FEW,SCT,M,M,1700,5000,M,M,M,M,M,M,M,M,M,85.71,VVTS 020930Z 01008KT 9999 FEW017 SCT050 29/18 Q1009 NOSIG,M
VVTS,1/2/2021 10:00,106.6667,10.8167,82.4,62.6,51.21,20,7,0,29.8,M,6.21,M,FEW,BKN,M,M,1700,5000,M,M,M,M,M,M,M,M,M,83.41,VVTS 021000Z 02007KT 9999 FEW017 BKN050 28/17 Q1009 NOSIG,M
VVTS,1/2/2021 10:30,106.6667,10.8167,82.4,64.4,54.55,30,6,0,29.8,M,6.21,M,FEW,BKN,M,M,1700,5000,M,M,M,M,M,M,M,M,M,83.98,VVTS 021030Z 03006KT 360V060 9999 FEW017 BKN050 28/18 Q1009 NOSIG,M
VVTS,1/2/2021 11:00,106.6667,10.8167,82.4,64.4,54.55,40,6,0,29.83,M,6.21,M,FEW,BKN,M,M,1700,5000,M,M,M,M,M,M,M,M,M,83.98,VVTS 021100Z 04006KT 9999 FEW017 BKN050 28/18 Q1010 NOSIG,M
VVTS,1/2/2021 11:30,106.6667,10.8167,82.4,64.4,54.55,40,5,0,29.83,M,6.21,M,FEW,BKN,M,M,1700,5000,M,M,M,M,M,M,M,M,M,83.98,VVTS 021130Z 04005KT 010V070 9999 FEW017 BKN050 28/18 Q1010 NOSIG,M
VVTS,1/2/2021 12:00,106.6667,10.8167,82.4,64.4,54.55,40,4,0,29.83,M,6.21,M,FEW,BKN,M,M,1700,5000,M,M,M,M,M,M,M,M,M,83.98,VVTS 021200Z 04004KT 010V070 9999 FEW017 BKN050 28/18 Q1010 NOSIG,M
VVTS,1/2/2021 12:30,106.6667,10.8167,82.4,64.4,54.55,340,4,0,29.85,M,6.21,M,FEW,BKN,M,M,2000,5000,M,M,M,M,M,M,M,M,M,83.98,VVTS 021230Z 34004KT 9999 FEW020 BKN050 28/18 Q1011 NOSIG,M
VVTS,1/2/2021 13:00,106.6667,10.8167,82.4,66.2,58.08,10,4,0,29.85,M,6.21,M,FEW,BKN,M,M,2000,5000,M,M,M,M,M,M,M,M,M,84.63,VVTS 021300Z 01004KT 340V040 9999 FEW020 BKN050 28/19 Q1011 NOSIG,M
VVTS,1/2/2021 13:30,106.6667,10.8167,80.6,66.2,61.58,10,5,0,29.85,M,6.21,M,FEW,BKN,M,M,2000,5000,M,M,M,M,M,M,M,M,M,82.75,VVTS 021330Z 01005KT 340V060 9999 FEW020 BKN050 27/19 Q1011 NOSIG,M
VVTS,1/2/2021 14:00,106.6667,10.8167,80.6,64.4,57.84,30,5,0,29.85,M,6.21,M,FEW,BKN,M,M,2000,5000,M,M,M,M,M,M,M,M,M,82.27,VVTS 021400Z 03005KT 360V060 9999 FEW020 BKN050 27/18 Q1011 NOSIG,M
VVTS,1/2/2021 14:30,106.6667,10.8167,80.6,64.4,57.84,20,6,0,29.85,M,6.21,M,FEW,BKN,M,M,2000,5000,M,M,M,M,M,M,M,M,M,82.27,VVTS 021430Z 02006KT 350V050 9999 FEW020 BKN050 27/18 Q1011 NOSIG,M
VVTS,1/2/2021 15:00,106.6667,10.8167,78.8,64.4,61.36,20,6,0,29.85,M,6.21,M,FEW,BKN,M,M,2000,5000,M,M,M,M,M,M,M,M,M,78.8,VVTS 021500Z 02006KT 9999 FEW020 BKN050 26/18 Q1011 NOSIG,M
VVTS,1/2/2021 15:30,106.6667,10.8167,78.8,62.6,57.6,20,5,0,29.85,M,6.21,M,FEW,SCT,M,M,1700,5000,M,M,M,M,M,M,M,M,M,78.8,VVTS 021530Z 02005KT 340V040 9999 FEW017 SCT050 26/17 Q1011 NOSIG,M
VVTS,1/2/2021 16:00,106.6667,10.8167,77,62.6,61.13,20,6,0,29.85,M,6.21,M,FEW,SCT,M,M,1700,5000,M,M,M,M,M,M,M,M,M,77,VVTS 021600Z 02006KT 340V040 9999 FEW017 SCT050 25/17 Q1011 NOSIG,M
VVTS,1/2/2021 16:30,106.6667,10.8167,77,62.6,61.13,20,7,0,29.85,M,6.21,M,FEW,SCT,M,M,1700,5000,M,M,M,M,M,M,M,M,M,77,VVTS 021630Z 02007KT 9999 FEW017 SCT050 25/17 Q1011 NOSIG,M
VVTS,1/2/2021 17:00,106.6667,10.8167,77,64.4,65.12,30,6,0,29.85,M,6.21,M,FEW,SCT,M,M,1700,5000,M,M,M,M,M,M,M,M,M,77,VVTS 021700Z 03006KT 9999 FEW017 SCT050 25/18 Q1011 NOSIG,M
VVTS,1/2/2021 17:30,106.6667,10.8167,77,62.6,61.13,40,5,0,29.85,M,6.21,M,FEW,SCT,M,M,1700,5000,M,M,M,M,M,M,M,M,M,77,VVTS 021730Z 04005KT 010V070 9999 FEW017 SCT050 25/17 Q1011 NOSIG,M
VVTS,1/2/2021 18:00,106.6667,10.8167,75.2,62.6,64.91,20,4,0,29.85,M,6.21,M,FEW,SCT,M,M,1700,5000,M,M,M,M,M,M,M,M,M,75.2,VVTS 021800Z 02004KT 9999 FEW017 SCT050 24/17 Q1011 NOSIG,M
VVTS,1/2/2021 18:30,106.6667,10.8167,75.2,64.4,69.14,M,3,0,29.83,M,6.21,M,FEW,SCT,M,M,2000,5000,M,M,M,M,M,M,M,M,M,75.2,VVTS 021830Z VRB03KT 9999 FEW020 SCT050 24/18 Q1010 NOSIG,M
VVTS,1/2/2021 19:00,106.6667,10.8167,75.2,64.4,69.14,10,4,0,29.83,M,6.21,M,FEW,SCT,M,M,2000,5000,M,M,M,M,M,M,M,M,M,75.2,VVTS 021900Z 01004KT 9999 FEW020 SCT050 24/18 Q1010 NOSIG,M
VVTS,1/2/2021 19:30,106.6667,10.8167,75.2,64.4,69.14,M,3,0,29.83,M,6.21,M,FEW,SCT,M,M,2000,5000,M,M,M,M,M,M,M,M,M,75.2,VVTS 021930Z VRB03KT 9999 FEW020 SCT050 24/18 Q1010 NOSIG,M
VVTS,1/2/2021 20:00,106.6667,10.8167,73.4,64.4,73.44,360,3,0,29.8,M,6.21,M,FEW,SCT,M,M,2000,5000,M,M,M,M,M,M,M,M,M,73.4,VVTS 022000Z 36003KT 9999 FEW020 SCT050 23/18 Q1009 NOSIG,M
VVTS,1/2/2021 20:30,106.6667,10.8167,73.4,64.4,73.44,20,4,0,29.8,M,6.21,M,FEW,SCT,M,M,2000,5000,M,M,M,M,M,M,M,M,M,73.4,VVTS 022030Z 02004KT 9999 FEW020 SCT050 23/18 Q1009 NOSIG,M
VVTS,1/2/2021 21:00,106.6667,10.8167,73.4,64.4,73.44,20,3,0,29.8,M,4.97,M,FEW,SCT,M,M,1700,5000,M,M,M,M,M,M,M,M,M,73.4,VVTS 022100Z 02003KT 8000 FEW017 SCT050 23/18 Q1009 NOSIG,M
VVTS,1/2/2021 21:30,106.6667,10.8167,73.4,64.4,73.44,M,1,0,29.83,M,4.97,M,FEW,SCT,M,M,1700,5000,M,M,M,M,M,M,M,M,M,73.4,VVTS 022130Z VRB01KT 8000 FEW017 SCT050 23/18 Q1010 NOSIG,M
VVTS,1/2/2021 22:00,106.6667,10.8167,73.4,64.4,73.44,M,3,0,29.83,M,4.97,M,FEW,SCT,M,M,1700,5000,M,M,M,M,M,M,M,M,M,73.4,VVTS 022200Z VRB03KT 8000 FEW017 SCT050 23/18 Q1010 NOSIG,M
VVTS,1/2/2021 22:30,106.6667,10.8167,73.4,66.2,78.19,M,3,0,29.83,M,4.97,M,FEW,SCT,M,M,1700,5000,M,M,M,M,M,M,M,M,M,73.4,VVTS 022230Z VRB03KT 8000 FEW017 SCT050 23/19 Q1010 NOSIG,M
VVTS,1/2/2021 23:00,106.6667,10.8167,71.6,66.2,83.09,M,2,0,29.83,M,6.21,M,FEW,SCT,M,M,2000,5000,M,M,M,M,M,M,M,M,M,71.6,VVTS 022300Z VRB02KT 9999 FEW020 SCT050 22/19 Q1010 NOSIG,M
VVTS,1/2/2021 23:30,106.6667,10.8167,71.6,66.2,83.09,350,3,0,29.83,M,6.21,M,FEW,SCT,M,M,2000,5000,M,M,M,M,M,M,M,M,M,71.6,VVTS 022330Z 35003KT 9999 FEW020 SCT050 22/19 Q1010 NOSIG,M
VVTS,1/3/2021 0:00,106.6667,10.8167,73.4,66.2,78.19,360,3,0,29.85,M,6.21,M,FEW,SCT,M,M,2000,5000,M,M,M,M,M,M,M,M,M,73.4,VVTS 030000Z 36003KT 9999 FEW020 SCT050 23/19 Q1011 NOSIG,M
VVTS,1/3/2021 0:30,106.6667,10.8167,75.2,66.2,73.61,M,3,0,29.85,M,6.21,M,FEW,SCT,M,M,2000,5000,M,M,M,M,M,M,M,M,M,75.2,VVTS 030030Z VRB03KT 9999 FEW020 SCT050 24/19 Q1011 NOSIG,M
VVTS,1/3/2021 1:00,106.6667,10.8167,77,68,73.78,M,2,0,29.88,M,6.21,M,FEW,SCT,M,M,2000,5000,M,M,M,M,M,M,M,M,M,77,VVTS 030100Z VRB02KT 9999 FEW020 SCT050 25/20 Q1012 NOSIG,M
VVTS,1/3/2021 1:30,106.6667,10.8167,78.8,68,69.52,M,2,0,29.88,M,6.21,M,FEW,SCT,M,M,2000,5000,M,M,M,M,M,M,M,M,M,78.8,VVTS 030130Z VRB02KT 9999 FEW020 SCT050 26/20 Q1012 NOSIG,M
VVTS,1/3/2021 2:00,106.6667,10.8167,78.8,66.2,65.33,M,3,0,29.88,M,6.21,M,FEW,SCT,M,M,2000,5000,M,M,M,M,M,M,M,M,M,78.8,VVTS 030200Z VRB03KT 9999 R25L/1200VP2000D FEW020 SCT050 26/19 Q1012 NOSIG,M
VVTS,1/3/2021 2:30,106.6667,10.8167,80.6,66.2,61.58,10,4,0,29.88,M,6.21,M,FEW,SCT,M,M,2000,5000,M,M,M,M,M,M,M,M,M,82.75,VVTS 030230Z 01004KT 310V070 9999 FEW020 SCT050 27/19 Q1012 NOSIG,M
VVTS,1/3/2021 3:00,106.6667,10.8167,82.4,68,61.81,360,4,0,29.88,M,6.21,M,FEW,SCT,M,M,2000,5000,M,M,M,M,M,M,M,M,M,85.38,VVTS 030300Z 36004KT 300V030 9999 FEW020 SCT050 28/20 Q1012 NOSIG,M
VVTS,1/3/2021 3:30,106.6667,10.8167,82.4,68,61.81,M,3,0,29.85,M,6.21,M,FEW,SCT,M,M,2000,5000,M,M,M,M,M,M,M,M,M,85.38,VVTS 030330Z VRB03KT 9999 FEW020 SCT050 28/20 Q1011 NOSIG,M
VVTS,1/3/2021 4:00,106.6667,10.8167,84.2,68,58.32,M,3,0,29.85,M,6.21,M,FEW,SCT,M,M,2000,5000,M,M,M,M,M,M,M,M,M,87.4,VVTS 030400Z VRB03KT 9999 FEW020 SCT050 29/20 Q1011 NOSIG,M
VVTS,1/3/2021 4:30,106.6667,10.8167,86,68,55.04,30,4,0,29.83,M,6.21,M,FEW,M,M,M,2000,M,M,M,M,M,M,M,M,M,M,89.41,VVTS 030430Z 03004KT 320V080 9999 FEW020 30/20 Q1010 NOSIG,M
VVTS,1/3/2021 5:00,106.6667,10.8167,86,68,55.04,M,2,0,29.83,M,6.21,M,FEW,M,M,M,2000,M,M,M,M,M,M,M,M,M,M,89.41,VVTS 030500Z VRB02KT 9999 FEW020 30/20 Q1010 NOSIG,M
VVTS,1/3/2021 5:30,106.6667,10.8167,87.8,66.2,48.84,40,5,0,29.8,M,6.21,M,FEW,M,M,M,2000,M,M,M,M,M,M,M,M,M,M,90.31,VVTS 030530Z 04005KT 340V100 9999 FEW020 31/19 Q1009 NOSIG,M
VVTS,1/3/2021 6:00,106.6667,10.8167,87.8,66.2,48.84,M,2,0,29.8,M,6.21,M,FEW,M,M,M,2000,M,M,M,M,M,M,M,M,M,M,90.31,VVTS 030600Z VRB02KT 9999 FEW020 31/19 Q1009 NOSIG,M
VVTS,1/3/2021 6:30,106.6667,10.8167,89.6,66.2,46.14,M,2,0,29.77,M,6.21,M,SCT,M,M,M,2000,M,M,M,M,M,M,M,M,M,M,92.27,VVTS 030630Z VRB02KT 9999 SCT020 32/19 Q1008 NOSIG,M
VVTS,1/3/2021 7:00,106.6667,10.8167,89.6,66.2,46.14,M,3,0,29.77,M,6.21,M,SCT,M,M,M,2000,M,M,M,M,M,M,M,M,M,M,92.27,VVTS 030700Z VRB03KT 9999 SCT020 32/19 Q1008 NOSIG,M
VVTS,1/3/2021 7:30,106.6667,10.8167,89.6,66.2,46.14,140,2,0,29.74,M,6.21,M,SCT,M,M,M,2000,M,M,M,M,M,M,M,M,M,M,92.27,VVTS 030730Z 14002KT 9999 SCT020 32/19 Q1007 NOSIG,M
VVTS,1/3/2021 8:00,106.6667,10.8167,89.6,68,49.1,M,3,0,29.74,M,6.21,M,SCT,M,M,M,2000,M,M,M,M,M,M,M,M,M,M,93.47,VVTS 030800Z VRB03KT 9999 SCT020 32/20 Q1007 NOSIG,M
VVTS,1/3/2021 8:30,106.6667,10.8167,89.6,66.2,46.14,40,4,0,29.74,M,6.21,M,SCT,M,M,M,2000,M,M,M,M,M,M,M,M,M,M,92.27,VVTS 030830Z 04004KT 350V080 9999 SCT020 32/19 Q1007 NOSIG,M
VVTS,1/3/2021 9:00,106.6667,10.8167,89.6,68,49.1,M,2,0,29.74,M,6.21,M,SCT,M,M,M,2000,M,M,M,M,M,M,M,M,M,M,93.47,VVTS 030900Z VRB02KT 9999 SCT020 32/20 Q1007 NOSIG,M
VVTS,1/3/2021 9:30,106.6667,10.8167,86,69.8,58.55,0,0,0,29.77,M,6.21,M,SCT,M,M,M,2000,M,M,M,M,M,M,M,M,M,M,90.58,VVTS 030930Z 00000KT 9999 SCT020 30/21 Q1008 NOSIG,M
VVTS,1/3/2021 10:00,106.6667,10.8167,86,69.8,58.55,200,6,0,29.77,M,6.21,M,SCT,SCT,M,M,2000,5000,M,M,M,M,M,M,M,M,M,90.58,VVTS 031000Z 20006KT 150V250 9999 SCT020 SCT050 30/21 Q1008 NOSIG,M
VVTS,1/3/2021 10:30,106.6667,10.8167,84.2,73.4,70.08,180,5,0,29.8,M,6.21,M,SCT,SCT,M,M,2000,5000,M,M,M,M,M,M,M,M,M,90.94,VVTS 031030Z 18005KT 150V230 9999 SCT020 SCT050 29/23 Q1009 NOSIG,M
VVTS,1/3/2021 11:00,106.6667,10.8167,82.4,73.4,74.28,190,6,0,29.8,M,6.21,M,SCT,SCT,M,M,2000,5000,M,M,M,M,M,M,M,M,M,88.26,VVTS 031100Z 19006KT 160V230 9999 SCT020 SCT050 28/23 Q1009 NOSIG,M
VVTS,1/3/2021 11:30,106.6667,10.8167,82.4,73.4,74.28,190,6,0,29.8,M,6.21,M,SCT,SCT,M,M,2000,5000,M,M,M,M,M,M,M,M,M,88.26,VVTS 031130Z 19006KT 150V230 9999 SCT020 SCT050 28/23 Q1009 NOSIG,M
VVTS,1/3/2021 12:00,106.6667,10.8167,82.4,73.4,74.28,200,6,0,29.83,M,6.21,M,FEW,SCT,M,M,1700,5000,M,M,M,M,M,M,M,M,M,88.26,VVTS 031200Z 20006KT 150V250 9999 FEW017 SCT050 28/23 Q1010 NOSIG,M
VVTS,1/3/2021 12:30,106.6667,10.8167,82.4,73.4,74.28,210,6,0,29.83,M,6.21,M,FEW,SCT,M,M,1700,5000,M,M,M,M,M,M,M,M,M,88.26,VVTS 031230Z 21006KT 180V240 9999 FEW017 SCT050 28/23 Q1010 NOSIG,M
VVTS,1/3/2021 13:00,106.6667,10.8167,82.4,73.4,74.28,230,5,0,29.83,M,6.21,M,FEW,SCT,M,M,1700,5000,M,M,M,M,M,M,M,M,M,88.26,VVTS 031300Z 23005KT 180V260 9999 FEW017 SCT050 28/23 Q1010 NOSIG,M
VVTS,1/3/2021 13:30,106.6667,10.8167,82.4,73.4,74.28,200,6,0,29.83,M,6.21,M,FEW,SCT,M,M,1700,5000,M,M,M,M,M,M,M,M,M,88.26,VVTS 031330Z 20006KT 150V240 9999 FEW017 SCT050 28/23 Q1010 NOSIG,M
VVTS,1/3/2021 14:00,106.6667,10.8167,80.6,73.4,78.76,260,4,0,29.85,M,6.21,M,FEW,SCT,M,M,1700,5000,M,M,M,M,M,M,M,M,M,85.32,VVTS 031400Z 26004KT 230V290 9999 FEW017 SCT050 27/23 Q1011 NOSIG,M
VVTS,1/3/2021 14:30,106.6667,10.8167,80.6,73.4,78.76,M,3,0,29.85,M,6.21,M,FEW,SCT,M,M,1700,5000,M,M,M,M,M,M,M,M,M,85.32,VVTS 031430Z VRB03KT 9999 FEW017 SCT050 27/23 Q1011 NOSIG,M
VVTS,1/3/2021 15:00,106.6667,10.8167,80.6,73.4,78.76,250,5,0,29.85,M,6.21,M,SCT,M,M,M,2000,M,M,M,M,M,M,M,M,M,M,85.32,VVTS 031500Z 25005KT 200V270 9999 SCT020 27/23 Q1011 NOSIG,M
VVTS,1/3/2021 15:30,106.6667,10.8167,78.8,73.4,83.55,260,5,0,29.83,M,6.21,M,SCT,M,M,M,2000,M,M,M,M,M,M,M,M,M,M,78.8,VVTS 031530Z 26005KT 9999 SCT020 26/23 Q1010 NOSIG,M
VVTS,1/3/2021 16:00,106.6667,10.8167,78.8,73.4,83.55,240,4,0,29.83,M,6.21,M,SCT,M,M,M,2000,M,M,M,M,M,M,M,M,M,M,78.8,VVTS 031600Z 24004KT 210V270 9999 SCT020 26/23 Q1010 NOSIG,M
VVTS,1/3/2021 16:30,106.6667,10.8167,78.8,73.4,83.55,M,3,0,29.83,M,6.21,M,SCT,M,M,M,1700,M,M,M,M,M,M,M,M,M,M,78.8,VVTS 031630Z VRB03KT 9999 SCT017 26/23 Q1010 NOSIG,M
VVTS,1/3/2021 17:00,106.6667,10.8167,78.8,73.4,83.55,230,4,0,29.83,M,6.21,M,SCT,M,M,M,1700,M,M,M,M,M,M,M,M,M,M,78.8,VVTS 031700Z 23004KT 180V270 9999 SCT017 26/23 Q1010 NOSIG,M
VVTS,1/3/2021 17:30,106.6667,10.8167,78.8,73.4,83.55,190,4,0,29.83,M,6.21,M,SCT,M,M,M,1700,M,M,M,M,M,M,M,M,M,M,78.8,VVTS 031730Z 19004KT 160V240 9999 SCT017 26/23 Q1010 NOSIG,M
VVTS,1/3/2021 18:00,106.6667,10.8167,78.8,73.4,83.55,210,3,0,29.83,M,6.21,M,SCT,M,M,M,1700,M,M,M,M,M,M,M,M,M,M,78.8,VVTS 031800Z 21003KT 9999 SCT017 26/23 Q1010 NOSIG,M
VVTS,1/3/2021 18:30,106.6667,10.8167,77,73.4,88.67,M,3,0,29.8,M,6.21,M,FEW,SCT,M,M,1700,5000,M,M,M,M,M,M,M,M,M,77,VVTS 031830Z VRB03KT 9999 FEW017 SCT050 25/23 Q1009 NOSIG,M
VVTS,1/3/2021 19:00,106.6667,10.8167,77,73.4,88.67,M,3,0,29.8,M,6.21,M,FEW,SCT,M,M,1700,5000,M,M,M,M,M,M,M,M,M,77,VVTS 031900Z VRB03KT 9999 FEW017 SCT050 25/23 Q1009 NOSIG,M
VVTS,1/3/2021 19:30,106.6667,10.8167,75.2,73.4,94.14,M,1,0,29.8,M,6.21,M,FEW,SCT,M,M,1700,5000,M,M,M,M,M,M,M,M,M,75.2,VVTS 031930Z VRB01KT 9999 FEW017 SCT050 24/23 Q1009 NOSIG,M
VVTS,1/3/2021 20:00,106.6667,10.8167,77,75.2,94.19,310,3,0,29.77,M,6.21,M,FEW,SCT,M,M,1700,5000,M,M,M,M,M,M,M,M,M,77,VVTS 032000Z 31003KT 9999 FEW017 SCT050 25/24 Q1008 NOSIG,M
VVTS,1/3/2021 20:30,106.6667,10.8167,77,75.2,94.19,350,2,0,29.8,M,6.21,M,FEW,SCT,M,M,1700,5000,M,M,M,M,M,M,M,M,M,77,VVTS 032030Z 35002KT 9999 FEW017 SCT050 25/24 Q1009 NOSIG,M
VVTS,1/3/2021 21:00,106.6667,10.8167,77,73.4,88.67,20,4,0,29.8,M,6.21,M,FEW,SCT,M,M,1700,5000,M,M,M,M,M,M,M,M,M,77,VVTS 032100Z 02004KT 9999 FEW017 SCT050 25/23 Q1009 NOSIG,M
VVTS,1/3/2021 21:30,106.6667,10.8167,75.2,73.4,94.14,40,3,0,29.8,M,4.97,M,FEW,SCT,M,M,1700,5000,M,M,M,M,M,M,M,M,M,75.2,VVTS 032130Z 04003KT 8000 FEW017 SCT050 24/23 Q1009 NOSIG,M
VVTS,1/3/2021 22:00,106.6667,10.8167,75.2,71.6,88.59,50,3,0,29.83,M,4.97,M,FEW,SCT,M,M,1700,5000,M,M,M,M,M,M,M,M,M,75.2,VVTS 032200Z 05003KT 8000 FEW017 SCT050 24/22 Q1010 NOSIG,M
VVTS,1/3/2021 22:30,106.6667,10.8167,75.2,71.6,88.59,60,4,0,29.83,M,4.97,M,FEW,SCT,M,M,1700,5000,M,M,M,M,M,M,M,M,M,75.2,VVTS 032230Z 06004KT 8000 FEW017 SCT050 24/22 Q1010 NOSIG,M
VVTS,1/3/2021 23:00,106.6667,10.8167,75.2,71.6,88.59,M,1,0,29.83,M,4.97,M,FEW,SCT,M,M,1700,5000,M,M,M,M,M,M,M,M,M,75.2,VVTS 032300Z VRB01KT 8000 FEW017 SCT050 24/22 Q1010 NOSIG,M
VVTS,1/3/2021 23:30,106.6667,10.8167,75.2,69.8,83.32,M,1,0,29.83,M,4.97,M,FEW,BKN,M,M,1700,5000,M,M,M,M,M,M,M,M,M,75.2,VVTS 032330Z VRB01KT 8000 FEW017 BKN050 24/21 Q1010 NOSIG,M
VVTS,1/4/2021 0:00,106.6667,10.8167,75.2,69.8,83.32,10,4,0,29.85,M,4.97,M,FEW,BKN,M,M,1700,5000,M,M,M,M,M,M,M,M,M,75.2,VVTS 040000Z 01004KT 350V050 8000 FEW017 BKN050 24/21 Q1011 NOSIG,M
VVTS,1/4/2021 0:30,106.6667,10.8167,77,68,73.78,20,6,0,29.85,M,6.21,M,FEW,BKN,M,M,1700,5000,M,M,M,M,M,M,M,M,M,77,VVTS 040030Z 02006KT 9999 FEW017 BKN050 25/20 Q1011 NOSIG,M
VVTS,1/4/2021 1:00,106.6667,10.8167,78.8,68,69.52,20,6,0,29.85,M,6.21,M,FEW,SCT,M,M,1700,5000,M,M,M,M,M,M,M,M,M,78.8,VVTS 040100Z 02006KT 350V050 9999 FEW017 SCT050 26/20 Q1011 NOSIG,M
VVTS,1/4/2021 1:30,106.6667,10.8167,80.6,68,65.54,40,4,0,29.88,M,6.21,M,FEW,SCT,M,M,1700,5000,M,M,M,M,M,M,M,M,M,83.29,VVTS 040130Z 04004KT 350V060 9999 FEW017 SCT050 27/20 Q1012 NOSIG,M
VVTS,1/4/2021 2:00,106.6667,10.8167,82.4,68,61.81,M,3,0,29.88,M,6.21,M,FEW,SCT,M,M,1700,5000,M,M,M,M,M,M,M,M,M,85.38,VVTS 040200Z VRB03KT 9999 FEW017 SCT050 28/20 Q1012 NOSIG,M
VVTS,1/4/2021 2:30,106.6667,10.8167,84.2,68,58.32,M,2,0,29.88,M,6.21,M,FEW,SCT,M,M,1700,5000,M,M,M,M,M,M,M,M,M,87.4,VVTS 040230Z VRB02KT 9999 FEW017 SCT050 29/20 Q1012 NOSIG,M
VVTS,1/4/2021 3:00,106.6667,10.8167,84.2,66.2,54.8,50,3,0,29.88,M,6.21,M,FEW,SCT,M,M,1700,5000,M,M,M,M,M,M,M,M,M,86.5,VVTS 040300Z 05003KT 9999 FEW017 SCT050 29/19 Q1012 NOSIG,M
VVTS,1/4/2021 3:30,106.6667,10.8167,84.2,66.2,54.8,M,3,0,29.85,M,6.21,M,FEW,SCT,M,M,1700,5000,M,M,M,M,M,M,M,M,M,86.5,VVTS 040330Z VRB03KT 9999 FEW017 SCT050 29/19 Q1011 NOSIG,M
VVTS,1/4/2021 4:00,106.6667,10.8167,86,66.2,51.72,M,2,0,29.85,M,6.21,M,FEW,M,M,M,2000,M,M,M,M,M,M,M,M,M,M,88.39,VVTS 040400Z VRB02KT 9999 FEW020 30/19 Q1011 NOSIG,M
VVTS,1/4/2021 4:30,106.6667,10.8167,87.8,66.2,48.84,50,4,0,29.83,M,6.21,M,FEW,M,M,M,2000,M,M,M,M,M,M,M,M,M,M,90.31,VVTS 040430Z 05004KT 340V120 9999 FEW020 31/19 Q1010 NOSIG,M
VVTS,1/4/2021 5:00,106.6667,10.8167,91.4,66.2,43.61,M,3,0,29.83,M,6.21,M,FEW,M,M,M,2000,M,M,M,M,M,M,M,M,M,M,94.29,VVTS 040500Z VRB03KT 9999 FEW020 33/19 Q1010 NOSIG,M
VVTS,1/4/2021 5:30,106.6667,10.8167,91.4,66.2,43.61,80,4,0,29.8,M,6.21,M,FEW,M,M,M,2000,M,M,M,M,M,M,M,M,M,M,94.29,VVTS 040530Z 08004KT 9999 FEW020 33/19 Q1009 NOSIG,M
VVTS,1/4/2021 6:00,106.6667,10.8167,91.4,64.4,40.96,50,4,0,29.77,M,6.21,M,FEW,M,M,M,2000,M,M,M,M,M,M,M,M,M,M,93.19,VVTS 040600Z 05004KT 340V130 9999 FEW020 33/18 Q1008 NOSIG,M
VVTS,1/4/2021 6:30,106.6667,10.8167,91.4,66.2,43.61,100,5,0,29.77,M,6.21,M,SCT,M,M,M,2000,M,M,M,M,M,M,M,M,M,M,94.29,VVTS 040630Z 10005KT 030V170 9999 SCT020 33/19 Q1008 NOSIG,M
VVTS,1/4/2021 7:00,106.6667,10.8167,89.6,66.2,46.14,60,5,0,29.74,M,6.21,M,SCT,M,M,M,2000,M,M,M,M,M,M,M,M,M,M,92.27,VVTS 040700Z 06005KT 030V110 9999 SCT020 32/19 Q1007 NOSIG,M
VVTS,1/4/2021 7:30,106.6667,10.8167,89.6,66.2,46.14,70,6,0,29.74,M,6.21,M,SCT,M,M,M,2000,M,M,M,M,M,M,M,M,M,M,92.27,VVTS 040730Z 07006KT 030V100 9999 SCT020 32/19 Q1007 NOSIG,M
VVTS,1/4/2021 8:00,106.6667,10.8167,89.6,66.2,46.14,60,6,0,29.74,M,6.21,M,SCT,M,M,M,2000,M,M,M,M,M,M,M,M,M,M,92.27,VVTS 040800Z 06006KT 040V100 9999 SCT020 32/19 Q1007 NOSIG,M
VVTS,1/4/2021 8:30,106.6667,10.8167,89.6,68,49.1,60,5,0,29.74,M,6.21,M,FEW,SCT,M,M,2000,5000,M,M,M,M,M,M,M,M,M,93.47,VVTS 040830Z 06005KT 030V110 9999 FEW020 SCT050 32/20 Q1007 NOSIG,M
VVTS,1/4/2021 9:00,106.6667,10.8167,89.6,68,49.1,80,6,0,29.74,M,6.21,M,FEW,SCT,M,M,2000,5000,M,M,M,M,M,M,M,M,M,93.47,VVTS 040900Z 08006KT 040V110 9999 FEW020 SCT050 32/20 Q1007 NOSIG,M
VVTS,1/4/2021 9:30,106.6667,10.8167,87.8,66.2,48.84,100,4,0,29.74,M,6.21,M,FEW,SCT,M,M,2000,5000,M,M,M,M,M,M,M,M,M,90.31,VVTS 040930Z 10004KT 070V130 9999 FEW020 SCT050 31/19 Q1007 NOSIG,M
VVTS,1/4/2021 10:00,106.6667,10.8167,87.8,68,51.98,100,7,0,29.77,M,6.21,M,FEW,BKN,M,M,1700,5000,M,M,M,M,M,M,M,M,M,91.43,VVTS 041000Z 10007KT 080V140 9999 FEW017 BKN050 31/20 Q1008 NOSIG,M
VVTS,1/4/2021 10:30,106.6667,10.8167,86,68,55.04,100,6,0,29.77,M,4.97,M,FEW,BKN,M,M,1700,5000,M,M,M,M,M,M,M,M,M,89.41,VVTS 041030Z 10006KT 8000 FEW017 BKN050 30/20 Q1008 NOSIG,M
VVTS,1/4/2021 11:00,106.6667,10.8167,86,68,55.04,90,5,0,29.8,M,4.97,M,SCT,SCT,M,M,1700,5000,M,M,M,M,M,M,M,M,M,89.41,VVTS 041100Z 09005KT 8000 SCT017 SCT050 30/20 Q1009 NOSIG,M
VVTS,1/4/2021 11:30,106.6667,10.8167,84.2,73.4,70.08,130,4,0,29.8,M,4.97,M,SCT,SCT,M,M,1500,5000,M,M,#NAME?,M,M,M,M,M,M,90.94,VVTS 041130Z 13004KT 090V160 8000 -RA SCT015 SCT050 29/23 Q1009 NOSIG,M
VVTS,1/4/2021 12:00,106.6667,10.8167,82.4,77,83.77,110,4,0,29.8,M,4.97,M,SCT,FEW,BKN,M,1500,1700,5000,M,#NAME?,M,M,M,M,M,M,90.85,VVTS 041200Z 11004KT 070V210 8000 -SHRA SCT015 FEW017TCU BKN050 28/25 Q1009 NOSIG RMK TCU OVER RWY,M
VVTS,1/4/2021 12:30,106.6667,10.8167,82.4,73.4,74.28,50,4,0,29.83,M,6.21,M,SCT,BKN,M,M,1700,5000,M,M,M,M,M,M,M,M,M,88.26,VVTS 041230Z 05004KT 9999 SCT017 BKN050 28/23 Q1010 NOSIG,M
VVTS,1/4/2021 13:00,106.6667,10.8167,80.6,73.4,78.76,40,9,0,29.83,M,6.21,M,SCT,FEW,BKN,M,1500,1700,5000,M,M,M,M,M,M,M,M,85.32,VVTS 041300Z 04009KT 9999 SCT015 FEW017CB BKN050 27/23 Q1010 NOSIG RMK CB OVER RWY,M
VVTS,1/4/2021 13:30,106.6667,10.8167,80.6,73.4,78.76,50,8,0,29.83,M,6.21,M,SCT,FEW,BKN,M,1500,1700,5000,M,M,M,M,M,M,M,M,85.32,VVTS 041330Z 05008KT 9999 SCT015 FEW017CB BKN050 27/23 Q1010 NOSIG RMK CB/SW,M
VVTS,1/4/2021 14:00,106.6667,10.8167,80.6,73.4,78.76,60,5,0,29.85,M,6.21,M,SCT,FEW,BKN,M,1500,1700,5000,M,M,M,M,M,M,M,M,85.32,VVTS 041400Z 06005KT 9999 SCT015 FEW017CB BKN050 27/23 Q1011 NOSIG RMK CB/SW,M
VVTS,1/4/2021 14:30,106.6667,10.8167,78.8,73.4,83.55,M,2,0,29.85,M,6.21,M,SCT,BKN,M,M,1700,5000,M,M,M,M,M,M,M,M,M,78.8,VVTS 041430Z VRB02KT 9999 SCT017 BKN050 26/23 Q1011 NOSIG,M
VVTS,1/4/2021 15:00,106.6667,10.8167,78.8,73.4,83.55,20,5,0,29.85,M,6.21,M,SCT,BKN,M,M,1700,5000,M,M,M,M,M,M,M,M,M,78.8,VVTS 041500Z 02005KT 340V040 9999 SCT017 BKN050 26/23 Q1011 NOSIG,M
VVTS,1/4/2021 15:30,106.6667,10.8167,78.8,73.4,83.55,M,3,0,29.83,M,6.21,M,SCT,BKN,M,M,1700,5000,M,M,M,M,M,M,M,M,M,78.8,VVTS 041530Z VRB03KT 9999 SCT017 BKN050 26/23 Q1010 NOSIG,M
VVTS,1/4/2021 16:00,106.6667,10.8167,77,73.4,88.67,M,1,0,29.83,M,6.21,M,SCT,BKN,M,M,1700,5000,M,M,M,M,M,M,M,M,M,77,VVTS 041600Z VRB01KT 9999 SCT017 BKN050 25/23 Q1010 NOSIG,M
VVTS,1/4/2021 16:30,106.6667,10.8167,78.8,71.6,78.62,350,4,0,29.83,M,6.21,M,SCT,BKN,M,M,1700,5000,M,M,M,M,M,M,M,M,M,78.8,VVTS 041630Z 35004KT 9999 SCT017 BKN050 26/22 Q1010 NOSIG,M
VVTS,1/4/2021 17:00,106.6667,10.8167,78.8,71.6,78.62,10,5,0,29.83,M,4.97,M,FEW,BKN,M,M,1700,5000,M,M,M,M,M,M,M,M,M,78.8,VVTS 041700Z 01005KT 8000 FEW017 BKN050 26/22 Q1010 NOSIG,M
VVTS,1/4/2021 17:30,106.6667,10.8167,77,71.6,83.44,10,4,0,29.83,M,4.97,M,FEW,BKN,M,M,1700,5000,M,M,M,M,M,M,M,M,M,77,VVTS 041730Z 01004KT 8000 FEW017 BKN050 25/22 Q1010 NOSIG,M
VVTS,1/4/2021 18:00,106.6667,10.8167,77,71.6,83.44,30,4,0,29.83,M,5.59,M,FEW,BKN,M,M,2000,5000,M,M,M,M,M,M,M,M,M,77,VVTS 041800Z 03004KT 350V050 9000 FEW020 BKN050 25/22 Q1010 NOSIG,M
VVTS,1/4/2021 18:30,106.6667,10.8167,77,71.6,83.44,M,2,0,29.8,M,4.97,M,FEW,BKN,M,M,1700,5000,M,M,M,M,M,M,M,M,M,77,VVTS 041830Z VRB02KT 8000 FEW017 BKN050 25/22 Q1009 NOSIG,M
VVTS,1/4/2021 19:00,106.6667,10.8167,77,71.6,83.44,M,2,0,29.8,M,4.97,M,FEW,BKN,M,M,1700,5000,M,M,M,M,M,M,M,M,M,77,VVTS 041900Z VRB02KT 8000 FEW017 BKN050 25/22 Q1009 NOSIG,M
VVTS,1/4/2021 19:30,106.6667,10.8167,77,69.8,78.48,360,3,0,29.8,M,4.97,M,FEW,BKN,M,M,1700,5000,M,M,M,M,M,M,M,M,M,77,VVTS 041930Z 36003KT 8000 FEW017 BKN050 25/21 Q1009 NOSIG,M
VVTS,1/4/2021 20:00,106.6667,10.8167,77,71.6,83.44,10,4,0,29.8,M,4.97,M,M,M,M,M,M,M,M,M,,M,M,M,M,M,M,77,VVTS 042000Z 01004KT 350V050 8000 ////// 25/22 Q1009 NOSIG,M
VVTS,1/4/2021 20:30,106.6667,10.8167,77,69.8,78.48,10,4,0,29.8,M,5.59,M,FEW,SCT,M,M,2000,5000,M,M,M,M,M,M,M,M,M,77,VVTS 042030Z 01004KT 9000 FEW020 SCT050 25/21 Q1009 NOSIG,M
VVTS,1/4/2021 21:00,106.6667,10.8167,77,69.8,78.48,10,4,0,29.8,M,5.59,M,FEW,SCT,M,M,2000,5000,M,M,M,M,M,M,M,M,M,77,VVTS 042100Z 01004KT 340V040 9000 FEW020 SCT050 25/21 Q1009 NOSIG,M
VVTS,1/4/2021 21:30,106.6667,10.8167,75.2,69.8,83.32,20,3,0,29.8,M,5.59,M,FEW,SCT,M,M,2000,5000,M,M,M,M,M,M,M,M,M,75.2,VVTS 042130Z 02003KT 9000 FEW020 SCT050 24/21 Q1009 NOSIG,M
VVTS,1/4/2021 22:00,106.6667,10.8167,75.2,69.8,83.32,M,3,0,29.83,M,5.59,M,FEW,SCT,M,M,2000,5000,M,M,M,M,M,M,M,M,M,75.2,VVTS 042200Z VRB03KT 9000 FEW020 SCT050 24/21 Q1010 NOSIG,M
VVTS,1/4/2021 22:30,106.6667,10.8167,75.2,69.8,83.32,10,2,0,29.8,M,5.59,M,FEW,SCT,M,M,2000,5000,M,M,M,M,M,M,M,M,M,75.2,VVTS 042230Z 01002KT 9000 FEW020 SCT050 24/21 Q1009 NOSIG,M
VVTS,1/4/2021 23:00,106.6667,10.8167,75.2,69.8,83.32,30,3,0,29.83,M,4.97,M,FEW,SCT,M,M,1700,5000,M,M,M,M,M,M,M,M,M,75.2,VVTS 042300Z 03003KT 8000 FEW017 SCT050 24/21 Q1010 NOSIG,M
VVTS,1/4/2021 23:30,106.6667,10.8167,75.2,69.8,83.32,M,2,0,29.83,M,4.97,M,FEW,SCT,M,M,1700,5000,M,M,M,M,M,M,M,M,M,75.2,VVTS 042330Z VRB02KT 8000 FEW017 SCT050 24/21 Q1010 NOSIG,M
VVTS,1/5/2021 0:00,106.6667,10.8167,75.2,71.6,88.59,M,2,0,29.85,M,4.97,M,FEW,M,M,M,1700,M,M,M,M,M,M,M,M,M,M,75.2,VVTS 050000Z VRB02KT 8000 FEW017 24/22 Q1011 NOSIG,M
VVTS,1/5/2021 0:30,106.6667,10.8167,78.8,69.8,73.95,M,2,0,29.85,M,6.21,M,FEW,M,M,M,1700,M,M,M,M,M,M,M,M,M,M,78.8,VVTS 050030Z VRB02KT 9999 FEW017 26/21 Q1011 NOSIG,M
VVTS,1/5/2021 1:00,106.6667,10.8167,78.8,71.6,78.62,60,4,0,29.88,M,6.21,M,FEW,M,M,M,1700,M,M,M,M,M,M,M,M,M,M,78.8,VVTS 050100Z 06004KT 040V100 9999 FEW017 26/22 Q1012 NOSIG,M
VVTS,1/5/2021 1:30,106.6667,10.8167,80.6,71.6,74.11,60,4,0,29.88,M,6.21,M,FEW,M,M,M,1700,M,M,M,M,M,M,M,M,M,M,84.57,VVTS 050130Z 06004KT 030V090 9999 FEW017 27/22 Q1012 NOSIG,M
VVTS,1/5/2021 2:00,106.6667,10.8167,82.4,71.6,69.9,20,4,0,29.88,M,6.21,M,FEW,M,M,M,1700,M,M,M,M,M,M,M,M,M,M,87.18,VVTS 050200Z 02004KT 340V070 9999 FEW017 28/22 Q1012 NOSIG,M
VVTS,1/5/2021 2:30,106.6667,10.8167,84.2,71.6,65.95,M,3,0,29.88,M,6.21,M,FEW,SCT,M,M,1700,5000,M,M,M,M,M,M,M,M,M,89.6,VVTS 050230Z VRB03KT 9999 FEW017 SCT050 29/22 Q1012 NOSIG,M
VVTS,1/5/2021 3:00,106.6667,10.8167,86,71.6,62.25,M,2,0,29.88,M,6.21,M,FEW,SCT,M,M,1700,5000,M,M,M,M,M,M,M,M,M,91.92,VVTS 050300Z VRB02KT 9999 FEW017 SCT050 30/22 Q1012 NOSIG,M
VVTS,1/5/2021 3:30,106.6667,10.8167,86,69.8,58.55,M,3,0,29.85,M,6.21,M,FEW,SCT,M,M,1700,5000,M,M,M,M,M,M,M,M,M,90.58,VVTS 050330Z VRB03KT 9999 FEW017 SCT050 30/21 Q1011 NOSIG,M
VVTS,1/5/2021 4:00,106.6667,10.8167,87.8,69.8,55.29,M,2,0,29.85,M,6.21,M,FEW,SCT,M,M,1700,5000,M,M,M,M,M,M,M,M,M,92.71,VVTS 050400Z VRB02KT 9999 FEW017 SCT050 31/21 Q1011 NOSIG,M
VVTS,1/5/2021 4:30,106.6667,10.8167,87.8,68,51.98,M,4,0,29.83,M,6.21,M,SCT,SCT,M,M,1700,5000,M,M,M,M,M,M,M,M,M,91.43,VVTS 050430Z VRB04KT 9999 SCT017 SCT050 31/20 Q1010 NOSIG,M
VVTS,1/5/2021 5:00,106.6667,10.8167,87.8,69.8,55.29,M,3,0,29.83,M,6.21,M,SCT,SCT,M,M,1700,5000,M,M,M,M,M,M,M,M,M,92.71,VVTS 050500Z VRB03KT 9999 SCT017 SCT050 31/21 Q1010 NOSIG,M
VVTS,1/5/2021 5:30,106.6667,10.8167,87.8,69.8,55.29,M,4,0,29.8,M,6.21,M,SCT,SCT,M,M,1700,5000,M,M,M,M,M,M,M,M,M,92.71,VVTS 050530Z VRB04KT 9999 SCT017 SCT050 31/21 Q1009 NOSIG,M
VVTS,1/5/2021 6:00,106.6667,10.8167,87.8,69.8,55.29,M,1,0,29.8,M,6.21,M,SCT,SCT,M,M,1700,5000,M,M,M,M,M,M,M,M,M,92.71,VVTS 050600Z VRB01KT 9999 SCT017 SCT050 31/21 Q1009 NOSIG,M
VVTS,1/5/2021 6:30,106.6667,10.8167,89.6,68,49.1,80,4,0,29.77,M,6.21,M,SCT,BKN,M,M,1700,5000,M,M,M,M,M,M,M,M,M,93.47,VVTS 050630Z 08004KT 330V120 9999 SCT017 BKN050 32/20 Q1008 NOSIG,M
VVTS,1/5/2021 7:00,106.6667,10.8167,89.6,68,49.1,M,3,0,29.77,M,6.21,M,SCT,BKN,M,M,1700,5000,M,M,M,M,M,M,M,M,M,93.47,VVTS 050700Z VRB03KT 9999 SCT017 BKN050 32/20 Q1008 NOSIG,M
VVTS,1/5/2021 7:30,106.6667,10.8167,89.6,66.2,46.14,M,3,0,29.77,M,6.21,M,SCT,BKN,M,M,1700,5000,M,M,M,M,M,M,M,M,M,92.27,VVTS 050730Z VRB03KT 9999 SCT017 BKN050 32/19 Q1008 NOSIG,M
VVTS,1/5/2021 8:00,106.6667,10.8167,87.8,66.2,48.84,60,4,0,29.77,M,6.21,M,SCT,BKN,M,M,1700,5000,M,M,M,M,M,M,M,M,M,90.31,VVTS 050800Z 06004KT 9999 SCT017 BKN050 31/19 Q1008 NOSIG,M
VVTS,1/5/2021 8:30,106.6667,10.8167,87.8,68,51.98,90,5,0,29.77,M,6.21,M,SCT,BKN,M,M,1700,5000,M,M,M,M,M,M,M,M,M,91.43,VVTS 050830Z 09005KT 9999 SCT017 BKN050 31/20 Q1008 NOSIG,M
VVTS,1/5/2021 9:00,106.6667,10.8167,86,73.4,66.15,130,6,0,29.77,M,6.21,M,SCT,BKN,M,M,1700,5000,M,M,M,M,M,M,M,M,M,93.45,VVTS 050900Z 13006KT 080V210 9999 SCT017 BKN050 30/23 Q1008 NOSIG,M
VVTS,1/5/2021 9:30,106.6667,10.8167,84.2,75.2,74.44,180,8,0,29.8,M,6.21,M,FEW,BKN,M,M,1700,5000,M,M,M,M,M,M,M,M,M,92.45,VVTS 050930Z 18008KT 150V220 9999 FEW017 BKN050 29/24 Q1009 NOSIG,M
VVTS,1/5/2021 10:00,106.6667,10.8167,82.4,75.2,78.9,190,6,0,29.8,M,6.21,M,FEW,BKN,M,M,1500,5000,M,M,M,M,M,M,M,M,M,89.48,VVTS 051000Z 19006KT 150V230 9999 FEW015 BKN050 28/24 Q1009 NOSIG,M
VVTS,1/5/2021 10:30,106.6667,10.8167,82.4,75.2,78.9,170,5,0,29.8,M,6.21,M,FEW,FEW,BKN,M,1500,1700,5000,M,M,M,M,M,M,M,M,89.48,VVTS 051030Z 17005KT 070V240 9999 FEW015 FEW017TCU BKN050 28/24 Q1009 NOSIG RMK TCU/NE,M
VVTS,1/5/2021 11:00,106.6667,10.8167,82.4,75.2,78.9,M,3,0,29.83,M,6.21,M,FEW,BKN,M,M,1500,5000,M,M,M,M,M,M,M,M,M,89.48,VVTS 051100Z VRB03KT 9999 FEW015 BKN050 28/24 Q1010 NOSIG,M
VVTS,1/5/2021 11:30,106.6667,10.8167,82.4,75.2,78.9,M,2,0,29.83,M,6.21,M,FEW,BKN,M,M,1500,5000,M,M,M,M,M,M,M,M,M,89.48,VVTS 051130Z VRB02KT 9999 FEW015 BKN050 28/24 Q1010 NOSIG,M
VVTS,1/5/2021 12:00,106.6667,10.8167,82.4,75.2,78.9,M,2,0,29.83,M,6.21,M,FEW,BKN,M,M,1500,5000,M,M,M,M,M,M,M,M,M,89.48,VVTS 051200Z VRB02KT 9999 FEW015 BKN050 28/24 Q1010 NOSIG,M
VVTS,1/5/2021 12:30,106.6667,10.8167,82.4,75.2,78.9,M,1,0,29.83,M,6.21,M,FEW,BKN,M,M,1500,5000,M,M,M,M,M,M,M,M,M,89.48,VVTS 051230Z VRB01KT 9999 FEW015 BKN050 28/24 Q1010 NOSIG,M
VVTS,1/5/2021 13:00,106.6667,10.8167,80.6,77,88.83,60,1,0,29.83,M,6.21,M,FEW,BKN,M,M,1500,5000,M,M,M,M,M,M,M,M,M,87.59,VVTS 051300Z 06001KT 9999 FEW015 BKN050 27/25 Q1010 NOSIG,M
VVTS,1/5/2021 13:30,106.6667,10.8167,82.4,75.2,78.9,M,3,0,29.83,M,6.21,M,FEW,BKN,M,M,1500,5000,M,M,M,M,M,M,M,M,M,89.48,VVTS 051330Z VRB03KT 9999 FEW015 BKN050 28/24 Q1010 NOSIG,M
VVTS,1/5/2021 14:00,106.6667,10.8167,80.6,77,88.83,340,5,0,29.83,M,6.21,M,FEW,BKN,M,M,1500,5000,M,M,M,M,M,M,M,M,M,87.59,VVTS 051400Z 34005KT 9999 FEW015 BKN050 27/25 Q1010 NOSIG,M
VVTS,1/5/2021 14:30,106.6667,10.8167,80.6,75.2,83.66,350,6,0,29.83,M,6.21,M,FEW,BKN,M,M,1500,5000,M,M,M,M,M,M,M,M,M,86.17,VVTS 051430Z 35006KT 320V030 9999 FEW015 BKN050 27/24 Q1010 NOSIG,M
VVTS,1/5/2021 15:00,106.6667,10.8167,80.6,69.8,69.71,30,5,0,29.83,M,6.21,M,FEW,BKN,M,M,1500,5000,M,M,M,M,M,M,M,M,M,83.9,VVTS 051500Z 03005KT 9999 FEW015 BKN050 27/21 Q1010 NOSIG,M
VVTS,1/5/2021 15:30,106.6667,10.8167,80.6,69.8,69.71,40,4,0,29.83,M,6.21,M,FEW,BKN,M,M,1500,5000,M,M,M,M,M,M,M,M,M,83.9,VVTS 051530Z 04004KT 9999 FEW015 BKN050 27/21 Q1010 NOSIG,M
VVTS,1/5/2021 16:00,106.6667,10.8167,78.8,69.8,73.95,50,5,0,29.83,M,6.21,M,FEW,BKN,M,M,1500,5000,M,M,M,M,M,M,M,M,M,78.8,VVTS 051600Z 05005KT 9999 FEW015 BKN050 26/21 Q1010 NOSIG,M
VVTS,1/5/2021 16:30,106.6667,10.8167,78.8,69.8,73.95,50,5,0,29.83,M,6.21,M,FEW,BKN,M,M,1500,5000,M,M,M,M,M,M,M,M,M,78.8,VVTS 051630Z 05005KT 9999 FEW015 BKN050 26/21 Q1010 NOSIG,M
VVTS,1/5/2021 17:00,106.6667,10.8167,78.8,69.8,73.95,50,4,0,29.83,M,6.21,M,FEW,BKN,M,M,1500,5000,M,M,M,M,M,M,M,M,M,78.8,VVTS 051700Z 05004KT 9999 FEW015 BKN050 26/21 Q1010 NOSIG,M
VVTS,1/5/2021 17:30,106.6667,10.8167,77,69.8,78.48,70,4,0,29.83,M,6.21,M,FEW,BKN,M,M,1500,5000,M,M,M,M,M,M,M,M,M,77,VVTS 051730Z 07004KT 9999 FEW015 BKN050 25/21 Q1010 NOSIG,M
VVTS,1/5/2021 18:00,106.6667,10.8167,77,69.8,78.48,60,4,0,29.8,M,6.21,M,FEW,BKN,M,M,1500,5000,M,M,M,M,M,M,M,M,M,77,VVTS 051800Z 06004KT 9999 FEW015 BKN050 25/21 Q1009 NOSIG,M
VVTS,1/5/2021 18:30,106.6667,10.8167,77,69.8,78.48,50,4,0,29.8,M,6.21,M,FEW,SCT,M,M,1500,5000,M,M,M,M,M,M,M,M,M,77,VVTS 051830Z 05004KT 9999 FEW015 SCT050 25/21 Q1009 NOSIG,M
VVTS,1/5/2021 19:00,106.6667,10.8167,77,69.8,78.48,50,5,0,29.8,M,6.21,M,FEW,SCT,M,M,1500,5000,M,M,M,M,M,M,M,M,M,77,VVTS 051900Z 05005KT 010V070 9999 FEW015 SCT050 25/21 Q1009 NOSIG,M
VVTS,1/5/2021 19:30,106.6667,10.8167,77,69.8,78.48,60,6,0,29.8,M,6.21,M,FEW,SCT,M,M,1500,5000,M,M,M,M,M,M,M,M,M,77,VVTS 051930Z 06006KT 9999 FEW015 SCT050 25/21 Q1009 NOSIG,M
VVTS,1/5/2021 20:00,106.6667,10.8167,77,69.8,78.48,70,6,0,29.77,M,6.21,M,FEW,SCT,M,M,1500,5000,M,M,M,M,M,M,M,M,M,77,VVTS 052000Z 07006KT 9999 FEW015 SCT050 25/21 Q1008 NOSIG,M
VVTS,1/5/2021 20:30,106.6667,10.8167,77,69.8,78.48,70,4,0,29.77,M,6.21,M,FEW,SCT,M,M,1500,5000,M,M,M,M,M,M,M,M,M,77,VVTS 052030Z 07004KT 9999 FEW015 SCT050 25/21 Q1008 NOSIG,M
VVTS,1/5/2021 21:00,106.6667,10.8167,77,68,73.78,50,5,0,29.8,M,6.21,M,FEW,SCT,M,M,1500,5000,M,M,M,M,M,M,M,M,M,77,VVTS 052100Z 05005KT 9999 FEW015 SCT050 25/20 Q1009 NOSIG,M
VVTS,1/5/2021 21:30,106.6667,10.8167,77,69.8,78.48,60,5,0,29.8,M,6.21,M,FEW,SCT,M,M,1500,5000,M,M,M,M,M,M,M,M,M,77,VVTS 052130Z 06005KT 9999 FEW015 SCT050 25/21 Q1009 NOSIG,M
VVTS,1/5/2021 22:00,106.6667,10.8167,77,68,73.78,50,5,0,29.8,M,6.21,M,FEW,BKN,M,M,1500,5000,M,M,M,M,M,M,M,M,M,77,VVTS 052200Z 05005KT 9999 FEW015 BKN050 25/20 Q1009 NOSIG,M
VVTS,1/5/2021 22:30,106.6667,10.8167,75.2,68,78.34,50,3,0,29.8,M,6.21,M,FEW,BKN,M,M,1500,5000,M,M,M,M,M,M,M,M,M,75.2,VVTS 052230Z 05003KT 9999 FEW015 BKN050 24/20 Q1009 NOSIG,M
VVTS,1/5/2021 23:00,106.6667,10.8167,75.2,68,78.34,60,3,0,29.8,M,6.21,M,FEW,BKN,M,M,1500,5000,M,M,M,M,M,M,M,M,M,75.2,VVTS 052300Z 06003KT 9999 FEW015 BKN050 24/20 Q1009 NOSIG,M
VVTS,1/5/2021 23:30,106.6667,10.8167,75.2,69.8,83.32,70,5,0,29.83,M,6.21,M,FEW,BKN,M,M,1500,5000,M,M,M,M,M,M,M,M,M,75.2,VVTS 052330Z 07005KT 9999 FEW015 BKN050 24/21 Q1010 NOSIG,M
VVTS,1/6/2021 0:00,106.6667,10.8167,78.8,69.8,73.95,60,4,0,29.83,M,6.21,M,FEW,SCT,M,M,1500,5000,M,M,M,M,M,M,M,M,M,78.8,VVTS 060000Z 06004KT 020V090 9999 FEW015 SCT050 26/21 Q1010 NOSIG,M
VVTS,1/6/2021 0:30,106.6667,10.8167,78.8,69.8,73.95,M,3,0,29.83,M,6.21,M,FEW,SCT,M,M,1500,5000,M,M,M,M,M,M,M,M,M,78.8,VVTS 060030Z VRB03KT 9999 FEW015 SCT050 26/21 Q1010 NOSIG,M
VVTS,1/6/2021 1:00,106.6667,10.8167,80.6,69.8,69.71,90,4,0,29.85,M,6.21,M,FEW,SCT,M,M,1500,5000,M,M,M,M,M,M,M,M,M,83.9,VVTS 060100Z 09004KT 030V130 9999 FEW015 SCT050 27/21 Q1011 NOSIG,M
VVTS,1/6/2021 1:30,106.6667,10.8167,82.4,69.8,65.74,90,6,0,29.85,M,6.21,M,FEW,SCT,M,M,1500,5000,M,M,M,M,M,M,M,M,M,86.22,VVTS 060130Z 09006KT 050V140 9999 FEW015 SCT050 28/21 Q1011 NOSIG,M
VVTS,1/6/2021 2:00,106.6667,10.8167,82.4,69.8,65.74,100,6,0,29.85,M,6.21,M,FEW,SCT,M,M,1500,5000,M,M,M,M,M,M,M,M,M,86.22,VVTS 060200Z 10006KT 060V140 9999 FEW015 SCT050 28/21 Q1011 NOSIG,M
VVTS,1/6/2021 2:30,106.6667,10.8167,84.2,69.8,62.03,M,3,0,29.85,M,6.21,M,FEW,SCT,M,M,1500,5000,M,M,M,M,M,M,M,M,M,88.43,VVTS 060230Z VRB03KT 9999 FEW015 SCT050 29/21 Q1011 NOSIG,M
VVTS,1/6/2021 3:00,106.6667,10.8167,84.2,69.8,62.03,100,5,0,29.85,M,6.21,M,FEW,M,M,M,1700,M,M,M,M,M,M,M,M,M,M,88.43,VVTS 060300Z 10005KT 070V140 9999 FEW017 29/21 Q1011 NOSIG,M
VVTS,1/6/2021 3:30,106.6667,10.8167,84.2,71.6,65.95,80,4,0,29.85,M,6.21,M,FEW,SCT,M,M,1700,5000,M,M,M,M,M,M,M,M,M,89.6,VVTS 060330Z 08004KT 040V120 9999 FEW017 SCT050 29/22 Q1011 NOSIG,M
VVTS,1/6/2021 4:00,106.6667,10.8167,86,69.8,58.55,60,4,0,29.85,M,6.21,M,FEW,SCT,M,M,1700,5000,M,M,M,M,M,M,M,M,M,90.58,VVTS 060400Z 06004KT 340V100 9999 FEW017 SCT050 30/21 Q1011 NOSIG,M
VVTS,1/6/2021 4:30,106.6667,10.8167,86,69.8,58.55,M,2,0,29.83,M,6.21,M,FEW,SCT,M,M,1700,5000,M,M,M,M,M,M,M,M,M,90.58,VVTS 060430Z VRB02KT 9999 FEW017 SCT050 30/21 Q1010 NOSIG,M
VVTS,1/6/2021 5:00,106.6667,10.8167,86,69.8,58.55,M,1,0,29.8,M,6.21,M,FEW,SCT,M,M,1700,5000,M,M,M,M,M,M,M,M,M,90.58,VVTS 060500Z VRB01KT 9999 FEW017 SCT050 30/21 Q1009 NOSIG,M
VVTS,1/6/2021 5:30,106.6667,10.8167,87.8,68,51.98,M,2,0,29.8,M,6.21,M,FEW,SCT,M,M,1700,5000,M,M,M,M,M,M,M,M,M,91.43,VVTS 060530Z VRB02KT 9999 FEW017 SCT050 31/20 Q1009 NOSIG,M
VVTS,1/6/2021 6:00,106.6667,10.8167,87.8,66.2,48.84,M,3,0,29.77,M,6.21,M,FEW,BKN,M,M,1700,5000,M,M,M,M,M,M,M,M,M,90.31,VVTS 060600Z VRB03KT 9999 FEW017 BKN050 31/19 Q1008 NOSIG,M
VVTS,1/6/2021 6:30,106.6667,10.8167,87.8,68,51.98,60,3,0,29.74,M,6.21,M,FEW,BKN,M,M,1700,5000,M,M,M,M,M,M,M,M,M,91.43,VVTS 060630Z 06003KT 9999 FEW017 BKN050 31/20 Q1007 NOSIG,M
VVTS,1/6/2021 7:00,106.6667,10.8167,89.6,69.8,52.23,M,3,0,29.74,M,6.21,M,FEW,BKN,M,M,1700,5000,M,M,M,M,M,M,M,M,M,94.85,VVTS 060700Z VRB03KT 9999 FEW017 BKN050 32/21 Q1007 NOSIG,M
VVTS,1/6/2021 7:30,106.6667,10.8167,89.6,69.8,52.23,M,3,0,29.74,M,6.21,M,FEW,BKN,M,M,1700,5000,M,M,M,M,M,M,M,M,M,94.85,VVTS 060730Z VRB03KT 9999 FEW017 BKN050 32/21 Q1007 NOSIG,M
VVTS,1/6/2021 8:00,106.6667,10.8167,89.6,66.2,46.14,M,3,0,29.71,M,6.21,M,FEW,BKN,M,M,1700,5000,M,M,M,M,M,M,M,M,M,92.27,VVTS 060800Z VRB03KT 9999 FEW017 BKN050 32/19 Q1006 NOSIG,M
VVTS,1/6/2021 8:30,106.6667,10.8167,87.8,68,51.98,360,4,0,29.71,M,6.21,M,FEW,BKN,M,M,1700,5000,M,M,M,M,M,M,M,M,M,91.43,VVTS 060830Z 36004KT 320V080 9999 FEW017 BKN050 31/20 Q1006 NOSIG,M
VVTS,1/6/2021 9:00,106.6667,10.8167,87.8,68,51.98,M,3,0,29.71,M,6.21,M,FEW,BKN,M,M,1700,5000,M,M,M,M,M,M,M,M,M,91.43,VVTS 060900Z VRB03KT 9999 FEW017 BKN050 31/20 Q1006 NOSIG,M
VVTS,1/6/2021 9:30,106.6667,10.8167,87.8,68,51.98,M,2,0,29.74,M,6.21,M,FEW,BKN,M,M,1700,5000,M,M,M,M,M,M,M,M,M,91.43,VVTS 060930Z VRB02KT 9999 FEW017 BKN050 31/20 Q1007 NOSIG,M
VVTS,1/6/2021 10:00,106.6667,10.8167,87.8,68,51.98,M,2,0,29.74,M,6.21,M,FEW,BKN,M,M,1700,5000,M,M,M,M,M,M,M,M,M,91.43,VVTS 061000Z VRB02KT 9999 FEW017 BKN050 31/20 Q1007 NOSIG,M
VVTS,1/6/2021 10:30,106.6667,10.8167,86,68,55.04,M,3,0,29.74,M,6.21,M,FEW,BKN,M,M,1700,5000,M,M,M,M,M,M,M,M,M,89.41,VVTS 061030Z VRB03KT 9999 FEW017 BKN050 30/20 Q1007 NOSIG,M
VVTS,1/6/2021 11:00,106.6667,10.8167,84.2,75.2,74.44,190,5,0,29.77,M,6.21,M,FEW,BKN,M,M,1700,5000,M,M,M,M,M,M,M,M,M,92.45,VVTS 061100Z 19005KT 130V270 9999 FEW017 BKN050 29/24 Q1008 NOSIG,M
VVTS,1/6/2021 11:30,106.6667,10.8167,84.2,73.4,70.08,180,4,0,29.77,M,6.21,M,FEW,BKN,M,M,1700,5000,M,M,M,M,M,M,M,M,M,90.94,VVTS 061130Z 18004KT 150V210 9999 FEW017 BKN050 29/23 Q1008 NOSIG,M
VVTS,1/6/2021 12:00,106.6667,10.8167,84.2,75.2,74.44,180,4,0,29.77,M,6.21,M,FEW,BKN,M,M,1700,5000,M,M,M,M,M,M,M,M,M,92.45,VVTS 061200Z 18004KT 150V210 9999 FEW017 BKN050 29/24 Q1008 NOSIG,M
VVTS,1/6/2021 12:30,106.6667,10.8167,82.4,75.2,78.9,M,3,0,29.77,M,6.21,M,SCT,SCT,M,M,1700,5000,M,M,M,M,M,M,M,M,M,89.48,VVTS 061230Z VRB03KT 9999 SCT017 SCT050 28/24 Q1008 NOSIG,M
VVTS,1/6/2021 13:00,106.6667,10.8167,82.4,75.2,78.9,M,3,0,29.8,M,6.21,M,SCT,SCT,M,M,1700,5000,M,M,M,M,M,M,M,M,M,89.48,VVTS 061300Z VRB03KT 9999 SCT017 SCT050 28/24 Q1009 NOSIG,M
VVTS,1/6/2021 13:30,106.6667,10.8167,82.4,75.2,78.9,M,2,0,29.8,M,6.21,M,SCT,SCT,M,M,1700,5000,M,M,M,M,M,M,M,M,M,89.48,VVTS 061330Z VRB02KT 9999 SCT017 SCT050 28/24 Q1009 NOSIG,M
VVTS,1/6/2021 14:00,106.6667,10.8167,82.4,75.2,78.9,120,6,0,29.8,M,6.21,M,SCT,SCT,M,M,1700,5000,M,M,M,M,M,M,M,M,M,89.48,VVTS 061400Z 12006KT 9999 SCT017 SCT050 28/24 Q1009 NOSIG,M
VVTS,1/6/2021 14:30,106.6667,10.8167,80.6,75.2,83.66,110,4,0,29.8,M,6.21,M,SCT,SCT,M,M,1700,5000,M,M,M,M,M,M,M,M,M,86.17,VVTS 061430Z 11004KT 060V170 9999 SCT017 SCT050 27/24 Q1009 NOSIG,M
VVTS,1/6/2021 15:00,106.6667,10.8167,80.6,75.2,83.66,70,4,0,29.8,M,6.21,M,FEW,SCT,M,M,1700,5000,M,M,M,M,M,M,M,M,M,86.17,VVTS 061500Z 07004KT 030V090 9999 FEW017 SCT050 27/24 Q1009 NOSIG,M
VVTS,1/6/2021 15:30,106.6667,10.8167,80.6,73.4,78.76,90,4,0,29.8,M,6.21,M,FEW,SCT,M,M,1700,5000,M,M,M,M,M,M,M,M,M,85.32,VVTS 061530Z 09004KT 9999 FEW017 SCT050 27/23 Q1009 NOSIG,M
VVTS,1/6/2021 16:00,106.6667,10.8167,80.6,71.6,74.11,80,2,0,29.8,M,6.21,M,FEW,BKN,M,M,1700,5000,M,M,M,M,M,M,M,M,M,84.57,VVTS 061600Z 08002KT 9999 FEW017 BKN050 27/22 Q1009 NOSIG,M
VVTS,1/6/2021 16:30,106.6667,10.8167,80.6,71.6,74.11,20,3,0,29.8,M,6.21,M,FEW,BKN,M,M,1700,5000,M,M,M,M,M,M,M,M,M,84.57,VVTS 061630Z 02003KT 9999 FEW017 BKN050 27/22 Q1009 NOSIG,M
VVTS,1/6/2021 17:00,106.6667,10.8167,78.8,71.6,78.62,10,3,0,29.8,M,6.21,M,FEW,BKN,M,M,1700,5000,M,M,M,M,M,M,M,M,M,78.8,VVTS 061700Z 01003KT 9999 FEW017 BKN050 26/22 Q1009 NOSIG,M
VVTS,1/6/2021 17:30,106.6667,10.8167,78.8,71.6,78.62,M,2,0,29.8,M,6.21,M,FEW,BKN,M,M,1700,5000,M,M,M,M,M,M,M,M,M,78.8,VVTS 061730Z VRB02KT 9999 FEW017 BKN050 26/22 Q1009 NOSIG,M
VVTS,1/6/2021 18:00,106.6667,10.8167,78.8,71.6,78.62,50,3,0,29.8,M,6.21,M,FEW,BKN,M,M,1700,5000,M,M,M,M,M,M,M,M,M,78.8,VVTS 061800Z 05003KT 9999 FEW017 BKN050 26/22 Q1009 NOSIG,M
VVTS,1/6/2021 18:30,106.6667,10.8167,78.8,71.6,78.62,60,2,0,29.8,M,6.21,M,FEW,BKN,M,M,2000,5000,M,M,M,M,M,M,M,M,M,78.8,VVTS 061830Z 06002KT 9999 FEW020 BKN050 26/22 Q1009 NOSIG,M
VVTS,1/6/2021 19:00,106.6667,10.8167,78.8,71.6,78.62,30,3,0,29.77,M,6.21,M,FEW,BKN,M,M,2000,5000,M,M,M,M,M,M,M,M,M,78.8,VVTS 061900Z 03003KT 9999 FEW020 BKN050 26/22 Q1008 NOSIG,M
VVTS,1/6/2021 19:30,106.6667,10.8167,78.8,71.6,78.62,40,3,0,29.77,M,6.21,M,FEW,BKN,M,M,2000,5000,M,M,M,M,M,M,M,M,M,78.8,VVTS 061930Z 04003KT 9999 FEW020 BKN050 26/22 Q1008 NOSIG,M
VVTS,1/6/2021 20:00,106.6667,10.8167,77,73.4,88.67,80,4,0,29.77,M,6.21,M,FEW,BKN,M,M,2000,5000,M,M,M,M,M,M,M,M,M,77,VVTS 062000Z 08004KT 9999 FEW020 BKN050 25/23 Q1008 NOSIG,M
VVTS,1/6/2021 20:30,106.6667,10.8167,77,73.4,88.67,80,4,0,29.77,M,6.21,M,FEW,BKN,M,M,2000,5000,M,M,M,M,M,M,M,M,M,77,VVTS 062030Z 08004KT 050V120 9999 FEW020 BKN050 25/23 Q1008 NOSIG,M
VVTS,1/6/2021 21:00,106.6667,10.8167,77,73.4,88.67,100,3,0,29.77,M,6.21,M,FEW,BKN,M,M,2000,5000,M,M,M,M,M,M,M,M,M,77,VVTS 062100Z 10003KT 9999 FEW020 BKN050 25/23 Q1008 NOSIG,M
VVTS,1/6/2021 21:30,106.6667,10.8167,77,73.4,88.67,90,3,0,29.77,M,6.21,M,FEW,BKN,M,M,1700,5000,M,M,M,M,M,M,M,M,M,77,VVTS 062130Z 09003KT 9999 FEW017 BKN050 25/23 Q1008 NOSIG,M
VVTS,1/6/2021 22:00,106.6667,10.8167,75.2,71.6,88.59,80,3,0,29.77,M,6.21,M,FEW,BKN,M,M,1700,5000,M,M,M,M,M,M,M,M,M,75.2,VVTS 062200Z 08003KT 9999 FEW017 BKN050 24/22 Q1008 NOSIG,M
VVTS,1/6/2021 22:30,106.6667,10.8167,77,73.4,88.67,30,1,0,29.77,M,6.21,M,FEW,BKN,M,M,1700,5000,M,M,M,M,M,M,M,M,M,77,VVTS 062230Z 03001KT 9999 FEW017 BKN050 25/23 Q1008 NOSIG,M
VVTS,1/6/2021 23:00,106.6667,10.8167,75.2,73.4,94.14,50,3,0,29.8,M,6.21,M,FEW,SCT,M,M,1700,5000,M,M,M,M,M,M,M,M,M,75.2,VVTS 062300Z 05003KT 9999 FEW017 SCT050 24/23 Q1009 NOSIG,M
VVTS,1/6/2021 23:30,106.6667,10.8167,77,73.4,88.67,50,3,0,29.8,M,4.97,M,FEW,SCT,M,M,1700,5000,M,M,M,M,M,M,M,M,M,77,VVTS 062330Z 05003KT 8000 FEW017 SCT050 25/23 Q1009 NOSIG,M
VVTS,1/7/2021 0:00,106.6667,10.8167,77,73.4,88.67,50,4,0,29.83,M,4.97,M,FEW,SCT,M,M,1700,5000,M,M,M,M,M,M,M,M,M,77,VVTS 070000Z 05004KT 8000 FEW017 SCT050 25/23 Q1010 NOSIG,M
VVTS,1/7/2021 0:30,106.6667,10.8167,78.8,73.4,83.55,50,3,0,29.83,M,4.97,M,FEW,SCT,M,M,1700,5000,M,M,M,M,M,M,M,M,M,78.8,VVTS 070030Z 05003KT 8000 FEW017 SCT050 26/23 Q1010 NOSIG,M
VVTS,1/7/2021 1:00,106.6667,10.8167,80.6,71.6,74.11,M,3,0,29.83,M,4.97,M,FEW,SCT,M,M,1700,5000,M,M,M,M,M,M,M,M,M,84.57,VVTS 070100Z VRB03KT 8000 FEW017 SCT050 27/22 Q1010 NOSIG,M
VVTS,1/7/2021 1:30,106.6667,10.8167,82.4,71.6,69.9,M,1,0,29.83,M,4.97,M,FEW,M,M,M,1700,M,M,M,M,M,M,M,M,M,M,87.18,VVTS 070130Z VRB01KT 8000 FEW017 28/22 Q1010 NOSIG,M
VVTS,1/7/2021 2:00,106.6667,10.8167,84.2,73.4,70.08,M,3,0,29.83,M,4.97,M,FEW,M,M,M,1700,M,M,M,M,M,M,M,M,M,M,90.94,VVTS 070200Z VRB03KT 8000 FEW017 29/23 Q1010 NOSIG,M
VVTS,1/7/2021 2:30,106.6667,10.8167,84.2,71.6,65.95,M,2,0,29.83,M,4.97,M,FEW,M,M,M,1700,M,M,M,M,M,M,M,M,M,M,89.6,VVTS 070230Z VRB02KT 8000 FEW017 29/22 Q1010 NOSIG,M
VVTS,1/7/2021 3:00,106.6667,10.8167,86,69.8,58.55,M,3,0,29.83,M,6.21,M,FEW,M,M,M,1700,M,M,M,M,M,M,M,M,M,M,90.58,VVTS 070300Z VRB03KT 9999 FEW017 30/21 Q1010 NOSIG,M
VVTS,1/7/2021 3:30,106.6667,10.8167,87.8,68,51.98,M,2,0,29.83,M,6.21,M,FEW,M,M,M,1700,M,M,M,M,M,M,M,M,M,M,91.43,VVTS 070330Z VRB02KT 9999 FEW017 31/20 Q1010 NOSIG,M
VVTS,1/7/2021 4:00,106.6667,10.8167,89.6,66.2,46.14,60,3,0,29.8,M,6.21,M,FEW,M,M,M,1700,M,M,M,M,M,M,M,M,M,M,92.27,VVTS 070400Z 06003KT 9999 FEW017 32/19 Q1009 NOSIG,M
VVTS,1/7/2021 4:30,106.6667,10.8167,89.6,64.4,43.34,20,4,0,29.8,M,6.21,M,FEW,M,M,M,2000,M,M,M,M,M,M,M,M,M,M,91.23,VVTS 070430Z 02004KT 320V080 9999 FEW020 32/18 Q1009 NOSIG,M
VVTS,1/7/2021 5:00,106.6667,10.8167,93.2,62.6,36.35,M,3,0,29.77,M,6.21,M,FEW,M,M,M,2000,M,M,M,M,M,M,M,M,M,M,94.2,VVTS 070500Z VRB03KT 9999 FEW020 34/17 Q1008 NOSIG,M
VVTS,1/7/2021 5:30,106.6667,10.8167,91.4,62.6,38.45,80,4,0,29.77,M,6.21,M,FEW,M,M,M,2000,M,M,M,M,M,M,M,M,M,M,92.23,VVTS 070530Z 08004KT 010V160 9999 FEW020 33/17 Q1008 NOSIG,M
VVTS,1/7/2021 6:00,106.6667,10.8167,93.2,62.6,36.35,40,6,0,29.74,M,6.21,M,SCT,M,M,M,2000,M,M,M,M,M,M,M,M,M,M,94.2,VVTS 070600Z 04006KT 350V120 9999 SCT020 34/17 Q1007 NOSIG,M
VVTS,1/7/2021 6:30,106.6667,10.8167,89.6,62.6,40.69,M,3,0,29.71,M,6.21,M,SCT,M,M,M,2000,M,M,M,M,M,M,M,M,M,M,90.32,VVTS 070630Z VRB03KT 9999 SCT020 32/17 Q1006 NOSIG,M
VVTS,1/7/2021 7:00,106.6667,10.8167,93.2,60.8,34.11,50,4,0,29.71,M,6.21,M,SCT,M,M,M,2000,M,M,M,M,M,M,M,M,M,M,93.32,VVTS 070700Z 05004KT 350V160 9999 SCT020 34/16 Q1006 NOSIG,M
VVTS,1/7/2021 7:30,106.6667,10.8167,93.2,62.6,36.35,M,4,0,29.71,M,6.21,M,SCT,M,M,M,2000,M,M,M,M,M,M,M,M,M,M,94.2,VVTS 070730Z VRB04KT 9999 SCT020 34/17 Q1006 NOSIG,M
VVTS,1/7/2021 8:00,106.6667,10.8167,91.4,62.6,38.45,M,3,0,29.71,M,6.21,M,SCT,M,M,M,2000,M,M,M,M,M,M,M,M,M,M,92.23,VVTS 070800Z VRB03KT 9999 SCT020 33/17 Q1006 NOSIG,M
VVTS,1/7/2021 8:30,106.6667,10.8167,91.4,60.8,36.08,M,2,0,29.71,M,6.21,M,BKN,M,M,M,2000,M,M,M,M,M,M,M,M,M,M,91.4,VVTS 070830Z VRB02KT 9999 BKN020 33/16 Q1006 NOSIG,M
VVTS,1/7/2021 9:00,106.6667,10.8167,87.8,71.6,58.78,170,9,0,29.71,M,6.21,M,BKN,M,M,M,2000,M,M,M,M,M,M,M,M,M,M,94.18,VVTS 070900Z 17009KT 130V220 9999 BKN020 31/22 Q1006 NOSIG,M
VVTS,1/7/2021 9:30,106.6667,10.8167,86,71.6,62.25,190,8,0,29.71,M,6.21,M,SCT,M,M,M,2000,M,M,M,M,M,M,M,M,M,M,91.92,VVTS 070930Z 19008KT 160V220 9999 SCT020 30/22 Q1006 NOSIG,M
VVTS,1/7/2021 10:00,106.6667,10.8167,84.2,71.6,65.95,190,7,0,29.74,M,6.21,M,FEW,SCT,M,M,2000,5000,M,M,M,M,M,M,M,M,M,89.6,VVTS 071000Z 19007KT 160V230 9999 FEW020 SCT050 29/22 Q1007 NOSIG,M
VVTS,1/7/2021 10:30,106.6667,10.8167,82.4,69.8,65.74,180,7,0,29.74,M,6.21,M,FEW,SCT,M,M,2000,5000,M,M,M,M,M,M,M,M,M,86.22,VVTS 071030Z 18007KT 150V230 9999 FEW020 SCT050 28/21 Q1007 NOSIG,M
VVTS,1/7/2021 11:00,106.6667,10.8167,82.4,71.6,69.9,200,7,0,29.74,M,6.21,M,FEW,SCT,M,M,2000,5000,M,M,M,M,M,M,M,M,M,87.18,VVTS 071100Z 20007KT 160V230 9999 FEW020 SCT050 28/22 Q1007 NOSIG,M
VVTS,1/7/2021 11:30,106.6667,10.8167,82.4,69.8,65.74,200,6,0,29.77,M,6.21,M,FEW,SCT,M,M,2000,5000,M,M,M,M,M,M,M,M,M,86.22,VVTS 071130Z 20006KT 160V230 9999 FEW020 SCT050 28/21 Q1008 NOSIG,M
VVTS,1/7/2021 12:00,106.6667,10.8167,82.4,69.8,65.74,190,4,0,29.77,M,6.21,M,FEW,SCT,M,M,1700,5000,M,M,M,M,M,M,M,M,M,86.22,VVTS 071200Z 19004KT 150V240 9999 FEW017 SCT050 28/21 Q1008 NOSIG,M
VVTS,1/7/2021 12:30,106.6667,10.8167,82.4,69.8,65.74,180,5,0,29.77,M,6.21,M,FEW,SCT,M,M,1700,5000,M,M,M,M,M,M,M,M,M,86.22,VVTS 071230Z 18005KT 150V240 9999 FEW017 SCT050 28/21 Q1008 NOSIG,M
VVTS,1/7/2021 13:00,106.6667,10.8167,80.6,71.6,74.11,180,4,0,29.8,M,6.21,M,FEW,SCT,M,M,1700,5000,M,M,M,M,M,M,M,M,M,84.57,VVTS 071300Z 18004KT 130V220 9999 FEW017 SCT050 27/22 Q1009 NOSIG,M
VVTS,1/7/2021 13:30,106.6667,10.8167,80.6,73.4,78.76,200,4,0,29.8,M,6.21,M,FEW,SCT,M,M,1700,5000,M,M,M,M,M,M,M,M,M,85.32,VVTS 071330Z 20004KT 150V260 9999 FEW017 SCT050 27/23 Q1009 NOSIG,M
VVTS,1/7/2021 14:00,106.6667,10.8167,80.6,73.4,78.76,200,4,0,29.8,M,6.21,M,FEW,SCT,M,M,1700,5000,M,M,M,M,M,M,M,M,M,85.32,VVTS 071400Z 20004KT 170V250 9999 FEW017 SCT050 27/23 Q1009 NOSIG,M
VVTS,1/7/2021 14:30,106.6667,10.8167,80.6,73.4,78.76,M,3,0,29.8,M,6.21,M,FEW,SCT,M,M,1700,5000,M,M,M,M,M,M,M,M,M,85.32,VVTS 071430Z VRB03KT 9999 FEW017 SCT050 27/23 Q1009 NOSIG,M
VVTS,1/7/2021 15:00,106.6667,10.8167,80.6,73.4,78.76,M,2,0,29.8,M,6.21,M,FEW,SCT,M,M,1700,5000,M,M,M,M,M,M,M,M,M,85.32,VVTS 071500Z VRB02KT 9999 FEW017 SCT050 27/23 Q1009 NOSIG,M
VVTS,1/7/2021 15:30,106.6667,10.8167,80.6,73.4,78.76,M,1,0,29.8,M,6.21,M,FEW,BKN,M,M,1700,5000,M,M,M,M,M,M,M,M,M,85.32,VVTS 071530Z VRB01KT 9999 FEW017 BKN050 27/23 Q1009 NOSIG,M
VVTS,1/7/2021 16:00,106.6667,10.8167,78.8,75.2,88.75,M,2,0,29.8,M,6.21,M,FEW,BKN,M,M,1700,5000,M,M,M,M,M,M,M,M,M,78.8,VVTS 071600Z VRB02KT 9999 FEW017 BKN050 26/24 Q1009 NOSIG,M
VVTS,1/7/2021 16:30,106.6667,10.8167,80.6,73.4,78.76,0,0,0,29.8,M,6.21,M,FEW,BKN,M,M,1700,5000,M,M,M,M,M,M,M,M,M,85.32,VVTS 071630Z 00000KT 9999 FEW017 BKN050 27/23 Q1009 NOSIG,M
VVTS,1/7/2021 17:00,106.6667,10.8167,78.8,75.2,88.75,0,0,0,29.8,M,6.21,M,FEW,BKN,M,M,1700,5000,M,M,M,M,M,M,M,M,M,78.8,VVTS 071700Z 00000KT 9999 FEW017 BKN050 26/24 Q1009 NOSIG,M
VVTS,1/7/2021 17:30,106.6667,10.8167,78.8,75.2,88.75,320,3,0,29.77,M,6.21,M,FEW,BKN,M,M,1700,5000,M,M,M,M,M,M,M,M,M,78.8,VVTS 071730Z 32003KT 9999 FEW017 BKN050 26/24 Q1008 NOSIG,M
VVTS,1/7/2021 18:00,106.6667,10.8167,77,75.2,94.19,320,4,0,29.77,M,6.21,M,FEW,BKN,M,M,1700,5000,M,M,M,M,M,M,M,M,M,77,VVTS 071800Z 32004KT 9999 FEW017 BKN050 25/24 Q1008 NOSIG,M
VVTS,1/7/2021 18:30,106.6667,10.8167,77,75.2,94.19,290,2,0,29.77,M,4.35,M,FEW,SCT,M,M,1700,5000,M,M,M,M,M,M,M,M,M,77,VVTS 071830Z 29002KT 7000 FEW017 SCT050 25/24 Q1008 NOSIG,M
VVTS,1/7/2021 19:00,106.6667,10.8167,77,75.2,94.19,300,2,0,29.74,M,4.35,M,FEW,SCT,M,M,1700,5000,M,M,M,M,M,M,M,M,M,77,VVTS 071900Z 30002KT 7000 FEW017 SCT050 25/24 Q1007 NOSIG,M
VVTS,1/7/2021 19:30,106.6667,10.8167,77,75.2,94.19,310,2,0,29.74,M,4.35,M,FEW,SCT,M,M,1700,5000,M,M,M,M,M,M,M,M,M,77,VVTS 071930Z 31002KT 7000 FEW017 SCT050 25/24 Q1007 NOSIG,M
VVTS,1/7/2021 20:00,106.6667,10.8167,77,75.2,94.19,320,3,0,29.74,M,4.35,M,FEW,SCT,M,M,1700,5000,M,M,M,M,M,M,M,M,M,77,VVTS 072000Z 32003KT 7000 FEW017 SCT050 25/24 Q1007 NOSIG,M
VVTS,1/7/2021 20:30,106.6667,10.8167,77,75.2,94.19,30,3,0,29.74,M,4.35,M,FEW,SCT,M,M,1700,5000,M,M,M,M,M,M,M,M,M,77,VVTS 072030Z 03003KT 7000 FEW017 SCT050 25/24 Q1007 NOSIG,M
VVTS,1/7/2021 21:00,106.6667,10.8167,77,75.2,94.19,360,5,0,29.74,M,3.73,M,FEW,SCT,M,M,1500,5000,M,M,M,M,M,M,M,M,M,77,VVTS 072100Z 36005KT 6000 FEW015 SCT050 25/24 Q1007 NOSIG,M
VVTS,1/7/2021 21:30,106.6667,10.8167,77,73.4,88.67,340,3,0,29.77,M,3.73,M,FEW,SCT,M,M,1500,5000,M,M,M,M,M,M,M,M,M,77,VVTS 072130Z 34003KT 6000 FEW015 SCT050 25/23 Q1008 NOSIG,M
VVTS,1/7/2021 22:00,106.6667,10.8167,77,73.4,88.67,M,3,0,29.77,M,3.73,M,FEW,SCT,M,M,1500,5000,M,M,M,M,M,M,M,M,M,77,VVTS 072200Z VRB03KT 6000 FEW015 SCT050 25/23 Q1008 NOSIG,M
VVTS,1/7/2021 22:30,106.6667,10.8167,75.2,73.4,94.14,M,2,0,29.77,M,4.35,M,FEW,SCT,M,M,1500,5000,M,M,M,M,M,M,M,M,M,75.2,VVTS 072230Z VRB02KT 7000 FEW015 SCT050 24/23 Q1008,M
VVTS,1/7/2021 23:00,106.6667,10.8167,75.2,71.6,88.59,360,1,0,29.8,M,4.97,M,FEW,SCT,M,M,1500,5000,M,M,M,M,M,M,M,M,M,75.2,VVTS 072300Z 36001KT 8000 FEW015 SCT050 24/22 Q1009 NOSIG,M
VVTS,1/7/2021 23:30,106.6667,10.8167,75.2,71.6,88.59,10,1,0,29.8,M,4.35,M,FEW,M,M,M,1700,M,M,M,M,M,M,M,M,M,M,75.2,VVTS 072330Z 01001KT 7000 FEW017 24/22 Q1009 NOSIG,M
VVTS,1/8/2021 0:00,106.6667,10.8167,75.2,71.6,88.59,M,1,0,29.83,M,4.35,M,FEW,M,M,M,1700,M,M,M,M,M,M,M,M,M,M,75.2,VVTS 080000Z VRB01KT 7000 FEW017 24/22 Q1010 NOSIG,M
VVTS,1/8/2021 0:30,106.6667,10.8167,77,71.6,83.44,0,0,0,29.83,M,4.97,M,FEW,M,M,M,1700,M,M,M,M,M,M,M,M,M,M,77,VVTS 080030Z 00000KT 8000 FEW017 25/22 Q1010 NOSIG,M
VVTS,1/8/2021 1:00,106.6667,10.8167,78.8,71.6,78.62,M,3,0,29.83,M,4.97,M,FEW,M,M,M,1700,M,M,M,M,M,M,M,M,M,M,78.8,VVTS 080100Z VRB03KT 8000 FEW017 26/22 Q1010 NOSIG,M
VVTS,1/8/2021 1:30,106.6667,10.8167,82.4,71.6,69.9,110,4,0,29.83,M,4.97,M,FEW,M,M,M,1700,M,M,M,M,M,M,M,M,M,M,87.18,VVTS 080130Z 11004KT 060V150 8000 FEW017 28/22 Q1010 NOSIG,M
VVTS,1/8/2021 2:00,106.6667,10.8167,84.2,71.6,65.95,0,0,0,29.83,M,4.97,M,FEW,M,M,M,1700,M,M,M,M,M,M,M,M,M,M,89.6,VVTS 080200Z 00000KT 8000 FEW017 29/22 Q1010 NOSIG,M
VVTS,1/8/2021 2:30,106.6667,10.8167,84.2,71.6,65.95,M,1,0,29.83,M,4.97,M,FEW,M,M,M,1700,M,M,M,M,M,M,M,M,M,M,89.6,VVTS 080230Z VRB01KT 8000 FEW017 29/22 Q1010 NOSIG,M
VVTS,1/8/2021 3:00,106.6667,10.8167,84.2,71.6,65.95,M,2,0,29.83,M,4.97,M,FEW,M,M,M,2000,M,M,M,M,M,M,M,M,M,M,89.6,VVTS 080300Z VRB02KT 8000 FEW020 29/22 Q1010 NOSIG,M
VVTS,1/8/2021 3:30,106.6667,10.8167,86,71.6,62.25,110,2,0,29.83,M,4.97,M,FEW,M,M,M,2000,M,M,M,M,M,M,M,M,M,M,91.92,VVTS 080330Z 11002KT 8000 FEW020 30/22 Q1010 NOSIG,M
VVTS,1/8/2021 4:00,106.6667,10.8167,87.8,71.6,58.78,M,3,0,29.8,M,4.97,M,FEW,M,M,M,2000,M,M,M,M,M,M,M,M,M,M,94.18,VVTS 080400Z VRB03KT 8000 FEW020 31/22 Q1009 NOSIG,M
VVTS,1/8/2021 4:30,106.6667,10.8167,87.8,69.8,55.29,M,2,0,29.8,M,4.97,M,FEW,M,M,M,2000,M,M,M,M,M,M,M,M,M,M,92.71,VVTS 080430Z VRB02KT 8000 FEW020 31/21 Q1009 NOSIG,M
VVTS,1/8/2021 5:00,106.6667,10.8167,91.4,69.8,49.36,M,4,0,29.77,M,4.97,M,SCT,M,M,M,2000,M,M,M,M,M,M,M,M,M,M,96.99,VVTS 080500Z VRB04KT 8000 SCT020 33/21 Q1008 NOSIG,M
VVTS,1/8/2021 5:30,106.6667,10.8167,89.6,68,49.1,80,3,0,29.77,M,4.97,M,SCT,M,M,M,2000,M,M,M,M,M,M,M,M,M,M,93.47,VVTS 080530Z 08003KT 8000 SCT020 32/20 Q1008 NOSIG,M
VVTS,1/8/2021 6:00,106.6667,10.8167,89.6,68,49.1,M,2,0,29.74,M,6.21,M,BKN,M,M,M,2000,M,M,M,M,M,M,M,M,M,M,93.47,VVTS 080600Z VRB02KT 9999 BKN020 32/20 Q1007 NOSIG,M
VVTS,1/8/2021 6:30,106.6667,10.8167,93.2,68,43.88,M,3,0,29.74,M,4.97,M,BKN,M,M,M,2000,M,M,M,M,M,M,M,M,M,M,97.67,VVTS 080630Z VRB03KT 8000 BKN020 34/20 Q1007 NOSIG,M
VVTS,1/8/2021 7:00,106.6667,10.8167,89.6,66.2,46.14,40,4,0,29.71,M,4.97,M,BKN,M,M,M,2000,M,M,M,M,M,M,M,M,M,M,92.27,VVTS 080700Z 04004KT 340V140 8000 BKN020 32/19 Q1006 NOSIG,M
VVTS,1/8/2021 7:30,106.6667,10.8167,89.6,66.2,46.14,M,3,0,29.71,M,4.97,M,BKN,M,M,M,2000,M,M,M,M,M,M,M,M,M,M,92.27,VVTS 080730Z VRB03KT 8000 BKN020 32/19 Q1006 NOSIG,M
VVTS,1/8/2021 8:00,106.6667,10.8167,91.4,66.2,43.61,M,1,0,29.71,M,4.97,M,BKN,M,M,M,2000,M,M,M,M,M,M,M,M,M,M,94.29,VVTS 080800Z VRB01KT 8000 BKN020 33/19 Q1006 NOSIG,M
VVTS,1/8/2021 8:30,106.6667,10.8167,89.6,69.8,52.23,220,6,0,29.71,M,4.97,M,BKN,M,M,M,2000,M,M,M,M,M,M,M,M,M,M,94.85,VVTS 080830Z 22006KT 190V250 8000 BKN020 32/21 Q1006 NOSIG,M
VVTS,1/8/2021 9:00,106.6667,10.8167,86,75.2,70.27,180,8,0,29.71,M,4.97,M,BKN,M,M,M,2000,M,M,M,M,M,M,M,M,M,M,95.19,VVTS 080900Z 18008KT 140V220 8000 BKN020 30/24 Q1006 NOSIG,M
VVTS,1/8/2021 9:30,106.6667,10.8167,84.2,75.2,74.44,190,9,0,29.71,M,6.21,M,SCT,SCT,M,M,1700,5000,M,M,M,M,M,M,M,M,M,92.45,VVTS 080930Z 19009KT 160V220 9999 SCT017 SCT050 29/24 Q1006 NOSIG,M
VVTS,1/8/2021 10:00,106.6667,10.8167,84.2,73.4,70.08,170,7,0,29.74,M,6.21,M,SCT,SCT,M,M,1700,5000,M,M,M,M,M,M,M,M,M,90.94,VVTS 081000Z 17007KT 130V220 9999 SCT017 SCT050 29/23 Q1007 NOSIG,M
VVTS,1/8/2021 10:30,106.6667,10.8167,82.4,73.4,74.28,170,6,0,29.74,M,6.21,M,SCT,SCT,M,M,1700,5000,M,M,M,M,M,M,M,M,M,88.26,VVTS 081030Z 17006KT 130V210 9999 SCT017 SCT050 28/23 Q1007 NOSIG,M
VVTS,1/8/2021 11:00,106.6667,10.8167,82.4,73.4,74.28,180,7,0,29.74,M,4.97,M,SCT,BKN,M,M,1700,5000,M,M,M,M,M,M,M,M,M,88.26,VVTS 081100Z 18007KT 150V220 8000 SCT017 BKN050 28/23 Q1007 NOSIG,M
VVTS,1/8/2021 11:30,106.6667,10.8167,82.4,71.6,69.9,180,5,0,29.77,M,4.97,M,SCT,BKN,M,M,1700,5000,M,M,M,M,M,M,M,M,M,87.18,VVTS 081130Z 18005KT 150V220 8000 SCT017 BKN050 28/22 Q1008 NOSIG,M
VVTS,1/8/2021 12:00,106.6667,10.8167,80.6,73.4,78.76,200,4,0,29.77,M,4.97,M,SCT,BKN,M,M,1700,5000,M,M,M,M,M,M,M,M,M,85.32,VVTS 081200Z 20004KT 170V230 8000 SCT017 BKN050 27/23 Q1008 NOSIG,M
VVTS,1/8/2021 12:30,106.6667,10.8167,82.4,71.6,69.9,M,2,0,29.77,M,4.97,M,SCT,BKN,M,M,1700,5000,M,M,M,M,M,M,M,M,M,87.18,VVTS 081230Z VRB02KT 8000 SCT017 BKN050 28/22 Q1008 NOSIG,M
VVTS,1/8/2021 13:00,106.6667,10.8167,80.6,71.6,74.11,290,2,0,29.8,M,6.21,M,FEW,SCT,M,M,1700,5000,M,M,M,M,M,M,M,M,M,84.57,VVTS 081300Z 29002KT 9999 FEW017 SCT050 27/22 Q1009 NOSIG,M
VVTS,1/8/2021 13:30,106.6667,10.8167,80.6,71.6,74.11,290,3,0,29.8,M,6.21,M,FEW,SCT,M,M,1700,5000,M,M,M,M,M,M,M,M,M,84.57,VVTS 081330Z 29003KT 9999 FEW017 SCT050 27/22 Q1009 NOSIG,M
VVTS,1/8/2021 14:00,106.6667,10.8167,80.6,73.4,78.76,M,2,0,29.8,M,4.35,M,FEW,SCT,M,M,1700,5000,M,M,M,M,M,M,M,M,M,85.32,VVTS 081400Z VRB02KT 7000 FEW017 SCT050 27/23 Q1009 NOSIG,M
VVTS,1/8/2021 14:30,106.6667,10.8167,78.8,75.2,88.75,300,3,0,29.8,M,4.35,M,SCT,SCT,M,M,1700,5000,M,M,M,M,M,M,M,M,M,78.8,VVTS 081430Z 30003KT 7000 SCT017 SCT050 26/24 Q1009 NOSIG,M
VVTS,1/8/2021 15:00,106.6667,10.8167,78.8,73.4,83.55,300,4,0,29.8,M,4.97,M,SCT,SCT,M,M,1700,5000,M,M,M,M,M,M,M,M,M,78.8,VVTS 081500Z 30004KT 8000 SCT017 SCT050 26/23 Q1009 NOSIG,M
VVTS,1/8/2021 15:30,106.6667,10.8167,78.8,73.4,83.55,M,2,0,29.8,M,4.97,M,SCT,SCT,M,M,1700,5000,M,M,M,M,M,M,M,M,M,78.8,VVTS 081530Z VRB02KT 8000 SCT017 SCT050 26/23 Q1009 NOSIG,M
VVTS,1/8/2021 16:00,106.6667,10.8167,78.8,69.8,73.95,10,5,0,29.8,M,4.97,M,SCT,SCT,M,M,1700,5000,M,M,M,M,M,M,M,M,M,78.8,VVTS 081600Z 01005KT 340V050 8000 SCT017 SCT050 26/21 Q1009 NOSIG,M
VVTS,1/8/2021 16:30,106.6667,10.8167,78.8,68,69.52,20,4,0,29.77,M,4.97,M,SCT,SCT,M,M,1700,5000,M,M,M,M,M,M,M,M,M,78.8,VVTS 081630Z 02004KT 8000 SCT017 SCT050 26/20 Q1008 NOSIG,M
VVTS,1/8/2021 17:00,106.6667,10.8167,78.8,66.2,65.33,40,6,0,29.8,M,6.21,M,FEW,SCT,M,M,1700,5000,M,M,M,M,M,M,M,M,M,78.8,VVTS 081700Z 04006KT 9999 FEW017 SCT050 26/19 Q1009 NOSIG,M
VVTS,1/8/2021 17:30,106.6667,10.8167,77,66.2,69.33,40,7,0,29.77,M,6.21,M,FEW,SCT,M,M,1700,5000,M,M,M,M,M,M,M,M,M,77,VVTS 081730Z 04007KT 9999 FEW017 SCT050 25/19 Q1008 NOSIG,M
VVTS,1/8/2021 18:00,106.6667,10.8167,77,66.2,69.33,40,5,0,29.77,M,6.21,M,FEW,SCT,M,M,1700,5000,M,M,M,M,M,M,M,M,M,77,VVTS 081800Z 04005KT 9999 FEW017 SCT050 25/19 Q1008 NOSIG,M
VVTS,1/8/2021 18:30,106.6667,10.8167,77,64.4,65.12,40,5,0,29.77,M,6.21,M,FEW,SCT,M,M,1700,5000,M,M,M,M,M,M,M,M,M,77,VVTS 081830Z 04005KT 9999 FEW017 SCT050 25/18 Q1008 NOSIG,M
VVTS,1/8/2021 19:00,106.6667,10.8167,77,64.4,65.12,50,4,0,29.77,M,6.21,M,FEW,SCT,M,M,1700,5000,M,M,M,M,M,M,M,M,M,77,VVTS 081900Z 05004KT 9999 FEW017 SCT050 25/18 Q1008 NOSIG,M
VVTS,1/8/2021 19:30,106.6667,10.8167,77,64.4,65.12,60,4,0,29.77,M,6.21,M,FEW,SCT,M,M,1700,5000,M,M,M,M,M,M,M,M,M,77,VVTS 081930Z 06004KT 9999 FEW017 SCT050 25/18 Q1008 NOSIG,M
VVTS,1/8/2021 20:00,106.6667,10.8167,77,64.4,65.12,M,3,0,29.77,M,4.97,M,FEW,SCT,M,M,1700,5000,M,M,M,M,M,M,M,M,M,77,VVTS 082000Z VRB03KT 8000 FEW017 SCT050 25/18 Q1008 NOSIG,M
VVTS,1/8/2021 20:30,106.6667,10.8167,77,64.4,65.12,50,4,0,29.77,M,4.97,M,FEW,SCT,M,M,1700,5000,M,M,M,M,M,M,M,M,M,77,VVTS 082030Z 05004KT 8000 FEW017 SCT050 25/18 Q1008 NOSIG,M
VVTS,1/8/2021 21:00,106.6667,10.8167,75.2,64.4,69.14,60,3,0,29.77,M,4.97,M,FEW,SCT,M,M,1700,5000,M,M,M,M,M,M,M,M,M,75.2,VVTS 082100Z 06003KT 8000 FEW017 SCT050 24/18 Q1008 NOSIG,M
VVTS,1/8/2021 21:30,106.6667,10.8167,75.2,64.4,69.14,30,3,0,29.77,M,4.97,M,FEW,SCT,M,M,1700,5000,M,M,M,M,M,M,M,M,M,75.2,VVTS 082130Z 03003KT 8000 FEW017 SCT050 24/18 Q1008 NOSIG,M
VVTS,1/8/2021 22:00,106.6667,10.8167,75.2,64.4,69.14,30,3,0,29.8,M,4.97,M,FEW,SCT,M,M,1700,5000,M,M,M,M,M,M,M,M,M,75.2,VVTS 082200Z 03003KT 8000 FEW017 SCT050 24/18 Q1009 NOSIG,M
VVTS,1/8/2021 22:30,106.6667,10.8167,73.4,64.4,73.44,20,4,0,29.8,M,4.97,M,FEW,SCT,M,M,1700,5000,M,M,M,M,M,M,M,M,M,73.4,VVTS 082230Z 02004KT 8000 FEW017 SCT050 23/18 Q1009 NOSIG,M
VVTS,1/8/2021 23:00,106.6667,10.8167,73.4,64.4,73.44,20,5,0,29.83,M,4.97,M,FEW,M,M,M,2000,M,M,M,M,M,M,M,M,M,M,73.4,VVTS 082300Z 02005KT 8000 FEW020 23/18 Q1010 NOSIG,M
VVTS,1/8/2021 23:30,106.6667,10.8167,73.4,64.4,73.44,M,2,0,29.83,M,4.97,M,FEW,M,M,M,2000,M,M,M,M,M,M,M,M,M,M,73.4,VVTS 082330Z VRB02KT 8000 FEW020 23/18 Q1010 NOSIG,M
VVTS,1/9/2021 0:00,106.6667,10.8167,75.2,64.4,69.14,20,3,0,29.85,M,4.97,M,FEW,M,M,M,2000,M,M,M,M,M,M,M,M,M,M,75.2,VVTS 090000Z 02003KT 8000 FEW020 24/18 Q1011 NOSIG,M
VVTS,1/9/2021 0:30,106.6667,10.8167,77,64.4,65.12,M,3,0,29.85,M,4.97,M,FEW,M,M,M,2000,M,M,M,M,M,M,M,M,M,M,77,VVTS 090030Z VRB03KT 8000 FEW020 25/18 Q1011 NOSIG,M
VVTS,1/9/2021 1:00,106.6667,10.8167,77,64.4,65.12,M,3,0,29.88,M,4.97,M,NSC,M,M,M,M,M,M,M,M,M,M,M,M,M,M,77,VVTS 090100Z VRB03KT 8000 NSC 25/18 Q1012 NOSIG,M
VVTS,1/9/2021 1:30,106.6667,10.8167,78.8,66.2,65.33,M,2,0,29.88,M,4.97,M,FEW,M,M,M,2000,M,M,M,M,M,M,M,M,M,M,78.8,VVTS 090130Z VRB02KT 8000 FEW020 26/19 Q1012 NOSIG,M
VVTS,1/9/2021 2:00,106.6667,10.8167,78.8,66.2,65.33,M,2,0,29.88,M,4.97,M,FEW,M,M,M,2000,M,M,M,M,M,M,M,M,M,M,78.8,VVTS 090200Z VRB02KT 8000 FEW020 26/19 Q1012 NOSIG,M
VVTS,1/9/2021 2:30,106.6667,10.8167,80.6,64.4,57.84,M,3,0,29.88,M,4.97,M,FEW,M,M,M,2000,M,M,M,M,M,M,M,M,M,M,82.27,VVTS 090230Z VRB03KT 8000 FEW020 27/18 Q1012 NOSIG,M
VVTS,1/9/2021 3:00,106.6667,10.8167,82.4,66.2,58.08,20,5,0,29.88,M,4.97,M,FEW,M,M,M,2000,M,M,M,M,M,M,M,M,M,M,84.63,VVTS 090300Z 02005KT 300V080 8000 FEW020 28/19 Q1012 NOSIG,M
VVTS,1/9/2021 3:30,106.6667,10.8167,84.2,64.4,51.47,M,5,0,29.85,M,6.21,M,FEW,M,M,M,2000,M,M,M,M,M,M,M,M,M,M,85.71,VVTS 090330Z VRB05KT 9999 FEW020 29/18 Q1011 NOSIG,M
VVTS,1/9/2021 4:00,106.6667,10.8167,84.2,64.4,51.47,20,3,0,29.85,M,6.21,M,FEW,M,M,M,2000,M,M,M,M,M,M,M,M,M,M,85.71,VVTS 090400Z 02003KT 9999 FEW020 29/18 Q1011 NOSIG,M
VVTS,1/9/2021 4:30,106.6667,10.8167,86,64.4,48.58,M,3,0,29.83,M,6.21,M,FEW,M,M,M,2000,M,M,M,M,M,M,M,M,M,M,87.49,VVTS 090430Z VRB03KT 9999 FEW020 30/18 Q1010 NOSIG,M
VVTS,1/9/2021 5:00,106.6667,10.8167,86,64.4,48.58,360,4,0,29.83,M,6.21,M,FEW,M,M,M,2000,M,M,M,M,M,M,M,M,M,M,87.49,VVTS 090500Z 36004KT 280V050 9999 FEW020 30/18 Q1010 NOSIG,M
VVTS,1/9/2021 5:30,106.6667,10.8167,87.8,62.6,43.07,M,2,0,29.83,M,6.21,M,FEW,M,M,M,2000,M,M,M,M,M,M,M,M,M,M,88.48,VVTS 090530Z VRB02KT 9999 FEW020 31/17 Q1010 NOSIG,M
VVTS,1/9/2021 6:00,106.6667,10.8167,89.6,62.6,40.69,M,5,0,29.8,M,6.21,M,FEW,M,M,M,2000,M,M,M,M,M,M,M,M,M,M,90.32,VVTS 090600Z VRB05KT 9999 FEW020 32/17 Q1009 NOSIG,M
VVTS,1/9/2021 6:30,106.6667,10.8167,87.8,62.6,43.07,M,3,0,29.77,M,6.21,M,FEW,M,M,M,2000,M,M,M,M,M,M,M,M,M,M,88.48,VVTS 090630Z VRB03KT 9999 FEW020 31/17 Q1008 NOSIG,M
VVTS,1/9/2021 7:00,106.6667,10.8167,87.8,60.8,40.41,320,3,0,29.77,M,6.21,M,FEW,M,M,M,2000,M,M,M,M,M,M,M,M,M,M,87.75,VVTS 090700Z 32003KT 9999 FEW020 31/16 Q1008 NOSIG,M
VVTS,1/9/2021 7:30,106.6667,10.8167,91.4,60.8,36.08,360,4,0,29.74,M,6.21,M,FEW,M,M,M,2000,M,M,M,M,M,M,M,M,M,M,91.4,VVTS 090730Z 36004KT 9999 FEW020 33/16 Q1007 NOSIG,M
VVTS,1/9/2021 8:00,106.6667,10.8167,89.6,60.8,38.18,M,3,0,29.74,M,6.21,M,SCT,M,M,M,2000,M,M,M,M,M,M,M,M,M,M,89.54,VVTS 090800Z VRB03KT 9999 SCT020 32/16 Q1007 NOSIG,M
VVTS,1/9/2021 8:30,106.6667,10.8167,91.4,60.8,36.08,M,1,0,29.74,M,6.21,M,SCT,M,M,M,2000,M,M,M,M,M,M,M,M,M,M,91.4,VVTS 090830Z VRB01KT 9999 SCT020 33/16 Q1007 NOSIG,M
VVTS,1/9/2021 9:00,106.6667,10.8167,89.6,60.8,38.18,M,3,0,29.74,M,6.21,M,SCT,M,M,M,2000,M,M,M,M,M,M,M,M,M,M,89.54,VVTS 090900Z VRB03KT 9999 SCT020 32/16 Q1007 NOSIG,M
VVTS,1/9/2021 9:30,106.6667,10.8167,89.6,60.8,38.18,60,4,0,29.74,M,6.21,M,SCT,M,M,M,2000,M,M,M,M,M,M,M,M,M,M,89.54,VVTS 090930Z 06004KT 030V120 9999 SCT020 32/16 Q1007 NOSIG,M
VVTS,1/9/2021 10:00,106.6667,10.8167,87.8,62.6,43.07,M,1,0,29.74,M,6.21,M,SCT,M,M,M,2000,M,M,M,M,M,M,M,M,M,M,88.48,VVTS 091000Z VRB01KT 9999 SCT020 31/17 Q1007 NOSIG,M
VVTS,1/9/2021 10:30,106.6667,10.8167,86,68,55.04,170,5,0,29.77,M,6.21,M,SCT,M,M,M,2000,M,M,M,M,M,M,M,M,M,M,89.41,VVTS 091030Z 17005KT 140V220 9999 SCT020 30/20 Q1008 NOSIG,M
VVTS,1/9/2021 11:00,106.6667,10.8167,82.4,69.8,65.74,180,8,0,29.77,M,4.97,M,SCT,M,M,M,2000,M,M,M,M,M,M,M,M,M,M,86.22,VVTS 091100Z 18008KT 8000 SCT020 28/21 Q1008 NOSIG,M
VVTS,1/9/2021 11:30,106.6667,10.8167,82.4,69.8,65.74,170,7,0,29.8,M,4.97,M,FEW,SCT,M,M,1700,5000,M,M,M,M,M,M,M,M,M,86.22,VVTS 091130Z 17007KT 140V220 8000 FEW017 SCT050 28/21 Q1009 NOSIG,M
VVTS,1/9/2021 12:00,106.6667,10.8167,82.4,69.8,65.74,130,4,0,29.8,M,6.21,M,SCT,M,M,M,1700,M,M,M,M,M,M,M,M,M,M,86.22,VVTS 091200Z 13004KT 110V240 9999 SCT017 28/21 Q1009 NOSIG,M
VVTS,1/9/2021 12:30,106.6667,10.8167,80.6,69.8,69.71,130,4,0,29.83,M,6.21,M,SCT,M,M,M,1700,M,M,M,M,M,M,M,M,M,M,83.9,VVTS 091230Z 13004KT 090V210 9999 SCT017 27/21 Q1010 NOSIG,M
VVTS,1/9/2021 13:00,106.6667,10.8167,80.6,68,65.54,130,4,0,29.83,M,6.21,M,SCT,M,M,M,1700,M,M,M,M,M,M,M,M,M,M,83.29,VVTS 091300Z 13004KT 080V190 9999 SCT017 27/20 Q1010 NOSIG,M
VVTS,1/9/2021 13:30,106.6667,10.8167,78.8,69.8,73.95,140,3,0,29.83,M,6.21,M,SCT,M,M,M,1700,M,M,M,M,M,M,M,M,M,M,78.8,VVTS 091330Z 14003KT 9999 SCT017 26/21 Q1010 NOSIG,M
VVTS,1/9/2021 14:00,106.6667,10.8167,78.8,69.8,73.95,M,3,0,29.83,M,6.21,M,SCT,M,M,M,1700,M,M,M,M,M,M,M,M,M,M,78.8,VVTS 091400Z VRB03KT 9999 SCT017 26/21 Q1010 NOSIG,M
VVTS,1/9/2021 14:30,106.6667,10.8167,77,69.8,78.48,70,3,0,29.83,M,6.21,M,SCT,M,M,M,1700,M,M,M,M,M,M,M,M,M,M,77,VVTS 091430Z 07003KT 9999 SCT017 25/21 Q1010 NOSIG,M
VVTS,1/9/2021 15:00,106.6667,10.8167,78.8,69.8,73.95,60,3,0,29.85,M,4.35,M,SCT,SCT,M,M,1700,5000,M,M,M,M,M,M,M,M,M,78.8,VVTS 091500Z 06003KT 7000 SCT017 SCT050 26/21 Q1011 NOSIG,M
VVTS,1/9/2021 15:30,106.6667,10.8167,78.8,62.6,57.6,20,6,0,29.83,M,6.21,M,SCT,SCT,M,M,1700,5000,M,M,M,M,M,M,M,M,M,78.8,VVTS 091530Z 02006KT 9999 SCT017 SCT050 26/17 Q1010 NOSIG,M
VVTS,1/9/2021 16:00,106.6667,10.8167,77,62.6,61.13,10,6,0,29.83,M,6.21,M,SCT,SCT,M,M,1700,5000,M,M,M,M,M,M,M,M,M,77,VVTS 091600Z 01006KT 9999 SCT017 SCT050 25/17 Q1010 NOSIG,M
VVTS,1/9/2021 16:30,106.6667,10.8167,77,62.6,61.13,10,5,0,29.83,M,6.21,M,FEW,SCT,M,M,1700,5000,M,M,M,M,M,M,M,M,M,77,VVTS 091630Z 01005KT 9999 FEW017 SCT050 25/17 Q1010 NOSIG,M
VVTS,1/9/2021 17:00,106.6667,10.8167,75.2,62.6,64.91,20,5,0,29.83,M,6.21,M,FEW,SCT,M,M,1700,5000,M,M,M,M,M,M,M,M,M,75.2,VVTS 091700Z 02005KT 9999 FEW017 SCT050 24/17 Q1010 NOSIG,M
VVTS,1/9/2021 17:30,106.6667,10.8167,75.2,62.6,64.91,M,3,0,29.83,M,6.21,M,FEW,SCT,M,M,1700,5000,M,M,M,M,M,M,M,M,M,75.2,VVTS 091730Z VRB03KT 9999 FEW017 SCT050 24/17 Q1010 NOSIG,M
VVTS,1/9/2021 18:00,106.6667,10.8167,75.2,62.6,64.91,60,4,0,29.83,M,6.21,M,FEW,SCT,M,M,1700,5000,M,M,M,M,M,M,M,M,M,75.2,VVTS 091800Z 06004KT 9999 FEW017 SCT050 24/17 Q1010 NOSIG,M
VVTS,1/9/2021 18:30,106.6667,10.8167,73.4,62.6,68.94,50,4,0,29.8,M,6.21,M,FEW,SCT,M,M,1700,5000,M,M,M,M,M,M,M,M,M,73.4,VVTS 091830Z 05004KT 9999 FEW017 SCT050 23/17 Q1009 NOSIG,M
VVTS,1/9/2021 19:00,106.6667,10.8167,73.4,64.4,73.44,50,4,0,29.8,M,6.21,M,FEW,SCT,M,M,1700,5000,M,M,M,M,M,M,M,M,M,73.4,VVTS 091900Z 05004KT 9999 FEW017 SCT050 23/18 Q1009 NOSIG,M
VVTS,1/9/2021 19:30,106.6667,10.8167,73.4,62.6,68.94,50,3,0,29.8,M,6.21,M,FEW,SCT,M,M,1500,5000,M,M,M,M,M,M,M,M,M,73.4,VVTS 091930Z 05003KT 9999 FEW015 SCT050 23/17 Q1009 NOSIG,M
VVTS,1/9/2021 20:00,106.6667,10.8167,73.4,64.4,73.44,60,2,0,29.8,M,6.21,M,FEW,SCT,M,M,1500,5000,M,M,M,M,M,M,M,M,M,73.4,VVTS 092000Z 06002KT 9999 FEW015 SCT050 23/18 Q1009 NOSIG,M
VVTS,1/9/2021 20:30,106.6667,10.8167,73.4,64.4,73.44,50,3,0,29.8,M,6.21,M,FEW,SCT,M,M,1500,5000,M,M,M,M,M,M,M,M,M,73.4,VVTS 092030Z 05003KT 9999 FEW015 SCT050 23/18 Q1009 NOSIG,M
VVTS,1/9/2021 21:00,106.6667,10.8167,73.4,64.4,73.44,20,3,0,29.8,M,6.21,M,FEW,SCT,M,M,1500,5000,M,M,M,M,M,M,M,M,M,73.4,VVTS 092100Z 02003KT 9999 FEW015 SCT050 23/18 Q1009 NOSIG,M
VVTS,1/9/2021 21:30,106.6667,10.8167,71.6,64.4,78.04,10,2,0,29.8,M,6.21,M,FEW,SCT,M,M,1500,5000,M,M,M,M,M,M,M,M,M,71.6,VVTS 092130Z 01002KT 9999 FEW015 SCT050 22/18 Q1009 NOSIG,M
VVTS,1/9/2021 22:00,106.6667,10.8167,71.6,64.4,78.04,10,4,0,29.8,M,6.21,M,FEW,SCT,M,M,1500,5000,M,M,M,M,M,M,M,M,M,71.6,VVTS 092200Z 01004KT 9999 FEW015 SCT050 22/18 Q1009 NOSIG,M
VVTS,1/9/2021 22:30,106.6667,10.8167,71.6,64.4,78.04,M,1,0,29.83,M,6.21,M,FEW,SCT,M,M,1500,5000,M,M,M,M,M,M,M,M,M,71.6,VVTS 092230Z VRB01KT 9999 FEW015 SCT050 22/18 Q1010 NOSIG,M
VVTS,1/9/2021 23:00,106.6667,10.8167,71.6,64.4,78.04,M,2,0,29.83,M,6.21,M,FEW,BKN,M,M,1500,5000,M,M,M,M,M,M,M,M,M,71.6,VVTS 092300Z VRB02KT 9999 FEW015 BKN050 22/18 Q1010 NOSIG,M
VVTS,1/9/2021 23:30,106.6667,10.8167,69.8,64.4,82.98,340,2,0,29.83,M,6.21,M,FEW,SCT,M,M,1700,5000,M,M,M,M,M,M,M,M,M,69.8,VVTS 092330Z 34002KT 9999 FEW017 SCT050 21/18 Q1010 NOSIG,M
VVTS,1/10/2021 0:00,106.6667,10.8167,71.6,64.4,78.04,40,2,0,29.85,M,6.21,M,FEW,SCT,M,M,1700,5000,M,M,M,M,M,M,M,M,M,71.6,VVTS 100000Z 04002KT 9999 FEW017 SCT050 22/18 Q1011 NOSIG,M
VVTS,1/10/2021 0:30,106.6667,10.8167,73.4,64.4,73.44,M,2,0,29.85,M,6.21,M,FEW,M,M,M,1700,M,M,M,M,M,M,M,M,M,M,73.4,VVTS 100030Z VRB02KT 9999 FEW017 23/18 Q1011 NOSIG,M
VVTS,1/10/2021 1:00,106.6667,10.8167,75.2,66.2,73.61,M,2,0,29.88,M,6.21,M,FEW,M,M,M,1700,M,M,M,M,M,M,M,M,M,M,75.2,VVTS 100100Z VRB02KT 9999 FEW017 24/19 Q1012 NOSIG,M
VVTS,1/10/2021 1:30,106.6667,10.8167,77,66.2,69.33,M,3,0,29.88,M,6.21,M,FEW,M,M,M,1700,M,M,M,M,M,M,M,M,M,M,77,VVTS 100130Z VRB03KT 9999 FEW017 25/19 Q1012 NOSIG,M
VVTS,1/10/2021 2:00,106.6667,10.8167,78.8,66.2,65.33,M,2,0,29.88,M,6.21,M,FEW,M,M,M,1700,M,M,M,M,M,M,M,M,M,M,78.8,VVTS 100200Z VRB02KT 9999 FEW017 26/19 Q1012 NOSIG,M
VVTS,1/10/2021 2:30,106.6667,10.8167,78.8,66.2,65.33,360,1,0,29.88,M,6.21,M,FEW,M,M,M,1700,M,M,M,M,M,M,M,M,M,M,78.8,VVTS 100230Z 36001KT 9999 FEW017 26/19 Q1012 NOSIG,M
VVTS,1/10/2021 3:00,106.6667,10.8167,80.6,66.2,61.58,M,2,0,29.88,M,6.21,M,FEW,M,M,M,1700,M,M,M,M,M,M,M,M,M,M,82.75,VVTS 100300Z VRB02KT 9999 FEW017 27/19 Q1012 NOSIG,M
VVTS,1/10/2021 3:30,106.6667,10.8167,82.4,66.2,58.08,350,2,0,29.88,M,6.21,M,FEW,M,M,M,1700,M,M,M,M,M,M,M,M,M,M,84.63,VVTS 100330Z 35002KT 9999 FEW017 28/19 Q1012 NOSIG,M
VVTS,1/10/2021 4:00,106.6667,10.8167,82.4,66.2,58.08,320,3,0,29.88,M,6.21,M,FEW,M,M,M,1700,M,M,M,M,M,M,M,M,M,M,84.63,VVTS 100400Z 32003KT 9999 FEW017 28/19 Q1012 NOSIG,M
VVTS,1/10/2021 4:30,106.6667,10.8167,82.4,66.2,58.08,M,3,0,29.88,M,6.21,M,FEW,M,M,M,1700,M,M,M,M,M,M,M,M,M,M,84.63,VVTS 100430Z VRB03KT 9999 FEW017 28/19 Q1012 NOSIG,M
VVTS,1/10/2021 5:00,106.6667,10.8167,84.2,66.2,54.8,350,5,0,29.85,M,4.97,M,SCT,M,M,M,1700,M,M,M,M,M,M,M,M,M,M,86.5,VVTS 100500Z 35005KT 310V030 8000 SCT017 29/19 Q1011 NOSIG,M
VVTS,1/10/2021 5:30,106.6667,10.8167,84.2,66.2,54.8,310,4,0,29.83,M,4.97,M,SCT,M,M,M,1700,M,M,M,M,M,M,M,M,M,M,86.5,VVTS 100530Z 31004KT 250V010 8000 SCT017 29/19 Q1010 NOSIG,M
VVTS,1/10/2021 6:00,106.6667,10.8167,84.2,66.2,54.8,340,6,0,29.83,M,4.97,M,SCT,M,M,M,1700,M,M,M,M,M,M,M,M,M,M,86.5,VVTS 100600Z 34006KT 290V050 8000 SCT017 29/19 Q1010 NOSIG,M
VVTS,1/10/2021 6:30,106.6667,10.8167,84.2,66.2,54.8,310,1,0,29.8,M,4.97,M,SCT,M,M,M,1700,M,M,M,M,M,M,M,M,M,M,86.5,VVTS 100630Z 31001KT 8000 SCT017 29/19 Q1009 NOSIG,M
VVTS,1/10/2021 7:00,106.6667,10.8167,86,66.2,51.72,320,6,0,29.77,M,4.97,M,SCT,M,M,M,1700,M,M,M,M,M,M,M,M,M,M,88.39,VVTS 100700Z 32006KT 260V350 8000 SCT017 30/19 Q1008 NOSIG,M
VVTS,1/10/2021 7:30,106.6667,10.8167,86,66.2,51.72,340,5,0,29.77,M,4.97,M,SCT,M,M,M,1700,M,M,M,M,M,M,M,M,M,M,88.39,VVTS 100730Z 34005KT 240V030 8000 SCT017 30/19 Q1008 NOSIG,M
VVTS,1/10/2021 8:00,106.6667,10.8167,86,64.4,48.58,300,4,0,29.77,M,6.21,M,SCT,M,M,M,1700,M,M,M,M,M,M,M,M,M,M,87.49,VVTS 100800Z 30004KT 9999 SCT017 30/18 Q1008 NOSIG,M
VVTS,1/10/2021 8:30,106.6667,10.8167,87.8,64.4,45.88,340,6,0,29.77,M,6.21,M,FEW,M,M,M,2000,M,M,M,M,M,M,M,M,M,M,89.33,VVTS 100830Z 34006KT 280V040 9999 FEW020 31/18 Q1008 NOSIG,M
VVTS,1/10/2021 9:00,106.6667,10.8167,86,64.4,48.58,M,2,0,29.77,M,6.21,M,FEW,M,M,M,2000,M,M,M,M,M,M,M,M,M,M,87.49,VVTS 100900Z VRB02KT 9999 FEW020 30/18 Q1008 NOSIG,M
VVTS,1/10/2021 9:30,106.6667,10.8167,86,64.4,48.58,M,2,0,29.77,M,6.21,M,FEW,M,M,M,2000,M,M,M,M,M,M,M,M,M,M,87.49,VVTS 100930Z VRB02KT 9999 FEW020 30/18 Q1008 NOSIG,M
VVTS,1/10/2021 10:00,106.6667,10.8167,84.2,68,58.32,290,4,0,29.77,M,6.21,M,FEW,M,M,M,2000,M,M,M,M,M,M,M,M,M,M,87.4,VVTS 101000Z 29004KT 250V360 9999 FEW020 29/20 Q1008 NOSIG,M
VVTS,1/10/2021 10:30,106.6667,10.8167,82.4,68,61.81,280,4,0,29.8,M,6.21,M,FEW,M,M,M,2000,M,M,M,M,M,M,M,M,M,M,85.38,VVTS 101030Z 28004KT 9999 FEW020 28/20 Q1009 NOSIG,M
VVTS,1/10/2021 11:00,106.6667,10.8167,82.4,68,61.81,290,4,0,29.8,M,6.21,M,FEW,M,M,M,2000,M,M,M,M,M,M,M,M,M,M,85.38,VVTS 101100Z 29004KT 9999 FEW020 28/20 Q1009 NOSIG,M
VVTS,1/10/2021 11:30,106.6667,10.8167,82.4,68,61.81,290,4,0,29.8,M,6.21,M,FEW,M,M,M,2000,M,M,M,M,M,M,M,M,M,M,85.38,VVTS 101130Z 29004KT 9999 FEW020 28/20 Q1009 NOSIG,M
VVTS,1/10/2021 12:00,106.6667,10.8167,80.6,68,65.54,240,2,0,29.83,M,6.21,M,FEW,M,M,M,2000,M,M,M,M,M,M,M,M,M,M,83.29,VVTS 101200Z 24002KT 9999 FEW020 27/20 Q1010 NOSIG,M
VVTS,1/10/2021 12:30,106.6667,10.8167,80.6,68,65.54,M,3,0,29.83,M,6.21,M,FEW,M,M,M,2000,M,M,M,M,M,M,M,M,M,M,83.29,VVTS 101230Z VRB03KT 9999 FEW020 27/20 Q1010 NOSIG,M
VVTS,1/10/2021 13:00,106.6667,10.8167,80.6,71.6,74.11,180,6,0,29.83,M,6.21,M,FEW,M,M,M,2000,M,M,M,M,M,M,M,M,M,M,84.57,VVTS 101300Z 18006KT 140V200 9999 FEW020 27/22 Q1010 NOSIG,M
VVTS,1/10/2021 13:30,106.6667,10.8167,80.6,69.8,69.71,M,3,0,29.85,M,6.21,M,FEW,M,M,M,2000,M,M,M,M,M,M,M,M,M,M,83.9,VVTS 101330Z VRB03KT 9999 FEW020 27/21 Q1011 NOSIG,M
VVTS,1/10/2021 14:00,106.6667,10.8167,78.8,69.8,73.95,M,2,0,29.85,M,6.21,M,FEW,M,M,M,2000,M,M,M,M,M,M,M,M,M,M,78.8,VVTS 101400Z VRB02KT 9999 FEW020 26/21 Q1011 NOSIG,M
VVTS,1/10/2021 14:30,106.6667,10.8167,78.8,71.6,78.62,330,2,0,29.85,M,6.21,M,FEW,M,M,M,2000,M,M,M,M,M,M,M,M,M,M,78.8,VVTS 101430Z 33002KT 9999 FEW020 26/22 Q1011 NOSIG,M
VVTS,1/10/2021 15:00,106.6667,10.8167,78.8,71.6,78.62,350,3,0,29.85,M,6.21,M,FEW,M,M,M,2000,M,M,M,M,M,M,M,M,M,M,78.8,VVTS 101500Z 35003KT 9999 FEW020 26/22 Q1011 NOSIG,M
VVTS,1/10/2021 15:30,106.6667,10.8167,78.8,64.4,61.36,10,6,0,29.85,M,4.97,M,FEW,M,M,M,1700,M,M,M,M,M,M,M,M,M,M,78.8,VVTS 101530Z 01006KT 8000 FEW017 26/18 Q1011 NOSIG,M
VVTS,1/10/2021 16:00,106.6667,10.8167,78.8,64.4,61.36,350,4,0,29.85,M,4.97,M,FEW,M,M,M,1700,M,M,M,M,M,M,M,M,M,M,78.8,VVTS 101600Z 35004KT 320V030 8000 FEW017 26/18 Q1011 NOSIG,M
VVTS,1/10/2021 16:30,106.6667,10.8167,77,64.4,65.12,0,0,0,29.85,M,4.97,M,FEW,M,M,M,1700,M,M,M,M,M,M,M,M,M,M,77,VVTS 101630Z 00000KT 8000 FEW017 25/18 Q1011 NOSIG,M
VVTS,1/10/2021 17:00,106.6667,10.8167,75.2,68,78.34,270,1,0,29.85,M,4.97,M,FEW,M,M,M,1700,M,M,M,M,M,M,M,M,M,M,75.2,VVTS 101700Z 27001KT 8000 FEW017 24/20 Q1011 NOSIG,M
VVTS,1/10/2021 17:30,106.6667,10.8167,75.2,66.2,73.61,340,2,0,29.83,M,6.21,M,FEW,M,M,M,1700,M,M,M,M,M,M,M,M,M,M,75.2,VVTS 101730Z 34002KT 9999 FEW017 24/19 Q1010 NOSIG,M
VVTS,1/10/2021 18:00,106.6667,10.8167,75.2,66.2,73.61,320,3,0,29.83,M,6.21,M,FEW,M,M,M,1700,M,M,M,M,M,M,M,M,M,M,75.2,VVTS 101800Z 32003KT 9999 FEW017 24/19 Q1010 NOSIG,M
VVTS,1/10/2021 18:30,106.6667,10.8167,75.2,66.2,73.61,330,3,0,29.8,M,4.97,M,FEW,SCT,M,M,1700,5000,M,M,M,M,M,M,M,M,M,75.2,VVTS 101830Z 33003KT 8000 FEW017 SCT050 24/19 Q1009 NOSIG,M
VVTS,1/10/2021 19:00,106.6667,10.8167,73.4,66.2,78.19,20,2,0,29.8,M,4.97,M,FEW,SCT,M,M,1700,5000,M,M,M,M,M,M,M,M,M,73.4,VVTS 101900Z 02002KT 8000 FEW017 SCT050 23/19 Q1009 NOSIG,M
VVTS,1/10/2021 19:30,106.6667,10.8167,73.4,66.2,78.19,330,3,0,29.8,M,4.97,M,FEW,SCT,M,M,1700,5000,M,M,M,M,M,M,M,M,M,73.4,VVTS 101930Z 33003KT 8000 FEW017 SCT050 23/19 Q1009 NOSIG,M
VVTS,1/10/2021 20:00,106.6667,10.8167,73.4,66.2,78.19,M,1,0,29.8,M,4.97,M,FEW,SCT,M,M,1700,5000,M,M,M,M,M,M,M,M,M,73.4,VVTS 102000Z VRB01KT 8000 FEW017 SCT050 23/19 Q1009 NOSIG,M
VVTS,1/10/2021 20:30,106.6667,10.8167,71.6,66.2,83.09,M,1,0,29.8,M,4.97,M,FEW,SCT,M,M,1700,5000,M,M,M,M,M,M,M,M,M,71.6,VVTS 102030Z VRB01KT 8000 FEW017 SCT050 22/19 Q1009 NOSIG,M
VVTS,1/10/2021 21:00,106.6667,10.8167,71.6,66.2,83.09,350,3,0,29.8,M,4.97,M,FEW,SCT,M,M,1700,5000,M,M,M,M,M,M,M,M,M,71.6,VVTS 102100Z 35003KT 8000 FEW017 SCT050 22/19 Q1009 NOSIG,M
VVTS,1/10/2021 21:30,106.6667,10.8167,71.6,66.2,83.09,360,4,0,29.8,M,4.97,M,FEW,SCT,M,M,1700,5000,M,M,M,M,M,M,M,M,M,71.6,VVTS 102130Z 36004KT 320V030 8000 FEW017 SCT050 22/19 Q1009 NOSIG,M
VVTS,1/10/2021 22:00,106.6667,10.8167,71.6,66.2,83.09,10,5,0,29.8,M,4.97,M,FEW,SCT,M,M,1700,5000,M,M,M,M,M,M,M,M,M,71.6,VVTS 102200Z 01005KT 8000 FEW017 SCT050 22/19 Q1009 NOSIG,M
VVTS,1/10/2021 22:30,106.6667,10.8167,71.6,64.4,78.04,40,4,0,29.83,M,4.97,M,FEW,SCT,M,M,1700,5000,M,M,M,M,M,M,M,M,M,71.6,VVTS 102230Z 04004KT 8000 FEW017 SCT050 22/18 Q1010 NOSIG,M
VVTS,1/10/2021 23:00,106.6667,10.8167,71.6,64.4,78.04,M,2,0,29.83,M,4.97,M,FEW,SCT,M,M,1700,5000,M,M,M,M,M,M,M,M,M,71.6,VVTS 102300Z VRB02KT 8000 FEW017 SCT050 22/18 Q1010 NOSIG,M
VVTS,1/10/2021 23:30,106.6667,10.8167,71.6,64.4,78.04,M,3,0,29.83,M,4.97,M,FEW,M,M,M,2000,M,M,M,M,M,M,M,M,M,M,71.6,VVTS 102330Z VRB03KT 8000 FEW020 22/18 Q1010 NOSIG,M
VVTS,1/11/2021 0:00,106.6667,10.8167,71.6,64.4,78.04,20,4,0,29.85,M,6.21,M,FEW,M,M,M,2000,M,M,M,M,M,M,M,M,M,M,71.6,VVTS 110000Z 02004KT 340V040 9999 FEW020 22/18 Q1011 NOSIG,M
VVTS,1/11/2021 0:30,106.6667,10.8167,71.6,64.4,78.04,20,4,0,29.88,M,6.21,M,FEW,M,M,M,2000,M,M,M,M,M,M,M,M,M,M,71.6,VVTS 110030Z 02004KT 350V050 9999 FEW020 22/18 Q1012 NOSIG,M
VVTS,1/11/2021 1:00,106.6667,10.8167,73.4,64.4,73.44,M,3,0,29.91,M,6.21,M,FEW,M,M,M,2000,M,M,M,M,M,M,M,M,M,M,73.4,VVTS 110100Z VRB03KT 9999 FEW020 23/18 Q1013 NOSIG,M
VVTS,1/11/2021 1:30,106.6667,10.8167,75.2,64.4,69.14,M,3,0,29.91,M,6.21,M,FEW,M,M,M,2000,M,M,M,M,M,M,M,M,M,M,75.2,VVTS 110130Z VRB03KT 9999 FEW020 24/18 Q1013 NOSIG,M
VVTS,1/11/2021 2:00,106.6667,10.8167,78.8,64.4,61.36,M,3,0,29.91,M,4.97,M,FEW,M,M,M,2000,M,M,M,M,M,M,M,M,M,M,78.8,VVTS 110200Z VRB03KT 8000 FEW020 26/18 Q1013 NOSIG,M
VVTS,1/11/2021 2:30,106.6667,10.8167,78.8,66.2,65.33,M,2,0,29.91,M,4.97,M,FEW,M,M,M,2000,M,M,M,M,M,M,M,M,M,M,78.8,VVTS 110230Z VRB02KT 8000 FEW020 26/19 Q1013 NOSIG,M
VVTS,1/11/2021 3:00,106.6667,10.8167,80.6,64.4,57.84,M,3,0,29.91,M,6.21,M,FEW,M,M,M,2000,M,M,M,M,M,M,M,M,M,M,82.27,VVTS 110300Z VRB03KT 9999 FEW020 27/18 Q1013 NOSIG,M
VVTS,1/11/2021 3:30,106.6667,10.8167,82.4,64.4,54.55,M,3,0,29.88,M,6.21,M,FEW,M,M,M,2000,M,M,M,M,M,M,M,M,M,M,83.98,VVTS 110330Z VRB03KT 9999 FEW020 28/18 Q1012 NOSIG,M
VVTS,1/11/2021 4:00,106.6667,10.8167,84.2,64.4,51.47,320,4,0,29.88,M,6.21,M,FEW,M,M,M,2000,M,M,M,M,M,M,M,M,M,M,85.71,VVTS 110400Z 32004KT 250V010 9999 FEW020 29/18 Q1012 NOSIG,M
VVTS,1/11/2021 4:30,106.6667,10.8167,86,64.4,48.58,290,4,0,29.88,M,6.21,M,FEW,M,M,M,2000,M,M,M,M,M,M,M,M,M,M,87.49,VVTS 110430Z 29004KT 240V330 9999 FEW020 30/18 Q1012 NOSIG,M
VVTS,1/11/2021 5:00,106.6667,10.8167,86,64.4,48.58,300,4,0,29.85,M,6.21,M,FEW,M,M,M,2000,M,M,M,M,M,M,M,M,M,M,87.49,VVTS 110500Z 30004KT 250V060 9999 FEW020 30/18 Q1011 NOSIG,M
VVTS,1/11/2021 5:30,106.6667,10.8167,87.8,62.6,43.07,M,4,0,29.85,M,6.21,M,FEW,M,M,M,2000,M,M,M,M,M,M,M,M,M,M,88.48,VVTS 110530Z VRB04KT 9999 FEW020 31/17 Q1011 NOSIG,M
VVTS,1/11/2021 6:00,106.6667,10.8167,86,60.8,42.8,360,4,0,29.83,M,6.21,M,SCT,M,M,M,2000,M,M,M,M,M,M,M,M,M,M,86.05,VVTS 110600Z 36004KT 300V090 9999 SCT020 30/16 Q1010 NOSIG,M
VVTS,1/11/2021 6:30,106.6667,10.8167,89.6,62.6,40.69,300,5,0,29.8,M,6.21,M,SCT,M,M,M,2000,M,M,M,M,M,M,M,M,M,M,90.32,VVTS 110630Z 30005KT 240V030 9999 SCT020 32/17 Q1009 NOSIG,M
VVTS,1/11/2021 7:00,106.6667,10.8167,87.8,60.8,40.41,M,4,0,29.8,M,6.21,M,SCT,M,M,M,2000,M,M,M,M,M,M,M,M,M,M,87.75,VVTS 110700Z VRB04KT 9999 SCT020 31/16 Q1009 NOSIG,M
VVTS,1/11/2021 7:30,106.6667,10.8167,87.8,60.8,40.41,10,5,0,29.8,M,6.21,M,SCT,M,M,M,2000,M,M,M,M,M,M,M,M,M,M,87.75,VVTS 110730Z 01005KT 9999 SCT020 31/16 Q1009 NOSIG,M
VVTS,1/11/2021 8:00,106.6667,10.8167,89.6,60.8,38.18,270,5,0,29.77,M,6.21,M,BKN,M,M,M,2000,M,M,M,M,M,M,M,M,M,M,89.54,VVTS 110800Z 27005KT 240V320 9999 BKN020 32/16 Q1008 NOSIG,M
VVTS,1/11/2021 8:30,106.6667,10.8167,89.6,60.8,38.18,310,8,0,29.8,M,6.21,M,BKN,M,M,M,2000,M,M,M,M,M,M,M,M,M,M,89.54,VVTS 110830Z 31008KT 270V360 9999 BKN020 32/16 Q1009 NOSIG,M
VVTS,1/11/2021 9:00,106.6667,10.8167,87.8,64.4,45.88,310,5,0,29.8,M,6.21,M,SCT,M,M,M,2000,M,M,M,M,M,M,M,M,M,M,89.33,VVTS 110900Z 31005KT 270V350 9999 SCT020 31/18 Q1009 NOSIG,M
VVTS,1/11/2021 9:30,106.6667,10.8167,87.8,64.4,45.88,270,6,0,29.8,M,6.21,M,SCT,M,M,M,2000,M,M,M,M,M,M,M,M,M,M,89.33,VVTS 110930Z 27006KT 250V310 9999 SCT020 31/18 Q1009 NOSIG,M
VVTS,1/11/2021 10:00,106.6667,10.8167,87.8,64.4,45.88,290,5,0,29.8,M,6.21,M,SCT,M,M,M,2000,M,M,M,M,M,M,M,M,M,M,89.33,VVTS 111000Z 29005KT 9999 SCT020 31/18 Q1009 NOSIG,M
VVTS,1/11/2021 10:30,106.6667,10.8167,86,64.4,48.58,270,5,0,29.8,M,6.21,M,SCT,M,M,M,2000,M,M,M,M,M,M,M,M,M,M,87.49,VVTS 111030Z 27005KT 9999 SCT020 30/18 Q1009 NOSIG,M
VVTS,1/11/2021 11:00,106.6667,10.8167,84.2,64.4,51.47,270,5,0,29.83,M,6.21,M,FEW,SCT,M,M,1700,5000,M,M,M,M,M,M,M,M,M,85.71,VVTS 111100Z 27005KT 9999 FEW017 SCT050 29/18 Q1010 NOSIG,M
VVTS,1/11/2021 11:30,106.6667,10.8167,84.2,68,58.32,M,4,0,29.83,M,6.21,M,FEW,SCT,M,M,1700,5000,M,M,M,M,M,M,M,M,M,87.4,VVTS 111130Z VRB04KT 9999 FEW017 SCT050 29/20 Q1010 NOSIG,M
VVTS,1/11/2021 12:00,106.6667,10.8167,80.6,71.6,74.11,100,9,0,29.85,M,6.21,M,FEW,SCT,M,M,1700,5000,M,M,M,M,M,M,M,M,M,84.57,VVTS 111200Z 10009KT 070V140 9999 FEW017 SCT050 27/22 Q1011 NOSIG,M
VVTS,1/11/2021 12:30,106.6667,10.8167,80.6,69.8,69.71,100,5,0,29.88,M,6.21,M,FEW,SCT,M,M,1700,5000,M,M,M,M,M,M,M,M,M,83.9,VVTS 111230Z 10005KT 060V150 9999 FEW017 SCT050 27/21 Q1012 NOSIG,M
VVTS,1/11/2021 13:00,106.6667,10.8167,80.6,68,65.54,100,5,0,29.88,M,6.21,M,FEW,SCT,M,M,1700,5000,M,M,M,M,M,M,M,M,M,83.29,VVTS 111300Z 10005KT 070V130 9999 FEW017 SCT050 27/20 Q1012 NOSIG,M
VVTS,1/11/2021 13:30,106.6667,10.8167,80.6,60.8,50.95,20,5,0,29.88,M,6.21,M,FEW,SCT,M,M,1700,5000,M,M,M,M,M,M,M,M,M,81.46,VVTS 111330Z 02005KT 9999 FEW017 SCT050 27/16 Q1012 NOSIG,M
VVTS,1/11/2021 14:00,106.6667,10.8167,80.6,60.8,50.95,M,3,0,29.91,M,6.21,M,FEW,SCT,M,M,1700,5000,M,M,M,M,M,M,M,M,M,81.46,VVTS 111400Z VRB03KT 9999 FEW017 SCT050 27/16 Q1013 NOSIG,M
VVTS,1/11/2021 14:30,106.6667,10.8167,78.8,62.6,57.6,40,5,0,29.88,M,6.21,M,FEW,SCT,M,M,1700,5000,M,M,M,M,M,M,M,M,M,78.8,VVTS 111430Z 04005KT 9999 FEW017 SCT050 26/17 Q1012 NOSIG,M
VVTS,1/11/2021 15:00,106.6667,10.8167,78.8,60.8,54.05,20,5,0,29.88,M,6.21,M,FEW,SCT,M,M,1700,5000,M,M,M,M,M,M,M,M,M,78.8,VVTS 111500Z 02005KT 9999 FEW017 SCT050 26/16 Q1012 NOSIG,M
VVTS,1/11/2021 15:30,106.6667,10.8167,77,62.6,61.13,10,4,0,29.88,M,6.21,M,FEW,M,M,M,1700,M,M,M,M,M,M,M,M,M,M,77,VVTS 111530Z 01004KT 9999 FEW017 25/17 Q1012 NOSIG,M
VVTS,1/11/2021 16:00,106.6667,10.8167,77,62.6,61.13,20,4,0,29.88,M,6.21,M,FEW,M,M,M,1700,M,M,M,M,M,M,M,M,M,M,77,VVTS 111600Z 02004KT 9999 FEW017 25/17 Q1012 NOSIG,M
VVTS,1/11/2021 16:30,106.6667,10.8167,75.2,62.6,64.91,360,3,0,29.88,M,6.21,M,FEW,M,M,M,1700,M,M,M,M,M,M,M,M,M,M,75.2,VVTS 111630Z 36003KT 9999 FEW017 24/17 Q1012 NOSIG,M
VVTS,1/11/2021 17:00,106.6667,10.8167,75.2,62.6,64.91,10,4,0,29.88,M,6.21,M,FEW,M,M,M,1700,M,M,M,M,M,M,M,M,M,M,75.2,VVTS 111700Z 01004KT 9999 FEW017 24/17 Q1012 NOSIG,M
VVTS,1/11/2021 17:30,106.6667,10.8167,75.2,62.6,64.91,20,4,0,29.88,M,6.21,M,FEW,M,M,M,1700,M,M,M,M,M,M,M,M,M,M,75.2,VVTS 111730Z 02004KT 330V050 9999 FEW017 24/17 Q1012 NOSIG,M
VVTS,1/11/2021 18:00,106.6667,10.8167,73.4,62.6,68.94,10,4,0,29.85,M,6.21,M,FEW,M,M,M,1700,M,M,M,M,M,M,M,M,M,M,73.4,VVTS 111800Z 01004KT 340V050 9999 FEW017 23/17 Q1011 NOSIG,M
VVTS,1/11/2021 18:30,106.6667,10.8167,73.4,60.8,64.69,40,5,0,29.85,M,6.21,M,M,M,M,M,M,M,M,M,M,M,M,M,M,M,M,73.4,VVTS 111830Z 04005KT CAVOK 23/16 Q1011 NOSIG,M
VVTS,1/11/2021 19:00,106.6667,10.8167,73.4,60.8,64.69,40,5,0,29.85,M,6.21,M,FEW,SCT,M,M,1700,5000,M,M,M,M,M,M,M,M,M,73.4,VVTS 111900Z 04005KT 010V070 9999 FEW017 SCT050 23/16 Q1011 NOSIG,M
VVTS,1/11/2021 19:30,106.6667,10.8167,71.6,60.8,68.75,10,5,0,29.83,M,6.21,M,FEW,SCT,M,M,1700,5000,M,M,M,M,M,M,M,M,M,71.6,VVTS 111930Z 01005KT 9999 FEW017 SCT050 22/16 Q1010 NOSIG,M
VVTS,1/11/2021 20:00,106.6667,10.8167,71.6,60.8,68.75,10,5,0,29.85,M,6.21,M,FEW,SCT,M,M,1700,5000,M,M,M,M,M,M,M,M,M,71.6,VVTS 112000Z 01005KT 9999 FEW017 SCT050 22/16 Q1011 NOSIG,M
VVTS,1/11/2021 20:30,106.6667,10.8167,71.6,60.8,68.75,20,5,0,29.85,M,6.21,M,FEW,SCT,M,M,1700,5000,M,M,M,M,M,M,M,M,M,71.6,VVTS 112030Z 02005KT 9999 FEW017 SCT050 22/16 Q1011 NOSIG,M
VVTS,1/11/2021 21:00,106.6667,10.8167,71.6,60.8,68.75,20,4,0,29.85,M,6.21,M,FEW,SCT,M,M,1700,5000,M,M,M,M,M,M,M,M,M,71.6,VVTS 112100Z 02004KT 9999 FEW017 SCT050 22/16 Q1011 NOSIG,M
VVTS,1/11/2021 21:30,106.6667,10.8167,71.6,60.8,68.75,M,3,0,29.85,M,6.21,M,FEW,M,M,M,1700,M,M,M,M,M,M,M,M,M,M,71.6,VVTS 112130Z VRB03KT 9999 FEW017 22/16 Q1011 NOSIG,M
VVTS,1/11/2021 22:00,106.6667,10.8167,69.8,60.8,73.09,10,4,0,29.85,M,6.21,M,FEW,M,M,M,1700,M,M,M,M,M,M,M,M,M,M,69.8,VVTS 112200Z 01004KT 340V040 9999 FEW017 21/16 Q1011 NOSIG,M
VVTS,1/11/2021 22:30,106.6667,10.8167,69.8,60.8,73.09,10,6,0,29.88,M,6.21,M,FEW,M,M,M,1700,M,M,M,M,M,M,M,M,M,M,69.8,VVTS 112230Z 01006KT 9999 FEW017 21/16 Q1012 NOSIG,M
VVTS,1/11/2021 23:00,106.6667,10.8167,69.8,60.8,73.09,20,5,0,29.88,M,6.21,M,FEW,M,M,M,1700,M,M,M,M,M,M,M,M,M,M,69.8,VVTS 112300Z 02005KT 350V050 9999 FEW017 21/16 Q1012 NOSIG,M
VVTS,1/11/2021 23:30,106.6667,10.8167,69.8,60.8,73.09,360,5,0,29.88,M,6.21,M,FEW,M,M,M,1700,M,M,M,M,M,M,M,M,M,M,69.8,VVTS 112330Z 36005KT 330V030 9999 FEW017 21/16 Q1012 NOSIG,M
VVTS,1/12/2021 0:00,106.6667,10.8167,69.8,60.8,73.09,360,5,0,29.91,M,6.21,M,FEW,M,M,M,1700,M,M,M,M,M,M,M,M,M,M,69.8,VVTS 120000Z 36005KT 330V030 9999 FEW017 21/16 Q1013 NOSIG,M
VVTS,1/12/2021 0:30,106.6667,10.8167,71.6,59,64.48,360,7,0,29.91,M,6.21,M,FEW,M,M,M,1700,M,M,M,M,M,M,M,M,M,M,71.6,VVTS 120030Z 36007KT 9999 FEW017 22/15 Q1013 NOSIG,M
VVTS,1/12/2021 1:00,106.6667,10.8167,73.4,59,60.67,10,7,0,29.91,M,6.21,M,FEW,M,M,M,1700,M,M,M,M,M,M,M,M,M,M,73.4,VVTS 120100Z 01007KT 330V050 9999 FEW017 23/15 Q1013 NOSIG,M
VVTS,1/12/2021 1:30,106.6667,10.8167,73.4,57.2,56.88,10,8,0,29.94,M,6.21,M,FEW,M,M,M,1700,M,M,M,M,M,M,M,M,M,M,73.4,VVTS 120130Z 01008KT 330V040 9999 FEW017 23/14 Q1014 NOSIG,M
VVTS,1/12/2021 2:00,106.6667,10.8167,75.2,59,57.12,20,7,0,29.94,M,6.21,M,FEW,M,M,M,1700,M,M,M,M,M,M,M,M,M,M,75.2,VVTS 120200Z 02007KT 340V050 9999 FEW017 24/15 Q1014 NOSIG,M
VVTS,1/12/2021 2:30,106.6667,10.8167,77,59,53.8,20,6,0,29.91,M,6.21,M,FEW,M,M,M,1700,M,M,M,M,M,M,M,M,M,M,77,VVTS 120230Z 02006KT 330V050 9999 FEW017 25/15 Q1013 NOSIG,M
VVTS,1/12/2021 3:00,106.6667,10.8167,78.8,59,50.69,40,6,0,29.91,M,6.21,M,FEW,M,M,M,2000,M,M,M,M,M,M,M,M,M,M,78.8,VVTS 120300Z 04006KT 320V090 9999 FEW020 26/15 Q1013 NOSIG,M
VVTS,1/12/2021 3:30,106.6667,10.8167,80.6,59,47.79,10,6,0,29.91,M,6.21,M,FEW,M,M,M,2000,M,M,M,M,M,M,M,M,M,M,81.11,VVTS 120330Z 01006KT 310V060 9999 FEW020 27/15 Q1013 NOSIG,M
VVTS,1/12/2021 4:00,106.6667,10.8167,82.4,59,45.07,340,9,0,29.88,M,6.21,M,FEW,M,M,M,2000,M,M,M,M,M,M,M,M,M,M,82.46,VVTS 120400Z 34009KT 300V040 9999 FEW020 28/15 Q1012 NOSIG,M
VVTS,1/12/2021 4:30,106.6667,10.8167,82.4,57.2,42.25,350,7,0,29.88,M,6.21,M,FEW,M,M,M,2000,M,M,M,M,M,M,M,M,M,M,82.08,VVTS 120430Z 35007KT 300V080 9999 FEW020 28/14 Q1012 NOSIG,M
VVTS,1/12/2021 5:00,106.6667,10.8167,84.2,59,42.52,350,6,0,29.85,M,6.21,M,FEW,M,M,M,2000,M,M,M,M,M,M,M,M,M,M,83.92,VVTS 120500Z 35006KT 300V050 9999 FEW020 29/15 Q1011 NOSIG,M
VVTS,1/12/2021 5:30,106.6667,10.8167,84.2,59,42.52,M,5,0,29.85,M,6.21,M,FEW,M,M,M,2000,M,M,M,M,M,M,M,M,M,M,83.92,VVTS 120530Z VRB05KT 9999 FEW020 29/15 Q1011 NOSIG,M
VVTS,1/12/2021 6:00,106.6667,10.8167,86,57.2,37.62,320,5,0,29.83,M,6.21,M,FEW,M,M,M,2000,M,M,M,M,M,M,M,M,M,M,84.97,VVTS 120600Z 32005KT 270V010 9999 FEW020 30/14 Q1010 NOSIG,M
VVTS,1/12/2021 6:30,106.6667,10.8167,86,59,40.14,360,6,0,29.83,M,6.21,M,FEW,M,M,M,2000,M,M,M,M,M,M,M,M,M,M,85.47,VVTS 120630Z 36006KT 300V040 9999 FEW020 30/15 Q1010 NOSIG,M
VVTS,1/12/2021 7:00,106.6667,10.8167,84.2,57.2,39.86,20,6,0,29.8,M,6.21,M,FEW,SCT,M,M,2000,6000,M,M,M,M,M,M,M,M,M,83.47,VVTS 120700Z 02006KT 310V050 9999 FEW020 SCT060 29/14 Q1009 NOSIG,M
VVTS,1/12/2021 7:30,106.6667,10.8167,86,59,40.14,350,5,0,29.8,M,6.21,M,FEW,SCT,M,M,2000,6000,M,M,M,M,M,M,M,M,M,85.47,VVTS 120730Z 35005KT 280V030 9999 FEW020 SCT060 30/15 Q1009 NOSIG,M
VVTS,1/12/2021 8:00,106.6667,10.8167,87.8,57.2,35.53,210,4,0,29.8,M,6.21,M,FEW,SCT,M,M,2000,6000,M,M,M,M,M,M,M,M,M,86.58,VVTS 120800Z 21004KT 110V260 9999 FEW020 SCT060 31/14 Q1009 NOSIG,M
VVTS,1/12/2021 8:30,106.6667,10.8167,86,57.2,37.62,10,8,0,29.8,M,6.21,M,FEW,SCT,M,M,2000,6000,M,M,M,M,M,M,M,M,M,84.97,VVTS 120830Z 01008KT 330V040 9999 FEW020 SCT060 30/14 Q1009 NOSIG,M
VVTS,1/12/2021 9:00,106.6667,10.8167,84.2,57.2,39.86,360,7,0,29.8,M,6.21,M,FEW,SCT,M,M,2000,6000,M,M,M,M,M,M,M,M,M,83.47,VVTS 120900Z 36007KT 330V030 9999 FEW020 SCT060 29/14 Q1009,M
VVTS,1/12/2021 9:30,106.6667,10.8167,84.2,59,42.52,330,5,0,29.8,M,6.21,M,FEW,M,M,M,2000,M,M,M,M,M,M,M,M,M,M,83.92,VVTS 120930Z 33005KT 9999 FEW020 29/15 Q1009 NOSIG,M
VVTS,1/12/2021 10:00,106.6667,10.8167,84.2,57.2,39.86,M,3,0,29.8,M,6.21,M,FEW,M,M,M,2000,M,M,M,M,M,M,M,M,M,M,83.47,VVTS 121000Z VRB03KT 9999 FEW020 29/14 Q1009 NOSIG,M
VVTS,1/12/2021 10:30,106.6667,10.8167,82.4,57.2,42.25,30,7,0,29.83,M,6.21,M,FEW,M,M,M,2000,M,M,M,M,M,M,M,M,M,M,82.08,VVTS 121030Z 03007KT 9999 FEW020 28/14 Q1010 NOSIG,M
VVTS,1/12/2021 11:00,106.6667,10.8167,80.6,57.2,44.8,30,8,0,29.83,M,6.21,M,FEW,M,M,M,2000,M,M,M,M,M,M,M,M,M,M,80.81,VVTS 121100Z 03008KT 9999 FEW020 27/14 Q1010 NOSIG,M
VVTS,1/12/2021 11:30,106.6667,10.8167,80.6,57.2,44.8,20,6,0,29.83,M,6.21,M,FEW,M,M,M,2000,M,M,M,M,M,M,M,M,M,M,80.81,VVTS 121130Z 02006KT 350V050 9999 FEW020 27/14 Q1010 NOSIG,M
VVTS,1/12/2021 12:00,106.6667,10.8167,78.8,57.2,47.52,20,4,0,29.85,M,6.21,M,FEW,M,M,M,2000,M,M,M,M,M,M,M,M,M,M,78.8,VVTS 121200Z 02004KT 9999 FEW020 26/14 Q1011 NOSIG,M
VVTS,1/12/2021 12:30,106.6667,10.8167,78.8,57.2,47.52,M,3,0,29.85,M,6.21,M,FEW,M,M,M,2000,M,M,M,M,M,M,M,M,M,M,78.8,VVTS 121230Z VRB03KT 9999 FEW020 26/14 Q1011 NOSIG,M
VVTS,1/12/2021 13:00,106.6667,10.8167,78.8,57.2,47.52,60,4,0,29.88,M,6.21,M,FEW,M,M,M,2000,M,M,M,M,M,M,M,M,M,M,78.8,VVTS 121300Z 06004KT 020V100 9999 FEW020 26/14 Q1012 NOSIG,M
VVTS,1/12/2021 13:30,106.6667,10.8167,77,57.2,50.43,10,5,0,29.88,M,6.21,M,FEW,M,M,M,2000,M,M,M,M,M,M,M,M,M,M,77,VVTS 121330Z 01005KT 330V040 9999 FEW020 25/14 Q1012 NOSIG,M
VVTS,1/12/2021 14:00,106.6667,10.8167,77,57.2,50.43,10,7,0,29.88,M,6.21,M,FEW,M,M,M,2000,M,M,M,M,M,M,M,M,M,M,77,VVTS 121400Z 01007KT 9999 FEW020 25/14 Q1012 NOSIG,M
VVTS,1/12/2021 14:30,106.6667,10.8167,75.2,57.2,53.55,20,7,0,29.88,M,6.21,M,FEW,M,M,M,2000,M,M,M,M,M,M,M,M,M,M,75.2,VVTS 121430Z 02007KT 9999 FEW020 24/14 Q1012 NOSIG,M
VVTS,1/12/2021 15:00,106.6667,10.8167,73.4,57.2,56.88,360,7,0,29.88,M,6.21,M,FEW,M,M,M,2000,M,M,M,M,M,M,M,M,M,M,73.4,VVTS 121500Z 36007KT 9999 FEW020 23/14 Q1012 NOSIG,M
VVTS,1/12/2021 15:30,106.6667,10.8167,73.4,57.2,56.88,360,5,0,29.88,M,6.21,M,FEW,SCT,M,M,2000,5000,M,M,M,M,M,M,M,M,M,73.4,VVTS 121530Z 36005KT 330V040 9999 FEW020 SCT050 23/14 Q1012 NOSIG,M
VVTS,1/12/2021 16:00,106.6667,10.8167,73.4,57.2,56.88,360,7,0,29.88,M,6.21,M,FEW,SCT,M,M,2000,5000,M,M,M,M,M,M,M,M,M,73.4,VVTS 121600Z 36007KT 9999 FEW020 SCT050 23/14 Q1012 NOSIG,M
VVTS,1/12/2021 16:30,106.6667,10.8167,71.6,57.2,60.44,350,4,0,29.88,M,6.21,M,FEW,SCT,M,M,2000,5000,M,M,M,M,M,M,M,M,M,71.6,VVTS 121630Z 35004KT 330V050 9999 FEW020 SCT050 22/14 Q1012 NOSIG,M
VVTS,1/12/2021 17:00,106.6667,10.8167,71.6,57.2,60.44,10,5,0,29.88,M,6.21,M,FEW,SCT,M,M,2000,5000,M,M,M,M,M,M,M,M,M,71.6,VVTS 121700Z 01005KT 330V040 9999 FEW020 SCT050 22/14 Q1012 NOSIG,M
VVTS,1/12/2021 17:30,106.6667,10.8167,69.8,59,68.55,M,3,0,29.88,M,6.21,M,FEW,M,M,M,2000,M,M,M,M,M,M,M,M,M,M,69.8,VVTS 121730Z VRB03KT 9999 FEW020 21/15 Q1012 NOSIG,M
VVTS,1/12/2021 18:00,106.6667,10.8167,69.8,57.2,64.26,M,3,0,29.85,M,6.21,M,FEW,M,M,M,2000,M,M,M,M,M,M,M,M,M,M,69.8,VVTS 121800Z VRB03KT 9999 FEW020 21/14 Q1011 NOSIG,M
VVTS,1/12/2021 18:30,106.6667,10.8167,68,57.2,68.35,M,3,0,29.85,M,6.21,M,FEW,M,M,M,2000,M,M,M,M,M,M,M,M,M,M,68,VVTS 121830Z VRB03KT 9999 FEW020 20/14 Q1011 NOSIG,M
VVTS,1/12/2021 19:00,106.6667,10.8167,68,57.2,68.35,330,4,0,29.85,M,6.21,M,FEW,M,M,M,2000,M,M,M,M,M,M,M,M,M,M,68,VVTS 121900Z 33004KT 9999 FEW020 20/14 Q1011 NOSIG,M
VVTS,1/12/2021 19:30,106.6667,10.8167,68,59,72.92,340,4,0,29.85,M,6.21,M,FEW,M,M,M,2000,M,M,M,M,M,M,M,M,M,M,68,VVTS 121930Z 34004KT 310V010 9999 FEW020 20/15 Q1011 NOSIG,M
VVTS,1/12/2021 20:00,106.6667,10.8167,66.2,59,77.6,320,3,0,29.85,M,6.21,M,FEW,M,M,M,2000,M,M,M,M,M,M,M,M,M,M,66.2,VVTS 122000Z 32003KT 9999 FEW020 19/15 Q1011 NOSIG,M
VVTS,1/12/2021 20:30,106.6667,10.8167,66.2,59,77.6,300,4,0,29.85,M,6.21,M,FEW,M,M,M,2000,M,M,M,M,M,M,M,M,M,M,66.2,VVTS 122030Z 30004KT 9999 FEW020 19/15 Q1011 NOSIG,M
VVTS,1/12/2021 21:00,106.6667,10.8167,66.2,59,77.6,320,4,0,29.85,M,6.21,M,FEW,M,M,M,2000,M,M,M,M,M,M,M,M,M,M,66.2,VVTS 122100Z 32004KT 9999 FEW020 19/15 Q1011 NOSIG,M
VVTS,1/12/2021 21:30,106.6667,10.8167,66.2,59,77.6,330,3,0,29.85,M,6.21,M,FEW,M,M,M,2000,M,M,M,M,M,M,M,M,M,M,66.2,VVTS 122130Z 33003KT 9999 FEW020 19/15 Q1011 NOSIG,M
VVTS,1/12/2021 22:00,106.6667,10.8167,66.2,59,77.6,M,3,0,29.85,M,6.21,M,FEW,M,M,M,2000,M,M,M,M,M,M,M,M,M,M,66.2,VVTS 122200Z VRB03KT 9999 FEW020 19/15 Q1011 NOSIG,M
VVTS,1/12/2021 22:30,106.6667,10.8167,66.2,59,77.6,M,2,0,29.85,M,6.21,M,FEW,M,M,M,2000,M,M,M,M,M,M,M,M,M,M,66.2,VVTS 122230Z VRB02KT 9999 FEW020 19/15 Q1011 NOSIG,M
VVTS,1/12/2021 23:00,106.6667,10.8167,66.2,59,77.6,M,3,0,29.88,M,6.21,M,SCT,M,M,M,2000,M,M,M,M,M,M,M,M,M,M,66.2,VVTS 122300Z VRB03KT 9999 SCT020 19/15 Q1012 NOSIG,M
VVTS,1/12/2021 23:30,106.6667,10.8167,66.2,59,77.6,10,4,0,29.88,M,6.21,M,BKN,M,M,M,1700,M,M,M,M,M,M,M,M,M,M,66.2,VVTS 122330Z 01004KT 340V060 9999 BKN017 19/15 Q1012 NOSIG,M
VVTS,1/13/2021 0:00,106.6667,10.8167,68,57.2,68.35,30,4,0,29.91,M,6.21,M,BKN,M,M,M,1700,M,M,M,M,M,M,M,M,M,M,68,VVTS 130000Z 03004KT 9999 BKN017 20/14 Q1013 NOSIG,M
VVTS,1/13/2021 0:30,106.6667,10.8167,68,59,72.92,M,3,0,29.91,M,6.21,M,BKN,M,M,M,1700,M,M,M,M,M,M,M,M,M,M,68,VVTS 130030Z VRB03KT 9999 BKN017 20/15 Q1013 NOSIG,M
VVTS,1/13/2021 1:00,106.6667,10.8167,69.8,59,68.55,M,1,0,29.94,M,6.21,M,SCT,BKN,M,M,1700,5000,M,M,M,M,M,M,M,M,M,69.8,VVTS 130100Z VRB01KT 9999 SCT017 BKN050 21/15 Q1014 NOSIG,M
VVTS,1/13/2021 1:30,106.6667,10.8167,71.6,59,64.48,M,2,0,29.94,M,6.21,M,FEW,BKN,M,M,1700,5000,M,M,M,M,M,M,M,M,M,71.6,VVTS 130130Z VRB02KT 9999 FEW017 BKN050 22/15 Q1014 NOSIG,M
VVTS,1/13/2021 2:00,106.6667,10.8167,73.4,59,60.67,M,1,0,29.94,M,6.21,M,FEW,BKN,M,M,1700,5000,M,M,M,M,M,M,M,M,M,73.4,VVTS 130200Z VRB01KT 9999 FEW017 BKN050 23/15 Q1014 NOSIG,M
VVTS,1/13/2021 2:30,106.6667,10.8167,73.4,59,60.67,M,2,0,29.94,M,6.21,M,FEW,BKN,M,M,1700,5000,M,M,M,M,M,M,M,M,M,73.4,VVTS 130230Z VRB02KT 9999 FEW017 BKN050 23/15 Q1014 NOSIG,M
VVTS,1/13/2021 3:00,106.6667,10.8167,75.2,59,57.12,M,2,0,29.94,M,6.21,M,FEW,BKN,M,M,1700,5000,M,M,M,M,M,M,M,M,M,75.2,VVTS 130300Z VRB02KT 9999 FEW017 BKN050 24/15 Q1014 NOSIG,M
VVTS,1/13/2021 3:30,106.6667,10.8167,77,57.2,50.43,M,2,0,29.91,M,6.21,M,FEW,SCT,M,M,1700,5000,M,M,M,M,M,M,M,M,M,77,VVTS 130330Z VRB02KT 9999 FEW017 SCT050 25/14 Q1013 NOSIG,M
VVTS,1/13/2021 4:00,106.6667,10.8167,77,57.2,50.43,M,3,0,29.91,M,6.21,M,FEW,M,M,M,2000,M,M,M,M,M,M,M,M,M,M,77,VVTS 130400Z VRB03KT 9999 FEW020 25/14 Q1013 NOSIG,M
VVTS,1/13/2021 4:30,106.6667,10.8167,80.6,57.2,44.8,M,2,0,29.91,M,6.21,M,FEW,M,M,M,2000,M,M,M,M,M,M,M,M,M,M,80.81,VVTS 130430Z VRB02KT 9999 FEW020 27/14 Q1013 NOSIG,M
VVTS,1/13/2021 5:00,106.6667,10.8167,80.6,59,47.79,M,3,0,29.88,M,6.21,M,FEW,M,M,M,2000,M,M,M,M,M,M,M,M,M,M,81.11,VVTS 130500Z VRB03KT 9999 R25L/1700VP2000N FEW020 27/15 Q1012 NOSIG,M
VVTS,1/13/2021 5:30,106.6667,10.8167,82.4,59,45.07,M,3,0,29.88,M,5.59,M,FEW,M,M,M,2000,M,M,M,M,M,M,M,M,M,M,82.46,VVTS 130530Z VRB03KT 9000 FEW020 28/15 Q1012 NOSIG,M
VVTS,1/13/2021 6:00,106.6667,10.8167,82.4,59,45.07,M,3,0,29.85,M,5.59,M,FEW,M,M,M,2000,M,M,M,M,M,M,M,M,M,M,82.46,VVTS 130600Z VRB03KT 9000 FEW020 28/15 Q1011 NOSIG,M
VVTS,1/13/2021 6:30,106.6667,10.8167,82.4,60.8,48.05,310,5,0,29.85,M,4.97,M,FEW,M,M,M,2000,M,M,M,M,M,M,M,M,M,M,82.9,VVTS 130630Z 31005KT 260V030 8000 FEW020 28/16 Q1011 NOSIG,M
VVTS,1/13/2021 7:00,106.6667,10.8167,82.4,60.8,48.05,290,7,0,29.85,M,4.97,M,SCT,M,M,M,2000,M,M,M,M,M,M,M,M,M,M,82.9,VVTS 130700Z 29007KT 240V320 8000 SCT020 28/16 Q1011 NOSIG,M
VVTS,1/13/2021 7:30,106.6667,10.8167,82.4,60.8,48.05,300,6,0,29.83,M,4.97,M,SCT,M,M,M,2000,M,M,M,M,M,M,M,M,M,M,82.9,VVTS 130730Z 30006KT 250V360 8000 SCT020 28/16 Q1010 NOSIG,M
VVTS,1/13/2021 8:00,106.6667,10.8167,82.4,60.8,48.05,280,7,0,29.83,M,4.97,M,SCT,M,M,M,2000,M,M,M,M,M,M,M,M,M,M,82.9,VVTS 130800Z 28007KT 250V330 8000 SCT020 28/16 Q1010 NOSIG,M
VVTS,1/13/2021 8:30,106.6667,10.8167,82.4,60.8,48.05,280,7,0,29.83,M,6.21,M,SCT,M,M,M,2000,M,M,M,M,M,M,M,M,M,M,82.9,VVTS 130830Z 28007KT 240V320 9999 SCT020 28/16 Q1010 NOSIG,M
VVTS,1/13/2021 9:00,106.6667,10.8167,82.4,60.8,48.05,320,7,0,29.83,M,6.21,M,SCT,M,M,M,2000,M,M,M,M,M,M,M,M,M,M,82.9,VVTS 130900Z 32007KT 270V360 9999 SCT020 28/16 Q1010 NOSIG,M
VVTS,1/13/2021 9:30,106.6667,10.8167,80.6,60.8,50.95,300,7,0,29.83,M,6.21,M,FEW,M,M,M,2000,M,M,M,M,M,M,M,M,M,M,81.46,VVTS 130930Z 30007KT 270V340 9999 FEW020 27/16 Q1010 NOSIG,M
VVTS,1/13/2021 10:00,106.6667,10.8167,80.6,60.8,50.95,270,8,0,29.83,M,6.21,M,FEW,M,M,M,2000,M,M,M,M,M,M,M,M,M,M,81.46,VVTS 131000Z 27008KT 9999 FEW020 27/16 Q1010 NOSIG,M
VVTS,1/13/2021 10:30,106.6667,10.8167,78.8,60.8,54.05,280,7,0,29.85,M,6.21,M,FEW,M,M,M,2000,M,M,M,M,M,M,M,M,M,M,78.8,VVTS 131030Z 28007KT 9999 FEW020 26/16 Q1011 NOSIG,M
VVTS,1/13/2021 11:00,106.6667,10.8167,78.8,60.8,54.05,270,7,0,29.85,M,6.21,M,FEW,M,M,M,2000,M,M,M,M,M,M,M,M,M,M,78.8,VVTS 131100Z 27007KT 9999 FEW020 26/16 Q1011 NOSIG,M
VVTS,1/13/2021 11:30,106.6667,10.8167,77,60.8,57.36,280,5,0,29.85,M,6.21,M,FEW,M,M,M,2000,M,M,M,M,M,M,M,M,M,M,77,VVTS 131130Z 28005KT 9999 FEW020 25/16 Q1011 NOSIG,M
VVTS,1/13/2021 12:00,106.6667,10.8167,77,62.6,61.13,280,4,0,29.85,M,6.21,M,FEW,M,M,M,2000,M,M,M,M,M,M,M,M,M,M,77,VVTS 131200Z 28004KT 9999 FEW020 25/17 Q1011 NOSIG,M
VVTS,1/13/2021 12:30,106.6667,10.8167,75.2,64.4,69.14,260,6,0,29.88,M,6.21,M,FEW,M,M,M,2000,M,M,M,M,M,M,M,M,M,M,75.2,VVTS 131230Z 26006KT 9999 FEW020 24/18 Q1012 NOSIG,M
VVTS,1/13/2021 13:00,106.6667,10.8167,73.4,64.4,73.44,260,5,0,29.88,M,6.21,M,FEW,M,M,M,2000,M,M,M,M,M,M,M,M,M,M,73.4,VVTS 131300Z 26005KT 9999 FEW020 23/18 Q1012 NOSIG,M
VVTS,1/13/2021 13:30,106.6667,10.8167,75.2,64.4,69.14,280,4,0,29.88,M,6.21,M,FEW,M,M,M,2000,M,M,M,M,M,M,M,M,M,M,75.2,VVTS 131330Z 28004KT 9999 FEW020 24/18 Q1012 NOSIG,M
VVTS,1/13/2021 14:00,106.6667,10.8167,75.2,64.4,69.14,280,2,0,29.88,M,6.21,M,FEW,M,M,M,2000,M,M,M,M,M,M,M,M,M,M,75.2,VVTS 131400Z 28002KT 9999 FEW020 24/18 Q1012 NOSIG,M
VVTS,1/13/2021 14:30,106.6667,10.8167,73.4,62.6,68.94,270,4,0,29.88,M,6.21,M,FEW,M,M,M,2000,M,M,M,M,M,M,M,M,M,M,73.4,VVTS 131430Z 27004KT 9999 FEW020 23/17 Q1012 NOSIG,M
VVTS,1/13/2021 15:00,106.6667,10.8167,73.4,64.4,73.44,270,4,0,29.88,M,6.21,M,FEW,M,M,M,2000,M,M,M,M,M,M,M,M,M,M,73.4,VVTS 131500Z 27004KT 9999 FEW020 23/18 Q1012 NOSIG,M
VVTS,1/13/2021 15:30,106.6667,10.8167,73.4,66.2,78.19,280,4,0,29.88,M,6.21,M,FEW,M,M,M,2000,M,M,M,M,M,M,M,M,M,M,73.4,VVTS 131530Z 28004KT 9999 FEW020 23/19 Q1012 NOSIG,M
VVTS,1/13/2021 16:00,106.6667,10.8167,73.4,64.4,73.44,M,1,0,29.85,M,6.21,M,FEW,M,M,M,2000,M,M,M,M,M,M,M,M,M,M,73.4,VVTS 131600Z VRB01KT 9999 FEW020 23/18 Q1011 NOSIG,M
VVTS,1/13/2021 16:30,106.6667,10.8167,73.4,64.4,73.44,M,3,0,29.85,M,6.21,M,FEW,M,M,M,2000,M,M,M,M,M,M,M,M,M,M,73.4,VVTS 131630Z VRB03KT 9999 FEW020 23/18 Q1011 NOSIG,M
VVTS,1/13/2021 17:00,106.6667,10.8167,71.6,64.4,78.04,280,3,0,29.85,M,6.21,M,FEW,M,M,M,2000,M,M,M,M,M,M,M,M,M,M,71.6,VVTS 131700Z 28003KT 9999 FEW020 22/18 Q1011 NOSIG,M
VVTS,1/13/2021 17:30,106.6667,10.8167,71.6,64.4,78.04,290,3,0,29.85,M,6.21,M,FEW,M,M,M,2000,M,M,M,M,M,M,M,M,M,M,71.6,VVTS 131730Z 29003KT 9999 FEW020 22/18 Q1011 NOSIG,M
VVTS,1/13/2021 18:00,106.6667,10.8167,69.8,64.4,82.98,M,1,0,29.85,M,6.21,M,FEW,M,M,M,2000,M,M,M,M,M,M,M,M,M,M,69.8,VVTS 131800Z VRB01KT 9999 FEW020 21/18 Q1011 NOSIG,M
VVTS,1/13/2021 18:30,106.6667,10.8167,69.8,64.4,82.98,240,1,0,29.85,M,4.97,M,FEW,M,M,M,2000,M,M,M,M,M,M,M,M,M,M,69.8,VVTS 131830Z 24001KT 8000 FEW020 21/18 Q1011 NOSIG,M
VVTS,1/13/2021 19:00,106.6667,10.8167,69.8,64.4,82.98,270,3,0,29.83,M,4.97,M,FEW,M,M,M,2000,M,M,M,M,M,M,M,M,M,M,69.8,VVTS 131900Z 27003KT 8000 FEW020 21/18 Q1010 NOSIG,M
VVTS,1/13/2021 19:30,106.6667,10.8167,69.8,64.4,82.98,280,2,0,29.83,M,4.97,M,FEW,M,M,M,2000,M,M,M,M,M,M,M,M,M,M,69.8,VVTS 131930Z 28002KT 8000 FEW020 21/18 Q1010 NOSIG,M
VVTS,1/13/2021 20:00,106.6667,10.8167,68,64.4,88.26,290,2,0,29.83,M,4.97,M,FEW,M,M,M,2000,M,M,M,M,M,M,M,M,M,M,68,VVTS 132000Z 29002KT 8000 FEW020 20/18 Q1010 NOSIG,M
VVTS,1/13/2021 20:30,106.6667,10.8167,69.8,64.4,82.98,300,2,0,29.83,M,4.97,M,FEW,M,M,M,2000,M,M,M,M,M,M,M,M,M,M,69.8,VVTS 132030Z 30002KT 8000 FEW020 21/18 Q1010 NOSIG,M
VVTS,1/13/2021 21:00,106.6667,10.8167,68,64.4,88.26,290,1,0,29.83,M,4.97,M,FEW,SCT,M,M,1700,5000,M,M,M,M,M,M,M,M,M,68,VVTS 132100Z 29001KT 8000 FEW017 SCT050 20/18 Q1010 NOSIG,M
VVTS,1/13/2021 21:30,106.6667,10.8167,68,64.4,88.26,290,2,0,29.83,M,4.97,M,FEW,SCT,M,M,1700,5000,M,M,M,M,M,M,M,M,M,68,VVTS 132130Z 29002KT 8000 FEW017 SCT050 20/18 Q1010 NOSIG,M
VVTS,1/13/2021 22:00,106.6667,10.8167,66.2,64.4,93.92,270,1,0,29.83,M,4.97,M,FEW,SCT,M,M,1700,5000,M,M,M,M,M,M,M,M,M,66.2,VVTS 132200Z 27001KT 8000 FEW017 SCT050 19/18 Q1010 NOSIG,M
VVTS,1/13/2021 22:30,106.6667,10.8167,66.2,64.4,93.92,280,2,0,29.85,M,4.97,M,FEW,SCT,M,M,1700,5000,M,M,M,M,M,M,M,M,M,66.2,VVTS 132230Z 28002KT 8000 FEW017 SCT050 19/18 Q1011 NOSIG,M
VVTS,1/13/2021 23:00,106.6667,10.8167,64.4,62.6,93.88,270,2,0,29.85,M,4.35,M,FEW,SCT,M,M,1700,5000,M,M,M,M,M,M,M,M,M,64.4,VVTS 132300Z 27002KT 7000 FEW017 SCT050 18/17 Q1011 NOSIG,M
VVTS,1/13/2021 23:30,106.6667,10.8167,66.2,62.6,88.18,300,2,0,29.85,M,3.11,M,FEW,SCT,M,M,1700,5000,M,M,BR,M,M,M,M,M,M,66.2,VVTS 132330Z 30002KT 5000 BR FEW017 SCT050 19/17 Q1011 BECMG TL2335 5000 BR,M
VVTS,1/14/2021 0:00,106.6667,10.8167,66.2,64.4,93.92,310,2,0,29.88,M,3.11,M,FEW,SCT,M,M,1700,5000,M,M,BR,M,M,M,M,M,M,66.2,VVTS 140000Z 31002KT 5000 BR FEW017 SCT050 19/18 Q1012 NOSIG,M
VVTS,1/14/2021 0:30,106.6667,10.8167,69.8,64.4,82.98,290,1,0,29.91,M,3.11,M,FEW,M,M,M,1700,M,M,M,BR,M,M,M,M,M,M,69.8,VVTS 140030Z 29001KT 5000 BR FEW017 21/18 Q1013 NOSIG,M
VVTS,1/14/2021 1:00,106.6667,10.8167,71.6,66.2,83.09,M,1,0,29.91,M,3.73,M,FEW,M,M,M,1700,M,M,M,M,M,M,M,M,M,M,71.6,VVTS 140100Z VRB01KT 6000 FEW017 22/19 Q1013 NOSIG,M
VVTS,1/14/2021 1:30,106.6667,10.8167,73.4,66.2,78.19,M,1,0,29.91,M,3.73,M,FEW,M,M,M,1700,M,M,M,M,M,M,M,M,M,M,73.4,VVTS 140130Z VRB01KT 6000 FEW017 23/19 Q1013 NOSIG,M
VVTS,1/14/2021 2:00,106.6667,10.8167,77,66.2,69.33,M,1,0,29.91,M,3.73,M,NSC,M,M,M,M,M,M,M,M,M,M,M,M,M,M,77,VVTS 140200Z VRB01KT 6000 NSC 25/19 Q1013 NOSIG,M
VVTS,1/14/2021 2:30,106.6667,10.8167,78.8,68,69.52,200,5,0,29.91,M,4.35,M,NSC,M,M,M,M,M,M,M,M,M,M,M,M,M,M,78.8,VVTS 140230Z 20005KT 120V230 7000 R25L/450VP2000 NSC 26/20 Q1013 NOSIG,M
VVTS,1/14/2021 3:00,106.6667,10.8167,80.6,68,65.54,M,3,0,29.91,M,4.97,M,FEW,M,M,M,2000,M,M,M,M,M,M,M,M,M,M,83.29,VVTS 140300Z VRB03KT 8000 FEW020 27/20 Q1013 NOSIG,M
VVTS,1/14/2021 3:30,106.6667,10.8167,80.6,68,65.54,220,2,0,29.91,M,4.97,M,FEW,M,M,M,2000,M,M,M,M,M,M,M,M,M,M,83.29,VVTS 140330Z 22002KT 8000 FEW020 27/20 Q1013 NOSIG,M
VVTS,1/14/2021 4:00,106.6667,10.8167,80.6,66.2,61.58,M,4,0,29.91,M,4.97,M,SCT,M,M,M,2000,M,M,M,M,M,M,M,M,M,M,82.75,VVTS 140400Z VRB04KT 8000 SCT020 27/19 Q1013 NOSIG,M
VVTS,1/14/2021 4:30,106.6667,10.8167,82.4,64.4,54.55,180,4,0,29.88,M,4.97,M,SCT,M,M,M,2000,M,M,M,M,M,M,M,M,M,M,83.98,VVTS 140430Z 18004KT 120V240 8000 SCT020 28/18 Q1012 NOSIG,M
VVTS,1/14/2021 5:00,106.6667,10.8167,82.4,64.4,54.55,M,3,0,29.88,M,4.97,M,BKN,M,M,M,2000,M,M,M,M,M,M,M,M,M,M,83.98,VVTS 140500Z VRB03KT 8000 BKN020 28/18 Q1012 NOSIG,M
VVTS,1/14/2021 5:30,106.6667,10.8167,84.2,64.4,51.47,250,5,0,29.85,M,4.97,M,BKN,M,M,M,2000,M,M,M,M,M,M,M,M,M,M,85.71,VVTS 140530Z 25005KT 200V310 8000 BKN020 29/18 Q1011 NOSIG,M
VVTS,1/14/2021 6:00,106.6667,10.8167,84.2,64.4,51.47,250,4,0,29.85,M,5.59,M,BKN,M,M,M,2000,M,M,M,M,M,M,M,M,M,M,85.71,VVTS 140600Z 25004KT 9000 BKN020 29/18 Q1011 NOSIG,M
VVTS,1/14/2021 6:30,106.6667,10.8167,84.2,64.4,51.47,M,5,0,29.83,M,6.21,M,BKN,M,M,M,2000,M,M,M,M,M,M,M,M,M,M,85.71,VVTS 140630Z VRB05KT 9999 BKN020 29/18 Q1010 NOSIG,M
VVTS,1/14/2021 7:00,106.6667,10.8167,86,64.4,48.58,210,4,0,29.83,M,4.97,M,BKN,M,M,M,2000,M,M,M,M,M,M,M,M,M,M,87.49,VVTS 140700Z 21004KT 160V260 8000 BKN020 30/18 Q1010 NOSIG,M
VVTS,1/14/2021 7:30,106.6667,10.8167,84.2,62.6,48.32,260,4,0,29.83,M,4.97,M,BKN,M,M,M,2000,M,M,M,M,M,M,M,M,M,M,85.03,VVTS 140730Z 26004KT 200V320 8000 BKN020 29/17 Q1010 NOSIG,M
VVTS,1/14/2021 8:00,106.6667,10.8167,84.2,64.4,51.47,M,3,0,29.83,M,4.97,M,SCT,M,M,M,1700,M,M,M,M,M,M,M,M,M,M,85.71,VVTS 140800Z VRB03KT 8000 SCT017 29/18 Q1010 NOSIG,M
VVTS,1/14/2021 8:30,106.6667,10.8167,84.2,64.4,51.47,230,4,0,29.83,M,4.97,M,SCT,M,M,M,1700,M,M,M,M,M,M,M,M,M,M,85.71,VVTS 140830Z 23004KT 200V260 8000 SCT017 29/18 Q1010 NOSIG,M
VVTS,1/14/2021 9:00,106.6667,10.8167,82.4,66.2,58.08,210,5,0,29.83,M,4.97,M,SCT,M,M,M,1700,M,M,M,M,M,M,M,M,M,M,84.63,VVTS 140900Z 21005KT 160V250 8000 SCT017 28/19 Q1010 NOSIG,M
VVTS,1/14/2021 9:30,106.6667,10.8167,82.4,66.2,58.08,200,8,0,29.83,M,4.97,M,SCT,M,M,M,1700,M,M,M,M,M,M,M,M,M,M,84.63,VVTS 140930Z 20008KT 160V230 8000 SCT017 28/19 Q1010 NOSIG,M
VVTS,1/14/2021 10:00,106.6667,10.8167,80.6,66.2,61.58,190,7,0,29.83,M,4.97,M,SCT,M,M,M,1700,M,M,M,M,M,M,M,M,M,M,82.75,VVTS 141000Z 19007KT 150V220 8000 SCT017 27/19 Q1010 NOSIG,M
VVTS,1/14/2021 10:30,106.6667,10.8167,80.6,66.2,61.58,190,6,0,29.83,M,4.97,M,SCT,M,M,M,1700,M,M,M,M,M,M,M,M,M,M,82.75,VVTS 141030Z 19006KT 150V230 8000 SCT017 27/19 Q1010 NOSIG,M
VVTS,1/14/2021 11:00,106.6667,10.8167,78.8,66.2,65.33,190,7,0,29.83,M,5.59,M,FEW,M,M,M,2000,M,M,M,M,M,M,M,M,M,M,78.8,VVTS 141100Z 19007KT 160V220 9000 FEW020 26/19 Q1010 NOSIG,M
VVTS,1/14/2021 11:30,106.6667,10.8167,78.8,64.4,61.36,180,6,0,29.85,M,6.21,M,FEW,M,M,M,2000,M,M,M,M,M,M,M,M,M,M,78.8,VVTS 141130Z 18006KT 9999 FEW020 26/18 Q1011 NOSIG,M
VVTS,1/14/2021 12:00,106.6667,10.8167,77,64.4,65.12,200,6,0,29.85,M,6.21,M,FEW,M,M,M,2000,M,M,M,M,M,M,M,M,M,M,77,VVTS 141200Z 20006KT 150V230 9999 FEW020 25/18 Q1011 NOSIG,M
VVTS,1/14/2021 12:30,106.6667,10.8167,77,64.4,65.12,200,6,0,29.85,M,6.21,M,FEW,M,M,M,2000,M,M,M,M,M,M,M,M,M,M,77,VVTS 141230Z 20006KT 160V230 9999 FEW020 25/18 Q1011 NOSIG,M
VVTS,1/14/2021 13:00,106.6667,10.8167,77,66.2,69.33,180,5,0,29.85,M,6.21,M,FEW,M,M,M,2000,M,M,M,M,M,M,M,M,M,M,77,VVTS 141300Z 18005KT 150V230 9999 FEW020 25/19 Q1011 NOSIG,M
VVTS,1/14/2021 13:30,106.6667,10.8167,77,66.2,69.33,180,4,0,29.85,M,6.21,M,FEW,M,M,M,2000,M,M,M,M,M,M,M,M,M,M,77,VVTS 141330Z 18004KT 150V220 9999 FEW020 25/19 Q1011 NOSIG,M
VVTS,1/14/2021 14:00,106.6667,10.8167,77,68,73.78,170,4,0,29.88,M,6.21,M,FEW,M,M,M,2000,M,M,M,M,M,M,M,M,M,M,77,VVTS 141400Z 17004KT 140V230 9999 FEW020 25/20 Q1012 NOSIG,M
VVTS,1/14/2021 14:30,106.6667,10.8167,77,66.2,69.33,M,3,0,29.88,M,6.21,M,M,M,M,M,M,M,M,M,M,M,M,M,M,M,M,77,VVTS 141430Z VRB03KT CAVOK 25/19 Q1012 NOSIG,M
VVTS,1/14/2021 15:00,106.6667,10.8167,77,68,73.78,M,3,0,29.88,M,6.21,M,M,M,M,M,M,M,M,M,M,M,M,M,M,M,M,77,VVTS 141500Z VRB03KT CAVOK 25/20 Q1012 NOSIG,M
VVTS,1/14/2021 15:30,106.6667,10.8167,75.2,68,78.34,M,3,0,29.85,M,6.21,M,M,M,M,M,M,M,M,M,M,M,M,M,M,M,M,75.2,VVTS 141530Z VRB03KT CAVOK 24/20 Q1011 NOSIG,M
VVTS,1/14/2021 16:00,106.6667,10.8167,75.2,68,78.34,120,4,0,29.85,M,6.21,M,M,M,M,M,M,M,M,M,M,M,M,M,M,M,M,75.2,VVTS 141600Z 12004KT CAVOK 24/20 Q1011 NOSIG,M
VVTS,1/14/2021 16:30,106.6667,10.8167,75.2,68,78.34,M,2,0,29.85,M,6.21,M,FEW,M,M,M,2000,M,M,M,M,M,M,M,M,M,M,75.2,VVTS 141630Z VRB02KT 9999 FEW020 24/20 Q1011 NOSIG,M
VVTS,1/14/2021 17:00,106.6667,10.8167,75.2,66.2,73.61,M,2,0,29.85,M,6.21,M,FEW,M,M,M,2000,M,M,M,M,M,M,M,M,M,M,75.2,VVTS 141700Z VRB02KT 9999 FEW020 24/19 Q1011 NOSIG,M
VVTS,1/14/2021 17:30,106.6667,10.8167,75.2,66.2,73.61,M,3,0,29.85,M,6.21,M,FEW,M,M,M,2000,M,M,M,M,M,M,M,M,M,M,75.2,VVTS 141730Z VRB03KT 9999 FEW020 24/19 Q1011 NOSIG,M
VVTS,1/14/2021 18:00,106.6667,10.8167,73.4,66.2,78.19,M,2,0,29.85,M,6.21,M,FEW,M,M,M,2000,M,M,M,M,M,M,M,M,M,M,73.4,VVTS 141800Z VRB02KT 9999 FEW020 23/19 Q1011 NOSIG,M
VVTS,1/14/2021 18:30,106.6667,10.8167,73.4,68,83.21,0,0,0,29.83,M,6.21,M,FEW,SCT,M,M,1700,5000,M,M,M,M,M,M,M,M,M,73.4,VVTS 141830Z 00000KT 9999 FEW017 SCT050 23/20 Q1010 NOSIG,M
VVTS,1/14/2021 19:00,106.6667,10.8167,71.6,66.2,83.09,70,1,0,29.83,M,6.21,M,FEW,SCT,M,M,1700,5000,M,M,M,M,M,M,M,M,M,71.6,VVTS 141900Z 07001KT 9999 FEW017 SCT050 22/19 Q1010 NOSIG,M
VVTS,1/14/2021 19:30,106.6667,10.8167,73.4,66.2,78.19,M,2,0,29.83,M,6.21,M,FEW,SCT,M,M,1700,5000,M,M,M,M,M,M,M,M,M,73.4,VVTS 141930Z VRB02KT 9999 FEW017 SCT050 23/19 Q1010 NOSIG,M
VVTS,1/14/2021 20:00,106.6667,10.8167,71.6,68,88.43,M,2,0,29.8,M,6.21,M,FEW,SCT,M,M,1700,5000,M,M,M,M,M,M,M,M,M,71.6,VVTS 142000Z VRB02KT 9999 FEW017 SCT050 22/20 Q1009 NOSIG,M
VVTS,1/14/2021 20:30,106.6667,10.8167,71.6,68,88.43,M,1,0,29.8,M,6.21,M,FEW,SCT,M,M,1700,5000,M,M,M,M,M,M,M,M,M,71.6,VVTS 142030Z VRB01KT 9999 FEW017 SCT050 22/20 Q1009 NOSIG,M
VVTS,1/14/2021 21:00,106.6667,10.8167,69.8,69.8,100,40,3,0,29.8,M,6.21,M,FEW,SCT,M,M,1700,5000,M,M,M,M,M,M,M,M,M,69.8,VVTS 142100Z 04003KT 9999 FEW017 SCT050 21/21 Q1009 NOSIG,M
VVTS,1/14/2021 21:30,106.6667,10.8167,69.8,68,94.01,60,3,0,29.8,M,4.97,M,FEW,SCT,M,M,1700,5000,M,M,M,M,M,M,M,M,M,69.8,VVTS 142130Z 06003KT 8000 FEW017 SCT050 21/20 Q1009 NOSIG,M
VVTS,1/14/2021 22:00,106.6667,10.8167,69.8,68,94.01,80,3,0,29.8,M,4.97,M,FEW,SCT,M,M,1700,5000,M,M,M,M,M,M,M,M,M,69.8,VVTS 142200Z 08003KT 8000 FEW017 SCT050 21/20 Q1009 NOSIG,M
VVTS,1/14/2021 22:30,106.6667,10.8167,69.8,68,94.01,60,2,0,29.8,M,4.97,M,FEW,SCT,M,M,1700,5000,M,M,M,M,M,M,M,M,M,69.8,VVTS 142230Z 06002KT 8000 FEW017 SCT050 21/20 Q1009 NOSIG,M
VVTS,1/14/2021 23:00,106.6667,10.8167,69.8,68,94.01,30,1,0,29.83,M,4.97,M,FEW,SCT,M,M,1700,5000,M,M,M,M,M,M,M,M,M,69.8,VVTS 142300Z 03001KT 8000 FEW017 SCT050 21/20 Q1010 NOSIG,M
VVTS,1/14/2021 23:30,106.6667,10.8167,69.8,68,94.01,M,2,0,29.83,M,4.35,M,FEW,M,M,M,1700,M,M,M,M,M,M,M,M,M,M,69.8,VVTS 142330Z VRB02KT 7000 FEW017 21/20 Q1010 NOSIG,M
VVTS,1/15/2021 0:00,106.6667,10.8167,71.6,69.8,94.06,M,2,0,29.85,M,4.35,M,FEW,M,M,M,1700,M,M,M,M,M,M,M,M,M,M,71.6,VVTS 150000Z VRB02KT 7000 FEW017 22/21 Q1011 NOSIG,M
VVTS,1/15/2021 0:30,106.6667,10.8167,73.4,69.8,88.51,60,2,0,29.85,M,4.35,M,FEW,M,M,M,1700,M,M,M,M,M,M,M,M,M,M,73.4,VVTS 150030Z 06002KT 7000 FEW017 23/21 Q1011 NOSIG,M
VVTS,1/15/2021 1:00,106.6667,10.8167,75.2,69.8,83.32,60,2,0,29.85,M,4.35,M,FEW,M,M,M,1700,M,M,M,M,M,M,M,M,M,M,75.2,VVTS 150100Z 06002KT 7000 FEW017 24/21 Q1011 NOSIG,M
VVTS,1/15/2021 1:30,106.6667,10.8167,77,68,73.78,M,2,0,29.88,M,4.35,M,NSC,M,M,M,M,M,M,M,M,M,M,M,M,M,M,77,VVTS 150130Z VRB02KT 7000 NSC 25/20 Q1012 NOSIG,M
VVTS,1/15/2021 2:00,106.6667,10.8167,77,68,73.78,M,2,0,29.88,M,4.35,M,NSC,M,M,M,M,M,M,M,M,M,M,M,M,M,M,77,VVTS 150200Z VRB02KT 7000 NSC 25/20 Q1012 NOSIG,M
VVTS,1/15/2021 2:30,106.6667,10.8167,80.6,68,65.54,M,1,0,29.88,M,4.35,M,NSC,M,M,M,M,M,M,M,M,M,M,M,M,M,M,83.29,VVTS 150230Z VRB01KT 7000 NSC 27/20 Q1012 NOSIG,M
VVTS,1/15/2021 3:00,106.6667,10.8167,80.6,66.2,61.58,M,2,0,29.88,M,4.35,M,FEW,M,M,M,2000,M,M,M,M,M,M,M,M,M,M,82.75,VVTS 150300Z VRB02KT 7000 FEW020 27/19 Q1012 NOSIG,M
VVTS,1/15/2021 3:30,106.6667,10.8167,82.4,64.4,54.55,M,1,0,29.85,M,4.35,M,FEW,M,M,M,2000,M,M,M,M,M,M,M,M,M,M,83.98,VVTS 150330Z VRB01KT 7000 FEW020 28/18 Q1011 NOSIG,M
VVTS,1/15/2021 4:00,106.6667,10.8167,82.4,64.4,54.55,M,3,0,29.85,M,3.73,M,SCT,M,M,M,2000,M,M,M,M,M,M,M,M,M,M,83.98,VVTS 150400Z VRB03KT 6000 SCT020 28/18 Q1011 NOSIG,M
VVTS,1/15/2021 4:30,106.6667,10.8167,84.2,62.6,48.32,M,2,0,29.85,M,4.97,M,SCT,M,M,M,2000,M,M,M,M,M,M,M,M,M,M,85.03,VVTS 150430Z VRB02KT 8000 SCT020 29/17 Q1011 NOSIG,M
VVTS,1/15/2021 5:00,106.6667,10.8167,86,62.6,45.61,M,2,0,29.83,M,4.97,M,SCT,M,M,M,2000,M,M,M,M,M,M,M,M,M,M,86.72,VVTS 150500Z VRB02KT 8000 SCT020 30/17 Q1010 NOSIG,M
VVTS,1/15/2021 5:30,106.6667,10.8167,86,64.4,48.58,M,3,0,29.83,M,4.97,M,SCT,M,M,M,2000,M,M,M,M,M,M,M,M,M,M,87.49,VVTS 150530Z VRB03KT 8000 SCT020 30/18 Q1010 NOSIG,M
VVTS,1/15/2021 6:00,106.6667,10.8167,86,62.6,45.61,160,5,0,29.8,M,3.73,M,SCT,M,M,M,2000,M,M,M,M,M,M,M,M,M,M,86.72,VVTS 150600Z 16005KT 120V260 6000 SCT020 30/17 Q1009 NOSIG,M
VVTS,1/15/2021 6:30,106.6667,10.8167,86,64.4,48.58,130,4,0,29.77,M,3.73,M,SCT,M,M,M,2000,M,M,M,M,M,M,M,M,M,M,87.49,VVTS 150630Z 13004KT 040V200 6000 SCT020 30/18 Q1008 NOSIG,M
VVTS,1/15/2021 7:00,106.6667,10.8167,86,64.4,48.58,M,3,0,29.77,M,3.73,M,SCT,M,M,M,2000,M,M,M,M,M,M,M,M,M,M,87.49,VVTS 150700Z VRB03KT 6000 SCT020 30/18 Q1008 NOSIG,M
VVTS,1/15/2021 7:30,106.6667,10.8167,86,64.4,48.58,180,5,0,29.74,M,3.73,M,SCT,M,M,M,2000,M,M,M,M,M,M,M,M,M,M,87.49,VVTS 150730Z 18005KT 130V240 6000 SCT020 30/18 Q1007 NOSIG,M
VVTS,1/15/2021 8:00,106.6667,10.8167,87.8,62.6,43.07,190,6,0,29.74,M,3.73,M,SCT,M,M,M,2000,M,M,M,M,M,M,M,M,M,M,88.48,VVTS 150800Z 19006KT 150V230 6000 SCT020 31/17 Q1007 NOSIG,M
VVTS,1/15/2021 8:30,106.6667,10.8167,86,66.2,51.72,180,9,0,29.74,M,4.35,M,SCT,M,M,M,2000,M,M,M,M,M,M,M,M,M,M,88.39,VVTS 150830Z 18009KT 150V220 7000 SCT020 30/19 Q1007 NOSIG,M
VVTS,1/15/2021 9:00,106.6667,10.8167,84.2,66.2,54.8,170,7,0,29.74,M,4.97,M,SCT,M,M,M,2000,M,M,M,M,M,M,M,M,M,M,86.5,VVTS 150900Z 17007KT 130V240 8000 SCT020 29/19 Q1007 NOSIG,M
VVTS,1/15/2021 9:30,106.6667,10.8167,82.4,66.2,58.08,180,9,0,29.77,M,4.97,M,SCT,M,M,M,2000,M,M,M,M,M,M,M,M,M,M,84.63,VVTS 150930Z 18009KT 150V220 8000 SCT020 28/19 Q1008 NOSIG,M
VVTS,1/15/2021 10:00,106.6667,10.8167,80.6,64.4,57.84,180,10,0,29.77,M,4.97,M,SCT,M,M,M,2000,M,M,M,M,M,M,M,M,M,M,82.27,VVTS 151000Z 18010KT 150V220 8000 SCT020 27/18 Q1008 NOSIG,M
VVTS,1/15/2021 10:30,106.6667,10.8167,80.6,62.6,54.3,170,7,0,29.77,M,4.97,M,SCT,M,M,M,2000,M,M,M,M,M,M,M,M,M,M,81.84,VVTS 151030Z 17007KT 130V210 8000 SCT020 27/17 Q1008 NOSIG,M
VVTS,1/15/2021 11:00,106.6667,10.8167,80.6,60.8,50.95,160,7,0,29.77,M,4.97,M,SCT,M,M,M,2000,M,M,M,M,M,M,M,M,M,M,81.46,VVTS 151100Z 16007KT 120V220 8000 SCT020 27/16 Q1008 NOSIG,M
VVTS,1/15/2021 11:30,106.6667,10.8167,78.8,62.6,57.6,160,7,0,29.77,M,4.97,M,SCT,M,M,M,1700,M,M,M,M,M,M,M,M,M,M,78.8,VVTS 151130Z 16007KT 140V200 8000 SCT017 26/17 Q1008 NOSIG,M
VVTS,1/15/2021 12:00,106.6667,10.8167,78.8,66.2,65.33,170,7,0,29.8,M,6.21,M,SCT,M,M,M,1700,M,M,M,M,M,M,M,M,M,M,78.8,VVTS 151200Z 17007KT 130V210 9999 SCT017 26/19 Q1009 NOSIG,M
VVTS,1/15/2021 12:30,106.6667,10.8167,77,66.2,69.33,150,6,0,29.8,M,6.21,M,FEW,M,M,M,1700,M,M,M,M,M,M,M,M,M,M,77,VVTS 151230Z 15006KT 120V190 9999 FEW017 25/19 Q1009 NOSIG,M
VVTS,1/15/2021 13:00,106.6667,10.8167,77,64.4,65.12,150,6,0,29.8,M,6.21,M,FEW,M,M,M,1700,M,M,M,M,M,M,M,M,M,M,77,VVTS 151300Z 15006KT 120V190 9999 FEW017 25/18 Q1009 NOSIG,M
VVTS,1/15/2021 13:30,106.6667,10.8167,77,64.4,65.12,150,4,0,29.83,M,6.21,M,FEW,M,M,M,1700,M,M,M,M,M,M,M,M,M,M,77,VVTS 151330Z 15004KT 9999 FEW017 25/18 Q1010 NOSIG,M
VVTS,1/15/2021 14:00,106.6667,10.8167,77,64.4,65.12,140,6,0,29.83,M,6.21,M,FEW,M,M,M,1700,M,M,M,M,M,M,M,M,M,M,77,VVTS 151400Z 14006KT 090V190 9999 FEW017 25/18 Q1010 NOSIG,M
VVTS,1/15/2021 14:30,106.6667,10.8167,77,64.4,65.12,150,6,0,29.83,M,6.21,M,FEW,M,M,M,1700,M,M,M,M,M,M,M,M,M,M,77,VVTS 151430Z 15006KT 110V180 9999 FEW017 25/18 Q1010 NOSIG,M
VVTS,1/15/2021 15:00,106.6667,10.8167,77,64.4,65.12,140,6,0,29.83,M,6.21,M,FEW,M,M,M,1700,M,M,M,M,M,M,M,M,M,M,77,VVTS 151500Z 14006KT 110V190 9999 FEW017 25/18 Q1010 NOSIG,M
VVTS,1/15/2021 15:30,106.6667,10.8167,77,66.2,69.33,140,6,0,29.83,M,6.21,M,FEW,M,M,M,1700,M,M,M,M,M,M,M,M,M,M,77,VVTS 151530Z 14006KT 110V190 9999 FEW017 25/19 Q1010 NOSIG,M
VVTS,1/15/2021 16:00,106.6667,10.8167,75.2,66.2,73.61,130,4,0,29.83,M,6.21,M,FEW,M,M,M,1700,M,M,M,M,M,M,M,M,M,M,75.2,VVTS 151600Z 13004KT 090V160 9999 FEW017 24/19 Q1010 NOSIG,M
VVTS,1/15/2021 16:30,106.6667,10.8167,75.2,66.2,73.61,140,5,0,29.83,M,6.21,M,FEW,M,M,M,1700,M,M,M,M,M,M,M,M,M,M,75.2,VVTS 151630Z 14005KT 120V190 9999 FEW017 24/19 Q1010 NOSIG,M
VVTS,1/15/2021 17:00,106.6667,10.8167,75.2,68,78.34,130,4,0,29.83,M,6.21,M,FEW,M,M,M,1700,M,M,M,M,M,M,M,M,M,M,75.2,VVTS 151700Z 13004KT 090V220 9999 FEW017 24/20 Q1010 NOSIG,M
VVTS,1/15/2021 17:30,106.6667,10.8167,75.2,68,78.34,140,6,0,29.83,M,6.21,M,FEW,M,M,M,1700,M,M,M,M,M,M,M,M,M,M,75.2,VVTS 151730Z 14006KT 9999 FEW017 24/20 Q1010 NOSIG,M
VVTS,1/15/2021 18:00,106.6667,10.8167,75.2,68,78.34,140,2,0,29.83,M,6.21,M,FEW,M,M,M,1700,M,M,M,M,M,M,M,M,M,M,75.2,VVTS 151800Z 14002KT 9999 FEW017 24/20 Q1010 NOSIG,M
VVTS,1/15/2021 18:30,106.6667,10.8167,75.2,68,78.34,140,4,0,29.83,M,6.21,M,FEW,M,M,M,2000,M,M,M,M,M,M,M,M,M,M,75.2,VVTS 151830Z 14004KT 9999 FEW020 24/20 Q1010 NOSIG,M
VVTS,1/15/2021 19:00,106.6667,10.8167,73.4,68,83.21,140,3,0,29.8,M,6.21,M,FEW,M,M,M,2000,M,M,M,M,M,M,M,M,M,M,73.4,VVTS 151900Z 14003KT 9999 FEW020 23/20 Q1009 NOSIG,M
VVTS,1/15/2021 19:30,106.6667,10.8167,73.4,68,83.21,M,3,0,29.8,M,6.21,M,FEW,M,M,M,2000,M,M,M,M,M,M,M,M,M,M,73.4,VVTS 151930Z VRB03KT 9999 FEW020 23/20 Q1009 NOSIG,M
VVTS,1/15/2021 20:00,106.6667,10.8167,73.4,68,83.21,60,1,0,29.8,M,6.21,M,FEW,M,M,M,2000,M,M,M,M,M,M,M,M,M,M,73.4,VVTS 152000Z 06001KT 9999 FEW020 23/20 Q1009 NOSIG,M
VVTS,1/15/2021 20:30,106.6667,10.8167,71.6,69.8,94.06,0,0,0,29.8,M,6.21,M,FEW,M,M,M,2000,M,M,M,M,M,M,M,M,M,M,71.6,VVTS 152030Z 00000KT 9999 FEW020 22/21 Q1009 NOSIG,M
VVTS,1/15/2021 21:00,106.6667,10.8167,71.6,68,88.43,310,3,0,29.8,M,6.21,M,FEW,M,M,M,2000,M,M,M,M,M,M,M,M,M,M,71.6,VVTS 152100Z 31003KT 9999 FEW020 22/20 Q1009 NOSIG,M
VVTS,1/15/2021 21:30,106.6667,10.8167,69.8,68,94.01,310,3,0,29.83,M,4.35,M,FEW,M,M,M,1700,M,M,M,M,M,M,M,M,M,M,69.8,VVTS 152130Z 31003KT 7000 FEW017 21/20 Q1010 NOSIG,M
VVTS,1/15/2021 22:00,106.6667,10.8167,71.6,69.8,94.06,310,1,0,29.83,M,4.35,M,FEW,M,M,M,1700,M,M,M,M,M,M,M,M,M,M,71.6,VVTS 152200Z 31001KT 7000 FEW017 22/21 Q1010 NOSIG,M
VVTS,1/15/2021 22:30,106.6667,10.8167,69.8,68,94.01,310,2,0,29.83,M,3.11,M,FEW,M,M,M,1700,M,M,M,BR,M,M,M,M,M,M,69.8,VVTS 152230Z 31002KT 5000 BR FEW017 21/20 Q1010 NOSIG,M
VVTS,1/15/2021 23:00,106.6667,10.8167,69.8,69.8,100,M,2,0,29.83,M,3.11,M,FEW,M,M,M,1700,M,M,M,BR,M,M,M,M,M,M,69.8,VVTS 152300Z VRB02KT 5000 BR FEW017 21/21 Q1010 NOSIG,M
VVTS,1/15/2021 23:30,106.6667,10.8167,69.8,69.8,100,360,3,0,29.85,M,1.24,M,FEW,SCT,M,M,1700,5000,M,M,BR,M,M,M,M,M,M,69.8,VVTS 152330Z 36003KT 2000 BR FEW017 SCT050 21/21 Q1011 BECMG TL0015 3000 BR,M
VVTS,1/16/2021 0:00,106.6667,10.8167,69.8,69.8,100,M,3,0,29.85,M,1.24,M,FEW,M,M,M,1700,M,M,M,BR,M,M,M,M,M,M,69.8,VVTS 160000Z VRB03KT 2000 R25L/1800VP2000U BR FEW017 21/21 Q1011 BECMG TL0015 3000 BR,M
VVTS,1/16/2021 0:30,106.6667,10.8167,71.6,69.8,94.06,M,3,0,29.88,M,1.86,M,FEW,M,M,M,1700,M,M,M,BR,M,M,M,M,M,M,71.6,VVTS 160030Z VRB03KT 3000 BR FEW017 22/21 Q1012 BECMG TL0050 5000 BR,M
VVTS,1/16/2021 1:00,106.6667,10.8167,73.4,69.8,88.51,20,3,0,29.88,M,2.17,M,FEW,M,M,M,1700,M,M,M,BR,M,M,M,M,M,M,73.4,VVTS 160100Z 02003KT 3500 BR FEW017 23/21 Q1012 BECMG TL0140 5000 BR,M
VVTS,1/16/2021 1:30,106.6667,10.8167,75.2,69.8,83.32,30,4,0,29.88,M,2.49,M,FEW,M,M,M,1700,M,M,M,BR,M,M,M,M,M,M,75.2,VVTS 160130Z 03004KT 350V060 4000 BR FEW017 24/21 Q1012 BECMG TL0140 5000 BR,M
VVTS,1/16/2021 2:00,106.6667,10.8167,77,69.8,78.48,30,6,0,29.88,M,3.73,M,NSC,M,M,M,M,M,M,M,M,M,M,M,M,M,M,77,VVTS 160200Z 03006KT 6000 NSC 25/21 Q1012 NOSIG,M
VVTS,1/16/2021 2:30,106.6667,10.8167,78.8,69.8,73.95,20,7,0,29.88,M,4.35,M,NSC,M,M,M,M,M,M,M,M,M,M,M,M,M,M,78.8,VVTS 160230Z 02007KT 350V050 7000 NSC 26/21 Q1012 NOSIG,M
VVTS,1/16/2021 3:00,106.6667,10.8167,78.8,69.8,73.95,360,8,0,29.88,M,4.97,M,NSC,M,M,M,M,M,M,M,M,M,M,M,M,M,M,78.8,VVTS 160300Z 36008KT 330V050 8000 NSC 26/21 Q1012 NOSIG,M
VVTS,1/16/2021 3:30,106.6667,10.8167,80.6,69.8,69.71,360,7,0,29.85,M,4.97,M,NSC,M,M,M,M,M,M,M,M,M,M,M,M,M,M,83.9,VVTS 160330Z 36007KT 310V050 8000 R25R/1400VP2000D NSC 27/21 Q1011 NOSIG,M
VVTS,1/16/2021 4:00,106.6667,10.8167,82.4,69.8,65.74,10,7,0,29.85,M,4.97,M,NSC,M,M,M,M,M,M,M,M,M,M,M,M,M,M,86.22,VVTS 160400Z 01007KT 330V060 8000 R25R/1600VP2000N NSC 28/21 Q1011 NOSIG,M
VVTS,1/16/2021 4:30,106.6667,10.8167,84.2,68,58.32,350,5,0,29.83,M,4.97,M,FEW,M,M,M,1700,M,M,M,M,M,M,M,M,M,M,87.4,VVTS 160430Z 35005KT 300V080 8000 FEW017 29/20 Q1010 NOSIG,M
VVTS,1/16/2021 5:00,106.6667,10.8167,84.2,66.2,54.8,340,8,0,29.83,M,4.97,19,FEW,M,M,M,1700,M,M,M,M,M,M,M,M,M,M,86.5,VVTS 160500Z 34008G19KT 310V020 8000 FEW017 29/19 Q1010 NOSIG,M
VVTS,1/16/2021 5:30,106.6667,10.8167,86,64.4,48.58,340,6,0,29.8,M,4.97,17,FEW,M,M,M,1700,M,M,M,M,M,M,M,M,M,M,87.49,VVTS 160530Z 34006G17KT 280V030 8000 FEW017 30/18 Q1009 NOSIG,M
VVTS,1/16/2021 6:00,106.6667,10.8167,86,64.4,48.58,350,5,0,29.77,M,6.21,M,FEW,M,M,M,1700,M,M,M,M,M,M,M,M,M,M,87.49,VVTS 160600Z 35005KT 290V080 9999 FEW017 30/18 Q1008 NOSIG,M
VVTS,1/16/2021 6:30,106.6667,10.8167,87.8,66.2,48.84,M,4,0,29.77,M,5.59,M,SCT,M,M,M,1700,M,M,M,M,M,M,M,M,M,M,90.31,VVTS 160630Z VRB04KT 9000 SCT017 31/19 Q1008 NOSIG,M
VVTS,1/16/2021 7:00,106.6667,10.8167,89.6,62.6,40.69,M,6,0,29.74,M,5.59,M,SCT,M,M,M,1700,M,M,M,M,M,M,M,M,M,M,90.32,VVTS 160700Z VRB06KT 9000 SCT017 32/17 Q1007 NOSIG,M
VVTS,1/16/2021 7:30,106.6667,10.8167,89.6,62.6,40.69,M,6,0,29.74,M,5.59,M,SCT,M,M,M,1700,M,M,M,M,M,M,M,M,M,M,90.32,VVTS 160730Z VRB06KT 9000 SCT017 32/17 Q1007 NOSIG,M
VVTS,1/16/2021 8:00,106.6667,10.8167,89.6,62.6,40.69,M,4,0,29.74,M,5.59,M,SCT,M,M,M,1700,M,M,M,M,M,M,M,M,M,M,90.32,VVTS 160800Z VRB04KT 9000 SCT017 32/17 Q1007 NOSIG,M
VVTS,1/16/2021 8:30,106.6667,10.8167,89.6,60.8,38.18,360,4,0,29.74,M,6.21,M,SCT,M,M,M,2000,M,M,M,M,M,M,M,M,M,M,89.54,VVTS 160830Z 36004KT 310V080 9999 SCT020 32/16 Q1007 NOSIG,M
VVTS,1/16/2021 9:00,106.6667,10.8167,89.6,60.8,38.18,320,6,0,29.74,M,6.21,M,SCT,M,M,M,2000,M,M,M,M,M,M,M,M,M,M,89.54,VVTS 160900Z 32006KT 260V010 9999 SCT020 32/16 Q1007 NOSIG,M
VVTS,1/16/2021 9:30,106.6667,10.8167,87.8,60.8,40.41,300,6,0,29.77,M,6.21,M,SCT,M,M,M,2000,M,M,M,M,M,M,M,M,M,M,87.75,VVTS 160930Z 30006KT 260V340 9999 SCT020 31/16 Q1008 NOSIG,M
VVTS,1/16/2021 10:00,106.6667,10.8167,86,64.4,48.58,M,3,0,29.77,M,6.21,M,SCT,M,M,M,2000,M,M,M,M,M,M,M,M,M,M,87.49,VVTS 161000Z VRB03KT 9999 SCT020 30/18 Q1008 NOSIG,M
VVTS,1/16/2021 10:30,106.6667,10.8167,80.6,71.6,74.11,170,10,0,29.77,M,6.21,M,SCT,M,M,M,2000,M,M,M,M,M,M,M,M,M,M,84.57,VVTS 161030Z 17010KT 150V210 9999 SCT020 27/22 Q1008 NOSIG,M
VVTS,1/16/2021 11:00,106.6667,10.8167,80.6,69.8,69.71,170,9,0,29.8,M,5.59,M,SCT,M,M,M,1700,M,M,M,M,M,M,M,M,M,M,83.9,VVTS 161100Z 17009KT 140V200 9000 SCT017 27/21 Q1009 NOSIG,M
VVTS,1/16/2021 11:30,106.6667,10.8167,78.8,69.8,73.95,180,8,0,29.8,M,5.59,M,SCT,M,M,M,1700,M,M,M,M,M,M,M,M,M,M,78.8,VVTS 161130Z 18008KT 9000 SCT017 26/21 Q1009 NOSIG,M
VVTS,1/16/2021 12:00,106.6667,10.8167,78.8,68,69.52,170,8,0,29.8,M,6.21,M,FEW,M,M,M,2000,M,M,M,M,M,M,M,M,M,M,78.8,VVTS 161200Z 17008KT 9999 FEW020 26/20 Q1009 NOSIG,M
VVTS,1/16/2021 12:30,106.6667,10.8167,78.8,66.2,65.33,160,7,0,29.83,M,6.21,M,FEW,M,M,M,2000,M,M,M,M,M,M,M,M,M,M,78.8,VVTS 161230Z 16007KT 9999 FEW020 26/19 Q1010 NOSIG,M
VVTS,1/16/2021 13:00,106.6667,10.8167,78.8,66.2,65.33,160,5,0,29.83,M,6.21,M,FEW,M,M,M,2000,M,M,M,M,M,M,M,M,M,M,78.8,VVTS 161300Z 16005KT 120V190 9999 FEW020 26/19 Q1010 NOSIG,M
VVTS,1/16/2021 13:30,106.6667,10.8167,78.8,68,69.52,160,6,0,29.83,M,6.21,M,FEW,M,M,M,2000,M,M,M,M,M,M,M,M,M,M,78.8,VVTS 161330Z 16006KT 130V200 9999 FEW020 26/20 Q1010 NOSIG,M
VVTS,1/16/2021 14:00,106.6667,10.8167,77,68,73.78,150,6,0,29.83,M,6.21,M,FEW,M,M,M,2000,M,M,M,M,M,M,M,M,M,M,77,VVTS 161400Z 15006KT 9999 FEW020 25/20 Q1010 NOSIG,M
VVTS,1/16/2021 14:30,106.6667,10.8167,77,68,73.78,120,4,0,29.83,M,6.21,M,FEW,M,M,M,2000,M,M,M,M,M,M,M,M,M,M,77,VVTS 161430Z 12004KT 100V170 9999 FEW020 25/20 Q1010 NOSIG,M
VVTS,1/16/2021 15:00,106.6667,10.8167,77,69.8,78.48,120,5,0,29.83,M,6.21,M,FEW,M,M,M,2000,M,M,M,M,M,M,M,M,M,M,77,VVTS 161500Z 12005KT 9999 FEW020 25/21 Q1010 NOSIG,M
VVTS,1/16/2021 15:30,106.6667,10.8167,75.2,69.8,83.32,140,5,0,29.85,M,6.21,M,FEW,M,M,M,2000,M,M,M,M,M,M,M,M,M,M,75.2,VVTS 161530Z 14005KT 9999 FEW020 24/21 Q1011 NOSIG,M
VVTS,1/16/2021 16:00,106.6667,10.8167,75.2,68,78.34,130,5,0,29.85,M,6.21,M,FEW,M,M,M,2000,M,M,M,M,M,M,M,M,M,M,75.2,VVTS 161600Z 13005KT 9999 FEW020 24/20 Q1011 NOSIG,M
VVTS,1/16/2021 16:30,106.6667,10.8167,75.2,68,78.34,130,3,0,29.85,M,6.21,M,FEW,M,M,M,2000,M,M,M,M,M,M,M,M,M,M,75.2,VVTS 161630Z 13003KT 9999 FEW020 24/20 Q1011 NOSIG,M
VVTS,1/16/2021 17:00,106.6667,10.8167,75.2,68,78.34,M,2,0,29.83,M,6.21,M,FEW,M,M,M,2000,M,M,M,M,M,M,M,M,M,M,75.2,VVTS 161700Z VRB02KT 9999 FEW020 24/20 Q1010 NOSIG,M
VVTS,1/16/2021 17:30,106.6667,10.8167,75.2,68,78.34,M,1,0,29.83,M,6.21,M,FEW,M,M,M,1700,M,M,M,M,M,M,M,M,M,M,75.2,VVTS 161730Z VRB01KT 9999 FEW017 24/20 Q1010 NOSIG,M
VVTS,1/16/2021 18:00,106.6667,10.8167,75.2,69.8,83.32,M,3,0,29.83,M,6.21,M,FEW,M,M,M,1700,M,M,M,M,M,M,M,M,M,M,75.2,VVTS 161800Z VRB03KT 9999 FEW017 24/21 Q1010 NOSIG,M
VVTS,1/16/2021 18:30,106.6667,10.8167,75.2,69.8,83.32,M,3,0,29.83,M,6.21,M,FEW,M,M,M,1700,M,M,M,M,M,M,M,M,M,M,75.2,VVTS 161830Z VRB03KT 9999 FEW017 24/21 Q1010 NOSIG,M
VVTS,1/16/2021 19:00,106.6667,10.8167,73.4,69.8,88.51,170,3,0,29.83,M,6.21,M,FEW,M,M,M,1700,M,M,M,M,M,M,M,M,M,M,73.4,VVTS 161900Z 17003KT 9999 FEW017 23/21 Q1010 NOSIG,M
VVTS,1/16/2021 19:30,106.6667,10.8167,75.2,69.8,83.32,M,2,0,29.83,M,6.21,M,FEW,M,M,M,1700,M,M,M,M,M,M,M,M,M,M,75.2,VVTS 161930Z VRB02KT 9999 FEW017 24/21 Q1010 NOSIG,M
VVTS,1/16/2021 20:00,106.6667,10.8167,75.2,69.8,83.32,M,2,0,29.83,M,6.21,M,FEW,M,M,M,1700,M,M,M,M,M,M,M,M,M,M,75.2,VVTS 162000Z VRB02KT 9999 FEW017 24/21 Q1010 NOSIG,M
VVTS,1/16/2021 20:30,106.6667,10.8167,73.4,69.8,88.51,80,2,0,29.83,M,6.21,M,FEW,M,M,M,1700,M,M,M,M,M,M,M,M,M,M,73.4,VVTS 162030Z 08002KT 9999 FEW017 23/21 Q1010 NOSIG,M
VVTS,1/16/2021 21:00,106.6667,10.8167,73.4,69.8,88.51,70,2,0,29.83,M,6.21,M,FEW,M,M,M,1700,M,M,M,M,M,M,M,M,M,M,73.4,VVTS 162100Z 07002KT 9999 FEW017 23/21 Q1010 NOSIG,M
VVTS,1/16/2021 21:30,106.6667,10.8167,73.4,69.8,88.51,M,2,0,29.83,M,6.21,M,FEW,M,M,M,1700,M,M,M,M,M,M,M,M,M,M,73.4,VVTS 162130Z VRB02KT 9999 FEW017 23/21 Q1010 NOSIG,M
VVTS,1/16/2021 22:00,106.6667,10.8167,73.4,69.8,88.51,60,3,0,29.85,M,6.21,M,FEW,M,M,M,1700,M,M,M,M,M,M,M,M,M,M,73.4,VVTS 162200Z 06003KT 9999 FEW017 23/21 Q1011 NOSIG,M
VVTS,1/16/2021 22:30,106.6667,10.8167,73.4,69.8,88.51,50,4,0,29.85,M,6.21,M,FEW,M,M,M,1700,M,M,M,M,M,M,M,M,M,M,73.4,VVTS 162230Z 05004KT 9999 FEW017 23/21 Q1011 NOSIG,M
VVTS,1/16/2021 23:00,106.6667,10.8167,71.6,69.8,94.06,70,3,0,29.85,M,4.97,M,NSC,M,M,M,M,M,M,M,M,M,M,M,M,M,M,71.6,VVTS 162300Z 07003KT 8000 NSC 22/21 Q1011 NOSIG,M
VVTS,1/16/2021 23:30,106.6667,10.8167,71.6,69.8,94.06,60,4,0,29.85,M,4.97,M,NSC,M,M,M,M,M,M,M,M,M,M,M,M,M,M,71.6,VVTS 162330Z 06004KT 010V080 8000 NSC 22/21 Q1011 NOSIG,M
VVTS,1/17/2021 0:00,106.6667,10.8167,73.4,69.8,88.51,M,1,0,29.88,M,4.97,M,NSC,M,M,M,M,M,M,M,M,M,M,M,M,M,M,73.4,VVTS 170000Z VRB01KT 8000 NSC 23/21 Q1012 NOSIG,M
VVTS,1/17/2021 0:30,106.6667,10.8167,73.4,68,83.21,20,4,0,29.91,M,4.35,M,NSC,M,M,M,M,M,M,M,M,M,M,M,M,M,M,73.4,VVTS 170030Z 02004KT 350V050 7000 NSC 23/20 Q1013 NOSIG,M
VVTS,1/17/2021 1:00,106.6667,10.8167,75.2,64.4,69.14,20,5,0,29.91,M,4.35,M,NSC,M,M,M,M,M,M,M,M,M,M,M,M,M,M,75.2,VVTS 170100Z 02005KT 330V060 7000 NSC 24/18 Q1013 NOSIG,M
VVTS,1/17/2021 1:30,106.6667,10.8167,77,60.8,57.36,20,8,0,29.91,M,4.97,M,NSC,M,M,M,M,M,M,M,M,M,M,M,M,M,M,77,VVTS 170130Z 02008KT 330V050 8000 NSC 25/16 Q1013 NOSIG,M
VVTS,1/17/2021 2:00,106.6667,10.8167,78.8,59,50.69,20,9,0,29.94,M,6.21,M,M,M,M,M,M,M,M,M,M,M,M,M,M,M,M,78.8,VVTS 170200Z 02009KT 340V060 CAVOK 26/15 Q1014 NOSIG,M
VVTS,1/17/2021 2:30,106.6667,10.8167,78.8,59,50.69,10,10,0,29.91,M,6.21,21,M,M,M,M,M,M,M,M,M,M,M,M,M,M,M,78.8,VVTS 170230Z 01010G21KT 330V060 CAVOK 26/15 Q1013 NOSIG,M
VVTS,1/17/2021 3:00,106.6667,10.8167,82.4,59,45.07,40,9,0,29.91,M,6.21,M,M,M,M,M,M,M,M,M,M,M,M,M,M,M,M,82.46,VVTS 170300Z 04009KT CAVOK 28/15 Q1013 NOSIG,M
VVTS,1/17/2021 3:30,106.6667,10.8167,84.2,57.2,39.86,20,10,0,29.91,M,6.21,M,M,M,M,M,M,M,M,M,M,M,M,M,M,M,M,83.47,VVTS 170330Z 02010KT 350V060 CAVOK 29/14 Q1013 NOSIG,M
VVTS,1/17/2021 4:00,106.6667,10.8167,86,57.2,37.62,40,8,0,29.91,M,6.21,M,M,M,M,M,M,M,M,M,M,M,M,M,M,M,M,84.97,VVTS 170400Z 04008KT 330V080 CAVOK 30/14 Q1013 NOSIG,M
VVTS,1/17/2021 4:30,106.6667,10.8167,86,57.2,37.62,40,10,0,29.88,M,6.21,23,FEW,M,M,M,2000,M,M,M,M,M,M,M,M,M,M,84.97,VVTS 170430Z 04010G23KT 350V090 9999 FEW020 30/14 Q1012 NOSIG,M
VVTS,1/17/2021 5:00,106.6667,10.8167,86,57.2,37.62,10,11,0,29.88,M,6.21,M,FEW,M,M,M,2000,M,M,M,M,M,M,M,M,M,M,84.97,VVTS 170500Z 01011KT 330V030 9999 FEW020 30/14 Q1012 NOSIG,M
VVTS,1/17/2021 5:30,106.6667,10.8167,87.8,57.2,35.53,50,8,0,29.85,M,6.21,M,FEW,M,M,M,2000,M,M,M,M,M,M,M,M,M,M,86.58,VVTS 170530Z 05008KT 030V090 9999 FEW020 31/14 Q1011 NOSIG,M
VVTS,1/17/2021 6:00,106.6667,10.8167,87.8,59,37.9,30,9,0,29.83,M,6.21,M,FEW,M,M,M,2000,M,M,M,M,M,M,M,M,M,M,87.12,VVTS 170600Z 03009KT 340V060 9999 FEW020 31/15 Q1010 NOSIG,M
VVTS,1/17/2021 6:30,106.6667,10.8167,86,59,40.14,30,8,0,29.83,M,6.21,M,FEW,M,M,M,2000,M,M,M,M,M,M,M,M,M,M,85.47,VVTS 170630Z 03008KT 330V060 9999 FEW020 30/15 Q1010 NOSIG,M
VVTS,1/17/2021 7:00,106.6667,10.8167,87.8,59,37.9,M,6,0,29.8,M,6.21,M,SCT,M,M,M,2000,M,M,M,M,M,M,M,M,M,M,87.12,VVTS 170700Z VRB06KT 9999 SCT020 31/15 Q1009 NOSIG,M
VVTS,1/17/2021 7:30,106.6667,10.8167,87.8,57.2,35.53,50,8,0,29.8,M,6.21,M,SCT,M,M,M,2000,M,M,M,M,M,M,M,M,M,M,86.58,VVTS 170730Z 05008KT 020V080 9999 SCT020 31/14 Q1009 NOSIG,M
VVTS,1/17/2021 8:00,106.6667,10.8167,89.6,57.2,33.56,20,8,0,29.8,M,6.21,M,SCT,M,M,M,2000,M,M,M,M,M,M,M,M,M,M,88.28,VVTS 170800Z 02008KT 320V050 9999 SCT020 32/14 Q1009 NOSIG,M
VVTS,1/17/2021 8:30,106.6667,10.8167,87.8,59,37.9,50,6,0,29.8,M,6.21,M,SCT,M,M,M,2000,M,M,M,M,M,M,M,M,M,M,87.12,VVTS 170830Z 05006KT 360V080 9999 SCT020 31/15 Q1009 NOSIG,M
VVTS,1/17/2021 9:00,106.6667,10.8167,89.6,57.2,33.56,120,5,0,29.8,M,6.21,M,SCT,M,M,M,2000,M,M,M,M,M,M,M,M,M,M,88.28,VVTS 170900Z 12005KT 080V150 9999 SCT020 32/14 Q1009 NOSIG,M
VVTS,1/17/2021 9:30,106.6667,10.8167,87.8,59,37.9,70,7,0,29.83,M,6.21,M,FEW,SCT,M,M,1700,5000,M,M,M,M,M,M,M,M,M,87.12,VVTS 170930Z 07007KT 9999 FEW017 SCT050 31/15 Q1010 NOSIG,M
VVTS,1/17/2021 10:00,106.6667,10.8167,82.4,68,61.81,140,10,0,29.83,M,6.21,22,FEW,SCT,M,M,1700,5000,M,M,M,M,M,M,M,M,M,85.38,VVTS 171000Z 14010G22KT 070V170 9999 FEW017 SCT050 28/20 Q1010 NOSIG,M
VVTS,1/17/2021 10:30,106.6667,10.8167,80.6,66.2,61.58,150,7,0,29.83,M,6.21,M,FEW,SCT,M,M,1700,5000,M,M,M,M,M,M,M,M,M,82.75,VVTS 171030Z 15007KT 120V180 9999 FEW017 SCT050 27/19 Q1010 NOSIG,M
VVTS,1/17/2021 11:00,106.6667,10.8167,80.6,66.2,61.58,130,9,0,29.85,M,6.21,M,FEW,SCT,M,M,1700,5000,M,M,M,M,M,M,M,M,M,82.75,VVTS 171100Z 13009KT 110V170 9999 FEW017 SCT050 27/19 Q1011 NOSIG,M
VVTS,1/17/2021 11:30,106.6667,10.8167,80.6,66.2,61.58,140,7,0,29.85,M,6.21,M,FEW,SCT,M,M,1700,5000,M,M,M,M,M,M,M,M,M,82.75,VVTS 171130Z 14007KT 110V190 9999 FEW017 SCT050 27/19 Q1011 NOSIG,M
VVTS,1/17/2021 12:00,106.6667,10.8167,80.6,64.4,57.84,160,5,0,29.85,M,6.21,M,FEW,SCT,M,M,1700,5000,M,M,M,M,M,M,M,M,M,82.27,VVTS 171200Z 16005KT 120V190 9999 FEW017 SCT050 27/18 Q1011 NOSIG,M
VVTS,1/17/2021 12:30,106.6667,10.8167,78.8,64.4,61.36,120,5,0,29.88,M,6.21,M,FEW,SCT,M,M,1700,5000,M,M,M,M,M,M,M,M,M,78.8,VVTS 171230Z 12005KT 080V160 9999 FEW017 SCT050 26/18 Q1012 NOSIG,M
VVTS,1/17/2021 13:00,106.6667,10.8167,78.8,66.2,65.33,M,3,0,29.88,M,6.21,M,FEW,SCT,M,M,1700,5000,M,M,M,M,M,M,M,M,M,78.8,VVTS 171300Z VRB03KT 9999 FEW017 SCT050 26/19 Q1012 NOSIG,M
VVTS,1/17/2021 13:30,106.6667,10.8167,77,66.2,69.33,M,1,0,29.88,M,6.21,M,FEW,SCT,M,M,1700,5000,M,M,M,M,M,M,M,M,M,77,VVTS 171330Z VRB01KT 9999 FEW017 SCT050 25/19 Q1012 NOSIG,M
VVTS,1/17/2021 14:00,106.6667,10.8167,77,68,73.78,M,2,0,29.88,M,6.21,M,FEW,SCT,M,M,1700,5000,M,M,M,M,M,M,M,M,M,77,VVTS 171400Z VRB02KT 9999 FEW017 SCT050 25/20 Q1012 NOSIG,M
VVTS,1/17/2021 14:30,106.6667,10.8167,77,68,73.78,10,5,0,29.88,M,6.21,M,FEW,SCT,M,M,1700,5000,M,M,M,M,M,M,M,M,M,77,VVTS 171430Z 01005KT 330V060 9999 FEW017 SCT050 25/20 Q1012 NOSIG,M
VVTS,1/17/2021 15:00,106.6667,10.8167,78.8,57.2,47.52,30,8,0,29.88,M,6.21,M,FEW,SCT,M,M,1700,5000,M,M,M,M,M,M,M,M,M,78.8,VVTS 171500Z 03008KT 9999 FEW017 SCT050 26/14 Q1012 NOSIG,M
VVTS,1/17/2021 15:30,106.6667,10.8167,77,59,53.8,10,7,0,29.88,M,6.21,M,FEW,SCT,M,M,2000,5000,M,M,M,M,M,M,M,M,M,77,VVTS 171530Z 01007KT 340V050 9999 FEW020 SCT050 25/15 Q1012 NOSIG,M
VVTS,1/17/2021 16:00,106.6667,10.8167,77,57.2,50.43,10,6,0,29.88,M,6.21,M,FEW,SCT,M,M,2000,5000,M,M,M,M,M,M,M,M,M,77,VVTS 171600Z 01006KT 330V040 9999 FEW020 SCT050 25/14 Q1012 NOSIG,M
VVTS,1/17/2021 16:30,106.6667,10.8167,75.2,57.2,53.55,10,4,0,29.88,M,6.21,M,FEW,SCT,M,M,2000,5000,M,M,M,M,M,M,M,M,M,75.2,VVTS 171630Z 01004KT 9999 FEW020 SCT050 24/14 Q1012 NOSIG,M
VVTS,1/17/2021 17:00,106.6667,10.8167,75.2,57.2,53.55,20,6,0,29.88,M,6.21,M,FEW,SCT,M,M,2000,5000,M,M,M,M,M,M,M,M,M,75.2,VVTS 171700Z 02006KT 340V100 9999 FEW020 SCT050 24/14 Q1012 NOSIG,M
VVTS,1/17/2021 17:30,106.6667,10.8167,73.4,57.2,56.88,20,7,0,29.88,M,6.21,M,FEW,SCT,M,M,2000,5000,M,M,M,M,M,M,M,M,M,73.4,VVTS 171730Z 02007KT 9999 FEW020 SCT050 23/14 Q1012 NOSIG,M
VVTS,1/17/2021 18:00,106.6667,10.8167,73.4,57.2,56.88,30,6,0,29.88,M,6.21,M,FEW,SCT,M,M,2000,5000,M,M,M,M,M,M,M,M,M,73.4,VVTS 171800Z 03006KT 360V070 9999 FEW020 SCT050 23/14 Q1012 NOSIG,M
VVTS,1/17/2021 18:30,106.6667,10.8167,73.4,57.2,56.88,30,5,0,29.88,M,6.21,M,FEW,SCT,M,M,1700,5000,M,M,M,M,M,M,M,M,M,73.4,VVTS 171830Z 03005KT 9999 FEW017 SCT050 23/14 Q1012 NOSIG,M
VVTS,1/17/2021 19:00,106.6667,10.8167,71.6,59,64.48,30,5,0,29.88,M,6.21,M,FEW,SCT,M,M,1700,5000,M,M,M,M,M,M,M,M,M,71.6,VVTS 171900Z 03005KT 9999 FEW017 SCT050 22/15 Q1012 NOSIG,M
VVTS,1/17/2021 19:30,106.6667,10.8167,71.6,59,64.48,30,4,0,29.88,M,6.21,M,FEW,SCT,M,M,1700,5000,M,M,M,M,M,M,M,M,M,71.6,VVTS 171930Z 03004KT 360V060 9999 FEW017 SCT050 22/15 Q1012 NOSIG,M
VVTS,1/17/2021 20:00,106.6667,10.8167,71.6,59,64.48,20,4,0,29.88,M,6.21,M,FEW,SCT,M,M,1700,5000,M,M,M,M,M,M,M,M,M,71.6,VVTS 172000Z 02004KT 9999 FEW017 SCT050 22/15 Q1012 NOSIG,M
VVTS,1/17/2021 20:30,106.6667,10.8167,71.6,59,64.48,30,5,0,29.88,M,6.21,M,FEW,SCT,M,M,1700,5000,M,M,M,M,M,M,M,M,M,71.6,VVTS 172030Z 03005KT 360V070 9999 FEW017 SCT050 22/15 Q1012 NOSIG,M
VVTS,1/17/2021 21:00,106.6667,10.8167,71.6,59,64.48,30,5,0,29.88,M,6.21,M,FEW,SCT,M,M,1700,5000,M,M,M,M,M,M,M,M,M,71.6,VVTS 172100Z 03005KT 9999 FEW017 SCT050 22/15 Q1012 NOSIG,M
VVTS,1/17/2021 21:30,106.6667,10.8167,71.6,59,64.48,30,5,0,29.88,M,6.21,M,FEW,SCT,M,M,1700,5000,M,M,M,M,M,M,M,M,M,71.6,VVTS 172130Z 03005KT 9999 FEW017 SCT050 22/15 Q1012 NOSIG,M
VVTS,1/17/2021 22:00,106.6667,10.8167,69.8,59,68.55,20,4,0,29.88,M,6.21,M,FEW,SCT,M,M,1700,5000,M,M,M,M,M,M,M,M,M,69.8,VVTS 172200Z 02004KT 9999 FEW017 SCT050 21/15 Q1012 NOSIG,M
VVTS,1/17/2021 22:30,106.6667,10.8167,69.8,59,68.55,20,4,0,29.88,M,6.21,M,FEW,SCT,M,M,1700,5000,M,M,M,M,M,M,M,M,M,69.8,VVTS 172230Z 02004KT 340V050 9999 FEW017 SCT050 21/15 Q1012 NOSIG,M
VVTS,1/17/2021 23:00,106.6667,10.8167,69.8,59,68.55,30,4,0,29.91,M,6.21,M,FEW,SCT,M,M,1700,5000,M,M,M,M,M,M,M,M,M,69.8,VVTS 172300Z 03004KT 360V070 9999 FEW017 SCT050 21/15 Q1013 NOSIG,M
VVTS,1/17/2021 23:30,106.6667,10.8167,68,60.8,77.75,M,2,0,29.91,M,6.21,M,FEW,SCT,M,M,1700,5000,M,M,M,M,M,M,M,M,M,68,VVTS 172330Z VRB02KT 9999 FEW017 SCT050 20/16 Q1013 NOSIG,M
VVTS,1/18/2021 0:00,106.6667,10.8167,69.8,60.8,73.09,10,4,0,29.91,M,6.21,M,FEW,SCT,M,M,1700,5000,M,M,M,M,M,M,M,M,M,69.8,VVTS 180000Z 01004KT 9999 FEW017 SCT050 21/16 Q1013 NOSIG,M
VVTS,1/18/2021 0:30,106.6667,10.8167,71.6,59,64.48,20,4,0,29.94,M,6.21,M,FEW,M,M,M,2000,M,M,M,M,M,M,M,M,M,M,71.6,VVTS 180030Z 02004KT 350V050 9999 FEW020 22/15 Q1014 NOSIG,M
VVTS,1/18/2021 1:00,106.6667,10.8167,73.4,59,60.67,10,5,0,29.94,M,6.21,M,FEW,M,M,M,2000,M,M,M,M,M,M,M,M,M,M,73.4,VVTS 180100Z 01005KT 330V050 9999 FEW020 23/15 Q1014 NOSIG,M
VVTS,1/18/2021 1:30,106.6667,10.8167,75.2,59,57.12,20,6,0,29.94,M,6.21,M,FEW,M,M,M,2000,M,M,M,M,M,M,M,M,M,M,75.2,VVTS 180130Z 02006KT 330V060 9999 FEW020 24/15 Q1014 NOSIG,M
VVTS,1/18/2021 2:00,106.6667,10.8167,78.8,57.2,47.52,40,10,0,29.94,M,6.21,M,FEW,M,M,M,2000,M,M,M,M,M,M,M,M,M,M,78.8,VVTS 180200Z 04010KT 010V070 9999 FEW020 26/14 Q1014 NOSIG,M
VVTS,1/18/2021 2:30,106.6667,10.8167,78.8,59,50.69,40,9,0,29.94,M,6.21,M,FEW,M,M,M,2000,M,M,M,M,M,M,M,M,M,M,78.8,VVTS 180230Z 04009KT 340V070 9999 FEW020 26/15 Q1014 NOSIG,M
VVTS,1/18/2021 3:00,106.6667,10.8167,80.6,59,47.79,40,9,0,29.94,M,6.21,M,FEW,M,M,M,2000,M,M,M,M,M,M,M,M,M,M,81.11,VVTS 180300Z 04009KT 360V070 9999 FEW020 27/15 Q1014 NOSIG,M
VVTS,1/18/2021 3:30,106.6667,10.8167,84.2,57.2,39.86,50,6,0,29.91,M,6.21,M,FEW,M,M,M,2000,M,M,M,M,M,M,M,M,M,M,83.47,VVTS 180330Z 05006KT 010V070 9999 FEW020 29/14 Q1013 NOSIG,M
VVTS,1/18/2021 4:00,106.6667,10.8167,82.4,59,45.07,70,8,0,29.91,M,6.21,M,FEW,M,M,M,2000,M,M,M,M,M,M,M,M,M,M,82.46,VVTS 180400Z 07008KT 030V090 9999 FEW020 28/15 Q1013 NOSIG,M
VVTS,1/18/2021 4:30,106.6667,10.8167,84.2,57.2,39.86,50,5,0,29.91,M,6.21,M,FEW,M,M,M,2000,M,M,M,M,M,M,M,M,M,M,83.47,VVTS 180430Z 05005KT 320V120 9999 FEW020 29/14 Q1013 NOSIG,M
VVTS,1/18/2021 5:00,106.6667,10.8167,84.2,57.2,39.86,M,3,0,29.88,M,6.21,14,FEW,M,M,M,2000,M,M,M,M,M,M,M,M,M,M,83.47,VVTS 180500Z VRB03G14KT 9999 FEW020 29/14 Q1012 NOSIG,M
VVTS,1/18/2021 5:30,106.6667,10.8167,87.8,57.2,35.53,60,6,0,29.85,M,6.21,M,FEW,M,M,M,2000,M,M,M,M,M,M,M,M,M,M,86.58,VVTS 180530Z 06006KT 310V120 9999 FEW020 31/14 Q1011,M
VVTS,1/18/2021 6:00,106.6667,10.8167,86,57.2,37.62,30,7,0,29.85,M,6.21,M,FEW,M,M,M,2000,M,M,M,M,M,M,M,M,M,M,84.97,VVTS 180600Z 03007KT 330V060 9999 FEW020 30/14 Q1011 NOSIG,M
VVTS,1/18/2021 6:30,106.6667,10.8167,86,55.4,35.25,10,6,0,29.83,M,6.21,M,FEW,M,M,M,2000,M,M,M,M,M,M,M,M,M,M,84.54,VVTS 180630Z 01006KT 310V080 9999 FEW020 30/13 Q1010 NOSIG,M
VVTS,1/18/2021 7:00,106.6667,10.8167,87.8,57.2,35.53,340,7,0,29.83,M,6.21,M,FEW,M,M,M,2000,M,M,M,M,M,M,M,M,M,M,86.58,VVTS 180700Z 34007KT 300V020 9999 FEW020 31/14 Q1010 NOSIG,M
VVTS,1/18/2021 7:30,106.6667,10.8167,86,53.6,33.01,330,7,0,29.83,M,6.21,M,FEW,M,M,M,2000,M,M,M,M,M,M,M,M,M,M,84.18,VVTS 180730Z 33007KT 260V030 9999 FEW020 30/12 Q1010 NOSIG,M
VVTS,1/18/2021 8:00,106.6667,10.8167,87.8,53.6,31.17,340,5,0,29.8,M,6.21,M,FEW,M,M,M,2000,M,M,M,M,M,M,M,M,M,M,85.72,VVTS 180800Z 34005KT 270V050 9999 FEW020 31/12 Q1009 NOSIG,M
VVTS,1/18/2021 8:30,106.6667,10.8167,87.8,53.6,31.17,310,7,0,29.8,M,6.21,M,FEW,M,M,M,2000,M,M,M,M,M,M,M,M,M,M,85.72,VVTS 180830Z 31007KT 9999 FEW020 31/12 Q1009 NOSIG,M
VVTS,1/18/2021 9:00,106.6667,10.8167,87.8,53.6,31.17,M,3,0,29.8,M,6.21,M,FEW,M,M,M,2000,M,M,M,M,M,M,M,M,M,M,85.72,VVTS 180900Z VRB03KT 9999 FEW020 31/12 Q1009 NOSIG,M
VVTS,1/18/2021 9:30,106.6667,10.8167,87.8,53.6,31.17,340,5,0,29.8,M,6.21,M,FEW,M,M,M,2000,M,M,M,M,M,M,M,M,M,M,85.72,VVTS 180930Z 34005KT 290V020 9999 FEW020 31/12 Q1009 NOSIG,M
VVTS,1/18/2021 10:00,106.6667,10.8167,86,51.8,30.9,10,6,0,29.8,M,6.21,M,FEW,M,M,M,2000,M,M,M,M,M,M,M,M,M,M,83.87,VVTS 181000Z 01006KT 330V050 9999 FEW020 30/11 Q1009 NOSIG,M
VVTS,1/18/2021 10:30,106.6667,10.8167,86,53.6,33.01,360,7,0,29.8,M,6.21,M,FEW,M,M,M,2000,M,M,M,M,M,M,M,M,M,M,84.18,VVTS 181030Z 36007KT 310V050 9999 FEW020 30/12 Q1009 NOSIG,M
VVTS,1/18/2021 11:00,106.6667,10.8167,84.2,64.4,51.47,90,7,0,29.83,M,6.21,M,FEW,SCT,M,M,2000,5000,M,M,M,M,M,M,M,M,M,85.71,VVTS 181100Z 09007KT 020V140 9999 FEW020 SCT050 29/18 Q1010 NOSIG,M
VVTS,1/18/2021 11:30,106.6667,10.8167,80.6,66.2,61.58,130,9,0,29.83,M,6.21,M,FEW,SCT,M,M,2000,5000,M,M,M,M,M,M,M,M,M,82.75,VVTS 181130Z 13009KT 9999 FEW020 SCT050 27/19 Q1010 NOSIG,M
VVTS,1/18/2021 12:00,106.6667,10.8167,78.8,66.2,65.33,140,8,0,29.85,M,6.21,M,FEW,SCT,M,M,2000,5000,M,M,M,M,M,M,M,M,M,78.8,VVTS 181200Z 14008KT 110V190 9999 FEW020 SCT050 26/19 Q1011 NOSIG,M
VVTS,1/18/2021 12:30,106.6667,10.8167,78.8,66.2,65.33,170,6,0,29.85,M,6.21,M,FEW,SCT,M,M,2000,5000,M,M,M,M,M,M,M,M,M,78.8,VVTS 181230Z 17006KT 130V200 9999 FEW020 SCT050 26/19 Q1011 NOSIG,M
VVTS,1/18/2021 13:00,106.6667,10.8167,77,64.4,65.12,160,4,0,29.85,M,6.21,M,FEW,SCT,M,M,2000,5000,M,M,M,M,M,M,M,M,M,77,VVTS 181300Z 16004KT 120V210 9999 FEW020 SCT050 25/18 Q1011 NOSIG,M
VVTS,1/18/2021 13:30,106.6667,10.8167,77,66.2,69.33,M,2,0,29.85,M,6.21,M,FEW,SCT,M,M,2000,5000,M,M,M,M,M,M,M,M,M,77,VVTS 181330Z VRB02KT 9999 FEW020 SCT050 25/19 Q1011 NOSIG,M
VVTS,1/18/2021 14:00,106.6667,10.8167,77,66.2,69.33,M,1,0,29.85,M,6.21,M,FEW,SCT,M,M,2000,5000,M,M,M,M,M,M,M,M,M,77,VVTS 181400Z VRB01KT 9999 FEW020 SCT050 25/19 Q1011 NOSIG,M
VVTS,1/18/2021 14:30,106.6667,10.8167,77,66.2,69.33,M,1,0,29.85,M,6.21,M,SCT,M,M,M,1700,M,M,M,M,M,M,M,M,M,M,77,VVTS 181430Z VRB01KT 9999 SCT017 25/19 Q1011 NOSIG,M
VVTS,1/18/2021 15:00,106.6667,10.8167,77,64.4,65.12,M,3,0,29.88,M,6.21,M,SCT,M,M,M,1700,M,M,M,M,M,M,M,M,M,M,77,VVTS 181500Z VRB03KT 9999 SCT017 25/18 Q1012 NOSIG,M
VVTS,1/18/2021 15:30,106.6667,10.8167,77,55.4,47.25,360,7,0,29.88,M,6.21,M,SCT,SCT,M,M,1700,5000,M,M,M,M,M,M,M,M,M,77,VVTS 181530Z 36007KT 9999 SCT017 SCT050 25/13 Q1012 NOSIG,M
VVTS,1/18/2021 16:00,106.6667,10.8167,75.2,53.6,46.98,10,7,0,29.85,M,6.21,M,SCT,SCT,M,M,1700,5000,M,M,M,M,M,M,M,M,M,75.2,VVTS 181600Z 01007KT 330V030 9999 SCT017 SCT050 24/12 Q1011 NOSIG,M
VVTS,1/18/2021 16:30,106.6667,10.8167,73.4,55.4,53.29,340,6,0,29.85,M,6.21,M,SCT,SCT,M,M,1700,5000,M,M,M,M,M,M,M,M,M,73.4,VVTS 181630Z 34006KT 320V020 9999 SCT017 SCT050 23/13 Q1011 NOSIG,M
VVTS,1/18/2021 17:00,106.6667,10.8167,73.4,55.4,53.29,10,6,0,29.85,M,6.21,M,SCT,SCT,M,M,1700,5000,M,M,M,M,M,M,M,M,M,73.4,VVTS 181700Z 01006KT 340V050 9999 SCT017 SCT050 23/13 Q1011 NOSIG,M
VVTS,1/18/2021 17:30,106.6667,10.8167,73.4,55.4,53.29,10,5,0,29.85,M,6.21,M,SCT,SCT,M,M,1700,5000,M,M,M,M,M,M,M,M,M,73.4,VVTS 181730Z 01005KT 340V040 9999 SCT017 SCT050 23/13 Q1011 NOSIG,M
VVTS,1/18/2021 18:00,106.6667,10.8167,71.6,55.4,56.63,M,3,0,29.85,M,6.21,M,SCT,SCT,M,M,1700,5000,M,M,M,M,M,M,M,M,M,71.6,VVTS 181800Z VRB03KT 9999 SCT017 SCT050 22/13 Q1011 NOSIG,M
VVTS,1/18/2021 18:30,106.6667,10.8167,71.6,55.4,56.63,10,3,0,29.85,M,6.21,M,FEW,SCT,M,M,1700,5000,M,M,M,M,M,M,M,M,M,71.6,VVTS 181830Z 01003KT 9999 FEW017 SCT050 22/13 Q1011 NOSIG,M
VVTS,1/18/2021 19:00,106.6667,10.8167,71.6,55.4,56.63,350,3,0,29.83,M,6.21,M,FEW,SCT,M,M,1700,5000,M,M,M,M,M,M,M,M,M,71.6,VVTS 181900Z 35003KT 9999 FEW017 SCT050 22/13 Q1010 NOSIG,M
VVTS,1/18/2021 19:30,106.6667,10.8167,71.6,55.4,56.63,10,4,0,29.83,M,6.21,M,FEW,SCT,M,M,1700,5000,M,M,M,M,M,M,M,M,M,71.6,VVTS 181930Z 01004KT 9999 FEW017 SCT050 22/13 Q1010 NOSIG,M
VVTS,1/18/2021 20:00,106.6667,10.8167,69.8,55.4,60.21,10,5,0,29.83,M,6.21,M,FEW,SCT,M,M,1700,5000,M,M,M,M,M,M,M,M,M,69.8,VVTS 182000Z 01005KT 9999 FEW017 SCT050 21/13 Q1010 NOSIG,M
VVTS,1/18/2021 20:30,106.6667,10.8167,69.8,57.2,64.26,10,4,0,29.83,M,6.21,M,FEW,SCT,M,M,1700,5000,M,M,M,M,M,M,M,M,M,69.8,VVTS 182030Z 01004KT 9999 FEW017 SCT050 21/14 Q1010 NOSIG,M
VVTS,1/18/2021 21:00,106.6667,10.8167,69.8,57.2,64.26,330,2,0,29.83,M,4.97,M,FEW,M,M,M,1700,M,M,M,M,M,M,M,M,M,M,69.8,VVTS 182100Z 33002KT 8000 FEW017 21/14 Q1010 NOSIG,M
VVTS,1/18/2021 21:30,106.6667,10.8167,68,57.2,68.35,M,2,0,29.83,M,4.97,M,FEW,M,M,M,1700,M,M,M,M,M,M,M,M,M,M,68,VVTS 182130Z VRB02KT 8000 FEW017 20/14 Q1010 NOSIG,M
VVTS,1/18/2021 22:00,106.6667,10.8167,68,57.2,68.35,M,3,0,29.83,M,4.97,M,FEW,M,M,M,1700,M,M,M,M,M,M,M,M,M,M,68,VVTS 182200Z VRB03KT 8000 FEW017 20/14 Q1010 NOSIG,M
VVTS,1/18/2021 22:30,106.6667,10.8167,68,57.2,68.35,20,4,0,29.85,M,4.97,M,FEW,M,M,M,1700,M,M,M,M,M,M,M,M,M,M,68,VVTS 182230Z 02004KT 340V040 8000 FEW017 20/14 Q1011 NOSIG,M
VVTS,1/18/2021 23:00,106.6667,10.8167,68,57.2,68.35,M,3,0,29.85,M,4.97,M,FEW,M,M,M,1700,M,M,M,M,M,M,M,M,M,M,68,VVTS 182300Z VRB03KT 8000 FEW017 20/14 Q1011 NOSIG,M
VVTS,1/18/2021 23:30,106.6667,10.8167,68,59,72.92,M,3,0,29.88,M,4.97,M,FEW,SCT,M,M,1700,5000,M,M,M,M,M,M,M,M,M,68,VVTS 182330Z VRB03KT 8000 FEW017 SCT050 20/15 Q1012 NOSIG,M
VVTS,1/19/2021 0:00,106.6667,10.8167,68,59,72.92,0,0,0,29.88,M,5.59,M,FEW,SCT,M,M,1700,5000,M,M,M,M,M,M,M,M,M,68,VVTS 190000Z 00000KT 9000 FEW017 SCT050 20/15 Q1012 NOSIG,M
VVTS,1/19/2021 0:30,106.6667,10.8167,69.8,59,68.55,M,2,0,29.91,M,4.97,M,FEW,SCT,M,M,1700,5000,M,M,M,M,M,M,M,M,M,69.8,VVTS 190030Z VRB02KT 8000 FEW017 SCT050 21/15 Q1013 NOSIG,M
VVTS,1/19/2021 1:00,106.6667,10.8167,69.8,57.2,64.26,M,3,0,29.91,M,4.97,M,FEW,SCT,M,M,1700,5000,M,M,M,M,M,M,M,M,M,69.8,VVTS 190100Z VRB03KT 8000 FEW017 SCT050 21/14 Q1013 NOSIG,M
VVTS,1/19/2021 1:30,106.6667,10.8167,71.6,59,64.48,M,1,0,29.91,M,4.97,M,FEW,SCT,M,M,1700,5000,M,M,M,M,M,M,M,M,M,71.6,VVTS 190130Z VRB01KT 8000 FEW017 SCT050 22/15 Q1013 NOSIG,M
VVTS,1/19/2021 2:00,106.6667,10.8167,73.4,57.2,56.88,M,2,0,29.91,M,4.35,M,FEW,SCT,M,M,1700,5000,M,M,M,M,M,M,M,M,M,73.4,VVTS 190200Z VRB02KT 7000 FEW017 SCT050 23/14 Q1013 NOSIG,M
VVTS,1/19/2021 2:30,106.6667,10.8167,75.2,59,57.12,M,2,0,29.94,M,4.35,M,NSC,M,M,M,M,M,M,M,M,M,M,M,M,M,M,75.2,VVTS 190230Z VRB02KT 7000 NSC 24/15 Q1014 NOSIG,M
VVTS,1/19/2021 3:00,106.6667,10.8167,77,59,53.8,M,2,0,29.94,M,4.35,M,NSC,M,M,M,M,M,M,M,M,M,M,M,M,M,M,77,VVTS 190300Z VRB02KT 7000 NSC 25/15 Q1014 NOSIG,M
VVTS,1/19/2021 3:30,106.6667,10.8167,78.8,60.8,54.05,290,4,0,29.91,M,4.35,M,NSC,M,M,M,M,M,M,M,M,M,M,M,M,M,M,78.8,VVTS 190330Z 29004KT 240V340 7000 NSC 26/16 Q1013 NOSIG,M
VVTS,1/19/2021 4:00,106.6667,10.8167,78.8,62.6,57.6,310,6,0,29.91,M,4.97,M,NSC,M,M,M,M,M,M,M,M,M,M,M,M,M,M,78.8,VVTS 190400Z 31006KT 250V350 8000 NSC 26/17 Q1013 NOSIG,M
VVTS,1/19/2021 4:30,106.6667,10.8167,80.6,60.8,50.95,M,1,0,29.91,M,4.97,12,FEW,SCT,M,M,2000,5000,M,M,M,M,M,M,M,M,M,81.46,VVTS 190430Z VRB01G12KT 8000 FEW020 SCT050 27/16 Q1013 NOSIG,M
VVTS,1/19/2021 5:00,106.6667,10.8167,82.4,60.8,48.05,320,8,0,29.88,M,4.97,M,FEW,SCT,M,M,2000,5000,M,M,M,M,M,M,M,M,M,82.9,VVTS 190500Z 32008KT 280V340 8000 FEW020 SCT050 28/16 Q1012 NOSIG,M
VVTS,1/19/2021 5:30,106.6667,10.8167,80.6,60.8,50.95,300,7,0,29.85,M,4.97,M,NSC,M,M,M,M,M,M,M,M,M,M,M,M,M,M,81.46,VVTS 190530Z 30007KT 260V340 8000 NSC 27/16 Q1011 NOSIG,M
VVTS,1/19/2021 6:00,106.6667,10.8167,80.6,62.6,54.3,M,3,0,29.85,M,4.97,M,FEW,SCT,M,M,2000,5000,M,M,M,M,M,M,M,M,M,81.84,VVTS 190600Z VRB03KT 8000 FEW020 SCT050 27/17 Q1011 NOSIG,M
VVTS,1/19/2021 6:30,106.6667,10.8167,80.6,62.6,54.3,300,4,0,29.83,M,4.97,M,FEW,BKN,M,M,2000,5000,M,M,M,M,M,M,M,M,M,81.84,VVTS 190630Z 30004KT 250V360 8000 FEW020 BKN050 27/17 Q1010 NOSIG,M
VVTS,1/19/2021 7:00,106.6667,10.8167,80.6,62.6,54.3,300,4,0,29.83,M,4.97,M,FEW,BKN,M,M,2000,5000,M,M,M,M,M,M,M,M,M,81.84,VVTS 190700Z 30004KT 250V360 8000 FEW020 BKN050 27/17 Q1010 NOSIG,M
VVTS,1/19/2021 7:30,106.6667,10.8167,82.4,62.6,51.21,280,6,0,29.83,M,4.97,M,FEW,BKN,M,M,2000,5000,M,M,M,M,M,M,M,M,M,83.41,VVTS 190730Z 28006KT 240V320 8000 FEW020 BKN050 28/17 Q1010 NOSIG,M
VVTS,1/19/2021 8:00,106.6667,10.8167,82.4,62.6,51.21,280,5,0,29.8,M,4.97,M,SCT,SCT,M,M,2000,5000,M,M,M,M,M,M,M,M,M,83.41,VVTS 190800Z 28005KT 240V320 8000 SCT020 SCT050 28/17 Q1009 NOSIG,M
VVTS,1/19/2021 8:30,106.6667,10.8167,80.6,62.6,54.3,280,4,0,29.83,M,4.97,M,SCT,SCT,M,M,2000,5000,M,M,M,M,M,M,M,M,M,81.84,VVTS 190830Z 28004KT 230V320 8000 SCT020 SCT050 27/17 Q1010 NOSIG,M
VVTS,1/19/2021 9:00,106.6667,10.8167,80.6,62.6,54.3,270,5,0,29.83,M,4.97,M,FEW,SCT,M,M,2000,5000,M,M,M,M,M,M,M,M,M,81.84,VVTS 190900Z 27005KT 240V300 8000 FEW020 SCT050 27/17 Q1010 NOSIG,M
VVTS,1/19/2021 9:30,106.6667,10.8167,80.6,62.6,54.3,270,4,0,29.83,M,4.97,M,FEW,SCT,M,M,2000,5000,M,M,M,M,M,M,M,M,M,81.84,VVTS 190930Z 27004KT 240V310 8000 FEW020 SCT050 27/17 Q1010 NOSIG,M
VVTS,1/19/2021 10:00,106.6667,10.8167,80.6,62.6,54.3,280,4,0,29.83,M,4.97,M,FEW,SCT,M,M,2000,5000,M,M,M,M,M,M,M,M,M,81.84,VVTS 191000Z 28004KT 8000 FEW020 SCT050 27/17 Q1010 NOSIG,M
VVTS,1/19/2021 10:30,106.6667,10.8167,78.8,60.8,54.05,280,5,0,29.83,M,4.97,M,FEW,SCT,M,M,2000,5000,M,M,M,M,M,M,M,M,M,78.8,VVTS 191030Z 28005KT 8000 FEW020 SCT050 26/16 Q1010 NOSIG,M
VVTS,1/19/2021 11:00,106.6667,10.8167,77,60.8,57.36,280,4,0,29.83,M,4.97,M,FEW,SCT,M,M,2000,5000,M,M,M,M,M,M,M,M,M,77,VVTS 191100Z 28004KT 8000 FEW020 SCT050 25/16 Q1010 NOSIG,M
VVTS,1/19/2021 11:30,106.6667,10.8167,75.2,62.6,64.91,260,3,0,29.83,M,4.97,M,FEW,SCT,M,M,2000,5000,M,M,M,M,M,M,M,M,M,75.2,VVTS 191130Z 26003KT 8000 FEW020 SCT050 24/17 Q1010 NOSIG,M
VVTS,1/19/2021 12:00,106.6667,10.8167,75.2,62.6,64.91,260,3,0,29.85,M,4.97,M,FEW,M,M,M,2300,M,M,M,M,M,M,M,M,M,M,75.2,VVTS 191200Z 26003KT 8000 FEW023 24/17 Q1011 NOSIG,M
VVTS,1/19/2021 12:30,106.6667,10.8167,77,62.6,61.13,270,2,0,29.85,M,4.97,M,FEW,M,M,M,2300,M,M,M,M,M,M,M,M,M,M,77,VVTS 191230Z 27002KT 8000 FEW023 25/17 Q1011 NOSIG,M
VVTS,1/19/2021 13:00,106.6667,10.8167,75.2,64.4,69.14,260,4,0,29.85,M,4.97,M,FEW,M,M,M,2300,M,M,M,M,M,M,M,M,M,M,75.2,VVTS 191300Z 26004KT 8000 FEW023 24/18 Q1011 NOSIG,M
VVTS,1/19/2021 13:30,106.6667,10.8167,75.2,66.2,73.61,M,3,0,29.88,M,4.97,M,FEW,M,M,M,2300,M,M,M,M,M,M,M,M,M,M,75.2,VVTS 191330Z VRB03KT 8000 FEW023 24/19 Q1012 NOSIG,M
VVTS,1/19/2021 14:00,106.6667,10.8167,75.2,68,78.34,270,3,0,29.88,M,4.97,M,FEW,M,M,M,2000,M,M,M,M,M,M,M,M,M,M,75.2,VVTS 191400Z 27003KT 8000 FEW020 24/20 Q1012 NOSIG,M
VVTS,1/19/2021 14:30,106.6667,10.8167,75.2,68,78.34,280,3,0,29.88,M,4.97,M,FEW,M,M,M,2000,M,M,M,M,M,M,M,M,M,M,75.2,VVTS 191430Z 28003KT 8000 FEW020 24/20 Q1012 NOSIG,M
VVTS,1/19/2021 15:00,106.6667,10.8167,73.4,68,83.21,250,4,0,29.88,M,4.35,M,FEW,M,M,M,2000,M,M,M,M,M,M,M,M,M,M,73.4,VVTS 191500Z 25004KT 7000 FEW020 23/20 Q1012 NOSIG,M
VVTS,1/19/2021 15:30,106.6667,10.8167,75.2,66.2,73.61,280,2,0,29.88,M,4.35,M,FEW,M,M,M,1700,M,M,M,M,M,M,M,M,M,M,75.2,VVTS 191530Z 28002KT 7000 FEW017 24/19 Q1012 NOSIG,M
VVTS,1/19/2021 16:00,106.6667,10.8167,75.2,68,78.34,M,2,0,29.88,M,4.35,M,FEW,M,M,M,1700,M,M,M,M,M,M,M,M,M,M,75.2,VVTS 191600Z VRB02KT 7000 FEW017 24/20 Q1012 NOSIG,M
VVTS,1/19/2021 16:30,106.6667,10.8167,75.2,64.4,69.14,M,3,0,29.88,M,4.35,M,FEW,M,M,M,1700,M,M,M,M,M,M,M,M,M,M,75.2,VVTS 191630Z VRB03KT 7000 FEW017 24/18 Q1012 NOSIG,M
VVTS,1/19/2021 17:00,106.6667,10.8167,75.2,66.2,73.61,0,0,0,29.88,M,4.35,M,FEW,M,M,M,1700,M,M,M,M,M,M,M,M,M,M,75.2,VVTS 191700Z 00000KT 7000 FEW017 24/19 Q1012 NOSIG,M
VVTS,1/19/2021 17:30,106.6667,10.8167,75.2,66.2,73.61,M,1,0,29.88,M,4.35,M,FEW,M,M,M,1700,M,M,M,M,M,M,M,M,M,M,75.2,VVTS 191730Z VRB01KT 7000 FEW017 24/19 Q1012 NOSIG,M
VVTS,1/19/2021 18:00,106.6667,10.8167,75.2,64.4,69.14,140,3,0,29.88,M,4.35,M,FEW,M,M,M,1700,M,M,M,M,M,M,M,M,M,M,75.2,VVTS 191800Z 14003KT 7000 FEW017 24/18 Q1012 NOSIG,M
VVTS,1/19/2021 18:30,106.6667,10.8167,77,64.4,65.12,120,4,0,29.85,M,4.97,M,FEW,M,M,M,2000,M,M,M,M,M,M,M,M,M,M,77,VVTS 191830Z 12004KT 8000 FEW020 25/18 Q1011 NOSIG,M
VVTS,1/19/2021 19:00,106.6667,10.8167,75.2,66.2,73.61,90,3,0,29.85,M,4.97,M,FEW,M,M,M,2000,M,M,M,M,M,M,M,M,M,M,75.2,VVTS 191900Z 09003KT 8000 FEW020 24/19 Q1011 NOSIG,M
VVTS,1/19/2021 19:30,106.6667,10.8167,73.4,69.8,88.51,80,3,0,29.83,M,4.97,M,FEW,M,M,M,2000,M,M,M,M,M,M,M,M,M,M,73.4,VVTS 191930Z 08003KT 8000 FEW020 23/21 Q1010 NOSIG,M
VVTS,1/19/2021 20:00,106.6667,10.8167,73.4,68,83.21,130,2,0,29.83,M,4.97,M,FEW,M,M,M,2000,M,M,M,M,M,M,M,M,M,M,73.4,VVTS 192000Z 13002KT 8000 FEW020 23/20 Q1010 NOSIG,M
VVTS,1/19/2021 20:30,106.6667,10.8167,73.4,69.8,88.51,M,2,0,29.83,M,4.97,M,FEW,M,M,M,2000,M,M,M,M,M,M,M,M,M,M,73.4,VVTS 192030Z VRB02KT 8000 FEW020 23/21 Q1010 NOSIG,M
VVTS,1/19/2021 21:00,106.6667,10.8167,73.4,68,83.21,M,1,0,29.83,M,4.97,M,FEW,M,M,M,2000,M,M,M,M,M,M,M,M,M,M,73.4,VVTS 192100Z VRB01KT 8000 FEW020 23/20 Q1010 NOSIG,M
VVTS,1/19/2021 21:30,106.6667,10.8167,71.6,68,88.43,250,2,0,29.85,M,3.73,M,FEW,M,M,M,1700,M,M,M,M,M,M,M,M,M,M,71.6,VVTS 192130Z 25002KT 6000 FEW017 22/20 Q1011 NOSIG,M
VVTS,1/19/2021 22:00,106.6667,10.8167,71.6,66.2,83.09,210,2,0,29.85,M,3.73,M,FEW,M,M,M,1700,M,M,M,M,M,M,M,M,M,M,71.6,VVTS 192200Z 21002KT 6000 FEW017 22/19 Q1011 NOSIG,M
VVTS,1/19/2021 22:30,106.6667,10.8167,71.6,66.2,83.09,280,2,0,29.85,M,3.73,M,FEW,M,M,M,1700,M,M,M,M,M,M,M,M,M,M,71.6,VVTS 192230Z 28002KT 6000 FEW017 22/19 Q1011 NOSIG,M
VVTS,1/19/2021 23:00,106.6667,10.8167,71.6,66.2,83.09,280,4,0,29.85,M,3.73,M,FEW,M,M,M,1700,M,M,M,M,M,M,M,M,M,M,71.6,VVTS 192300Z 28004KT 6000 FEW017 22/19 Q1011 NOSIG,M
VVTS,1/19/2021 23:30,106.6667,10.8167,69.8,66.2,88.34,M,2,0,29.85,M,2.49,M,FEW,M,M,M,1700,M,M,M,BR,M,M,M,M,M,M,69.8,VVTS 192330Z VRB02KT 4000 BR FEW017 21/19 Q1011 NOSIG,M
VVTS,1/20/2021 0:00,106.6667,10.8167,71.6,66.2,83.09,270,2,0,29.88,M,2.49,M,FEW,M,M,M,1700,M,M,M,BR,M,M,M,M,M,M,71.6,VVTS 200000Z 27002KT 4000 BR FEW017 22/19 Q1012 BECMG TL0020 5000 BR,M
VVTS,1/20/2021 0:30,106.6667,10.8167,73.4,66.2,78.19,290,2,0,29.88,M,2.49,M,FEW,M,M,M,1700,M,M,M,BR,M,M,M,M,M,M,73.4,VVTS 200030Z 29002KT 4000 BR FEW017 23/19 Q1012 BECMG TL0050 5000 BR,M
VVTS,1/20/2021 1:00,106.6667,10.8167,75.2,68,78.34,M,1,0,29.91,M,2.49,M,FEW,M,M,M,1700,M,M,M,BR,M,M,M,M,M,M,75.2,VVTS 200100Z VRB01KT 4000 R25R/1600V1900U BR FEW017 24/20 Q1013 NOSIG,M
VVTS,1/20/2021 1:30,106.6667,10.8167,77,68,73.78,M,1,0,29.91,M,2.49,M,FEW,M,M,M,1700,M,M,M,BR,M,M,M,M,M,M,77,VVTS 200130Z VRB01KT 4000 BR FEW017 25/20 Q1013 NOSIG,M
VVTS,1/20/2021 2:00,106.6667,10.8167,78.8,69.8,73.95,M,1,0,29.91,M,2.49,M,FEW,M,M,M,1700,M,M,M,BR,M,M,M,M,M,M,78.8,VVTS 200200Z VRB01KT 4000 BR FEW017 26/21 Q1013 NOSIG,M
VVTS,1/20/2021 2:30,106.6667,10.8167,80.6,68,65.54,M,2,0,29.91,M,2.49,M,FEW,M,M,M,1700,M,M,M,BR,M,M,M,M,M,M,83.29,VVTS 200230Z VRB02KT 4000 BR FEW017 27/20 Q1013 NOSIG,M
VVTS,1/20/2021 3:00,106.6667,10.8167,82.4,64.4,54.55,M,1,0,29.88,M,3.73,M,FEW,M,M,M,1700,M,M,M,M,M,M,M,M,M,M,83.98,VVTS 200300Z VRB01KT 6000 FEW017 28/18 Q1012 NOSIG,M
VVTS,1/20/2021 3:30,106.6667,10.8167,84.2,64.4,51.47,M,2,0,29.88,M,3.73,M,FEW,M,M,M,2000,M,M,M,M,M,M,M,M,M,M,85.71,VVTS 200330Z VRB02KT 6000 FEW020 29/18 Q1012 NOSIG,M
VVTS,1/20/2021 4:00,106.6667,10.8167,86,62.6,45.61,M,2,0,29.88,M,3.73,M,FEW,M,M,M,2000,M,M,M,M,M,M,M,M,M,M,86.72,VVTS 200400Z VRB02KT 6000 FEW020 30/17 Q1012 NOSIG,M
VVTS,1/20/2021 4:30,106.6667,10.8167,87.8,64.4,45.88,300,4,0,29.85,M,4.97,M,FEW,M,M,M,2000,M,M,M,M,M,M,M,M,M,M,89.33,VVTS 200430Z 30004KT 240V340 8000 FEW020 31/18 Q1011 NOSIG,M
VVTS,1/20/2021 5:00,106.6667,10.8167,87.8,64.4,45.88,M,1,0,29.85,M,4.97,M,SCT,M,M,M,2000,M,M,M,M,M,M,M,M,M,M,89.33,VVTS 200500Z VRB01KT 8000 SCT020 31/18 Q1011 NOSIG,M
VVTS,1/20/2021 5:30,106.6667,10.8167,86,62.6,45.61,M,3,0,29.83,M,4.97,M,SCT,M,M,M,2000,M,M,M,M,M,M,M,M,M,M,86.72,VVTS 200530Z VRB03KT 8000 SCT020 30/17 Q1010 NOSIG,M
VVTS,1/20/2021 6:00,106.6667,10.8167,86,62.6,45.61,M,3,0,29.83,M,4.97,M,SCT,M,M,M,2000,M,M,M,M,M,M,M,M,M,M,86.72,VVTS 200600Z VRB03KT 8000 SCT020 30/17 Q1010 NOSIG,M
VVTS,1/20/2021 6:30,106.6667,10.8167,86,64.4,48.58,M,3,0,29.8,M,4.35,M,SCT,SCT,M,M,2000,5000,M,M,M,M,M,M,M,M,M,87.49,VVTS 200630Z VRB03KT 7000 SCT020 SCT050 30/18 Q1009 NOSIG,M
VVTS,1/20/2021 7:00,106.6667,10.8167,87.8,62.6,43.07,M,3,0,29.77,M,4.35,M,SCT,SCT,M,M,2000,5000,M,M,M,M,M,M,M,M,M,88.48,VVTS 200700Z VRB03KT 7000 SCT020 SCT050 31/17 Q1008 NOSIG,M
VVTS,1/20/2021 7:30,106.6667,10.8167,87.8,62.6,43.07,M,2,0,29.77,M,4.35,M,SCT,SCT,M,M,2000,5000,M,M,M,M,M,M,M,M,M,88.48,VVTS 200730Z VRB02KT 7000 SCT020 SCT050 31/17 Q1008 NOSIG,M
VVTS,1/20/2021 8:00,106.6667,10.8167,87.8,62.6,43.07,M,3,0,29.77,M,4.35,M,SCT,SCT,M,M,2000,5000,M,M,M,M,M,M,M,M,M,88.48,VVTS 200800Z VRB03KT 7000 SCT020 SCT050 31/17 Q1008 NOSIG,M
VVTS,1/20/2021 8:30,106.6667,10.8167,87.8,62.6,43.07,260,4,0,29.77,M,4.35,M,SCT,SCT,M,M,2000,5000,M,M,M,M,M,M,M,M,M,88.48,VVTS 200830Z 26004KT 220V300 7000 SCT020 SCT050 31/17 Q1008 NOSIG,M
VVTS,1/20/2021 9:00,106.6667,10.8167,87.8,64.4,45.88,270,7,0,29.77,M,4.35,M,SCT,SCT,M,M,2000,5000,M,M,M,M,M,M,M,M,M,89.33,VVTS 200900Z 27007KT 250V310 7000 SCT020 SCT050 31/18 Q1008 NOSIG,M
VVTS,1/20/2021 9:30,106.6667,10.8167,86,64.4,48.58,290,7,0,29.77,M,4.97,M,SCT,SCT,M,M,2000,5000,M,M,M,M,M,M,M,M,M,87.49,VVTS 200930Z 29007KT 240V320 8000 SCT020 SCT050 30/18 Q1008 NOSIG,M
VVTS,1/20/2021 10:00,106.6667,10.8167,86,64.4,48.58,300,7,0,29.8,M,4.97,M,FEW,SCT,M,M,2000,5000,M,M,M,M,M,M,M,M,M,87.49,VVTS 201000Z 30007KT 8000 FEW020 SCT050 30/18 Q1009 NOSIG,M
VVTS,1/20/2021 10:30,106.6667,10.8167,84.2,62.6,48.32,290,6,0,29.8,M,4.97,M,FEW,BKN,M,M,1700,5000,M,M,M,M,M,M,M,M,M,85.03,VVTS 201030Z 29006KT 250V310 8000 FEW017 BKN050 29/17 Q1009 NOSIG,M
VVTS,1/20/2021 11:00,106.6667,10.8167,84.2,62.6,48.32,280,7,0,29.8,M,4.97,M,FEW,BKN,M,M,1700,5000,M,M,M,M,M,M,M,M,M,85.03,VVTS 201100Z 28007KT 8000 FEW017 BKN050 29/17 Q1009 NOSIG,M
VVTS,1/20/2021 11:30,106.6667,10.8167,80.6,64.4,57.84,270,4,0,29.8,M,4.97,M,FEW,BKN,M,M,1700,5000,M,M,M,M,M,M,M,M,M,82.27,VVTS 201130Z 27004KT 8000 FEW017 BKN050 27/18 Q1009 NOSIG,M
VVTS,1/20/2021 12:00,106.6667,10.8167,80.6,66.2,61.58,250,5,0,29.83,M,4.97,M,FEW,SCT,M,M,1700,5000,M,M,M,M,M,M,M,M,M,82.75,VVTS 201200Z 25005KT 8000 FEW017 SCT050 27/19 Q1010 NOSIG,M
VVTS,1/20/2021 12:30,106.6667,10.8167,82.4,68,61.81,200,5,0,29.83,M,4.97,M,FEW,SCT,M,M,1700,5000,M,M,M,M,M,M,M,M,M,85.38,VVTS 201230Z 20005KT 8000 FEW017 SCT050 28/20 Q1010 NOSIG,M
VVTS,1/20/2021 13:00,106.6667,10.8167,80.6,71.6,74.11,180,6,0,29.85,M,4.97,M,NSC,M,M,M,M,M,M,M,M,M,M,M,M,M,M,84.57,VVTS 201300Z 18006KT 150V210 8000 NSC 27/22 Q1011 NOSIG,M
VVTS,1/20/2021 13:30,106.6667,10.8167,78.8,73.4,83.55,180,6,0,29.85,M,6.21,M,NSC,M,M,M,M,M,M,M,,M,M,M,M,M,M,78.8,VVTS 201330Z 18006KT //// R25R/P2000N // NSC 26/23 Q1011 NOSIG,M
VVTS,1/20/2021 14:00,106.6667,10.8167,78.8,73.4,83.55,180,5,0,29.85,M,4.97,M,NSC,M,M,M,M,M,M,M,M,M,M,M,M,M,M,78.8,VVTS 201400Z 18005KT 8000 NSC 26/23 Q1011 NOSIG,M
VVTS,1/20/2021 14:30,106.6667,10.8167,78.8,71.6,78.62,150,6,0,29.85,M,4.97,M,NSC,M,M,M,M,M,M,M,M,M,M,M,M,M,M,78.8,VVTS 201430Z 15006KT 8000 NSC 26/22 Q1011 NOSIG,M
VVTS,1/20/2021 15:00,106.6667,10.8167,78.8,69.8,73.95,150,4,0,29.85,M,4.97,M,NSC,M,M,M,M,M,M,M,M,M,M,M,M,M,M,78.8,VVTS 201500Z 15004KT 120V200 8000 NSC 26/21 Q1011 NOSIG,M
VVTS,1/20/2021 15:30,106.6667,10.8167,78.8,71.6,78.62,180,4,0,29.85,M,6.21,M,FEW,M,M,M,2000,M,M,M,M,M,M,M,M,M,M,78.8,VVTS 201530Z 18004KT 150V210 9999 FEW020 26/22 Q1011 NOSIG,M
VVTS,1/20/2021 16:00,106.6667,10.8167,78.8,71.6,78.62,210,6,0,29.85,M,6.21,M,FEW,M,M,M,2000,M,M,M,M,M,M,M,M,M,M,78.8,VVTS 201600Z 21006KT 9999 FEW020 26/22 Q1011 NOSIG,M
VVTS,1/20/2021 16:30,106.6667,10.8167,77,71.6,83.44,230,5,0,29.85,M,6.21,M,FEW,M,M,M,2000,M,M,M,M,M,M,M,M,M,M,77,VVTS 201630Z 23005KT 9999 FEW020 25/22 Q1011 NOSIG,M
VVTS,1/20/2021 17:00,106.6667,10.8167,77,73.4,88.67,220,4,0,29.85,M,4.97,M,FEW,M,M,M,2000,M,M,M,M,M,M,M,M,M,M,77,VVTS 201700Z 22004KT 8000 FEW020 25/23 Q1011 NOSIG,M
VVTS,1/20/2021 17:30,106.6667,10.8167,77,73.4,88.67,240,3,0,29.85,M,4.97,M,FEW,M,M,M,2000,M,M,M,M,M,M,M,M,M,M,77,VVTS 201730Z 24003KT 8000 FEW020 25/23 Q1011 NOSIG,M
VVTS,1/20/2021 18:00,106.6667,10.8167,77,73.4,88.67,260,4,0,29.83,M,4.97,M,FEW,M,M,M,2000,M,M,M,M,M,M,M,M,M,M,77,VVTS 201800Z 26004KT 8000 FEW020 25/23 Q1010 NOSIG,M
VVTS,1/20/2021 18:30,106.6667,10.8167,77,73.4,88.67,250,4,0,29.83,M,4.97,M,FEW,M,M,M,2000,M,M,M,M,M,M,M,M,M,M,77,VVTS 201830Z 25004KT 8000 FEW020 25/23 Q1010 NOSIG,M
VVTS,1/20/2021 19:00,106.6667,10.8167,77,73.4,88.67,240,4,0,29.83,M,4.97,M,FEW,M,M,M,2000,M,M,M,M,M,M,M,M,M,M,77,VVTS 201900Z 24004KT 8000 FEW020 25/23 Q1010 NOSIG,M
VVTS,1/20/2021 19:30,106.6667,10.8167,75.2,73.4,94.14,220,4,0,29.8,M,4.97,M,FEW,M,M,M,2000,M,M,M,M,M,M,M,M,M,M,75.2,VVTS 201930Z 22004KT 8000 FEW020 24/23 Q1009 NOSIG,M
VVTS,1/20/2021 20:00,106.6667,10.8167,77,73.4,88.67,230,4,0,29.8,M,4.35,M,FEW,M,M,M,2000,M,M,M,M,M,M,M,M,M,M,77,VVTS 202000Z 23004KT 7000 FEW020 25/23 Q1009 NOSIG,M
VVTS,1/20/2021 20:30,106.6667,10.8167,77,73.4,88.67,230,5,0,29.8,M,4.35,M,FEW,M,M,M,2000,M,M,M,M,M,M,M,M,M,M,77,VVTS 202030Z 23005KT 200V260 7000 FEW020 25/23 Q1009 NOSIG,M
VVTS,1/20/2021 21:00,106.6667,10.8167,75.2,73.4,94.14,250,5,0,29.83,M,4.35,M,FEW,M,M,M,2000,M,M,M,M,M,M,M,M,M,M,75.2,VVTS 202100Z 25005KT 7000 FEW020 24/23 Q1010 NOSIG,M
VVTS,1/20/2021 21:30,106.6667,10.8167,75.2,73.4,94.14,230,5,0,29.83,M,4.35,M,FEW,M,M,M,2000,M,M,M,M,M,M,M,M,M,M,75.2,VVTS 202130Z 23005KT 7000 FEW020 24/23 Q1010 NOSIG,M
VVTS,1/20/2021 22:00,106.6667,10.8167,75.2,73.4,94.14,240,5,0,29.83,M,3.73,M,FEW,M,M,M,1700,M,M,M,M,M,M,M,M,M,M,75.2,VVTS 202200Z 24005KT 6000 FEW017 24/23 Q1010 NOSIG,M
VVTS,1/20/2021 22:30,106.6667,10.8167,75.2,73.4,94.14,250,6,0,29.83,M,3.73,M,FEW,M,M,M,1700,M,M,M,M,M,M,M,M,M,M,75.2,VVTS 202230Z 25006KT 6000 FEW017 24/23 Q1010 NOSIG,M
VVTS,1/20/2021 23:00,106.6667,10.8167,75.2,73.4,94.14,250,5,0,29.83,M,3.73,M,FEW,SCT,M,M,1700,5000,M,M,M,M,M,M,M,M,M,75.2,VVTS 202300Z 25005KT 6000 FEW017 SCT050 24/23 Q1010 NOSIG,M
VVTS,1/20/2021 23:30,106.6667,10.8167,75.2,73.4,94.14,250,5,0,29.85,M,1.86,M,FEW,SCT,M,M,1700,5000,M,M,BR,M,M,M,M,M,M,75.2,VVTS 202330Z 25005KT 3000 BR FEW017 SCT050 24/23 Q1011 BECMG TL0010 3000 BR,M
VVTS,1/21/2021 0:00,106.6667,10.8167,75.2,73.4,94.14,250,6,0,29.85,M,2.49,M,FEW,BKN,M,M,1700,5000,M,M,BR,M,M,M,M,M,M,75.2,VVTS 210000Z 25006KT 4000 BR FEW017 BKN050 24/23 Q1011 BECMG TL0110 5000 BR,M
VVTS,1/21/2021 0:30,106.6667,10.8167,77,71.6,83.44,250,6,0,29.88,M,3.11,M,FEW,BKN,M,M,1700,5000,M,M,BR,M,M,M,M,M,M,77,VVTS 210030Z 25006KT 5000 BR FEW017 BKN050 25/22 Q1012 NOSIG,M
VVTS,1/21/2021 1:00,106.6667,10.8167,77,71.6,83.44,260,5,0,29.88,M,3.73,M,FEW,BKN,M,M,1700,5000,M,M,M,M,M,M,M,M,M,77,VVTS 210100Z 26005KT 6000 FEW017 BKN050 25/22 Q1012 NOSIG,M
VVTS,1/21/2021 1:30,106.6667,10.8167,78.8,69.8,73.95,260,4,0,29.88,M,4.97,M,FEW,SCT,M,M,1700,5000,M,M,M,M,M,M,M,M,M,78.8,VVTS 210130Z 26004KT 220V300 8000 FEW017 SCT050 26/21 Q1012 NOSIG,M
VVTS,1/21/2021 2:00,106.6667,10.8167,80.6,68,65.54,M,3,0,29.88,M,4.97,M,FEW,M,M,M,1700,M,M,M,M,M,M,M,M,M,M,83.29,VVTS 210200Z VRB03KT 8000 FEW017 27/20 Q1012 NOSIG,M
VVTS,1/21/2021 2:30,106.6667,10.8167,82.4,69.8,65.74,M,3,0,29.88,M,4.97,M,NSC,M,M,M,M,M,M,M,M,M,M,M,M,M,M,86.22,VVTS 210230Z VRB03KT 8000 NSC 28/21 Q1012 NOSIG,M
VVTS,1/21/2021 3:00,106.6667,10.8167,82.4,69.8,65.74,M,3,0,29.88,M,4.97,M,NSC,M,M,M,M,M,M,M,M,M,M,M,M,M,M,86.22,VVTS 210300Z VRB03KT 8000 NSC 28/21 Q1012 NOSIG,M
VVTS,1/21/2021 3:30,106.6667,10.8167,84.2,68,58.32,320,5,0,29.88,M,4.97,M,NSC,M,M,M,M,M,M,M,M,M,M,M,M,M,M,87.4,VVTS 210330Z 32005KT 260V360 8000 NSC 29/20 Q1012 NOSIG,M
VVTS,1/21/2021 4:00,106.6667,10.8167,86,66.2,51.72,330,4,0,29.85,M,4.97,M,NSC,M,M,M,M,M,M,M,M,M,M,M,M,M,M,88.39,VVTS 210400Z 33004KT 270V040 8000 NSC 30/19 Q1011 NOSIG,M
VVTS,1/21/2021 4:30,106.6667,10.8167,84.2,66.2,54.8,330,5,0,29.85,M,6.21,M,FEW,M,M,M,2000,M,M,M,M,M,M,M,M,M,M,86.5,VVTS 210430Z 33005KT 220V020 9999 FEW020 29/19 Q1011 NOSIG,M
VVTS,1/21/2021 5:00,106.6667,10.8167,86,66.2,51.72,M,4,0,29.83,M,6.21,M,FEW,SCT,M,M,2000,5000,M,M,M,M,M,M,M,M,M,88.39,VVTS 210500Z VRB04KT 9999 FEW020 SCT050 30/19 Q1010 NOSIG,M
VVTS,1/21/2021 5:30,106.6667,10.8167,87.8,64.4,45.88,40,5,0,29.83,M,6.21,M,FEW,SCT,M,M,2000,5000,M,M,M,M,M,M,M,M,M,89.33,VVTS 210530Z 04005KT 330V080 9999 FEW020 SCT050 31/18 Q1010 NOSIG,M
VVTS,1/21/2021 6:00,106.6667,10.8167,89.6,64.4,43.34,M,3,0,29.8,M,6.21,M,FEW,SCT,M,M,2000,5000,M,M,M,M,M,M,M,M,M,91.23,VVTS 210600Z VRB03KT 9999 FEW020 SCT050 32/18 Q1009 NOSIG,M
VVTS,1/21/2021 6:30,106.6667,10.8167,89.6,64.4,43.34,270,5,0,29.77,M,6.21,M,SCT,M,M,M,2000,M,M,M,M,M,M,M,M,M,M,91.23,VVTS 210630Z 27005KT 230V340 9999 SCT020 32/18 Q1008 NOSIG,M
VVTS,1/21/2021 7:00,106.6667,10.8167,89.6,64.4,43.34,310,4,0,29.77,M,6.21,M,SCT,M,M,M,2000,M,M,M,M,M,M,M,M,M,M,91.23,VVTS 210700Z 31004KT 210V010 9999 SCT020 32/18 Q1008 NOSIG,M
VVTS,1/21/2021 7:30,106.6667,10.8167,87.8,64.4,45.88,M,1,0,29.74,M,4.97,M,SCT,M,M,M,2000,M,M,M,M,M,M,M,M,M,M,89.33,VVTS 210730Z VRB01KT 8000 SCT020 31/18 Q1007 NOSIG,M
VVTS,1/21/2021 8:00,106.6667,10.8167,87.8,64.4,45.88,M,2,0,29.74,M,4.97,M,SCT,M,M,M,2000,M,M,M,M,M,M,M,M,M,M,89.33,VVTS 210800Z VRB02KT 8000 SCT020 31/18 Q1007 NOSIG,M
VVTS,1/21/2021 8:30,106.6667,10.8167,89.6,64.4,43.34,M,2,0,29.74,M,4.97,M,SCT,M,M,M,2000,M,M,M,M,M,M,M,M,M,M,91.23,VVTS 210830Z VRB02KT 8000 SCT020 32/18 Q1007 NOSIG,M
VVTS,1/21/2021 9:00,106.6667,10.8167,89.6,64.4,43.34,M,2,0,29.77,M,4.97,M,SCT,M,M,M,2000,M,M,M,M,M,M,M,M,M,M,91.23,VVTS 210900Z VRB02KT 8000 SCT020 32/18 Q1008 NOSIG,M
VVTS,1/21/2021 9:30,106.6667,10.8167,87.8,66.2,48.84,M,3,0,29.77,M,4.97,M,SCT,M,M,M,2000,M,M,M,M,M,M,M,M,M,M,90.31,VVTS 210930Z VRB03KT 8000 SCT020 31/19 Q1008 NOSIG,M
VVTS,1/21/2021 10:00,106.6667,10.8167,87.8,66.2,48.84,M,3,0,29.77,M,4.97,M,SCT,SCT,M,M,1700,5000,M,M,M,M,M,M,M,M,M,90.31,VVTS 211000Z VRB03KT 8000 SCT017 SCT050 31/19 Q1008 NOSIG,M
VVTS,1/21/2021 10:30,106.6667,10.8167,84.2,69.8,62.03,150,9,0,29.77,M,4.35,M,SCT,SCT,M,M,1700,5000,M,M,M,M,M,M,M,M,M,88.43,VVTS 211030Z 15009KT 130V200 7000 SCT017 SCT050 29/21 Q1008 NOSIG,M
VVTS,1/21/2021 11:00,106.6667,10.8167,82.4,71.6,69.9,170,6,0,29.8,M,4.35,M,SCT,SCT,M,M,1700,5000,M,M,M,M,M,M,M,M,M,87.18,VVTS 211100Z 17006KT 140V200 7000 SCT017 SCT050 28/22 Q1009 NOSIG,M
VVTS,1/21/2021 11:30,106.6667,10.8167,82.4,73.4,74.28,150,7,0,29.8,M,4.97,M,SCT,SCT,M,M,1700,5000,M,M,M,M,M,M,M,M,M,88.26,VVTS 211130Z 15007KT 120V190 8000 SCT017 SCT050 28/23 Q1009 NOSIG,M
VVTS,1/21/2021 12:00,106.6667,10.8167,80.6,75.2,83.66,160,7,0,29.8,M,4.97,M,SCT,SCT,M,M,1700,5000,M,M,M,M,M,M,M,M,M,86.17,VVTS 211200Z 16007KT 140V200 8000 SCT017 SCT050 27/24 Q1009 NOSIG,M
VVTS,1/21/2021 12:30,106.6667,10.8167,80.6,73.4,78.76,180,5,0,29.83,M,6.21,M,FEW,SCT,M,M,1700,5000,M,M,M,M,M,M,M,M,M,85.32,VVTS 211230Z 18005KT 140V210 9999 FEW017 SCT050 27/23 Q1010 NOSIG,M
VVTS,1/21/2021 13:00,106.6667,10.8167,78.8,73.4,83.55,190,6,0,29.83,M,6.21,M,FEW,SCT,M,M,1700,5000,M,M,M,M,M,M,M,M,M,78.8,VVTS 211300Z 19006KT 160V220 9999 FEW017 SCT050 26/23 Q1010 NOSIG,M
VVTS,1/21/2021 13:30,106.6667,10.8167,78.8,75.2,88.75,170,6,0,29.83,M,6.21,M,FEW,SCT,M,M,1700,5000,M,M,M,M,M,M,M,M,M,78.8,VVTS 211330Z 17006KT 140V200 9999 FEW017 SCT050 26/24 Q1010 NOSIG,M
VVTS,1/21/2021 14:00,106.6667,10.8167,78.8,75.2,88.75,180,6,0,29.83,M,6.21,M,FEW,SCT,M,M,1700,5000,M,M,M,M,M,M,M,M,M,78.8,VVTS 211400Z 18006KT 9999 FEW017 SCT050 26/24 Q1010 NOSIG,M
VVTS,1/21/2021 14:30,106.6667,10.8167,78.8,75.2,88.75,150,4,0,29.83,M,6.21,M,FEW,SCT,M,M,1700,5000,M,M,M,M,M,M,M,M,M,78.8,VVTS 211430Z 15004KT 130V210 9999 FEW017 SCT050 26/24 Q1010 NOSIG,M
VVTS,1/21/2021 15:00,106.6667,10.8167,78.8,75.2,88.75,150,6,0,29.83,M,6.21,M,FEW,SCT,M,M,1700,5000,M,M,M,M,M,M,M,M,M,78.8,VVTS 211500Z 15006KT 9999 FEW017 SCT050 26/24 Q1010 NOSIG,M
VVTS,1/21/2021 15:30,106.6667,10.8167,78.8,75.2,88.75,170,5,0,29.83,M,4.97,M,SCT,SCT,M,M,1700,4000,M,M,M,M,M,M,M,M,M,78.8,VVTS 211530Z 17005KT 130V220 8000 SCT017 SCT040 26/24 Q1010 NOSIG,M
VVTS,1/21/2021 16:00,106.6667,10.8167,78.8,75.2,88.75,170,5,0,29.83,M,4.97,M,SCT,SCT,M,M,1700,4000,M,M,M,M,M,M,M,M,M,78.8,VVTS 211600Z 17005KT 140V200 8000 SCT017 SCT040 26/24 Q1010 NOSIG,M
VVTS,1/21/2021 16:30,106.6667,10.8167,78.8,75.2,88.75,180,6,0,29.83,M,4.97,M,SCT,SCT,M,M,1700,4000,M,M,M,M,M,M,M,M,M,78.8,VVTS 211630Z 18006KT 150V210 8000 SCT017 SCT040 26/24 Q1010 NOSIG,M
VVTS,1/21/2021 17:00,106.6667,10.8167,77,73.4,88.67,160,4,0,29.8,M,4.97,M,SCT,SCT,M,M,1700,4000,M,M,M,M,M,M,M,M,M,77,VVTS 211700Z 16004KT 8000 SCT017 SCT040 25/23 Q1009 NOSIG,M
VVTS,1/21/2021 17:30,106.6667,10.8167,77,73.4,88.67,190,4,0,29.8,M,4.97,M,SCT,SCT,M,M,1700,4000,M,M,M,M,M,M,M,M,M,77,VVTS 211730Z 19004KT 8000 SCT017 SCT040 25/23 Q1009 NOSIG,M
VVTS,1/21/2021 18:00,106.6667,10.8167,77,73.4,88.67,170,4,0,29.8,M,4.97,M,SCT,SCT,M,M,1700,4000,M,M,M,M,M,M,M,M,M,77,VVTS 211800Z 17004KT 8000 SCT017 SCT040 25/23 Q1009 NOSIG,M
VVTS,1/21/2021 18:30,106.6667,10.8167,77,73.4,88.67,M,3,0,29.77,M,4.97,M,SCT,SCT,M,M,1700,4000,M,M,M,M,M,M,M,M,M,77,VVTS 211830Z VRB03KT 8000 SCT017 SCT040 25/23 Q1008 NOSIG,M
VVTS,1/21/2021 19:00,106.6667,10.8167,77,73.4,88.67,220,4,0,29.77,M,4.97,M,SCT,SCT,M,M,1700,4000,M,M,M,M,M,M,M,M,M,77,VVTS 211900Z 22004KT 8000 SCT017 SCT040 25/23 Q1008 NOSIG,M
VVTS,1/21/2021 19:30,106.6667,10.8167,77,73.4,88.67,200,5,0,29.77,M,4.97,M,SCT,SCT,M,M,1700,4000,M,M,M,M,M,M,M,M,M,77,VVTS 211930Z 20005KT 8000 SCT017 SCT040 25/23 Q1008 NOSIG,M
VVTS,1/21/2021 20:00,106.6667,10.8167,77,73.4,88.67,200,6,0,29.77,M,4.97,M,SCT,SCT,M,M,1700,4000,M,M,M,M,M,M,M,M,M,77,VVTS 212000Z 20006KT 8000 SCT017 SCT040 25/23 Q1008 NOSIG,M
VVTS,1/21/2021 20:30,106.6667,10.8167,75.2,73.4,94.14,210,5,0,29.77,M,4.97,M,SCT,SCT,M,M,1700,4000,M,M,M,M,M,M,M,M,M,75.2,VVTS 212030Z 21005KT 8000 SCT017 SCT040 24/23 Q1008 NOSIG,M
VVTS,1/21/2021 21:00,106.6667,10.8167,75.2,73.4,94.14,220,4,0,29.77,M,4.97,M,SCT,SCT,M,M,1700,4000,M,M,M,M,M,M,M,M,M,75.2,VVTS 212100Z 22004KT 8000 SCT017 SCT040 24/23 Q1008 NOSIG,M
VVTS,1/21/2021 21:30,106.6667,10.8167,75.2,73.4,94.14,200,3,0,29.8,M,3.73,M,NSC,M,M,M,M,M,M,M,M,M,M,M,M,M,M,75.2,VVTS 212130Z 20003KT 6000 NSC 24/23 Q1009 NOSIG,M
VVTS,1/21/2021 22:00,106.6667,10.8167,75.2,73.4,94.14,220,4,0,29.8,M,4.97,M,SCT,SCT,M,M,1700,4000,M,M,M,M,M,M,M,M,M,75.2,VVTS 212200Z 22004KT 8000 SCT017 SCT040 24/23 Q1009 NOSIG,M
VVTS,1/21/2021 22:30,106.6667,10.8167,75.2,73.4,94.14,220,4,0,29.8,M,4.97,M,SCT,SCT,M,M,1700,4000,M,M,M,M,M,M,M,M,M,75.2,VVTS 212230Z 22004KT 190V250 8000 SCT017 SCT040 24/23 Q1009 NOSIG,M
VVTS,1/21/2021 23:00,106.6667,10.8167,75.2,73.4,94.14,240,4,0,29.83,M,4.97,M,FEW,SCT,M,M,1700,4000,M,M,M,M,M,M,M,M,M,75.2,VVTS 212300Z 24004KT 8000 FEW017 SCT040 24/23 Q1010 NOSIG,M
VVTS,1/21/2021 23:30,106.6667,10.8167,75.2,73.4,94.14,220,6,0,29.85,M,3.73,M,SCT,BKN,M,M,1700,4000,M,M,M,M,M,M,M,M,M,75.2,VVTS 212330Z 22006KT 190V250 6000 SCT017 BKN040 24/23 Q1011 NOSIG,M
VVTS,1/22/2021 0:00,106.6667,10.8167,75.2,73.4,94.14,270,4,0,29.85,M,3.73,M,SCT,BKN,M,M,1500,4000,M,M,M,M,M,M,M,M,M,75.2,VVTS 220000Z 27004KT 240V300 6000 SCT015 BKN040 24/23 Q1011 NOSIG,M
VVTS,1/22/2021 0:30,106.6667,10.8167,77,73.4,88.67,260,3,0,29.88,M,2.49,M,SCT,BKN,M,M,1500,4000,M,M,BR,M,M,M,M,M,M,77,VVTS 220030Z 26003KT 4000 BR SCT015 BKN040 25/23 Q1012 NOSIG,M
VVTS,1/22/2021 1:00,106.6667,10.8167,77,73.4,88.67,250,5,0,29.88,M,3.73,M,SCT,BKN,M,M,1500,4000,M,M,M,M,M,M,M,M,M,77,VVTS 220100Z 25005KT 6000 SCT015 BKN040 25/23 Q1012 NOSIG,M
VVTS,1/22/2021 1:30,106.6667,10.8167,78.8,73.4,83.55,220,4,0,29.88,M,4.35,M,SCT,BKN,M,M,1700,4000,M,M,M,M,M,M,M,M,M,78.8,VVTS 220130Z 22004KT 160V240 7000 SCT017 BKN040 26/23 Q1012 NOSIG,M
VVTS,1/22/2021 2:00,106.6667,10.8167,78.8,73.4,83.55,220,5,0,29.88,M,4.35,M,FEW,BKN,M,M,1700,4000,M,M,M,M,M,M,M,M,M,78.8,VVTS 220200Z 22005KT 7000 FEW017 BKN040 26/23 Q1012 NOSIG,M
VVTS,1/22/2021 2:30,106.6667,10.8167,80.6,73.4,78.76,220,7,0,29.88,M,4.97,M,SCT,BKN,M,M,1700,4000,M,M,M,M,M,M,M,M,M,85.32,VVTS 220230Z 22007KT 8000 SCT017 BKN040 27/23 Q1012 NOSIG,M
VVTS,1/22/2021 3:00,106.6667,10.8167,80.6,73.4,78.76,210,6,0,29.88,M,4.97,M,SCT,BKN,M,M,1700,4000,M,M,M,M,M,M,M,M,M,85.32,VVTS 220300Z 21006KT 170V240 8000 SCT017 BKN040 27/23 Q1012 NOSIG,M
VVTS,1/22/2021 3:30,106.6667,10.8167,82.4,71.6,69.9,220,5,0,29.88,M,4.97,M,SCT,BKN,M,M,1700,4000,M,M,M,M,M,M,M,M,M,87.18,VVTS 220330Z 22005KT 170V250 8000 SCT017 BKN040 28/22 Q1012 NOSIG,M
VVTS,1/22/2021 4:00,106.6667,10.8167,82.4,71.6,69.9,210,5,0,29.85,M,4.97,M,SCT,BKN,M,M,1700,5000,M,M,M,M,M,M,M,M,M,87.18,VVTS 220400Z 21005KT 160V250 8000 SCT017 BKN050 28/22 Q1011 NOSIG,M
VVTS,1/22/2021 4:30,106.6667,10.8167,84.2,69.8,62.03,240,5,0,29.85,M,4.97,M,BKN,M,M,M,1700,M,M,M,M,M,M,M,M,M,M,88.43,VVTS 220430Z 24005KT 200V270 8000 BKN017 29/21 Q1011 NOSIG,M
VVTS,1/22/2021 5:00,106.6667,10.8167,84.2,71.6,65.95,M,2,0,29.83,M,4.97,M,BKN,M,M,M,1700,M,M,M,M,M,M,M,M,M,M,89.6,VVTS 220500Z VRB02KT 8000 BKN017 29/22 Q1010 NOSIG,M
VVTS,1/22/2021 5:30,106.6667,10.8167,84.2,69.8,62.03,M,3,0,29.83,M,4.35,M,BKN,M,M,M,1700,M,M,M,M,M,M,M,M,M,M,88.43,VVTS 220530Z VRB03KT 7000 BKN017 29/21 Q1010 NOSIG,M
VVTS,1/22/2021 6:00,106.6667,10.8167,86,69.8,58.55,230,5,0,29.8,M,4.35,M,BKN,M,M,M,1700,M,M,M,M,M,M,M,M,M,M,90.58,VVTS 220600Z 23005KT 160V280 7000 BKN017 30/21 Q1009 NOSIG,M
VVTS,1/22/2021 6:30,106.6667,10.8167,87.8,69.8,55.29,290,5,0,29.77,M,4.35,M,BKN,M,M,M,1700,M,M,M,M,M,M,M,M,M,M,92.71,VVTS 220630Z 29005KT 240V010 7000 BKN017 31/21 Q1008 NOSIG,M
VVTS,1/22/2021 7:00,106.6667,10.8167,84.2,69.8,62.03,300,5,0,29.77,M,4.35,M,BKN,M,M,M,1700,M,M,M,M,M,M,M,M,M,M,88.43,VVTS 220700Z 30005KT 260V350 7000 BKN017 29/21 Q1008 NOSIG,M
VVTS,1/22/2021 7:30,106.6667,10.8167,86,71.6,62.25,M,4,0,29.77,M,4.35,M,BKN,FEW,M,M,1700,2000,M,M,M,M,M,M,M,M,M,91.92,VVTS 220730Z VRB04KT 7000 BKN017 FEW020TCU 30/22 Q1008 NOSIG RMK TCU OVER RWY,M
VVTS,1/22/2021 8:00,106.6667,10.8167,84.2,71.6,65.95,210,5,0,29.77,M,4.35,M,BKN,FEW,M,M,1700,2000,M,M,M,M,M,M,M,M,M,89.6,VVTS 220800Z 21005KT 150V260 7000 BKN017 FEW020TCU 29/22 Q1008 NOSIG RMK TCU/NE/S,M
VVTS,1/22/2021 8:30,106.6667,10.8167,82.4,71.6,69.9,190,6,0,29.77,M,4.35,M,BKN,FEW,M,M,1700,2000,M,M,#NAME?,M,M,M,M,M,M,87.18,VVTS 220830Z 19006KT 160V230 7000 -SHRA BKN017 FEW020TCU 28/22 Q1008 NOSIG RMK TCU OVER RWY,M
VVTS,1/22/2021 9:00,106.6667,10.8167,78.8,75.2,88.75,250,3,0,29.77,M,4.35,M,BKN,FEW,M,M,1700,2000,M,M,#NAME?,M,M,M,M,M,M,78.8,VVTS 220900Z 25003KT 7000 -SHRA BKN017 FEW020TCU 26/24 Q1008 NOSIG RMK TCU OVER RWY,M
VVTS,1/22/2021 9:30,106.6667,10.8167,80.6,73.4,78.76,M,2,0,29.77,M,4.35,M,BKN,FEW,M,M,1700,2000,M,M,M,M,M,M,M,M,M,85.32,VVTS 220930Z VRB02KT 7000 BKN017 FEW020TCU 27/23 Q1008 NOSIG RMK TCU/N,M
VVTS,1/22/2021 10:00,106.6667,10.8167,80.6,75.2,83.66,190,5,0,29.77,M,4.97,M,SCT,FEW,SCT,M,1700,2000,4000,M,M,M,M,M,M,M,M,86.17,VVTS 221000Z 19005KT 8000 SCT017 FEW020TCU SCT040 27/24 Q1008 NOSIG RMK TCU/N,M
VVTS,1/22/2021 10:30,106.6667,10.8167,80.6,73.4,78.76,220,4,0,29.77,M,4.97,M,SCT,SCT,M,M,1700,4000,M,M,M,M,M,M,M,M,M,85.32,VVTS 221030Z 22004KT 190V250 8000 SCT017 SCT040 27/23 Q1008 NOSIG,M
VVTS,1/22/2021 11:00,106.6667,10.8167,80.6,75.2,83.66,210,5,0,29.77,M,4.97,M,SCT,SCT,M,M,1700,4000,M,M,M,M,M,M,M,M,M,86.17,VVTS 221100Z 21005KT 8000 SCT017 SCT040 27/24 Q1008 NOSIG,M
VVTS,1/22/2021 11:30,106.6667,10.8167,80.6,75.2,83.66,210,6,0,29.77,M,4.97,M,SCT,SCT,M,M,1700,4000,M,M,M,M,M,M,M,M,M,86.17,VVTS 221130Z 21006KT 8000 SCT017 SCT040 27/24 Q1008 NOSIG,M
VVTS,1/22/2021 12:00,106.6667,10.8167,80.6,75.2,83.66,180,5,0,29.8,M,4.97,M,SCT,BKN,M,M,1700,4000,M,M,M,M,M,M,M,M,M,86.17,VVTS 221200Z 18005KT 150V220 8000 SCT017 BKN040 27/24 Q1009 NOSIG,M
VVTS,1/22/2021 12:30,106.6667,10.8167,80.6,75.2,83.66,180,5,0,29.83,M,6.21,M,SCT,BKN,M,M,1700,4000,M,M,M,M,M,M,M,M,M,86.17,VVTS 221230Z 18005KT 150V210 9999 SCT017 BKN040 27/24 Q1010 NOSIG,M
VVTS,1/22/2021 13:00,106.6667,10.8167,78.8,75.2,88.75,170,7,0,29.83,M,6.21,M,SCT,BKN,M,M,1700,4000,M,M,M,M,M,M,M,M,M,78.8,VVTS 221300Z 17007KT 140V200 9999 SCT017 BKN040 26/24 Q1010 NOSIG,M
VVTS,1/22/2021 13:30,106.6667,10.8167,78.8,75.2,88.75,180,6,0,29.83,M,6.21,M,SCT,BKN,M,M,1700,4000,M,M,M,M,M,M,M,M,M,78.8,VVTS 221330Z 18006KT 140V220 9999 SCT017 BKN040 26/24 Q1010 NOSIG,M
VVTS,1/22/2021 14:00,106.6667,10.8167,78.8,75.2,88.75,190,7,0,29.85,M,6.21,M,SCT,BKN,M,M,1700,4000,M,M,M,M,M,M,M,M,M,78.8,VVTS 221400Z 19007KT 9999 SCT017 BKN040 26/24 Q1011 NOSIG,M
VVTS,1/22/2021 14:30,106.6667,10.8167,78.8,75.2,88.75,180,6,0,29.85,M,6.21,M,SCT,BKN,M,M,1700,4000,M,M,M,M,M,M,M,M,M,78.8,VVTS 221430Z 18006KT 150V220 9999 SCT017 BKN040 26/24 Q1011 NOSIG,M
VVTS,1/22/2021 15:00,106.6667,10.8167,78.8,75.2,88.75,170,5,0,29.85,M,6.21,M,FEW,BKN,M,M,1700,4000,M,M,M,M,M,M,M,M,M,78.8,VVTS 221500Z 17005KT 140V210 9999 FEW017 BKN040 26/24 Q1011 NOSIG,M
VVTS,1/22/2021 15:30,106.6667,10.8167,78.8,75.2,88.75,170,5,0,29.85,M,6.21,M,FEW,BKN,M,M,1700,4000,M,M,M,M,M,M,M,M,M,78.8,VVTS 221530Z 17005KT 9999 FEW017 BKN040 26/24 Q1011 NOSIG,M
VVTS,1/22/2021 16:00,106.6667,10.8167,78.8,75.2,88.75,170,5,0,29.83,M,6.21,M,FEW,BKN,M,M,1700,4000,M,M,M,M,M,M,M,M,M,78.8,VVTS 221600Z 17005KT 140V200 9999 FEW017 BKN040 26/24 Q1010 NOSIG,M
VVTS,1/22/2021 16:30,106.6667,10.8167,78.8,75.2,88.75,150,6,0,29.83,M,6.21,M,FEW,BKN,M,M,1700,4000,M,M,M,M,M,M,M,M,M,78.8,VVTS 221630Z 15006KT 9999 FEW017 BKN040 26/24 Q1010 NOSIG,M
VVTS,1/22/2021 17:00,106.6667,10.8167,78.8,75.2,88.75,160,5,0,29.83,M,6.21,M,SCT,FEW,BKN,M,1700,2000,5000,M,M,M,M,M,M,M,M,78.8,VVTS 221700Z 16005KT 130V200 9999 SCT017 FEW020TCU BKN050 26/24 Q1010 NOSIG RMK TCU/S,M
VVTS,1/22/2021 17:30,106.6667,10.8167,77,75.2,94.19,130,6,0,29.83,M,6.21,M,SCT,FEW,BKN,M,1700,2000,5000,M,M,M,M,M,M,M,M,77,VVTS 221730Z 13006KT 9999 SCT017 FEW020CB BKN050 25/24 Q1010 NOSIG RMK CB OVER RWY,M
VVTS,1/22/2021 18:00,106.6667,10.8167,77,75.2,94.19,190,6,0,29.83,M,3.73,M,SCT,FEW,BKN,M,1700,2000,5000,M,#NAME?,M,M,M,M,M,M,77,VVTS 221800Z 19006KT 140V200 6000 -SHRA SCT017 FEW020CB BKN050 25/24 Q1010 TEMPO TL1830 5000 SHRA RMK CB OVER RWY,M
VVTS,1/22/2021 18:30,106.6667,10.8167,75.2,75.2,100,150,7,0,29.83,M,3.11,M,SCT,FEW,BKN,M,1500,1700,5000,M,SHRA,M,M,M,M,M,M,75.2,VVTS 221830Z 15007KT 120V190 5000 SHRA SCT015 FEW017CB BKN050 24/24 Q1010 TEMPO TL1900 3000 SHRA RMK CB OVER RWY,M
VVTS,1/22/2021 19:00,106.6667,10.8167,75.2,75.2,100,140,5,0,29.8,M,3.11,M,SCT,FEW,BKN,M,1500,1700,5000,M,SHRA,M,M,M,M,M,M,75.2,VVTS 221900Z 14005KT 100V210 5000 SHRA SCT015 FEW017CB BKN050 24/24 Q1009 NOSIG RMK CB OVER RWY,M
VVTS,1/22/2021 19:30,106.6667,10.8167,75.2,75.2,100,M,3,0,29.8,M,3.73,M,SCT,FEW,BKN,M,1500,1700,4000,M,#NAME?,M,M,M,M,M,M,75.2,VVTS 221930Z VRB03KT 6000 -SHRA SCT015 FEW017CB BKN040 24/24 Q1009 NOSIG RMK CB OVER RWY,M
VVTS,1/22/2021 20:00,106.6667,10.8167,75.2,73.4,94.14,160,5,0,29.8,M,4.35,M,SCT,FEW,BKN,M,1500,1700,4000,M,#NAME?,M,M,M,M,M,M,75.2,VVTS 222000Z 16005KT 7000 -RA SCT015 FEW017CB BKN040 24/23 Q1009 NOSIG RMK CB/N,M
VVTS,1/22/2021 20:30,106.6667,10.8167,75.2,73.4,94.14,160,3,0,29.8,M,4.35,M,SCT,FEW,BKN,M,1500,1700,4000,M,#NAME?,M,M,M,M,M,M,75.2,VVTS 222030Z 16003KT 7000 -RA SCT015 FEW017CB BKN040 24/23 Q1009 NOSIG RMK CB/N,M
VVTS,1/22/2021 21:00,106.6667,10.8167,75.2,75.2,100,130,3,0,29.8,M,4.97,M,SCT,BKN,M,M,1700,5000,M,M,M,M,M,M,M,M,M,75.2,VVTS 222100Z 13003KT 8000 SCT017 BKN050 24/24 Q1009 NOSIG,M
VVTS,1/22/2021 21:30,106.6667,10.8167,75.2,75.2,100,M,2,0,29.83,M,4.97,M,SCT,BKN,M,M,1700,5000,M,M,M,M,M,M,M,M,M,75.2,VVTS 222130Z VRB02KT 8000 SCT017 BKN050 24/24 Q1010 NOSIG,M
VVTS,1/22/2021 22:00,106.6667,10.8167,75.2,75.2,100,80,3,0,29.83,M,4.97,M,SCT,BKN,M,M,1700,5000,M,M,M,M,M,M,M,M,M,75.2,VVTS 222200Z 08003KT 8000 SCT017 BKN050 24/24 Q1010 NOSIG,M
VVTS,1/22/2021 22:30,106.6667,10.8167,75.2,73.4,94.14,80,3,0,29.83,M,4.97,M,SCT,BKN,M,M,1700,5000,M,M,M,M,M,M,M,M,M,75.2,VVTS 222230Z 08003KT 8000 SCT017 BKN050 24/23 Q1010 NOSIG,M
VVTS,1/22/2021 23:00,106.6667,10.8167,75.2,73.4,94.14,80,2,0,29.83,M,6.21,M,FEW,BKN,M,M,1700,5000,M,M,M,M,M,M,M,M,M,75.2,VVTS 222300Z 08002KT 9999 FEW017 BKN050 24/23 Q1010 NOSIG,M
VVTS,1/22/2021 23:30,106.6667,10.8167,75.2,73.4,94.14,60,2,0,29.85,M,3.73,M,FEW,FEW,BKN,M,1500,1700,5000,M,M,M,M,M,M,M,M,75.2,VVTS 222330Z 06002KT 6000 FEW015 FEW017TCU BKN050 24/23 Q1011 NOSIG RMK TCU/NE/E,M
VVTS,1/23/2021 0:00,106.6667,10.8167,75.2,73.4,94.14,M,3,0,29.85,M,3.73,M,FEW,FEW,BKN,M,1500,1700,5000,M,M,M,M,M,M,M,M,75.2,VVTS 230000Z VRB03KT 6000 FEW015 FEW017TCU BKN050 24/23 Q1011 NOSIG RMK TCU/NE,M
VVTS,1/23/2021 0:30,106.6667,10.8167,77,73.4,88.67,50,4,0,29.88,M,3.11,M,SCT,BKN,M,M,1500,5000,M,M,BR,M,M,M,M,M,M,77,VVTS 230030Z 05004KT 020V080 5000 BR SCT015 BKN050 25/23 Q1012 NOSIG,M
VVTS,1/23/2021 1:00,106.6667,10.8167,77,73.4,88.67,M,3,0,29.88,M,3.73,M,SCT,BKN,M,M,1500,5000,M,M,M,M,M,M,M,M,M,77,VVTS 230100Z VRB03KT 6000 SCT015 BKN050 25/23 Q1012 NOSIG,M
VVTS,1/23/2021 1:30,106.6667,10.8167,78.8,73.4,83.55,M,1,0,29.88,M,3.73,M,SCT,BKN,M,M,1500,5000,M,M,M,M,M,M,M,M,M,78.8,VVTS 230130Z VRB01KT 6000 SCT015 BKN050 26/23 Q1012 NOSIG,M
VVTS,1/23/2021 2:00,106.6667,10.8167,78.8,73.4,83.55,360,1,0,29.88,M,3.73,M,FEW,BKN,M,M,1700,5000,M,M,M,M,M,M,M,M,M,78.8,VVTS 230200Z 36001KT 6000 FEW017 BKN050 26/23 Q1012 NOSIG,M
VVTS,1/23/2021 2:30,106.6667,10.8167,80.6,73.4,78.76,0,0,0,29.88,M,5.59,M,FEW,BKN,M,M,1700,5000,M,M,M,M,M,M,M,M,M,85.32,VVTS 230230Z 00000KT 9000 FEW017 BKN050 27/23 Q1012 NOSIG,M
VVTS,1/23/2021 3:00,106.6667,10.8167,82.4,73.4,74.28,M,2,0,29.88,M,5.59,M,FEW,BKN,M,M,1700,5000,M,M,M,M,M,M,M,M,M,88.26,VVTS 230300Z VRB02KT 9000 FEW017 BKN050 28/23 Q1012 NOSIG,M
VVTS,1/23/2021 3:30,106.6667,10.8167,84.2,73.4,70.08,30,4,0,29.85,M,5.59,M,FEW,SCT,M,M,1700,5000,M,M,M,M,M,M,M,M,M,90.94,VVTS 230330Z 03004KT 320V070 9000 FEW017 SCT050 29/23 Q1011 NOSIG,M
VVTS,1/23/2021 4:00,106.6667,10.8167,84.2,71.6,65.95,M,2,0,29.85,M,5.59,M,FEW,SCT,M,M,1700,5000,M,M,M,M,M,M,M,M,M,89.6,VVTS 230400Z VRB02KT 9000 FEW017 SCT050 29/22 Q1011 NOSIG,M
VVTS,1/23/2021 4:30,106.6667,10.8167,86,73.4,66.15,M,1,0,29.83,M,5.59,M,SCT,SCT,M,M,1700,5000,M,M,M,M,M,M,M,M,M,93.45,VVTS 230430Z VRB01KT 9000 SCT017 SCT050 30/23 Q1010 NOSIG,M
VVTS,1/23/2021 5:00,106.6667,10.8167,87.8,71.6,58.78,M,4,0,29.83,M,6.21,M,SCT,M,M,M,1700,M,M,M,M,M,M,M,M,M,M,94.18,VVTS 230500Z VRB04KT 9999 SCT017 31/22 Q1010 NOSIG,M
VVTS,1/23/2021 5:30,106.6667,10.8167,87.8,69.8,55.29,M,4,0,29.8,M,6.21,M,SCT,M,M,M,1700,M,M,M,M,M,M,M,M,M,M,92.71,VVTS 230530Z VRB04KT 9999 SCT017 31/21 Q1009 NOSIG,M
VVTS,1/23/2021 6:00,106.6667,10.8167,89.6,69.8,52.23,80,5,0,29.8,M,6.21,M,SCT,M,M,M,2000,M,M,M,M,M,M,M,M,M,M,94.85,VVTS 230600Z 08005KT 030V170 9999 SCT020 32/21 Q1009 NOSIG,M
VVTS,1/23/2021 6:30,106.6667,10.8167,89.6,68,49.1,M,3,0,29.77,M,6.21,M,SCT,M,M,M,2000,M,M,M,M,M,M,M,M,M,M,93.47,VVTS 230630Z VRB03KT 9999 SCT020 32/20 Q1008 NOSIG,M
VVTS,1/23/2021 7:00,106.6667,10.8167,89.6,64.4,43.34,M,2,0,29.77,M,6.21,M,SCT,M,M,M,2000,M,M,M,M,M,M,M,M,M,M,91.23,VVTS 230700Z VRB02KT 9999 SCT020 32/18 Q1008 NOSIG,M
VVTS,1/23/2021 7:30,106.6667,10.8167,89.6,66.2,46.14,M,3,0,29.74,M,6.21,M,SCT,FEW,M,M,1700,2000,M,M,M,M,M,M,M,M,M,92.27,VVTS 230730Z VRB03KT 9999 SCT017 FEW020TCU 32/19 Q1007 NOSIG RMK TCU/N,M
VVTS,1/23/2021 8:00,106.6667,10.8167,89.6,68,49.1,M,3,0,29.74,M,6.21,M,SCT,FEW,M,M,1700,2000,M,M,M,M,M,M,M,M,M,93.47,VVTS 230800Z VRB03KT 9999 SCT017 FEW020TCU 32/20 Q1007 NOSIG RMK TCU/E/SE,M
VVTS,1/23/2021 8:30,106.6667,10.8167,89.6,68,49.1,70,4,0,29.74,M,6.21,M,SCT,FEW,M,M,1700,2000,M,M,M,M,M,M,M,M,M,93.47,VVTS 230830Z 07004KT 010V140 9999 SCT017 FEW020TCU 32/20 Q1007 NOSIG RMK TCU/E/SE,M
VVTS,1/23/2021 9:00,106.6667,10.8167,86,73.4,66.15,130,12,0,29.74,M,6.21,M,SCT,FEW,M,M,1700,2000,M,M,M,M,M,M,M,M,M,93.45,VVTS 230900Z 13012KT 120V190 9999 SCT017 FEW020TCU 30/23 Q1007 NOSIG RMK TCU OVER RWY,M
VVTS,1/23/2021 9:30,106.6667,10.8167,84.2,73.4,70.08,130,10,0,29.77,M,4.97,M,SCT,FEW,M,M,1700,2000,M,M,#NAME?,M,M,M,M,M,M,90.94,VVTS 230930Z 13010KT 8000 -SHRA SCT017 FEW020CB 29/23 Q1008 NOSIG RMK CB OVER RWY,M
VVTS,1/23/2021 10:00,106.6667,10.8167,84.2,73.4,70.08,140,7,0,29.77,M,4.97,M,SCT,FEW,SCT,M,1700,2000,5000,M,M,M,M,M,M,M,M,90.94,VVTS 231000Z 14007KT 110V170 8000 SCT017 FEW020CB SCT050 29/23 Q1008 NOSIG RMK CB OVER RWY,M
VVTS,1/23/2021 10:30,106.6667,10.8167,82.4,73.4,74.28,160,6,0,29.8,M,6.21,M,SCT,FEW,SCT,M,1700,2000,5000,M,M,M,M,M,M,M,M,88.26,VVTS 231030Z 16006KT 120V200 9999 SCT017 FEW020CB SCT050 28/23 Q1009 NOSIG RMK CB/W,M
VVTS,1/23/2021 11:00,106.6667,10.8167,82.4,71.6,69.9,190,7,0,29.8,M,6.21,M,SCT,FEW,SCT,M,1700,2000,5000,M,M,M,M,M,M,M,M,87.18,VVTS 231100Z 19007KT 150V220 9999 SCT017 FEW020CB SCT050 28/22 Q1009 NOSIG RMK CB/W,M
VVTS,1/23/2021 11:30,106.6667,10.8167,82.4,71.6,69.9,190,7,0,29.8,M,6.21,M,SCT,SCT,M,M,1700,5000,M,M,M,M,M,M,M,M,M,87.18,VVTS 231130Z 19007KT 160V220 9999 SCT017 SCT050 28/22 Q1009 NOSIG,M
VVTS,1/23/2021 12:00,106.6667,10.8167,80.6,71.6,74.11,190,7,0,29.83,M,6.21,M,SCT,SCT,M,M,1700,5000,M,M,M,M,M,M,M,M,M,84.57,VVTS 231200Z 19007KT 160V220 9999 SCT017 SCT050 27/22 Q1010 NOSIG,M
VVTS,1/23/2021 12:30,106.6667,10.8167,80.6,71.6,74.11,190,5,0,29.83,M,6.21,M,SCT,SCT,M,M,1700,5000,M,M,M,M,M,M,M,M,M,84.57,VVTS 231230Z 19005KT 160V220 9999 SCT017 SCT050 27/22 Q1010 NOSIG,M
VVTS,1/23/2021 13:00,106.6667,10.8167,80.6,71.6,74.11,180,6,0,29.83,M,6.21,M,SCT,BKN,M,M,1700,5000,M,M,M,M,M,M,M,M,M,84.57,VVTS 231300Z 18006KT 150V220 9999 SCT017 BKN050 27/22 Q1010 NOSIG,M
VVTS,1/23/2021 13:30,106.6667,10.8167,80.6,69.8,69.71,160,4,0,29.83,M,6.21,M,FEW,BKN,M,M,1700,5000,M,M,M,M,M,M,M,M,M,83.9,VVTS 231330Z 16004KT 9999 FEW017 BKN050 27/21 Q1010 NOSIG,M
VVTS,1/23/2021 14:00,106.6667,10.8167,78.8,71.6,78.62,180,4,0,29.85,M,6.21,M,FEW,BKN,M,M,1700,5000,M,M,M,M,M,M,M,M,M,78.8,VVTS 231400Z 18004KT 150V210 9999 FEW017 BKN050 26/22 Q1011 NOSIG,M
VVTS,1/23/2021 14:30,106.6667,10.8167,78.8,71.6,78.62,140,4,0,29.83,M,6.21,M,FEW,BKN,M,M,1700,5000,M,M,M,M,M,M,M,M,M,78.8,VVTS 231430Z 14004KT 9999 FEW017 BKN050 26/22 Q1010 NOSIG,M
VVTS,1/23/2021 15:00,106.6667,10.8167,78.8,71.6,78.62,120,5,0,29.85,M,6.21,M,FEW,BKN,M,M,1700,5000,M,M,M,M,M,M,M,M,M,78.8,VVTS 231500Z 12005KT 9999 FEW017 BKN050 26/22 Q1011 NOSIG,M
VVTS,1/23/2021 15:30,106.6667,10.8167,78.8,71.6,78.62,M,3,0,29.85,M,6.21,M,FEW,BKN,M,M,1700,5000,M,M,M,M,M,M,M,M,M,78.8,VVTS 231530Z VRB03KT 9999 FEW017 BKN050 26/22 Q1011 NOSIG,M
VVTS,1/23/2021 16:00,106.6667,10.8167,77,71.6,83.44,M,3,0,29.85,M,6.21,M,FEW,BKN,M,M,1700,5000,M,M,M,M,M,M,M,M,M,77,VVTS 231600Z VRB03KT 9999 FEW017 BKN050 25/22 Q1011 NOSIG,M
VVTS,1/23/2021 16:30,106.6667,10.8167,77,71.6,83.44,130,5,0,29.85,M,6.21,M,FEW,BKN,M,M,1700,5000,M,M,M,M,M,M,M,M,M,77,VVTS 231630Z 13005KT 9999 FEW017 BKN050 25/22 Q1011 NOSIG,M
VVTS,1/23/2021 17:00,106.6667,10.8167,77,71.6,83.44,130,6,0,29.85,M,6.21,M,FEW,BKN,M,M,1700,5000,M,M,M,M,M,M,M,M,M,77,VVTS 231700Z 13006KT 9999 FEW017 BKN050 25/22 Q1011 NOSIG,M
VVTS,1/23/2021 17:30,106.6667,10.8167,77,71.6,83.44,120,4,0,29.85,M,6.21,M,FEW,BKN,M,M,1700,5000,M,M,M,M,M,M,M,M,M,77,VVTS 231730Z 12004KT 9999 FEW017 BKN050 25/22 Q1011 NOSIG,M
VVTS,1/23/2021 18:00,106.6667,10.8167,77,71.6,83.44,M,3,0,29.85,M,6.21,M,FEW,BKN,M,M,1700,5000,M,M,M,M,M,M,M,M,M,77,VVTS 231800Z VRB03KT 9999 FEW017 BKN050 25/22 Q1011 NOSIG,M
VVTS,1/23/2021 18:30,106.6667,10.8167,75.2,71.6,88.59,M,3,0,29.83,M,4.97,M,FEW,SCT,M,M,1700,5000,M,M,M,M,M,M,M,M,M,75.2,VVTS 231830Z VRB03KT 8000 FEW017 SCT050 24/22 Q1010 NOSIG,M
VVTS,1/23/2021 19:00,106.6667,10.8167,75.2,71.6,88.59,M,3,0,29.83,M,4.97,M,FEW,SCT,M,M,1700,5000,M,M,M,M,M,M,M,M,M,75.2,VVTS 231900Z VRB03KT 8000 FEW017 SCT050 24/22 Q1010 NOSIG,M
VVTS,1/23/2021 19:30,106.6667,10.8167,75.2,71.6,88.59,200,3,0,29.83,M,4.97,M,FEW,SCT,M,M,1700,5000,M,M,M,M,M,M,M,M,M,75.2,VVTS 231930Z 20003KT 8000 FEW017 SCT050 24/22 Q1010 NOSIG,M
VVTS,1/23/2021 20:00,106.6667,10.8167,77,71.6,83.44,190,4,0,29.83,M,4.97,M,FEW,SCT,M,M,1700,5000,M,M,M,M,M,M,M,M,M,77,VVTS 232000Z 19004KT 150V210 8000 FEW017 SCT050 25/22 Q1010 NOSIG,M
VVTS,1/23/2021 20:30,106.6667,10.8167,75.2,71.6,88.59,M,1,0,29.83,M,4.97,M,FEW,SCT,M,M,1700,5000,M,M,M,M,M,M,M,M,M,75.2,VVTS 232030Z VRB01KT 8000 FEW017 SCT050 24/22 Q1010 NOSIG,M
VVTS,1/23/2021 21:00,106.6667,10.8167,77,71.6,83.44,M,2,0,29.83,M,4.97,M,FEW,SCT,M,M,1700,5000,M,M,M,M,M,M,M,M,M,77,VVTS 232100Z VRB02KT 8000 FEW017 SCT050 25/22 Q1010 NOSIG,M
VVTS,1/23/2021 21:30,106.6667,10.8167,75.2,71.6,88.59,M,3,0,29.83,M,4.97,M,FEW,SCT,M,M,1700,5000,M,M,M,M,M,M,M,M,M,75.2,VVTS 232130Z VRB03KT 8000 FEW017 SCT050 24/22 Q1010 NOSIG,M
VVTS,1/23/2021 22:00,106.6667,10.8167,75.2,71.6,88.59,120,4,0,29.83,M,4.97,M,FEW,SCT,M,M,1700,5000,M,M,M,M,M,M,M,M,M,75.2,VVTS 232200Z 12004KT 8000 FEW017 SCT050 24/22 Q1010 NOSIG,M
VVTS,1/23/2021 22:30,106.6667,10.8167,75.2,71.6,88.59,80,2,0,29.85,M,4.97,M,FEW,SCT,M,M,1700,5000,M,M,M,M,M,M,M,M,M,75.2,VVTS 232230Z 08002KT 8000 FEW017 SCT050 24/22 Q1011 NOSIG,M
VVTS,1/23/2021 23:00,106.6667,10.8167,75.2,71.6,88.59,70,4,0,29.85,M,4.97,M,FEW,BKN,M,M,1700,5000,M,M,M,M,M,M,M,M,M,75.2,VVTS 232300Z 07004KT 040V120 8000 FEW017 BKN050 24/22 Q1011 NOSIG,M
VVTS,1/23/2021 23:30,106.6667,10.8167,75.2,71.6,88.59,M,3,0,29.85,M,4.97,M,SCT,BKN,M,M,1700,5000,M,M,M,M,M,M,M,M,M,75.2,VVTS 232330Z VRB03KT 8000 SCT017 BKN050 24/22 Q1011 NOSIG,M
VVTS,1/24/2021 0:00,106.6667,10.8167,75.2,71.6,88.59,M,3,0,29.88,M,4.97,M,SCT,BKN,M,M,1700,5000,M,M,M,M,M,M,M,M,M,75.2,VVTS 240000Z VRB03KT 8000 SCT017 BKN050 24/22 Q1012 NOSIG,M
VVTS,1/24/2021 0:30,106.6667,10.8167,77,71.6,83.44,M,2,0,29.88,M,4.97,M,SCT,BKN,M,M,1700,5000,M,M,M,M,M,M,M,M,M,77,VVTS 240030Z VRB02KT 8000 SCT017 BKN050 25/22 Q1012 NOSIG,M
VVTS,1/24/2021 1:00,106.6667,10.8167,78.8,71.6,78.62,M,2,0,29.88,M,4.97,M,FEW,BKN,M,M,1700,5000,M,M,M,M,M,M,M,M,M,78.8,VVTS 240100Z VRB02KT 8000 FEW017 BKN050 26/22 Q1012 NOSIG,M
VVTS,1/24/2021 1:30,106.6667,10.8167,80.6,71.6,74.11,140,5,0,29.91,M,4.97,M,FEW,BKN,M,M,1700,5000,M,M,M,M,M,M,M,M,M,84.57,VVTS 240130Z 14005KT 110V180 8000 FEW017 BKN050 27/22 Q1013 NOSIG,M
VVTS,1/24/2021 2:00,106.6667,10.8167,80.6,71.6,74.11,150,5,0,29.91,M,6.21,M,FEW,BKN,M,M,1700,5000,M,M,M,M,M,M,M,M,M,84.57,VVTS 240200Z 15005KT 110V180 9999 FEW017 BKN050 27/22 Q1013 NOSIG,M
VVTS,1/24/2021 2:30,106.6667,10.8167,80.6,71.6,74.11,80,6,0,29.91,M,6.21,M,FEW,BKN,M,M,1700,5000,M,M,M,M,M,M,M,M,M,84.57,VVTS 240230Z 08006KT 010V120 9999 FEW017 BKN050 27/22 Q1013 NOSIG,M
VVTS,1/24/2021 3:00,106.6667,10.8167,80.6,69.8,69.71,100,5,0,29.91,M,6.21,M,FEW,BKN,M,M,1700,5000,M,M,M,M,M,M,M,M,M,83.9,VVTS 240300Z 10005KT 070V150 9999 FEW017 BKN050 27/21 Q1013 NOSIG,M
VVTS,1/24/2021 3:30,106.6667,10.8167,82.4,71.6,69.9,M,4,0,29.91,M,6.21,M,FEW,BKN,M,M,1700,5000,M,M,M,M,M,M,M,M,M,87.18,VVTS 240330Z VRB04KT 9999 FEW017 BKN050 28/22 Q1013 NOSIG,M
VVTS,1/24/2021 4:00,106.6667,10.8167,84.2,69.8,62.03,40,5,0,29.88,M,6.21,M,FEW,M,M,M,2000,M,M,M,M,M,M,M,M,M,M,88.43,VVTS 240400Z 04005KT 360V090 9999 FEW020 29/21 Q1012 NOSIG,M
VVTS,1/24/2021 4:30,106.6667,10.8167,84.2,71.6,65.95,M,2,0,29.88,M,6.21,M,FEW,M,M,M,2000,M,M,M,M,M,M,M,M,M,M,89.6,VVTS 240430Z VRB02KT 9999 FEW020 29/22 Q1012 NOSIG,M
VVTS,1/24/2021 5:00,106.6667,10.8167,87.8,69.8,55.29,M,3,0,29.85,M,6.21,M,FEW,M,M,M,2000,M,M,M,M,M,M,M,M,M,M,92.71,VVTS 240500Z VRB03KT 9999 FEW020 31/21 Q1011 NOSIG,M
VVTS,1/24/2021 5:30,106.6667,10.8167,87.8,69.8,55.29,M,2,0,29.83,M,6.21,14,FEW,M,M,M,2000,M,M,M,M,M,M,M,M,M,M,92.71,VVTS 240530Z VRB02G14KT 9999 FEW020 31/21 Q1010 NOSIG,M
VVTS,1/24/2021 6:00,106.6667,10.8167,87.8,71.6,58.78,M,5,0,29.83,M,6.21,M,FEW,M,M,M,2000,M,M,M,M,M,M,M,M,M,M,94.18,VVTS 240600Z VRB05KT 9999 FEW020 31/22 Q1010 NOSIG,M
VVTS,1/24/2021 6:30,106.6667,10.8167,87.8,69.8,55.29,320,5,0,29.8,M,6.21,M,SCT,SCT,M,M,2000,5000,M,M,M,M,M,M,M,M,M,92.71,VVTS 240630Z 32005KT 280V090 9999 SCT020 SCT050 31/21 Q1009 NOSIG,M
VVTS,1/24/2021 7:00,106.6667,10.8167,87.8,68,51.98,10,5,0,29.8,M,6.21,M,SCT,SCT,M,M,2000,5000,M,M,M,M,M,M,M,M,M,91.43,VVTS 240700Z 01005KT 330V060 9999 SCT020 SCT050 31/20 Q1009 NOSIG,M
VVTS,1/24/2021 7:30,106.6667,10.8167,87.8,69.8,55.29,350,4,0,29.77,M,6.21,M,SCT,SCT,M,M,2000,5000,M,M,M,M,M,M,M,M,M,92.71,VVTS 240730Z 35004KT 290V070 9999 SCT020 SCT050 31/21 Q1008 NOSIG,M
VVTS,1/24/2021 8:00,106.6667,10.8167,87.8,69.8,55.29,340,5,0,29.77,M,6.21,M,SCT,SCT,M,M,2000,5000,M,M,M,M,M,M,M,M,M,92.71,VVTS 240800Z 34005KT 270V040 9999 SCT020 SCT050 31/21 Q1008 NOSIG,M
VVTS,1/24/2021 8:30,106.6667,10.8167,87.8,69.8,55.29,320,5,0,29.77,M,6.21,M,SCT,SCT,M,M,2000,5000,M,M,M,M,M,M,M,M,M,92.71,VVTS 240830Z 32005KT 270V350 9999 SCT020 SCT050 31/21 Q1008 NOSIG,M
VVTS,1/24/2021 9:00,106.6667,10.8167,87.8,69.8,55.29,300,4,0,29.77,M,6.21,M,SCT,SCT,M,M,2000,5000,M,M,M,M,M,M,M,M,M,92.71,VVTS 240900Z 30004KT 270V340 9999 SCT020 SCT050 31/21 Q1008 NOSIG,M
VVTS,1/24/2021 9:30,106.6667,10.8167,87.8,69.8,55.29,310,5,0,29.77,M,4.97,M,SCT,SCT,M,M,2000,5000,M,M,M,M,M,M,M,M,M,92.71,VVTS 240930Z 31005KT 280V340 8000 SCT020 SCT050 31/21 Q1008 NOSIG,M
VVTS,1/24/2021 10:00,106.6667,10.8167,86,69.8,58.55,290,5,0,29.77,M,4.97,M,FEW,SCT,M,M,2000,5000,M,M,M,M,M,M,M,M,M,90.58,VVTS 241000Z 29005KT 260V320 8000 FEW020 SCT050 30/21 Q1008 NOSIG,M
VVTS,1/24/2021 10:30,106.6667,10.8167,86,71.6,62.25,290,4,0,29.8,M,5.59,M,FEW,SCT,M,M,1700,5000,M,M,M,M,M,M,M,M,M,91.92,VVTS 241030Z 29004KT 9000 FEW017 SCT050 30/22 Q1009 NOSIG,M
VVTS,1/24/2021 11:00,106.6667,10.8167,82.4,73.4,74.28,180,10,0,29.8,M,5.59,M,SCT,SCT,M,M,1700,5000,M,M,M,M,M,M,M,M,M,88.26,VVTS 241100Z 18010KT 150V220 9000 SCT017 SCT050 28/23 Q1009 NOSIG,M
VVTS,1/24/2021 11:30,106.6667,10.8167,80.6,73.4,78.76,180,9,0,29.83,M,5.59,M,SCT,SCT,M,M,1700,5000,M,M,M,M,M,M,M,M,M,85.32,VVTS 241130Z 18009KT 150V210 9000 SCT017 SCT050 27/23 Q1010 NOSIG,M
VVTS,1/24/2021 12:00,106.6667,10.8167,80.6,73.4,78.76,170,6,0,29.83,M,5.59,M,SCT,SCT,M,M,1700,5000,M,M,M,M,M,M,M,M,M,85.32,VVTS 241200Z 17006KT 130V210 9000 SCT017 SCT050 27/23 Q1010 NOSIG,M
VVTS,1/24/2021 12:30,106.6667,10.8167,78.8,71.6,78.62,160,6,0,29.83,M,5.59,M,FEW,SCT,M,M,1700,5000,M,M,M,M,M,M,M,M,M,78.8,VVTS 241230Z 16006KT 130V200 9000 FEW017 SCT050 26/22 Q1010 NOSIG,M
VVTS,1/24/2021 13:00,106.6667,10.8167,78.8,73.4,83.55,160,6,0,29.83,M,5.59,M,FEW,SCT,M,M,1700,5000,M,M,M,M,M,M,M,M,M,78.8,VVTS 241300Z 16006KT 080V210 9000 FEW017 SCT050 26/23 Q1010 NOSIG,M
VVTS,1/24/2021 13:30,106.6667,10.8167,78.8,73.4,83.55,170,6,0,29.85,M,6.21,M,FEW,SCT,M,M,1700,5000,M,M,M,M,M,M,M,M,M,78.8,VVTS 241330Z 17006KT 130V200 9999 FEW017 SCT050 26/23 Q1011 NOSIG,M
VVTS,1/24/2021 14:00,106.6667,10.8167,78.8,71.6,78.62,170,5,0,29.85,M,6.21,M,FEW,SCT,M,M,1700,5000,M,M,M,M,M,M,M,M,M,78.8,VVTS 241400Z 17005KT 120V220 9999 FEW017 SCT050 26/22 Q1011 NOSIG,M
VVTS,1/24/2021 14:30,106.6667,10.8167,78.8,71.6,78.62,150,5,0,29.85,M,6.21,M,FEW,SCT,M,M,1700,5000,M,M,M,M,M,M,M,M,M,78.8,VVTS 241430Z 15005KT 120V240 9999 FEW017 SCT050 26/22 Q1011 NOSIG,M
VVTS,1/24/2021 15:00,106.6667,10.8167,78.8,71.6,78.62,160,4,0,29.85,M,6.21,M,FEW,SCT,M,M,1700,5000,M,M,M,M,M,M,M,M,M,78.8,VVTS 241500Z 16004KT 110V200 9999 FEW017 SCT050 26/22 Q1011 NOSIG,M
VVTS,1/24/2021 15:30,106.6667,10.8167,77,71.6,83.44,120,6,0,29.85,M,6.21,M,FEW,SCT,M,M,1700,5000,M,M,M,M,M,M,M,M,M,77,VVTS 241530Z 12006KT 100V160 9999 FEW017 SCT050 25/22 Q1011 NOSIG,M
VVTS,1/24/2021 16:00,106.6667,10.8167,77,71.6,83.44,140,5,0,29.85,M,6.21,M,FEW,SCT,M,M,1700,5000,M,M,M,M,M,M,M,M,M,77,VVTS 241600Z 14005KT 100V160 9999 FEW017 SCT050 25/22 Q1011 NOSIG,M
VVTS,1/24/2021 16:30,106.6667,10.8167,77,71.6,83.44,140,4,0,29.85,M,6.21,M,FEW,SCT,M,M,1700,5000,M,M,M,M,M,M,M,M,M,77,VVTS 241630Z 14004KT 100V190 9999 FEW017 SCT050 25/22 Q1011 NOSIG,M
VVTS,1/24/2021 17:00,106.6667,10.8167,77,71.6,83.44,130,4,0,29.85,M,5.59,M,FEW,SCT,M,M,1700,5000,M,M,M,M,M,M,M,M,M,77,VVTS 241700Z 13004KT 080V160 9000 FEW017 SCT050 25/22 Q1011 NOSIG,M
VVTS,1/24/2021 17:30,106.6667,10.8167,75.2,71.6,88.59,130,5,0,29.83,M,5.59,M,FEW,SCT,M,M,1700,5000,M,M,M,M,M,M,M,M,M,75.2,VVTS 241730Z 13005KT 080V150 9000 FEW017 SCT050 24/22 Q1010 NOSIG,M
VVTS,1/24/2021 18:00,106.6667,10.8167,75.2,71.6,88.59,M,3,0,29.83,M,5.59,M,FEW,SCT,M,M,1700,5000,M,M,M,M,M,M,M,M,M,75.2,VVTS 241800Z VRB03KT 9000 FEW017 SCT050 24/22 Q1010 NOSIG,M
VVTS,1/24/2021 18:30,106.6667,10.8167,75.2,71.6,88.59,130,4,0,29.83,M,5.59,M,FEW,SCT,M,M,1700,5000,M,M,M,M,M,M,M,M,M,75.2,VVTS 241830Z 13004KT 110V220 9000 FEW017 SCT050 24/22 Q1010 NOSIG,M
VVTS,1/24/2021 19:00,106.6667,10.8167,75.2,71.6,88.59,M,3,0,29.83,M,5.59,M,FEW,SCT,M,M,1700,5000,M,M,M,M,M,M,M,M,M,75.2,VVTS 241900Z VRB03KT 9000 FEW017 SCT050 24/22 Q1010 NOSIG,M
VVTS,1/24/2021 19:30,106.6667,10.8167,75.2,71.6,88.59,130,2,0,29.83,M,4.97,M,FEW,SCT,M,M,1700,5000,M,M,M,M,M,M,M,M,M,75.2,VVTS 241930Z 13002KT 8000 FEW017 SCT050 24/22 Q1010 NOSIG,M
VVTS,1/24/2021 20:00,106.6667,10.8167,75.2,71.6,88.59,0,0,0,29.83,M,4.97,M,FEW,SCT,M,M,1700,5000,M,M,M,M,M,M,M,M,M,75.2,VVTS 242000Z 00000KT 8000 FEW017 SCT050 24/22 Q1010 NOSIG,M
VVTS,1/24/2021 20:30,106.6667,10.8167,75.2,71.6,88.59,70,1,0,29.83,M,4.97,M,FEW,SCT,M,M,1700,5000,M,M,M,M,M,M,M,M,M,75.2,VVTS 242030Z 07001KT 8000 FEW017 SCT050 24/22 Q1010 NOSIG,M
VVTS,1/24/2021 21:00,106.6667,10.8167,75.2,71.6,88.59,10,1,0,29.83,M,4.97,M,FEW,SCT,M,M,1700,5000,M,M,M,M,M,M,M,M,M,75.2,VVTS 242100Z 01001KT 8000 FEW017 SCT050 24/22 Q1010 NOSIG,M
VVTS,1/24/2021 21:30,106.6667,10.8167,75.2,71.6,88.59,320,1,0,29.83,M,4.97,M,FEW,SCT,M,M,1700,5000,M,M,M,M,M,M,M,M,M,75.2,VVTS 242130Z 32001KT 8000 FEW017 SCT050 24/22 Q1010 NOSIG,M
VVTS,1/24/2021 22:00,106.6667,10.8167,75.2,73.4,94.14,50,1,0,29.83,M,4.97,M,FEW,SCT,M,M,1700,5000,M,M,M,M,M,M,M,M,M,75.2,VVTS 242200Z 05001KT 8000 FEW017 SCT050 24/23 Q1010 NOSIG,M
VVTS,1/24/2021 22:30,106.6667,10.8167,75.2,73.4,94.14,50,2,0,29.83,M,4.35,M,FEW,SCT,M,M,1700,5000,M,M,M,M,M,M,M,M,M,75.2,VVTS 242230Z 05002KT 7000 FEW017 SCT050 24/23 Q1010 NOSIG,M
VVTS,1/24/2021 23:00,106.6667,10.8167,75.2,71.6,88.59,40,2,0,29.85,M,4.35,M,FEW,M,M,M,2000,M,M,M,M,M,M,M,M,M,M,75.2,VVTS 242300Z 04002KT 7000 FEW020 24/22 Q1011 NOSIG,M
VVTS,1/24/2021 23:30,106.6667,10.8167,75.2,71.6,88.59,40,1,0,29.85,M,4.35,M,FEW,M,M,M,2000,M,M,M,M,M,M,M,M,M,M,75.2,VVTS 242330Z 04001KT 7000 FEW020 24/22 Q1011 NOSIG,M
VVTS,1/25/2021 0:00,106.6667,10.8167,75.2,73.4,94.14,70,1,0,29.85,M,4.35,M,FEW,M,M,M,2000,M,M,M,M,M,M,M,M,M,M,75.2,VVTS 250000Z 07001KT 7000 FEW020 24/23 Q1011 NOSIG,M
VVTS,1/25/2021 0:30,106.6667,10.8167,77,73.4,88.67,30,3,0,29.88,M,4.35,M,FEW,BKN,M,M,2000,5000,M,M,M,M,M,M,M,M,M,77,VVTS 250030Z 03003KT 7000 FEW020 BKN050 25/23 Q1012 NOSIG,M
VVTS,1/25/2021 1:00,106.6667,10.8167,77,73.4,88.67,M,2,0,29.88,M,4.35,M,SCT,SCT,M,M,2000,5000,M,M,M,M,M,M,M,M,M,77,VVTS 250100Z VRB02KT 7000 SCT020 SCT050 25/23 Q1012 NOSIG,M
VVTS,1/25/2021 1:30,106.6667,10.8167,78.8,73.4,83.55,M,1,0,29.88,M,4.97,M,SCT,SCT,M,M,2000,5000,M,M,M,M,M,M,M,M,M,78.8,VVTS 250130Z VRB01KT 8000 SCT020 SCT050 26/23 Q1012 NOSIG,M
VVTS,1/25/2021 2:00,106.6667,10.8167,80.6,73.4,78.76,M,2,0,29.88,M,4.97,M,SCT,M,M,M,2000,M,M,M,M,M,M,M,M,M,M,85.32,VVTS 250200Z VRB02KT 8000 SCT020 27/23 Q1012 NOSIG,M
VVTS,1/25/2021 2:30,106.6667,10.8167,82.4,73.4,74.28,M,2,0,29.88,M,4.97,M,SCT,M,M,M,2000,M,M,M,M,M,M,M,M,M,M,88.26,VVTS 250230Z VRB02KT 8000 SCT020 28/23 Q1012 NOSIG,M
VVTS,1/25/2021 3:00,106.6667,10.8167,82.4,73.4,74.28,M,2,0,29.88,M,4.97,M,FEW,M,M,M,2000,M,M,M,M,M,M,M,M,M,M,88.26,VVTS 250300Z VRB02KT 8000 FEW020 28/23 Q1012 NOSIG,M
VVTS,1/25/2021 3:30,106.6667,10.8167,84.2,73.4,70.08,M,1,0,29.88,M,4.97,M,FEW,M,M,M,2000,M,M,M,M,M,M,M,M,M,M,90.94,VVTS 250330Z VRB01KT 8000 FEW020 29/23 Q1012 NOSIG,M
VVTS,1/25/2021 4:00,106.6667,10.8167,86,71.6,62.25,10,4,0,29.85,M,4.97,M,SCT,M,M,M,2000,M,M,M,M,M,M,M,M,M,M,91.92,VVTS 250400Z 01004KT 8000 SCT020 30/22 Q1011 NOSIG,M
VVTS,1/25/2021 4:30,106.6667,10.8167,84.2,73.4,70.08,10,4,0,29.85,M,4.97,M,SCT,M,M,M,2000,M,M,M,M,M,M,M,M,M,M,90.94,VVTS 250430Z 01004KT 310V120 8000 SCT020 29/23 Q1011 NOSIG,M
VVTS,1/25/2021 5:00,106.6667,10.8167,86,73.4,66.15,350,4,0,29.85,M,4.97,M,SCT,M,M,M,2000,M,M,M,M,M,M,M,M,M,M,93.45,VVTS 250500Z 35004KT 8000 SCT020 30/23 Q1011 NOSIG,M
VVTS,1/25/2021 5:30,106.6667,10.8167,87.8,73.4,62.47,310,4,0,29.83,M,4.35,M,BKN,M,M,M,2000,M,M,M,M,M,M,M,M,M,M,95.86,VVTS 250530Z 31004KT 260V030 7000 BKN020 31/23 Q1010 NOSIG,M
VVTS,1/25/2021 6:00,106.6667,10.8167,87.8,71.6,58.78,M,4,0,29.8,M,4.35,M,BKN,M,M,M,2000,M,M,M,M,M,M,M,M,M,M,94.18,VVTS 250600Z VRB04KT 7000 BKN020 31/22 Q1009 NOSIG,M
VVTS,1/25/2021 6:30,106.6667,10.8167,87.8,71.6,58.78,M,2,0,29.8,M,4.97,M,SCT,M,M,M,2000,M,M,M,M,M,M,M,M,M,M,94.18,VVTS 250630Z VRB02KT 8000 SCT020 31/22 Q1009 NOSIG,M
VVTS,1/25/2021 7:00,106.6667,10.8167,89.6,71.6,55.53,330,4,0,29.77,M,4.97,M,SCT,M,M,M,2000,M,M,M,M,M,M,M,M,M,M,96.41,VVTS 250700Z 33004KT 260V020 8000 SCT020 32/22 Q1008 NOSIG,M
VVTS,1/25/2021 7:30,106.6667,10.8167,89.6,69.8,52.23,M,3,0,29.77,M,4.97,M,BKN,M,M,M,2000,M,M,M,M,M,M,M,M,M,M,94.85,VVTS 250730Z VRB03KT 8000 BKN020 32/21 Q1008 NOSIG,M
VVTS,1/25/2021 8:00,106.6667,10.8167,89.6,69.8,52.23,M,3,0,29.77,M,4.97,M,BKN,M,M,M,2000,M,M,M,M,M,M,M,M,M,M,94.85,VVTS 250800Z VRB03KT 8000 BKN020 32/21 Q1008 NOSIG,M
VVTS,1/25/2021 8:30,106.6667,10.8167,89.6,71.6,55.53,M,2,0,29.77,M,4.97,M,SCT,M,M,M,2000,M,M,M,M,M,M,M,M,M,M,96.41,VVTS 250830Z VRB02KT 8000 SCT020 32/22 Q1008 NOSIG,M
VVTS,1/25/2021 9:00,106.6667,10.8167,89.6,69.8,52.23,M,1,0,29.74,M,4.97,M,SCT,M,M,M,2000,M,M,M,M,M,M,M,M,M,M,94.85,VVTS 250900Z VRB01KT 8000 SCT020 32/21 Q1007 NOSIG,M
VVTS,1/25/2021 9:30,106.6667,10.8167,86,75.2,70.27,M,8,0,29.77,M,4.35,M,SCT,M,M,M,1700,M,M,M,M,M,M,M,M,M,M,95.19,VVTS 250930Z VRB08KT 7000 SCT017 30/24 Q1008 NOSIG,M
VVTS,1/25/2021 10:00,106.6667,10.8167,82.4,73.4,74.28,190,11,0,29.77,M,4.35,M,SCT,M,M,M,1700,M,M,M,M,M,M,M,M,M,M,88.26,VVTS 251000Z 19011KT 160V220 7000 SCT017 28/23 Q1008 NOSIG,M
VVTS,1/25/2021 10:30,106.6667,10.8167,82.4,73.4,74.28,180,8,0,29.77,M,4.35,M,SCT,M,M,M,1700,M,M,M,M,M,M,M,M,M,M,88.26,VVTS 251030Z 18008KT 7000 SCT017 28/23 Q1008 NOSIG,M
VVTS,1/25/2021 11:00,106.6667,10.8167,80.6,73.4,78.76,190,8,0,29.77,M,4.35,M,SCT,M,M,M,1700,M,M,M,M,M,M,M,M,M,M,85.32,VVTS 251100Z 19008KT 130V210 7000 SCT017 27/23 Q1008 NOSIG,M
VVTS,1/25/2021 11:30,106.6667,10.8167,80.6,71.6,74.11,170,6,0,29.8,M,4.35,M,SCT,M,M,M,1700,M,M,M,M,M,M,M,M,M,M,84.57,VVTS 251130Z 17006KT 130V220 7000 SCT017 27/22 Q1009 NOSIG,M
VVTS,1/25/2021 12:00,106.6667,10.8167,80.6,71.6,74.11,160,8,0,29.8,M,4.35,M,SCT,M,M,M,1700,M,M,M,M,M,M,M,M,M,M,84.57,VVTS 251200Z 16008KT 130V200 7000 SCT017 27/22 Q1009 NOSIG,M
VVTS,1/25/2021 12:30,106.6667,10.8167,80.6,71.6,74.11,170,8,0,29.8,M,4.97,M,SCT,M,M,M,1700,M,M,M,M,M,M,M,M,M,M,84.57,VVTS 251230Z 17008KT 140V210 8000 SCT017 27/22 Q1009 NOSIG,M
VVTS,1/25/2021 13:00,106.6667,10.8167,78.8,71.6,78.62,160,6,0,29.83,M,6.21,M,SCT,SCT,M,M,1700,5000,M,M,M,M,M,M,M,M,M,78.8,VVTS 251300Z 16006KT 120V250 9999 SCT017 SCT050 26/22 Q1010 NOSIG,M
VVTS,1/25/2021 13:30,106.6667,10.8167,78.8,69.8,73.95,160,7,0,29.83,M,6.21,M,SCT,SCT,M,M,1700,5000,M,M,M,M,M,M,M,M,M,78.8,VVTS 251330Z 16007KT 130V190 9999 SCT017 SCT050 26/21 Q1010 NOSIG,M
VVTS,1/25/2021 14:00,106.6667,10.8167,78.8,71.6,78.62,150,6,0,29.83,M,6.21,M,SCT,SCT,M,M,1700,5000,M,M,M,M,M,M,M,M,M,78.8,VVTS 251400Z 15006KT 060V170 9999 SCT017 SCT050 26/22 Q1010 NOSIG,M
VVTS,1/25/2021 14:30,106.6667,10.8167,78.8,71.6,78.62,140,6,0,29.83,M,6.21,M,SCT,SCT,M,M,1700,5000,M,M,M,M,M,M,M,M,M,78.8,VVTS 251430Z 14006KT 120V230 9999 SCT017 SCT050 26/22 Q1010 NOSIG,M
VVTS,1/25/2021 15:00,106.6667,10.8167,78.8,71.6,78.62,140,6,0,29.83,M,6.21,M,SCT,SCT,M,M,1700,5000,M,M,M,M,M,M,M,M,M,78.8,VVTS 251500Z 14006KT 110V190 9999 SCT017 SCT050 26/22 Q1010 NOSIG,M
VVTS,1/25/2021 15:30,106.6667,10.8167,78.8,71.6,78.62,130,4,0,29.83,M,6.21,M,SCT,SCT,M,M,1700,5000,M,M,M,M,M,M,M,M,M,78.8,VVTS 251530Z 13004KT 070V190 9999 SCT017 SCT050 26/22 Q1010 NOSIG,M
VVTS,1/25/2021 16:00,106.6667,10.8167,78.8,71.6,78.62,130,4,0,29.83,M,6.21,M,FEW,SCT,M,M,2000,5000,M,M,M,M,M,M,M,M,M,78.8,VVTS 251600Z 13004KT 090V200 9999 FEW020 SCT050 26/22 Q1010 NOSIG,M
VVTS,1/25/2021 16:30,106.6667,10.8167,77,71.6,83.44,130,4,0,29.83,M,6.21,M,FEW,SCT,M,M,2000,5000,M,M,M,M,M,M,M,M,M,77,VVTS 251630Z 13004KT 100V160 9999 FEW020 SCT050 25/22 Q1010 NOSIG,M
VVTS,1/25/2021 17:00,106.6667,10.8167,78.8,71.6,78.62,M,2,0,29.83,M,6.21,M,FEW,SCT,M,M,2000,5000,M,M,M,M,M,M,M,M,M,78.8,VVTS 251700Z VRB02KT 9999 FEW020 SCT050 26/22 Q1010 NOSIG,M
VVTS,1/25/2021 17:30,106.6667,10.8167,77,71.6,83.44,M,1,0,29.83,M,6.21,M,FEW,SCT,M,M,2000,5000,M,M,M,M,M,M,M,M,M,77,VVTS 251730Z VRB01KT 9999 FEW020 SCT050 25/22 Q1010 NOSIG,M
VVTS,1/25/2021 18:00,106.6667,10.8167,77,71.6,83.44,M,2,0,29.83,M,6.21,M,FEW,SCT,M,M,2000,5000,M,M,M,M,M,M,M,M,M,77,VVTS 251800Z VRB02KT 9999 FEW020 SCT050 25/22 Q1010 NOSIG,M
VVTS,1/25/2021 18:30,106.6667,10.8167,77,71.6,83.44,M,2,0,29.8,M,4.97,M,SCT,SCT,M,M,1700,5000,M,M,M,M,M,M,M,M,M,77,VVTS 251830Z VRB02KT 8000 SCT017 SCT050 25/22 Q1009 NOSIG,M
VVTS,1/25/2021 19:00,106.6667,10.8167,77,71.6,83.44,M,2,0,29.8,M,4.97,M,SCT,SCT,M,M,1700,5000,M,M,M,M,M,M,M,M,M,77,VVTS 251900Z VRB02KT 8000 SCT017 SCT050 25/22 Q1009 NOSIG,M
VVTS,1/25/2021 19:30,106.6667,10.8167,77,71.6,83.44,M,1,0,29.8,M,4.97,M,SCT,SCT,M,M,1700,5000,M,M,M,M,M,M,M,M,M,77,VVTS 251930Z VRB01KT 8000 SCT017 SCT050 25/22 Q1009 NOSIG,M
VVTS,1/25/2021 20:00,106.6667,10.8167,77,71.6,83.44,0,0,0,29.8,M,4.97,M,SCT,SCT,M,M,1700,5000,M,M,M,M,M,M,M,M,M,77,VVTS 252000Z 00000KT 8000 SCT017 SCT050 25/22 Q1009 NOSIG,M
VVTS,1/25/2021 20:30,106.6667,10.8167,77,71.6,83.44,0,0,0,29.8,M,4.97,M,SCT,SCT,M,M,1700,5000,M,M,M,M,M,M,M,M,M,77,VVTS 252030Z 00000KT 8000 SCT017 SCT050 25/22 Q1009,M
VVTS,1/25/2021 21:00,106.6667,10.8167,77,73.4,88.67,M,1,0,29.8,M,4.97,M,SCT,SCT,M,M,1700,5000,M,M,M,M,M,M,M,M,M,77,VVTS 252100Z VRB01KT 8000 SCT017 SCT050 25/23 Q1009,M
VVTS,1/25/2021 21:30,106.6667,10.8167,77,73.4,88.67,M,2,0,29.83,M,4.97,M,SCT,SCT,M,M,1700,5000,M,M,M,M,M,M,M,M,M,77,VVTS 252130Z VRB02KT 8000 SCT017 SCT050 25/23 Q1010,M
VVTS,1/25/2021 22:00,106.6667,10.8167,77,73.4,88.67,290,2,0,29.83,M,4.97,M,SCT,SCT,M,M,1700,5000,M,M,M,M,M,M,M,M,M,77,VVTS 252200Z 29002KT 8000 SCT017 SCT050 25/23 Q1010,M
VVTS,1/25/2021 22:30,106.6667,10.8167,77,71.6,83.44,0,0,0,29.83,M,4.97,M,SCT,SCT,M,M,1700,5000,M,M,M,M,M,M,M,M,M,77,VVTS 252230Z 00000KT 8000 SCT017 SCT050 25/22 Q1010 NOSIG,M
VVTS,1/25/2021 23:00,106.6667,10.8167,77,73.4,88.67,40,3,0,29.83,M,4.35,M,SCT,FEW,SCT,M,1500,1700,5000,M,M,M,M,M,M,M,M,77,VVTS 252300Z 04003KT 7000 SCT015 FEW017TCU SCT050 25/23 Q1010 NOSIG RMK TCU/SE,M
VVTS,1/25/2021 23:30,106.6667,10.8167,77,73.4,88.67,30,3,0,29.83,M,2.49,M,SCT,FEW,SCT,M,1500,1700,5000,M,BR,M,M,M,M,M,M,77,VVTS 252330Z 03003KT 4000 BR SCT015 FEW017TCU SCT050 25/23 Q1010 BECMG TL2345 2500 BR RMK TCU/SE,M
VVTS,1/26/2021 0:00,106.6667,10.8167,77,73.4,88.67,M,1,0,29.85,M,1.86,M,SCT,BKN,M,M,1500,5000,M,M,BR,M,M,M,M,M,M,77,VVTS 260000Z VRB01KT 3000 R25L/1800VP2000U BR SCT015 BKN050 25/23 Q1011 BECMG TL0025 5000 BR,M
VVTS,1/26/2021 0:30,106.6667,10.8167,77,73.4,88.67,M,2,0,29.85,M,2.49,M,SCT,SCT,M,M,1700,5000,M,M,BR,M,M,M,M,M,M,77,VVTS 260030Z VRB02KT 4000 BR SCT017 SCT050 25/23 Q1011 BECMG TL0025 5000 BR,M
VVTS,1/26/2021 1:00,106.6667,10.8167,77,73.4,88.67,350,3,0,29.85,M,2.49,M,SCT,SCT,M,M,1700,5000,M,M,BR,M,M,M,M,M,M,77,VVTS 260100Z 35003KT 4000 BR SCT017 SCT050 25/23 Q1011 NOSIG,M
VVTS,1/26/2021 1:30,106.6667,10.8167,80.6,73.4,78.76,M,2,0,29.88,M,2.49,M,SCT,SCT,M,M,1700,5000,M,M,BR,M,M,M,M,M,M,85.32,VVTS 260130Z VRB02KT 4000 BR SCT017 SCT050 27/23 Q1012 NOSIG,M
VVTS,1/26/2021 2:00,106.6667,10.8167,82.4,73.4,74.28,10,4,0,29.88,M,4.35,M,FEW,SCT,M,M,1700,5000,M,M,M,M,M,M,M,M,M,88.26,VVTS 260200Z 01004KT 330V050 7000 FEW017 SCT050 28/23 Q1012 NOSIG,M
VVTS,1/26/2021 2:30,106.6667,10.8167,80.6,73.4,78.76,20,4,0,29.88,M,4.97,M,FEW,SCT,M,M,1700,5000,M,M,M,M,M,M,M,M,M,85.32,VVTS 260230Z 02004KT 310V060 8000 FEW017 SCT050 27/23 Q1012 NOSIG,M
VVTS,1/26/2021 3:00,106.6667,10.8167,84.2,73.4,70.08,40,5,0,29.88,M,4.97,M,FEW,SCT,M,M,1700,5000,M,M,M,M,M,M,M,M,M,90.94,VVTS 260300Z 04005KT 010V070 8000 FEW017 SCT050 29/23 Q1012 NOSIG,M
VVTS,1/26/2021 3:30,106.6667,10.8167,84.2,71.6,65.95,330,4,0,29.85,M,4.97,M,FEW,M,M,M,2000,M,M,M,M,M,M,M,M,M,M,89.6,VVTS 260330Z 33004KT 280V070 8000 FEW020 29/22 Q1011 NOSIG,M
VVTS,1/26/2021 4:00,106.6667,10.8167,86,73.4,66.15,M,2,0,29.85,M,4.97,M,SCT,M,M,M,2000,M,M,M,M,M,M,M,M,M,M,93.45,VVTS 260400Z VRB02KT 8000 SCT020 30/23 Q1011 NOSIG,M
VVTS,1/26/2021 4:30,106.6667,10.8167,87.8,73.4,62.47,350,4,0,29.83,M,4.97,M,SCT,M,M,M,2000,M,M,M,M,M,M,M,M,M,M,95.86,VVTS 260430Z 35004KT 140V200 8000 SCT020 31/23 Q1010 NOSIG,M
VVTS,1/26/2021 5:00,106.6667,10.8167,87.8,69.8,55.29,M,3,0,29.83,M,4.97,M,SCT,M,M,M,2000,M,M,M,M,M,M,M,M,M,M,92.71,VVTS 260500Z VRB03KT 8000 SCT020 31/21 Q1010 NOSIG,M
VVTS,1/26/2021 5:30,106.6667,10.8167,89.6,71.6,55.53,M,3,0,29.8,M,6.21,M,SCT,M,M,M,2000,M,M,M,M,M,M,M,M,M,M,96.41,VVTS 260530Z VRB03KT 9999 SCT020 32/22 Q1009 NOSIG,M
VVTS,1/26/2021 6:00,106.6667,10.8167,89.6,68,49.1,20,4,0,29.8,M,4.97,M,SCT,M,M,M,2000,M,M,M,M,M,M,M,M,M,M,93.47,VVTS 260600Z 02004KT 340V060 8000 SCT020 32/20 Q1009 NOSIG,M
VVTS,1/26/2021 6:30,106.6667,10.8167,91.4,66.2,43.61,50,2,0,29.77,M,6.21,M,SCT,M,M,M,2000,M,M,M,M,M,M,M,M,M,M,94.29,VVTS 260630Z 05002KT 9999 SCT020 33/19 Q1008 NOSIG,M
VVTS,1/26/2021 7:00,106.6667,10.8167,91.4,68,46.41,M,2,0,29.74,M,6.21,M,SCT,M,M,M,2000,M,M,M,M,M,M,M,M,M,M,95.55,VVTS 260700Z VRB02KT 9999 SCT020 33/20 Q1007 NOSIG,M
VVTS,1/26/2021 7:30,106.6667,10.8167,91.4,64.4,40.96,120,1,0,29.74,M,6.21,M,BKN,M,M,M,2000,M,M,M,M,M,M,M,M,M,M,93.19,VVTS 260730Z 12001KT 9999 BKN020 33/18 Q1007 NOSIG,M
VVTS,1/26/2021 8:00,106.6667,10.8167,91.4,64.4,40.96,M,2,0,29.74,M,6.21,M,BKN,M,M,M,2000,M,M,M,M,M,M,M,M,M,M,93.19,VVTS 260800Z VRB02KT 9999 BKN020 33/18 Q1007 NOSIG,M
VVTS,1/26/2021 8:30,106.6667,10.8167,91.4,64.4,40.96,M,3,0,29.74,M,6.21,M,BKN,M,M,M,2000,M,M,M,M,M,M,M,M,M,M,93.19,VVTS 260830Z VRB03KT 9999 BKN020 33/18 Q1007 NOSIG,M
VVTS,1/26/2021 9:00,106.6667,10.8167,87.8,73.4,62.47,180,10,0,29.74,M,6.21,M,SCT,SCT,M,M,2000,5000,M,M,M,M,M,M,M,M,M,95.86,VVTS 260900Z 18010KT 9999 SCT020 SCT050 31/23 Q1007 NOSIG,M
VVTS,1/26/2021 9:30,106.6667,10.8167,86,73.4,66.15,190,10,0,29.74,M,4.35,M,FEW,SCT,M,M,2000,5000,M,M,M,M,M,M,M,M,M,93.45,VVTS 260930Z 19010KT 160V220 7000 FEW020 SCT050 30/23 Q1007 NOSIG,M
VVTS,1/26/2021 10:00,106.6667,10.8167,86,69.8,58.55,180,8,0,29.74,M,4.35,M,FEW,SCT,M,M,2000,5000,M,M,M,M,M,M,M,M,M,90.58,VVTS 261000Z 18008KT 140V210 7000 FEW020 SCT050 30/21 Q1007 NOSIG,M
VVTS,1/26/2021 10:30,106.6667,10.8167,84.2,66.2,54.8,160,9,0,29.74,M,4.97,M,FEW,M,M,M,2000,M,M,M,M,M,M,M,M,M,M,86.5,VVTS 261030Z 16009KT 140V210 8000 FEW020 29/19 Q1007 NOSIG,M
VVTS,1/26/2021 11:00,106.6667,10.8167,84.2,64.4,51.47,170,7,0,29.77,M,4.97,M,FEW,M,M,M,2000,M,M,M,M,M,M,M,M,M,M,85.71,VVTS 261100Z 17007KT 140V210 8000 FEW020 29/18 Q1008 NOSIG,M
VVTS,1/26/2021 11:30,106.6667,10.8167,84.2,64.4,51.47,160,6,0,29.77,M,4.97,M,FEW,M,M,M,2000,M,M,M,M,M,M,M,M,M,M,85.71,VVTS 261130Z 16006KT 110V200 8000 FEW020 29/18 Q1008 NOSIG,M
VVTS,1/26/2021 12:00,106.6667,10.8167,84.2,66.2,54.8,160,6,0,29.77,M,6.21,M,FEW,M,M,M,2000,M,M,M,M,M,M,M,M,M,M,86.5,VVTS 261200Z 16006KT 130V210 9999 FEW020 29/19 Q1008 NOSIG,M
VVTS,1/26/2021 12:30,106.6667,10.8167,82.4,68,61.81,170,5,0,29.77,M,6.21,M,FEW,M,M,M,2000,M,M,M,M,M,M,M,M,M,M,85.38,VVTS 261230Z 17005KT 120V210 9999 FEW020 28/20 Q1008 NOSIG,M
VVTS,1/26/2021 13:00,106.6667,10.8167,82.4,68,61.81,150,7,0,29.8,M,6.21,M,FEW,M,M,M,2000,M,M,M,M,M,M,M,M,M,M,85.38,VVTS 261300Z 15007KT 120V190 9999 FEW020 28/20 Q1009 NOSIG,M
VVTS,1/26/2021 13:30,106.6667,10.8167,82.4,66.2,58.08,150,7,0,29.8,M,6.21,M,FEW,M,M,M,2000,M,M,M,M,M,M,M,M,M,M,84.63,VVTS 261330Z 15007KT 110V210 9999 FEW020 28/19 Q1009 NOSIG,M
VVTS,1/26/2021 14:00,106.6667,10.8167,82.4,66.2,58.08,140,5,0,29.8,M,6.21,M,FEW,M,M,M,2000,M,M,M,M,M,M,M,M,M,M,84.63,VVTS 261400Z 14005KT 100V220 9999 FEW020 28/19 Q1009 NOSIG,M
VVTS,1/26/2021 14:30,106.6667,10.8167,80.6,66.2,61.58,140,5,0,29.8,M,6.21,M,FEW,M,M,M,2000,M,M,M,M,M,M,M,M,M,M,82.75,VVTS 261430Z 14005KT 090V190 9999 FEW020 27/19 Q1009 NOSIG,M
VVTS,1/26/2021 15:00,106.6667,10.8167,80.6,66.2,61.58,140,6,0,29.8,M,6.21,M,FEW,M,M,M,2000,M,M,M,M,M,M,M,M,M,M,82.75,VVTS 261500Z 14006KT 110V180 9999 FEW020 27/19 Q1009 NOSIG,M
VVTS,1/26/2021 15:30,106.6667,10.8167,80.6,64.4,57.84,140,6,0,29.8,M,6.21,M,FEW,M,M,M,2000,M,M,M,M,M,M,M,M,M,M,82.27,VVTS 261530Z 14006KT 110V210 9999 FEW020 27/18 Q1009 NOSIG,M
VVTS,1/26/2021 16:00,106.6667,10.8167,80.6,66.2,61.58,M,3,0,29.8,M,6.21,M,FEW,M,M,M,2000,M,M,M,M,M,M,M,M,M,M,82.75,VVTS 261600Z VRB03KT 9999 FEW020 27/19 Q1009 NOSIG,M
VVTS,1/26/2021 16:30,106.6667,10.8167,78.8,68,69.52,M,2,0,29.8,M,6.21,M,FEW,M,M,M,2000,M,M,M,M,M,M,M,M,M,M,78.8,VVTS 261630Z VRB02KT 9999 FEW020 26/20 Q1009 NOSIG,M
VVTS,1/26/2021 17:00,106.6667,10.8167,77,68,73.78,50,4,0,29.8,M,6.21,M,FEW,M,M,M,2000,M,M,M,M,M,M,M,M,M,M,77,VVTS 261700Z 05004KT 9999 FEW020 25/20 Q1009 NOSIG,M
VVTS,1/26/2021 17:30,106.6667,10.8167,77,68,73.78,70,2,0,29.8,M,6.21,M,FEW,M,M,M,2000,M,M,M,M,M,M,M,M,M,M,77,VVTS 261730Z 07002KT 9999 FEW020 25/20 Q1009 NOSIG,M
VVTS,1/26/2021 18:00,106.6667,10.8167,77,68,73.78,M,2,0,29.8,M,6.21,M,FEW,M,M,M,2000,M,M,M,M,M,M,M,M,M,M,77,VVTS 261800Z VRB02KT 9999 FEW020 25/20 Q1009 NOSIG,M
VVTS,1/26/2021 18:30,106.6667,10.8167,77,69.8,78.48,M,1,0,29.8,M,6.21,M,FEW,M,M,M,1700,M,M,M,M,M,M,M,M,M,M,77,VVTS 261830Z VRB01KT 9999 FEW017 25/21 Q1009 NOSIG,M
VVTS,1/26/2021 19:00,106.6667,10.8167,77,69.8,78.48,0,0,0,29.8,M,6.21,M,FEW,M,M,M,1700,M,M,M,M,M,M,M,M,M,M,77,VVTS 261900Z 00000KT 9999 FEW017 25/21 Q1009 NOSIG,M
VVTS,1/26/2021 19:30,106.6667,10.8167,77,69.8,78.48,40,1,0,29.77,M,6.21,M,FEW,M,M,M,1700,M,M,M,M,M,M,M,M,M,M,77,VVTS 261930Z 04001KT 9999 FEW017 25/21 Q1008 NOSIG,M
VVTS,1/26/2021 20:00,106.6667,10.8167,77,71.6,83.44,60,2,0,29.77,M,6.21,M,FEW,M,M,M,1700,M,M,M,M,M,M,M,M,M,M,77,VVTS 262000Z 06002KT 9999 FEW017 25/22 Q1008 NOSIG,M
VVTS,1/26/2021 20:30,106.6667,10.8167,77,71.6,83.44,10,3,0,29.77,M,6.21,M,FEW,M,M,M,1700,M,M,M,M,M,M,M,M,M,M,77,VVTS 262030Z 01003KT 9999 FEW017 25/22 Q1008 NOSIG,M
VVTS,1/26/2021 21:00,106.6667,10.8167,77,71.6,83.44,10,4,0,29.8,M,6.21,M,FEW,M,M,M,1700,M,M,M,M,M,M,M,M,M,M,77,VVTS 262100Z 01004KT 9999 FEW017 25/22 Q1009 NOSIG,M
VVTS,1/26/2021 21:30,106.6667,10.8167,75.2,71.6,88.59,350,4,0,29.8,M,4.35,M,FEW,M,M,M,1700,M,M,M,M,M,M,M,M,M,M,75.2,VVTS 262130Z 35004KT 310V010 7000 FEW017 24/22 Q1009 NOSIG,M
VVTS,1/26/2021 22:00,106.6667,10.8167,75.2,71.6,88.59,330,3,0,29.8,M,4.35,M,FEW,M,M,M,1700,M,M,M,M,M,M,M,M,M,M,75.2,VVTS 262200Z 33003KT 7000 FEW017 24/22 Q1009 NOSIG,M
VVTS,1/26/2021 22:30,106.6667,10.8167,75.2,71.6,88.59,310,2,0,29.8,M,4.35,M,FEW,M,M,M,1700,M,M,M,M,M,M,M,M,M,M,75.2,VVTS 262230Z 31002KT 7000 FEW017 24/22 Q1009 NOSIG,M
VVTS,1/26/2021 23:00,106.6667,10.8167,75.2,71.6,88.59,M,2,0,29.8,M,4.35,M,FEW,M,M,M,1700,M,M,M,M,M,M,M,M,M,M,75.2,VVTS 262300Z VRB02KT 7000 FEW017 24/22 Q1009 NOSIG,M
VVTS,1/26/2021 23:30,106.6667,10.8167,75.2,71.6,88.59,330,4,0,29.83,M,3.73,M,FEW,SCT,M,M,1700,5000,M,M,M,M,M,M,M,M,M,75.2,VVTS 262330Z 33004KT 300V360 6000 FEW017 SCT050 24/22 Q1010 NOSIG,M
VVTS,1/27/2021 0:00,106.6667,10.8167,75.2,71.6,88.59,M,3,0,29.83,M,3.11,M,FEW,SCT,M,M,1700,5000,M,M,BR,M,M,M,M,M,M,75.2,VVTS 270000Z VRB03KT 5000 BR FEW017 SCT050 24/22 Q1010 NOSIG,M
VVTS,1/27/2021 0:30,106.6667,10.8167,77,71.6,83.44,310,4,0,29.83,M,3.11,M,FEW,SCT,M,M,1700,5000,M,M,BR,M,M,M,M,M,M,77,VVTS 270030Z 31004KT 280V340 5000 BR FEW017 SCT050 25/22 Q1010 NOSIG,M
VVTS,1/27/2021 1:00,106.6667,10.8167,78.8,73.4,83.55,320,8,0,29.85,M,4.97,M,NSC,M,M,M,M,M,M,M,M,M,M,M,M,M,M,78.8,VVTS 270100Z 32008KT 8000 NSC 26/23 Q1011 NOSIG,M
VVTS,1/27/2021 1:30,106.6667,10.8167,78.8,71.6,78.62,340,6,0,29.85,M,4.97,M,NSC,M,M,M,M,M,M,M,M,M,M,M,M,M,M,78.8,VVTS 270130Z 34006KT 8000 NSC 26/22 Q1011 NOSIG,M
VVTS,1/27/2021 2:00,106.6667,10.8167,80.6,69.8,69.71,M,2,0,29.85,M,5.59,M,NSC,M,M,M,M,M,M,M,M,M,M,M,M,M,M,83.9,VVTS 270200Z VRB02KT 9000 NSC 27/21 Q1011 NOSIG,M
VVTS,1/27/2021 2:30,106.6667,10.8167,82.4,71.6,69.9,M,2,0,29.88,M,5.59,M,NSC,M,M,M,M,M,M,M,M,M,M,M,M,M,M,87.18,VVTS 270230Z VRB02KT 9000 NSC 28/22 Q1012 NOSIG,M
VVTS,1/27/2021 3:00,106.6667,10.8167,86,71.6,62.25,M,1,0,29.88,M,5.59,M,NSC,M,M,M,M,M,M,M,M,M,M,M,M,M,M,91.92,VVTS 270300Z VRB01KT 9000 NSC 30/22 Q1012 NOSIG,M
VVTS,1/27/2021 3:30,106.6667,10.8167,86,68,55.04,M,2,0,29.85,M,5.59,M,NSC,M,M,M,M,M,M,M,M,M,M,M,M,M,M,89.41,VVTS 270330Z VRB02KT 9000 NSC 30/20 Q1011 NOSIG,M
VVTS,1/27/2021 4:00,106.6667,10.8167,87.8,68,51.98,M,2,0,29.85,M,4.97,M,NSC,M,M,M,M,M,M,M,M,M,M,M,M,M,M,91.43,VVTS 270400Z VRB02KT 8000 NSC 31/20 Q1011 NOSIG,M
VVTS,1/27/2021 4:30,106.6667,10.8167,87.8,68,51.98,10,2,0,29.85,M,4.97,M,NSC,M,M,M,M,M,M,M,M,M,M,M,M,M,M,91.43,VVTS 270430Z 01002KT 8000 NSC 31/20 Q1011 NOSIG,M
VVTS,1/27/2021 5:00,106.6667,10.8167,89.6,68,49.1,M,2,0,29.83,M,4.35,M,FEW,M,M,M,2000,M,M,M,M,M,M,M,M,M,M,93.47,VVTS 270500Z VRB02KT 7000 FEW020 32/20 Q1010 NOSIG,M
VVTS,1/27/2021 5:30,106.6667,10.8167,89.6,68,49.1,M,4,0,29.8,M,4.35,M,SCT,M,M,M,2000,M,M,M,M,M,M,M,M,M,M,93.47,VVTS 270530Z VRB04KT 7000 SCT020 32/20 Q1009 NOSIG,M
VVTS,1/27/2021 6:00,106.6667,10.8167,91.4,68,46.41,130,4,0,29.8,M,4.97,M,SCT,M,M,M,2000,M,M,M,M,M,M,M,M,M,M,95.55,VVTS 270600Z 13004KT 050V160 8000 SCT020 33/20 Q1009 NOSIG,M
VVTS,1/27/2021 6:30,106.6667,10.8167,89.6,66.2,46.14,M,3,0,29.77,M,4.97,M,SCT,M,M,M,2000,M,M,M,M,M,M,M,M,M,M,92.27,VVTS 270630Z VRB03KT 8000 SCT020 32/19 Q1008 NOSIG,M
VVTS,1/27/2021 7:00,106.6667,10.8167,91.4,68,46.41,160,4,0,29.77,M,4.97,M,SCT,M,M,M,2000,M,M,M,M,M,M,M,M,M,M,95.55,VVTS 270700Z 16004KT 090V210 8000 SCT020 33/20 Q1008 NOSIG,M
VVTS,1/27/2021 7:30,106.6667,10.8167,87.8,71.6,58.78,180,7,0,29.77,M,4.97,M,SCT,M,M,M,2000,M,M,M,M,M,M,M,M,M,M,94.18,VVTS 270730Z 18007KT 150V210 8000 SCT020 31/22 Q1008 NOSIG,M
VVTS,1/27/2021 8:00,106.6667,10.8167,87.8,71.6,58.78,190,9,0,29.74,M,4.97,M,SCT,M,M,M,2000,M,M,M,M,M,M,M,M,M,M,94.18,VVTS 270800Z 19009KT 150V220 8000 SCT020 31/22 Q1007 NOSIG,M
VVTS,1/27/2021 8:30,106.6667,10.8167,86,71.6,62.25,170,9,0,29.74,M,4.97,M,SCT,SCT,M,M,2000,5000,M,M,M,M,M,M,M,M,M,91.92,VVTS 270830Z 17009KT 140V220 8000 SCT020 SCT050 30/22 Q1007 NOSIG,M
VVTS,1/27/2021 9:00,106.6667,10.8167,86,71.6,62.25,200,9,0,29.74,M,4.97,M,SCT,SCT,M,M,2000,5000,M,M,M,M,M,M,M,M,M,91.92,VVTS 270900Z 20009KT 160V230 8000 SCT020 SCT050 30/22 Q1007 NOSIG,M
VVTS,1/27/2021 9:30,106.6667,10.8167,86,69.8,58.55,180,8,0,29.77,M,6.21,M,SCT,SCT,M,M,2000,5000,M,M,M,M,M,M,M,M,M,90.58,VVTS 270930Z 18008KT 150V220 9999 SCT020 SCT050 30/21 Q1008 NOSIG,M
VVTS,1/27/2021 10:00,106.6667,10.8167,86,68,55.04,200,6,0,29.77,M,6.21,M,SCT,SCT,M,M,2000,5000,M,M,M,M,M,M,M,M,M,89.41,VVTS 271000Z 20006KT 170V230 9999 SCT020 SCT050 30/20 Q1008 NOSIG,M
VVTS,1/27/2021 10:30,106.6667,10.8167,84.2,71.6,65.95,180,6,0,29.77,M,6.21,M,FEW,SCT,M,M,2000,5000,M,M,M,M,M,M,M,M,M,89.6,VVTS 271030Z 18006KT 150V220 9999 FEW020 SCT050 29/22 Q1008 NOSIG,M
VVTS,1/27/2021 11:00,106.6667,10.8167,82.4,71.6,69.9,190,7,0,29.8,M,6.21,M,FEW,SCT,M,M,2000,5000,M,M,M,M,M,M,M,M,M,87.18,VVTS 271100Z 19007KT 140V230 9999 FEW020 SCT050 28/22 Q1009 NOSIG,M
VVTS,1/27/2021 11:30,106.6667,10.8167,82.4,71.6,69.9,200,6,0,29.8,M,6.21,M,FEW,SCT,M,M,2000,5000,M,M,M,M,M,M,M,M,M,87.18,VVTS 271130Z 20006KT 9999 FEW020 SCT050 28/22 Q1009 NOSIG,M
VVTS,1/27/2021 12:00,106.6667,10.8167,82.4,71.6,69.9,170,4,0,29.8,M,6.21,M,FEW,SCT,M,M,2000,5000,M,M,M,M,M,M,M,M,M,87.18,VVTS 271200Z 17004KT 140V230 9999 FEW020 SCT050 28/22 Q1009 NOSIG,M
VVTS,1/27/2021 12:30,106.6667,10.8167,82.4,71.6,69.9,180,4,0,29.8,M,6.21,M,FEW,M,M,M,2000,M,M,M,M,M,M,M,M,M,M,87.18,VVTS 271230Z 18004KT 140V230 9999 FEW020 28/22 Q1009 NOSIG,M
VVTS,1/27/2021 13:00,106.6667,10.8167,82.4,73.4,74.28,150,5,0,29.83,M,6.21,M,FEW,M,M,M,2000,M,M,M,M,M,M,M,M,M,M,88.26,VVTS 271300Z 15005KT 110V200 9999 FEW020 28/23 Q1010 NOSIG,M
VVTS,1/27/2021 13:30,106.6667,10.8167,80.6,71.6,74.11,140,6,0,29.83,M,6.21,M,FEW,M,M,M,2000,M,M,M,M,M,M,M,M,M,M,84.57,VVTS 271330Z 14006KT 110V190 9999 FEW020 27/22 Q1010 NOSIG,M
VVTS,1/27/2021 14:00,106.6667,10.8167,80.6,71.6,74.11,140,5,0,29.83,M,6.21,M,FEW,M,M,M,2000,M,M,M,M,M,M,M,M,M,M,84.57,VVTS 271400Z 14005KT 060V180 9999 FEW020 27/22 Q1010 NOSIG,M
VVTS,1/27/2021 14:30,106.6667,10.8167,80.6,71.6,74.11,140,5,0,29.83,M,6.21,M,FEW,M,M,M,2000,M,M,M,M,M,M,M,M,M,M,84.57,VVTS 271430Z 14005KT 110V190 9999 FEW020 27/22 Q1010 NOSIG,M
VVTS,1/27/2021 15:00,106.6667,10.8167,80.6,69.8,69.71,140,7,0,29.83,M,6.21,M,FEW,M,M,M,2000,M,M,M,M,M,M,M,M,M,M,83.9,VVTS 271500Z 14007KT 100V170 9999 FEW020 27/21 Q1010 NOSIG,M
VVTS,1/27/2021 15:30,106.6667,10.8167,78.8,69.8,73.95,140,5,0,29.85,M,6.21,M,FEW,M,M,M,1700,M,M,M,M,M,M,M,M,M,M,78.8,VVTS 271530Z 14005KT 090V220 9999 FEW017 26/21 Q1011 NOSIG,M
VVTS,1/27/2021 16:00,106.6667,10.8167,78.8,69.8,73.95,130,6,0,29.85,M,6.21,M,FEW,M,M,M,1700,M,M,M,M,M,M,M,M,M,M,78.8,VVTS 271600Z 13006KT 100V160 9999 FEW017 26/21 Q1011 NOSIG,M
VVTS,1/27/2021 16:30,106.6667,10.8167,78.8,69.8,73.95,140,5,0,29.85,M,6.21,M,FEW,M,M,M,1700,M,M,M,M,M,M,M,M,M,M,78.8,VVTS 271630Z 14005KT 090V220 9999 FEW017 26/21 Q1011 NOSIG,M
VVTS,1/27/2021 17:00,106.6667,10.8167,78.8,69.8,73.95,150,4,0,29.85,M,6.21,M,FEW,M,M,M,1700,M,M,M,M,M,M,M,M,M,M,78.8,VVTS 271700Z 15004KT 100V210 9999 FEW017 26/21 Q1011,M
VVTS,1/27/2021 17:30,106.6667,10.8167,78.8,69.8,73.95,100,4,0,29.83,M,6.21,M,FEW,M,M,M,1700,M,M,M,M,M,M,M,M,M,M,78.8,VVTS 271730Z 10004KT 070V130 9999 FEW017 26/21 Q1010 NOSIG,M
VVTS,1/27/2021 18:00,106.6667,10.8167,78.8,69.8,73.95,M,3,0,29.83,M,6.21,M,FEW,M,M,M,1700,M,M,M,M,M,M,M,M,M,M,78.8,VVTS 271800Z VRB03KT 9999 FEW017 26/21 Q1010 NOSIG,M
VVTS,1/27/2021 18:30,106.6667,10.8167,77,69.8,78.48,M,3,0,29.83,M,6.21,M,FEW,SCT,M,M,1700,5000,M,M,M,M,M,M,M,M,M,77,VVTS 271830Z VRB03KT 9999 FEW017 SCT050 25/21 Q1010 NOSIG,M
VVTS,1/27/2021 19:00,106.6667,10.8167,77,69.8,78.48,140,3,0,29.83,M,6.21,M,FEW,SCT,M,M,1700,5000,M,M,M,M,M,M,M,M,M,77,VVTS 271900Z 14003KT 9999 FEW017 SCT050 25/21 Q1010 NOSIG,M
VVTS,1/27/2021 19:30,106.6667,10.8167,77,69.8,78.48,M,3,0,29.83,M,6.21,M,FEW,SCT,M,M,1700,5000,M,M,M,M,M,M,M,M,M,77,VVTS 271930Z VRB03KT 9999 FEW017 SCT050 25/21 Q1010 NOSIG,M
VVTS,1/27/2021 20:00,106.6667,10.8167,75.2,69.8,83.32,80,3,0,29.83,M,6.21,M,FEW,SCT,M,M,1700,5000,M,M,M,M,M,M,M,M,M,75.2,VVTS 272000Z 08003KT 9999 FEW017 SCT050 24/21 Q1010 NOSIG,M
VVTS,1/27/2021 20:30,106.6667,10.8167,75.2,69.8,83.32,80,4,0,29.83,M,6.21,M,FEW,SCT,M,M,1700,5000,M,M,M,M,M,M,M,M,M,75.2,VVTS 272030Z 08004KT 9999 FEW017 SCT050 24/21 Q1010 NOSIG,M
VVTS,1/27/2021 21:00,106.6667,10.8167,75.2,71.6,88.59,70,3,0,29.83,M,6.21,M,FEW,SCT,M,M,1700,5000,M,M,M,M,M,M,M,M,M,75.2,VVTS 272100Z 07003KT 9999 FEW017 SCT050 24/22 Q1010 NOSIG,M
VVTS,1/27/2021 21:30,106.6667,10.8167,75.2,71.6,88.59,60,2,0,29.83,M,4.97,M,FEW,M,M,M,1700,M,M,M,M,M,M,M,M,M,M,75.2,VVTS 272130Z 06002KT 8000 FEW017 24/22 Q1010 NOSIG,M
VVTS,1/27/2021 22:00,106.6667,10.8167,75.2,71.6,88.59,70,1,0,29.85,M,4.97,M,FEW,M,M,M,1700,M,M,M,M,M,M,M,M,M,M,75.2,VVTS 272200Z 07001KT 8000 FEW017 24/22 Q1011 NOSIG,M
VVTS,1/27/2021 22:30,106.6667,10.8167,75.2,71.6,88.59,60,1,0,29.85,M,4.97,M,FEW,M,M,M,1700,M,M,M,M,M,M,M,M,M,M,75.2,VVTS 272230Z 06001KT 8000 FEW017 24/22 Q1011 NOSIG,M
VVTS,1/27/2021 23:00,106.6667,10.8167,75.2,71.6,88.59,M,1,0,29.85,M,4.97,M,FEW,M,M,M,1700,M,M,M,M,M,M,M,M,M,M,75.2,VVTS 272300Z VRB01KT 8000 FEW017 24/22 Q1011 NOSIG,M
VVTS,1/27/2021 23:30,106.6667,10.8167,75.2,71.6,88.59,360,2,0,29.85,M,4.35,M,SCT,M,M,M,1700,M,M,M,M,M,M,M,M,M,M,75.2,VVTS 272330Z 36002KT 7000 SCT017 24/22 Q1011 NOSIG,M
VVTS,1/28/2021 0:00,106.6667,10.8167,75.2,71.6,88.59,350,4,0,29.88,M,3.73,M,SCT,M,M,M,1700,M,M,M,M,M,M,M,M,M,M,75.2,VVTS 280000Z 35004KT 320V030 6000 SCT017 24/22 Q1012 NOSIG,M
VVTS,1/28/2021 0:30,106.6667,10.8167,77,73.4,88.67,320,5,0,29.88,M,3.73,M,SCT,M,M,M,1700,M,M,M,M,M,M,M,M,M,M,77,VVTS 280030Z 32005KT 6000 SCT017 25/23 Q1012 NOSIG,M
VVTS,1/28/2021 1:00,106.6667,10.8167,77,73.4,88.67,330,4,0,29.91,M,3.73,M,SCT,M,M,M,1700,M,M,M,M,M,M,M,M,M,M,77,VVTS 280100Z 33004KT 6000 SCT017 25/23 Q1013 NOSIG,M
VVTS,1/28/2021 1:30,106.6667,10.8167,77,73.4,88.67,350,6,0,29.91,M,4.35,M,SCT,M,M,M,1700,M,M,M,M,M,M,M,M,M,M,77,VVTS 280130Z 35006KT 320V030 7000 SCT017 25/23 Q1013 NOSIG,M
VVTS,1/28/2021 2:00,106.6667,10.8167,78.8,73.4,83.55,10,5,0,29.94,M,4.35,M,SCT,M,M,M,1700,M,M,M,M,M,M,M,M,M,M,78.8,VVTS 280200Z 01005KT 320V070 7000 SCT017 26/23 Q1014 NOSIG,M
VVTS,1/28/2021 2:30,106.6667,10.8167,80.6,75.2,83.66,350,5,0,29.91,M,4.97,M,SCT,M,M,M,1700,M,M,M,M,M,M,M,M,M,M,86.17,VVTS 280230Z 35005KT 300V050 8000 SCT017 27/24 Q1013 NOSIG,M
VVTS,1/28/2021 3:00,106.6667,10.8167,82.4,75.2,78.9,20,5,0,29.91,M,4.97,M,SCT,M,M,M,1700,M,M,M,M,M,M,M,M,M,M,89.48,VVTS 280300Z 02005KT 360V070 8000 SCT017 28/24 Q1013 NOSIG,M
VVTS,1/28/2021 3:30,106.6667,10.8167,84.2,73.4,70.08,30,5,0,29.91,M,4.97,M,SCT,M,M,M,1700,M,M,M,M,M,M,M,M,M,M,90.94,VVTS 280330Z 03005KT 320V060 8000 SCT017 29/23 Q1013 NOSIG,M
VVTS,1/28/2021 4:00,106.6667,10.8167,86,73.4,66.15,350,6,0,29.88,M,4.97,M,SCT,M,M,M,1700,M,M,M,M,M,M,M,M,M,M,93.45,VVTS 280400Z 35006KT 300V040 8000 SCT017 30/23 Q1012 NOSIG,M
VVTS,1/28/2021 4:30,106.6667,10.8167,86,73.4,66.15,10,6,0,29.88,M,4.97,M,SCT,M,M,M,1700,M,M,M,M,M,M,M,M,M,M,93.45,VVTS 280430Z 01006KT 330V060 8000 SCT017 30/23 Q1012 NOSIG,M
VVTS,1/28/2021 5:00,106.6667,10.8167,87.8,71.6,58.78,M,3,0,29.85,M,4.97,M,SCT,M,M,M,1700,M,M,M,M,M,M,M,M,M,M,94.18,VVTS 280500Z VRB03KT 8000 SCT017 31/22 Q1011 NOSIG,M
VVTS,1/28/2021 5:30,106.6667,10.8167,89.6,71.6,55.53,M,3,0,29.85,M,6.21,M,SCT,M,M,M,1700,M,M,M,M,M,M,M,M,M,M,96.41,VVTS 280530Z VRB03KT 9999 SCT017 32/22 Q1011 NOSIG,M
VVTS,1/28/2021 6:00,106.6667,10.8167,89.6,69.8,52.23,310,6,0,29.83,M,6.21,M,SCT,M,M,M,1700,M,M,M,M,M,M,M,M,M,M,94.85,VVTS 280600Z 31006KT 250V040 9999 SCT017 32/21 Q1010 NOSIG,M
VVTS,1/28/2021 6:30,106.6667,10.8167,91.4,69.8,49.36,M,3,0,29.8,M,6.21,M,BKN,M,M,M,1700,M,M,M,M,M,M,M,M,M,M,96.99,VVTS 280630Z VRB03KT 9999 BKN017 33/21 Q1009 NOSIG,M
VVTS,1/28/2021 7:00,106.6667,10.8167,89.6,69.8,52.23,M,3,0,29.8,M,6.21,M,BKN,M,M,M,1700,M,M,M,M,M,M,M,M,M,M,94.85,VVTS 280700Z VRB03KT 9999 BKN017 32/21 Q1009 NOSIG,M
VVTS,1/28/2021 7:30,106.6667,10.8167,91.4,66.2,43.61,330,4,0,29.77,M,6.21,M,BKN,M,M,M,1700,M,M,M,M,M,M,M,M,M,M,94.29,VVTS 280730Z 33004KT 270V040 9999 BKN017 33/19 Q1008 NOSIG,M
VVTS,1/28/2021 8:00,106.6667,10.8167,91.4,66.2,43.61,M,2,0,29.77,M,6.21,M,BKN,M,M,M,1700,M,M,M,M,M,M,M,M,M,M,94.29,VVTS 280800Z VRB02KT 9999 BKN017 33/19 Q1008 NOSIG,M
VVTS,1/28/2021 8:30,106.6667,10.8167,89.6,73.4,59.01,180,9,0,29.77,M,4.97,M,SCT,M,M,M,1700,M,M,M,M,M,M,M,M,M,M,98.2,VVTS 280830Z 18009KT 150V210 8000 SCT017 32/23 Q1008 NOSIG,M
VVTS,1/28/2021 9:00,106.6667,10.8167,86,73.4,66.15,180,10,0,29.77,M,4.35,M,SCT,M,M,M,1700,M,M,M,M,M,M,M,M,M,M,93.45,VVTS 280900Z 18010KT 150V220 7000 SCT017 30/23 Q1008 NOSIG,M
VVTS,1/28/2021 9:30,106.6667,10.8167,84.2,73.4,70.08,170,10,0,29.8,M,4.35,M,SCT,M,M,M,1700,M,M,M,M,M,M,M,M,M,M,90.94,VVTS 280930Z 17010KT 150V210 7000 SCT017 29/23 Q1009 NOSIG,M
VVTS,1/28/2021 10:00,106.6667,10.8167,82.4,71.6,69.9,190,9,0,29.8,M,4.35,M,FEW,M,M,M,2000,M,M,M,M,M,M,M,M,M,M,87.18,VVTS 281000Z 19009KT 150V220 7000 FEW020 28/22 Q1009 NOSIG,M
VVTS,1/28/2021 10:30,106.6667,10.8167,82.4,71.6,69.9,170,8,0,29.8,M,4.97,M,FEW,M,M,M,2000,M,M,M,M,M,M,M,M,M,M,87.18,VVTS 281030Z 17008KT 140V220 8000 FEW020 28/22 Q1009 NOSIG,M
VVTS,1/28/2021 11:00,106.6667,10.8167,82.4,71.6,69.9,160,6,0,29.8,M,4.97,M,FEW,SCT,M,M,2000,5000,M,M,M,M,M,M,M,M,M,87.18,VVTS 281100Z 16006KT 080V230 8000 FEW020 SCT050 28/22 Q1009 NOSIG,M
VVTS,1/28/2021 11:30,106.6667,10.8167,80.6,68,65.54,150,8,0,29.8,M,4.97,M,FEW,SCT,M,M,2000,5000,M,M,M,M,M,M,M,M,M,83.29,VVTS 281130Z 15008KT 120V190 8000 FEW020 SCT050 27/20 Q1009 NOSIG,M
VVTS,1/28/2021 12:00,106.6667,10.8167,80.6,68,65.54,140,9,0,29.83,M,4.97,M,FEW,SCT,M,M,2000,5000,M,M,M,M,M,M,M,M,M,83.29,VVTS 281200Z 14009KT 8000 FEW020 SCT050 27/20 Q1010 NOSIG,M
VVTS,1/28/2021 12:30,106.6667,10.8167,80.6,68,65.54,130,7,0,29.83,M,4.97,M,FEW,SCT,M,M,2000,5000,M,M,M,M,M,M,M,M,M,83.29,VVTS 281230Z 13007KT 100V200 8000 FEW020 SCT050 27/20 Q1010 NOSIG,M
VVTS,1/28/2021 13:00,106.6667,10.8167,80.6,68,65.54,100,6,0,29.85,M,4.97,M,FEW,SCT,M,M,2000,5000,M,M,M,M,M,M,M,M,M,83.29,VVTS 281300Z 10006KT 060V140 8000 FEW020 SCT050 27/20 Q1011 NOSIG,M
VVTS,1/28/2021 13:30,106.6667,10.8167,80.6,68,65.54,70,4,0,29.85,M,5.59,M,FEW,M,M,M,2000,M,M,M,M,M,M,M,M,M,M,83.29,VVTS 281330Z 07004KT 030V130 9000 FEW020 27/20 Q1011 NOSIG,M
VVTS,1/28/2021 14:00,106.6667,10.8167,78.8,68,69.52,M,2,0,29.85,M,5.59,M,FEW,M,M,M,2000,M,M,M,M,M,M,M,M,M,M,78.8,VVTS 281400Z VRB02KT 9000 FEW020 26/20 Q1011 NOSIG,M
VVTS,1/28/2021 14:30,106.6667,10.8167,77,66.2,69.33,100,5,0,29.85,M,5.59,M,FEW,M,M,M,2000,M,M,M,M,M,M,M,M,M,M,77,VVTS 281430Z 10005KT 080V140 9000 FEW020 25/19 Q1011 NOSIG,M
VVTS,1/28/2021 15:00,106.6667,10.8167,78.8,66.2,65.33,M,3,0,29.88,M,6.21,M,FEW,SCT,M,M,2000,5000,M,M,M,M,M,M,M,M,M,78.8,VVTS 281500Z VRB03KT 9999 FEW020 SCT050 26/19 Q1012 NOSIG,M
VVTS,1/28/2021 15:30,106.6667,10.8167,78.8,66.2,65.33,M,1,0,29.88,M,6.21,M,FEW,SCT,M,M,2000,5000,M,M,M,M,M,M,M,M,M,78.8,VVTS 281530Z VRB01KT 9999 FEW020 SCT050 26/19 Q1012 NOSIG,M
VVTS,1/28/2021 16:00,106.6667,10.8167,77,68,73.78,0,0,0,29.88,M,6.21,M,FEW,SCT,M,M,2000,5000,M,M,M,M,M,M,M,M,M,77,VVTS 281600Z 00000KT 9999 FEW020 SCT050 25/20 Q1012 NOSIG,M
VVTS,1/28/2021 16:30,106.6667,10.8167,77,69.8,78.48,0,0,0,29.88,M,6.21,M,FEW,SCT,M,M,2000,5000,M,M,M,M,M,M,M,M,M,77,VVTS 281630Z 00000KT 9999 FEW020 SCT050 25/21 Q1012 NOSIG,M
VVTS,1/28/2021 17:00,106.6667,10.8167,77,69.8,78.48,320,3,0,29.85,M,6.21,M,FEW,SCT,M,M,2000,4000,M,M,M,M,M,M,M,M,M,77,VVTS 281700Z 32003KT 9999 FEW020 SCT040 25/21 Q1011 NOSIG,M
VVTS,1/28/2021 17:30,106.6667,10.8167,77,69.8,78.48,310,2,0,29.85,M,6.21,M,FEW,SCT,M,M,2000,5000,M,M,M,M,M,M,M,M,M,77,VVTS 281730Z 31002KT 9999 FEW020 SCT050 25/21 Q1011 NOSIG,M
VVTS,1/28/2021 18:00,106.6667,10.8167,77,68,73.78,20,4,0,29.85,M,6.21,M,FEW,SCT,M,M,2000,5000,M,M,M,M,M,M,M,M,M,77,VVTS 281800Z 02004KT 360V060 9999 FEW020 SCT050 25/20 Q1011 NOSIG,M
VVTS,1/28/2021 18:30,106.6667,10.8167,77,66.2,69.33,40,5,0,29.85,M,6.21,M,FEW,SCT,M,M,2000,5000,M,M,M,M,M,M,M,M,M,77,VVTS 281830Z 04005KT 9999 FEW020 SCT050 25/19 Q1011 NOSIG,M
VVTS,1/28/2021 19:00,106.6667,10.8167,75.2,64.4,69.14,30,3,0,29.85,M,6.21,M,FEW,SCT,M,M,2000,5000,M,M,M,M,M,M,M,M,M,75.2,VVTS 281900Z 03003KT 9999 FEW020 SCT050 24/18 Q1011 NOSIG,M
VVTS,1/28/2021 19:30,106.6667,10.8167,75.2,64.4,69.14,50,4,0,29.85,M,6.21,M,FEW,SCT,M,M,2000,5000,M,M,M,M,M,M,M,M,M,75.2,VVTS 281930Z 05004KT 9999 FEW020 SCT050 24/18 Q1011 NOSIG,M
VVTS,1/28/2021 20:00,106.6667,10.8167,75.2,62.6,64.91,40,5,0,29.85,M,6.21,M,FEW,SCT,M,M,2000,5000,M,M,M,M,M,M,M,M,M,75.2,VVTS 282000Z 04005KT 9999 FEW020 SCT050 24/17 Q1011 NOSIG,M
VVTS,1/28/2021 20:30,106.6667,10.8167,73.4,64.4,73.44,50,4,0,29.85,M,6.21,M,FEW,SCT,M,M,2000,5000,M,M,M,M,M,M,M,M,M,73.4,VVTS 282030Z 05004KT 9999 FEW020 SCT050 23/18 Q1011 NOSIG,M
VVTS,1/28/2021 21:00,106.6667,10.8167,73.4,64.4,73.44,50,2,0,29.85,M,5.59,M,FEW,M,M,M,2000,M,M,M,M,M,M,M,M,M,M,73.4,VVTS 282100Z 05002KT 9000 FEW020 23/18 Q1011 NOSIG,M
VVTS,1/28/2021 21:30,106.6667,10.8167,73.4,64.4,73.44,M,2,0,29.85,M,5.59,M,FEW,M,M,M,2000,M,M,M,M,M,M,M,M,M,M,73.4,VVTS 282130Z VRB02KT 9000 FEW020 23/18 Q1011 NOSIG,M
VVTS,1/28/2021 22:00,106.6667,10.8167,73.4,64.4,73.44,M,3,0,29.85,M,4.97,M,FEW,M,M,M,2000,M,M,M,M,M,M,M,M,M,M,73.4,VVTS 282200Z VRB03KT 8000 FEW020 23/18 Q1011 NOSIG,M
VVTS,1/28/2021 22:30,106.6667,10.8167,73.4,64.4,73.44,20,4,0,29.85,M,4.97,M,FEW,M,M,M,2000,M,M,M,M,M,M,M,M,M,M,73.4,VVTS 282230Z 02004KT 8000 FEW020 23/18 Q1011 NOSIG,M
VVTS,1/28/2021 23:00,106.6667,10.8167,73.4,62.6,68.94,340,3,0,29.85,M,4.97,M,FEW,M,M,M,2000,M,M,M,M,M,M,M,M,M,M,73.4,VVTS 282300Z 34003KT 8000 FEW020 23/17 Q1011 NOSIG,M
VVTS,1/28/2021 23:30,106.6667,10.8167,73.4,60.8,64.69,20,5,0,29.88,M,4.97,M,FEW,M,M,M,2000,M,M,M,M,M,M,M,M,M,M,73.4,VVTS 282330Z 02005KT 8000 FEW020 23/16 Q1012 NOSIG,M
VVTS,1/29/2021 0:00,106.6667,10.8167,73.4,62.6,68.94,40,4,0,29.88,M,4.97,M,FEW,M,M,M,2000,M,M,M,M,M,M,M,M,M,M,73.4,VVTS 290000Z 04004KT 010V070 8000 FEW020 23/17 Q1012 NOSIG,M
VVTS,1/29/2021 0:30,106.6667,10.8167,73.4,62.6,68.94,50,5,0,29.91,M,4.97,M,FEW,M,M,M,2000,M,M,M,M,M,M,M,M,M,M,73.4,VVTS 290030Z 05005KT 8000 FEW020 23/17 Q1013 NOSIG,M
VVTS,1/29/2021 1:00,106.6667,10.8167,75.2,60.8,60.9,50,5,0,29.91,M,4.97,M,FEW,M,M,M,2000,M,M,M,M,M,M,M,M,M,M,75.2,VVTS 290100Z 05005KT 8000 FEW020 24/16 Q1013 NOSIG,M
VVTS,1/29/2021 1:30,106.6667,10.8167,78.8,59,50.69,60,7,0,29.91,M,4.97,M,FEW,M,M,M,2000,M,M,M,M,M,M,M,M,M,M,78.8,VVTS 290130Z 06007KT 8000 FEW020 26/15 Q1013 NOSIG,M
VVTS,1/29/2021 2:00,106.6667,10.8167,78.8,59,50.69,60,6,0,29.91,M,6.21,M,FEW,M,M,M,2000,M,M,M,M,M,M,M,M,M,M,78.8,VVTS 290200Z 06006KT 020V090 9999 FEW020 26/15 Q1013 NOSIG,M
VVTS,1/29/2021 2:30,106.6667,10.8167,80.6,59,47.79,50,5,0,29.91,M,6.21,M,FEW,M,M,M,2000,M,M,M,M,M,M,M,M,M,M,81.11,VVTS 290230Z 05005KT 010V090 9999 FEW020 27/15 Q1013 NOSIG,M
VVTS,1/29/2021 3:00,106.6667,10.8167,82.4,60.8,48.05,50,5,0,29.91,M,6.21,M,FEW,M,M,M,2000,M,M,M,M,M,M,M,M,M,M,82.9,VVTS 290300Z 05005KT 020V110 9999 FEW020 28/16 Q1013 NOSIG,M
VVTS,1/29/2021 3:30,106.6667,10.8167,84.2,59,42.52,60,5,0,29.91,M,6.21,M,M,M,M,M,M,M,M,M,M,M,M,M,M,M,M,83.92,VVTS 290330Z 06005KT 360V100 CAVOK 29/15 Q1013 NOSIG,M
VVTS,1/29/2021 4:00,106.6667,10.8167,86,59,40.14,40,4,0,29.91,M,6.21,M,M,M,M,M,M,M,M,M,M,M,M,M,M,M,M,85.47,VVTS 290400Z 04004KT 360V170 CAVOK 30/15 Q1013 NOSIG,M
VVTS,1/29/2021 4:30,106.6667,10.8167,86,60.8,42.8,M,3,0,29.88,M,6.21,M,M,M,M,M,M,M,M,M,M,M,M,M,M,M,M,86.05,VVTS 290430Z VRB03KT CAVOK 30/16 Q1012 NOSIG,M
VVTS,1/29/2021 5:00,106.6667,10.8167,87.8,59,37.9,320,5,0,29.88,M,6.21,M,FEW,M,M,M,2000,M,M,M,M,M,M,M,M,M,M,87.12,VVTS 290500Z 32005KT 240V030 9999 FEW020 31/15 Q1012 NOSIG,M
VVTS,1/29/2021 5:30,106.6667,10.8167,87.8,60.8,40.41,M,4,0,29.88,M,6.21,M,FEW,M,M,M,2000,M,M,M,M,M,M,M,M,M,M,87.75,VVTS 290530Z VRB04KT 9999 FEW020 31/16 Q1012 NOSIG,M
VVTS,1/29/2021 6:00,106.6667,10.8167,89.6,59,35.81,M,3,0,29.85,M,6.21,M,FEW,M,M,M,2000,M,M,M,M,M,M,M,M,M,M,88.86,VVTS 290600Z VRB03KT 9999 FEW020 32/15 Q1011 NOSIG,M
VVTS,1/29/2021 6:30,106.6667,10.8167,91.4,59,33.84,M,2,0,29.83,M,6.21,M,FEW,M,M,M,2000,M,M,M,M,M,M,M,M,M,M,90.68,VVTS 290630Z VRB02KT 9999 FEW020 33/15 Q1010 NOSIG,M
VVTS,1/29/2021 7:00,106.6667,10.8167,89.6,59,35.81,320,6,0,29.83,M,6.21,M,FEW,M,M,M,2300,M,M,M,M,M,M,M,M,M,M,88.86,VVTS 290700Z 32006KT 240V030 9999 FEW023 32/15 Q1010 NOSIG,M
VVTS,1/29/2021 7:30,106.6667,10.8167,91.4,59,33.84,350,4,0,29.8,M,6.21,M,FEW,M,M,M,2300,M,M,M,M,M,M,M,M,M,M,90.68,VVTS 290730Z 35004KT 280V060 9999 FEW023 33/15 Q1009 NOSIG,M
VVTS,1/29/2021 8:00,106.6667,10.8167,91.4,59,33.84,M,2,0,29.8,M,6.21,M,FEW,M,M,M,2300,M,M,M,M,M,M,M,M,M,M,90.68,VVTS 290800Z VRB02KT 9999 FEW023 33/15 Q1009 NOSIG,M
VVTS,1/29/2021 8:30,106.6667,10.8167,91.4,59,33.84,330,4,0,29.8,M,6.21,M,FEW,M,M,M,2300,M,M,M,M,M,M,M,M,M,M,90.68,VVTS 290830Z 33004KT 250V030 9999 FEW023 33/15 Q1009 NOSIG,M
VVTS,1/29/2021 9:00,106.6667,10.8167,91.4,57.2,31.72,310,7,0,29.8,M,6.21,M,FEW,M,M,M,2300,M,M,M,M,M,M,M,M,M,M,90.06,VVTS 290900Z 31007KT 280V340 9999 FEW023 33/14 Q1009 NOSIG,M
VVTS,1/29/2021 9:30,106.6667,10.8167,89.6,62.6,40.69,280,7,0,29.8,M,6.21,M,FEW,M,M,M,2000,M,M,M,M,M,M,M,M,M,M,90.32,VVTS 290930Z 28007KT 250V310 9999 FEW020 32/17 Q1009 NOSIG,M
VVTS,1/29/2021 10:00,106.6667,10.8167,87.8,62.6,43.07,280,6,0,29.8,M,6.21,M,FEW,M,M,M,2000,M,M,M,M,M,M,M,M,M,M,88.48,VVTS 291000Z 28006KT 9999 FEW020 31/17 Q1009 NOSIG,M
VVTS,1/29/2021 10:30,106.6667,10.8167,86,62.6,45.61,270,5,0,29.8,M,6.21,M,FEW,SCT,M,M,2000,5000,M,M,M,M,M,M,M,M,M,86.72,VVTS 291030Z 27005KT 9999 FEW020 SCT050 30/17 Q1009 NOSIG,M
VVTS,1/29/2021 11:00,106.6667,10.8167,82.4,68,61.81,180,8,0,29.83,M,6.21,M,FEW,SCT,M,M,2000,5000,M,M,M,M,M,M,M,M,M,85.38,VVTS 291100Z 18008KT 140V210 9999 FEW020 SCT050 28/20 Q1010 NOSIG,M
VVTS,1/29/2021 11:30,106.6667,10.8167,82.4,68,61.81,150,7,0,29.83,M,4.97,M,FEW,SCT,M,M,2000,5000,M,M,M,M,M,M,M,M,M,85.38,VVTS 291130Z 15007KT 8000 FEW020 SCT050 28/20 Q1010 NOSIG,M
VVTS,1/29/2021 12:00,106.6667,10.8167,80.6,68,65.54,120,7,0,29.83,M,4.97,M,FEW,SCT,M,M,2000,5000,M,M,M,M,M,M,M,M,M,83.29,VVTS 291200Z 12007KT 080V150 8000 FEW020 SCT050 27/20 Q1010 NOSIG,M
VVTS,1/29/2021 12:30,106.6667,10.8167,80.6,68,65.54,150,4,0,29.85,M,6.21,M,FEW,SCT,M,M,2000,5000,M,M,M,M,M,M,M,M,M,83.29,VVTS 291230Z 15004KT 120V190 9999 FEW020 SCT050 27/20 Q1011 NOSIG,M
VVTS,1/29/2021 13:00,106.6667,10.8167,80.6,66.2,61.58,M,2,0,29.85,M,6.21,M,FEW,SCT,M,M,2000,5000,M,M,M,M,M,M,M,M,M,82.75,VVTS 291300Z VRB02KT 9999 FEW020 SCT050 27/19 Q1011 NOSIG,M
VVTS,1/29/2021 13:30,106.6667,10.8167,78.8,68,69.52,110,4,0,29.88,M,6.21,M,FEW,SCT,M,M,2000,5000,M,M,M,M,M,M,M,M,M,78.8,VVTS 291330Z 11004KT 080V140 9999 FEW020 SCT050 26/20 Q1012 NOSIG,M
VVTS,1/29/2021 14:00,106.6667,10.8167,78.8,68,69.52,M,3,0,29.88,M,6.21,M,FEW,SCT,M,M,2000,5000,M,M,M,M,M,M,M,M,M,78.8,VVTS 291400Z VRB03KT 9999 FEW020 SCT050 26/20 Q1012 NOSIG,M
VVTS,1/29/2021 14:30,106.6667,10.8167,78.8,68,69.52,M,2,0,29.88,M,6.21,M,FEW,SCT,M,M,2000,5000,M,M,M,M,M,M,M,M,M,78.8,VVTS 291430Z VRB02KT 9999 FEW020 SCT050 26/20 Q1012 NOSIG,M
VVTS,1/29/2021 15:00,106.6667,10.8167,78.8,69.8,73.95,M,3,0,29.88,M,6.21,M,FEW,SCT,M,M,2000,5000,M,M,M,M,M,M,M,M,M,78.8,VVTS 291500Z VRB03KT 9999 FEW020 SCT050 26/21 Q1012 NOSIG,M
VVTS,1/29/2021 15:30,106.6667,10.8167,77,69.8,78.48,310,3,0,29.88,M,4.35,M,FEW,SCT,M,M,1700,5000,M,M,M,M,M,M,M,M,M,77,VVTS 291530Z 31003KT 7000 FEW017 SCT050 25/21 Q1012 NOSIG,M
VVTS,1/29/2021 16:00,106.6667,10.8167,77,69.8,78.48,M,3,0,29.88,M,4.35,M,FEW,SCT,M,M,2000,5000,M,M,M,M,M,M,M,M,M,77,VVTS 291600Z VRB03KT 7000 FEW020 SCT050 25/21 Q1012 NOSIG,M
VVTS,1/29/2021 16:30,106.6667,10.8167,77,68,73.78,320,4,0,29.88,M,4.97,M,FEW,SCT,M,M,2000,5000,M,M,M,M,M,M,M,M,M,77,VVTS 291630Z 32004KT 270V020 8000 FEW020 SCT050 25/20 Q1012 NOSIG,M
VVTS,1/29/2021 17:00,106.6667,10.8167,73.4,69.8,88.51,M,1,0,29.88,M,4.97,M,FEW,SCT,M,M,2000,5000,M,M,M,M,M,M,M,M,M,73.4,VVTS 291700Z VRB01KT 8000 FEW020 SCT050 23/21 Q1012 NOSIG,M
VVTS,1/29/2021 17:30,106.6667,10.8167,75.2,62.6,64.91,360,4,0,29.88,M,4.97,M,FEW,SCT,M,M,1700,5000,M,M,M,M,M,M,M,M,M,75.2,VVTS 291730Z 36004KT 8000 FEW017 SCT050 24/17 Q1012 NOSIG,M
VVTS,1/29/2021 18:00,106.6667,10.8167,75.2,60.8,60.9,360,5,0,29.88,M,4.97,M,FEW,SCT,M,M,1700,5000,M,M,M,M,M,M,M,M,M,75.2,VVTS 291800Z 36005KT 8000 FEW017 SCT050 24/16 Q1012 NOSIG,M
VVTS,1/29/2021 18:30,106.6667,10.8167,75.2,60.8,60.9,10,5,0,29.88,M,6.21,M,FEW,SCT,M,M,1700,5000,M,M,M,M,M,M,M,M,M,75.2,VVTS 291830Z 01005KT 9999 FEW017 SCT050 24/16 Q1012 NOSIG,M
VVTS,1/29/2021 19:00,106.6667,10.8167,73.4,60.8,64.69,10,4,0,29.85,M,6.21,M,FEW,SCT,M,M,1700,5000,M,M,M,M,M,M,M,M,M,73.4,VVTS 291900Z 01004KT 9999 FEW017 SCT050 23/16 Q1011 NOSIG,M
VVTS,1/29/2021 19:30,106.6667,10.8167,73.4,60.8,64.69,20,4,0,29.85,M,6.21,M,FEW,SCT,M,M,1700,5000,M,M,M,M,M,M,M,M,M,73.4,VVTS 291930Z 02004KT 9999 FEW017 SCT050 23/16 Q1011 NOSIG,M
VVTS,1/29/2021 20:00,106.6667,10.8167,73.4,60.8,64.69,20,4,0,29.85,M,6.21,M,FEW,SCT,M,M,1700,5000,M,M,M,M,M,M,M,M,M,73.4,VVTS 292000Z 02004KT 9999 FEW017 SCT050 23/16 Q1011 NOSIG,M
VVTS,1/29/2021 20:30,106.6667,10.8167,71.6,60.8,68.75,20,4,0,29.85,M,6.21,M,FEW,SCT,M,M,1700,5000,M,M,M,M,M,M,M,M,M,71.6,VVTS 292030Z 02004KT 9999 FEW017 SCT050 22/16 Q1011 NOSIG,M
VVTS,1/29/2021 21:00,106.6667,10.8167,71.6,60.8,68.75,10,3,0,29.85,M,4.97,M,FEW,SCT,M,M,1700,5000,M,M,M,M,M,M,M,M,M,71.6,VVTS 292100Z 01003KT 8000 FEW017 SCT050 22/16 Q1011 NOSIG,M
VVTS,1/29/2021 21:30,106.6667,10.8167,71.6,60.8,68.75,M,2,0,29.85,M,4.97,M,FEW,SCT,M,M,1700,5000,M,M,M,M,M,M,M,M,M,71.6,VVTS 292130Z VRB02KT 8000 FEW017 SCT050 22/16 Q1011 NOSIG,M
VVTS,1/29/2021 22:00,106.6667,10.8167,71.6,62.6,73.27,M,2,0,29.88,M,4.97,M,FEW,SCT,M,M,1700,5000,M,M,M,M,M,M,M,M,M,71.6,VVTS 292200Z VRB02KT 8000 FEW017 SCT050 22/17 Q1012 NOSIG,M
VVTS,1/29/2021 22:30,106.6667,10.8167,71.6,62.6,73.27,50,4,0,29.88,M,4.97,M,FEW,SCT,M,M,1700,5000,M,M,M,M,M,M,M,M,M,71.6,VVTS 292230Z 05004KT 8000 FEW017 SCT050 22/17 Q1012 NOSIG,M
VVTS,1/29/2021 23:00,106.6667,10.8167,69.8,62.6,77.9,50,3,0,29.88,M,4.97,M,FEW,SCT,M,M,1700,5000,M,M,M,M,M,M,M,M,M,69.8,VVTS 292300Z 05003KT 8000 FEW017 SCT050 21/17 Q1012 NOSIG,M
VVTS,1/29/2021 23:30,106.6667,10.8167,69.8,62.6,77.9,40,3,0,29.88,M,4.97,M,FEW,SCT,M,M,1700,5000,M,M,M,M,M,M,M,M,M,69.8,VVTS 292330Z 04003KT 8000 FEW017 SCT050 21/17 Q1012 NOSIG,M
VVTS,1/30/2021 0:00,106.6667,10.8167,71.6,62.6,73.27,50,2,0,29.91,M,4.97,M,FEW,SCT,M,M,1700,5000,M,M,M,M,M,M,M,M,M,71.6,VVTS 300000Z 05002KT 8000 FEW017 SCT050 22/17 Q1013 NOSIG,M
VVTS,1/30/2021 0:30,106.6667,10.8167,73.4,64.4,73.44,60,2,0,29.91,M,4.97,M,FEW,SCT,M,M,1700,5000,M,M,M,M,M,M,M,M,M,73.4,VVTS 300030Z 06002KT 8000 FEW017 SCT050 23/18 Q1013 NOSIG,M
VVTS,1/30/2021 1:00,106.6667,10.8167,73.4,64.4,73.44,M,1,0,29.91,M,4.35,M,FEW,SCT,M,M,1700,5000,M,M,M,M,M,M,M,M,M,73.4,VVTS 300100Z VRB01KT 7000 FEW017 SCT050 23/18 Q1013 NOSIG,M
VVTS,1/30/2021 1:30,106.6667,10.8167,77,64.4,65.12,M,2,0,29.94,M,4.35,M,FEW,M,M,M,1700,M,M,M,M,M,M,M,M,M,M,77,VVTS 300130Z VRB02KT 7000 FEW017 25/18 Q1014 NOSIG,M
VVTS,1/30/2021 2:00,106.6667,10.8167,78.8,64.4,61.36,M,2,0,29.94,M,4.35,M,FEW,M,M,M,1700,M,M,M,M,M,M,M,M,M,M,78.8,VVTS 300200Z VRB02KT 7000 FEW017 26/18 Q1014 NOSIG,M
VVTS,1/30/2021 2:30,106.6667,10.8167,78.8,64.4,61.36,M,2,0,29.94,M,3.73,M,FEW,M,M,M,1700,M,M,M,M,M,M,M,M,M,M,78.8,VVTS 300230Z VRB02KT 6000 FEW017 26/18 Q1014 NOSIG,M
VVTS,1/30/2021 3:00,106.6667,10.8167,80.6,66.2,61.58,M,1,0,29.94,M,3.73,M,FEW,M,M,M,1700,M,M,M,M,M,M,M,M,M,M,82.75,VVTS 300300Z VRB01KT 6000 FEW017 27/19 Q1014 NOSIG,M
VVTS,1/30/2021 3:30,106.6667,10.8167,82.4,64.4,54.55,M,2,0,29.91,M,3.73,M,FEW,M,M,M,1700,M,M,M,M,M,M,M,M,M,M,83.98,VVTS 300330Z VRB02KT 6000 FEW017 28/18 Q1013 NOSIG,M
VVTS,1/30/2021 4:00,106.6667,10.8167,82.4,64.4,54.55,M,1,0,29.91,M,3.73,M,FEW,M,M,M,1700,M,M,M,M,M,M,M,M,M,M,83.98,VVTS 300400Z VRB01KT 6000 FEW017 28/18 Q1013 NOSIG,M
VVTS,1/30/2021 4:30,106.6667,10.8167,84.2,64.4,51.47,M,1,0,29.91,M,3.73,M,FEW,M,M,M,1700,M,M,M,M,M,M,M,M,M,M,85.71,VVTS 300430Z VRB01KT 6000 FEW017 29/18 Q1013 NOSIG,M
VVTS,1/30/2021 5:00,106.6667,10.8167,86,64.4,48.58,320,4,0,29.88,M,2.49,M,FEW,M,M,M,1700,M,M,M,HZ,M,M,M,M,M,M,87.49,VVTS 300500Z 32004KT 260V020 4000 HZ FEW017 30/18 Q1012 NOSIG,M
VVTS,1/30/2021 5:30,106.6667,10.8167,86,64.4,48.58,250,4,0,29.85,M,2.49,M,FEW,M,M,M,1700,M,M,M,HZ,M,M,M,M,M,M,87.49,VVTS 300530Z 25004KT 190V320 4000 HZ FEW017 30/18 Q1011 NOSIG,M
VVTS,1/30/2021 6:00,106.6667,10.8167,86,64.4,48.58,310,4,0,29.85,M,2.49,M,FEW,M,M,M,1700,M,M,M,HZ,M,M,M,M,M,M,87.49,VVTS 300600Z 31004KT 270V350 4000 HZ FEW017 30/18 Q1011 NOSIG,M
VVTS,1/30/2021 6:30,106.6667,10.8167,87.8,66.2,48.84,310,4,0,29.83,M,2.49,M,FEW,M,M,M,2000,M,M,M,HZ,M,M,M,M,M,M,90.31,VVTS 300630Z 31004KT 270V070 4000 HZ FEW020 31/19 Q1010 NOSIG,M
VVTS,1/30/2021 7:00,106.6667,10.8167,87.8,64.4,45.88,310,5,0,29.83,M,2.49,M,FEW,M,M,M,2000,M,M,M,HZ,M,M,M,M,M,M,89.33,VVTS 300700Z 31005KT 260V030 4000 HZ FEW020 31/18 Q1010 NOSIG,M
VVTS,1/30/2021 7:30,106.6667,10.8167,87.8,66.2,48.84,310,5,0,29.83,M,3.73,M,FEW,M,M,M,2000,M,M,M,M,M,M,M,M,M,M,90.31,VVTS 300730Z 31005KT 250V360 6000 FEW020 31/19 Q1010 NOSIG,M
VVTS,1/30/2021 8:00,106.6667,10.8167,87.8,64.4,45.88,310,4,0,29.8,M,3.73,M,FEW,M,M,M,2000,M,M,M,M,M,M,M,M,M,M,89.33,VVTS 300800Z 31004KT 250V020 6000 FEW020 31/18 Q1009 NOSIG,M
VVTS,1/30/2021 8:30,106.6667,10.8167,86,64.4,48.58,290,4,0,29.8,M,3.73,M,FEW,M,M,M,2000,M,M,M,M,M,M,M,M,M,M,87.49,VVTS 300830Z 29004KT 230V350 6000 FEW020 30/18 Q1009 NOSIG,M
VVTS,1/30/2021 9:00,106.6667,10.8167,86,64.4,48.58,270,5,0,29.8,M,3.73,M,FEW,M,M,M,2000,M,M,M,M,M,M,M,M,M,M,87.49,VVTS 300900Z 27005KT 210V320 6000 FEW020 30/18 Q1009 NOSIG,M
VVTS,1/30/2021 9:30,106.6667,10.8167,86,66.2,51.72,270,6,0,29.8,M,4.35,M,FEW,M,M,M,2000,M,M,M,M,M,M,M,M,M,M,88.39,VVTS 300930Z 27006KT 230V310 7000 FEW020 30/19 Q1009 NOSIG,M
VVTS,1/30/2021 10:00,106.6667,10.8167,84.2,66.2,54.8,290,4,0,29.83,M,4.35,M,FEW,M,M,M,2000,M,M,M,M,M,M,M,M,M,M,86.5,VVTS 301000Z 29004KT 250V310 7000 FEW020 29/19 Q1010 NOSIG,M
VVTS,1/30/2021 10:30,106.6667,10.8167,84.2,66.2,54.8,M,3,0,29.83,M,4.97,M,FEW,M,M,M,2000,M,M,M,M,M,M,M,M,M,M,86.5,VVTS 301030Z VRB03KT 8000 FEW020 29/19 Q1010 NOSIG,M
VVTS,1/30/2021 11:00,106.6667,10.8167,82.4,68,61.81,290,4,0,29.83,M,4.97,M,FEW,M,M,M,2000,M,M,M,M,M,M,M,M,M,M,85.38,VVTS 301100Z 29004KT 8000 FEW020 28/20 Q1010 NOSIG,M
VVTS,1/30/2021 11:30,106.6667,10.8167,82.4,69.8,65.74,190,6,0,29.83,M,4.97,M,FEW,M,M,M,2000,M,M,M,M,M,M,M,M,M,M,86.22,VVTS 301130Z 19006KT 140V250 8000 FEW020 28/21 Q1010 NOSIG,M
VVTS,1/30/2021 12:00,106.6667,10.8167,80.6,69.8,69.71,170,7,0,29.85,M,4.97,M,FEW,M,M,M,2000,M,M,M,M,M,M,M,M,M,M,83.9,VVTS 301200Z 17007KT 140V220 8000 FEW020 27/21 Q1011 NOSIG,M
VVTS,1/30/2021 12:30,106.6667,10.8167,78.8,68,69.52,180,4,0,29.85,M,4.97,M,SCT,M,M,M,2000,M,M,M,M,M,M,M,M,M,M,78.8,VVTS 301230Z 18004KT 120V240 8000 SCT020 26/20 Q1011 NOSIG,M
VVTS,1/30/2021 13:00,106.6667,10.8167,78.8,68,69.52,190,4,0,29.88,M,4.97,M,SCT,M,M,M,2000,M,M,M,M,M,M,M,M,M,M,78.8,VVTS 301300Z 19004KT 150V220 8000 SCT020 26/20 Q1012 NOSIG,M
VVTS,1/30/2021 13:30,106.6667,10.8167,78.8,66.2,65.33,180,4,0,29.88,M,6.21,M,SCT,M,M,M,2000,M,M,M,M,M,M,M,M,M,M,78.8,VVTS 301330Z 18004KT 140V230 9999 SCT020 26/19 Q1012 NOSIG,M
VVTS,1/30/2021 14:00,106.6667,10.8167,78.8,66.2,65.33,180,4,0,29.88,M,6.21,M,SCT,M,M,M,2000,M,M,M,M,M,M,M,M,M,M,78.8,VVTS 301400Z 18004KT 140V230 9999 SCT020 26/19 Q1012 NOSIG,M
VVTS,1/30/2021 14:30,106.6667,10.8167,78.8,66.2,65.33,180,4,0,29.88,M,6.21,M,SCT,M,M,M,2000,M,M,M,M,M,M,M,M,M,M,78.8,VVTS 301430Z 18004KT 140V220 9999 SCT020 26/19 Q1012 NOSIG,M
VVTS,1/30/2021 15:00,106.6667,10.8167,78.8,66.2,65.33,M,3,0,29.88,M,6.21,M,SCT,M,M,M,2000,M,M,M,M,M,M,M,M,M,M,78.8,VVTS 301500Z VRB03KT 9999 SCT020 26/19 Q1012 NOSIG,M
VVTS,1/30/2021 15:30,106.6667,10.8167,78.8,68,69.52,M,2,0,29.88,M,6.21,M,SCT,M,M,M,2000,M,M,M,M,M,M,M,M,M,M,78.8,VVTS 301530Z VRB02KT 9999 SCT020 26/20 Q1012 NOSIG,M
VVTS,1/30/2021 16:00,106.6667,10.8167,78.8,68,69.52,M,1,0,29.88,M,6.21,M,FEW,M,M,M,2000,M,M,M,M,M,M,M,M,M,M,78.8,VVTS 301600Z VRB01KT 9999 FEW020 26/20 Q1012 NOSIG,M
VVTS,1/30/2021 16:30,106.6667,10.8167,77,69.8,78.48,30,2,0,29.88,M,6.21,M,FEW,M,M,M,2000,M,M,M,M,M,M,M,M,M,M,77,VVTS 301630Z 03002KT 9999 FEW020 25/21 Q1012 NOSIG,M
VVTS,1/30/2021 17:00,106.6667,10.8167,77,69.8,78.48,50,2,0,29.88,M,6.21,M,FEW,SCT,M,M,1700,5000,M,M,M,M,M,M,M,M,M,77,VVTS 301700Z 05002KT 9999 FEW017 SCT050 25/21 Q1012 NOSIG,M
VVTS,1/30/2021 17:30,106.6667,10.8167,77,69.8,78.48,50,1,0,29.88,M,6.21,M,FEW,SCT,M,M,1700,5000,M,M,M,M,M,M,M,M,M,77,VVTS 301730Z 05001KT 9999 FEW017 SCT050 25/21 Q1012 NOSIG,M
VVTS,1/30/2021 18:00,106.6667,10.8167,77,69.8,78.48,60,1,0,29.88,M,6.21,M,FEW,SCT,M,M,1700,5000,M,M,M,M,M,M,M,M,M,77,VVTS 301800Z 06001KT 9999 FEW017 SCT050 25/21 Q1012 NOSIG,M
VVTS,1/30/2021 18:30,106.6667,10.8167,77,69.8,78.48,M,1,0,29.88,M,6.21,M,FEW,SCT,M,M,1700,5000,M,M,M,M,M,M,M,M,M,77,VVTS 301830Z VRB01KT 9999 FEW017 SCT050 25/21 Q1012 NOSIG,M
VVTS,1/30/2021 19:00,106.6667,10.8167,75.2,69.8,83.32,310,3,0,29.88,M,4.97,M,FEW,SCT,M,M,1700,5000,M,M,M,M,M,M,M,M,M,75.2,VVTS 301900Z 31003KT 8000 FEW017 SCT050 24/21 Q1012 NOSIG,M
VVTS,1/30/2021 19:30,106.6667,10.8167,75.2,69.8,83.32,290,3,0,29.85,M,4.97,M,FEW,SCT,M,M,1700,5000,M,M,M,M,M,M,M,M,M,75.2,VVTS 301930Z 29003KT 8000 FEW017 SCT050 24/21 Q1011 NOSIG,M
VVTS,1/30/2021 20:00,106.6667,10.8167,75.2,69.8,83.32,300,3,0,29.85,M,3.73,M,FEW,SCT,M,M,1700,5000,M,M,M,M,M,M,M,M,M,75.2,VVTS 302000Z 30003KT 6000 FEW017 SCT050 24/21 Q1011 NOSIG,M
VVTS,1/30/2021 20:30,106.6667,10.8167,75.2,69.8,83.32,M,3,0,29.85,M,3.73,M,FEW,SCT,M,M,1700,5000,M,M,M,M,M,M,M,M,M,75.2,VVTS 302030Z VRB03KT 6000 FEW017 SCT050 24/21 Q1011 NOSIG,M
VVTS,1/30/2021 21:00,106.6667,10.8167,75.2,69.8,83.32,330,5,0,29.85,M,3.73,M,FEW,SCT,M,M,1700,5000,M,M,M,M,M,M,M,M,M,75.2,VVTS 302100Z 33005KT 6000 FEW017 SCT050 24/21 Q1011 NOSIG,M
VVTS,1/30/2021 21:30,106.6667,10.8167,75.2,69.8,83.32,330,6,0,29.85,M,3.73,M,FEW,SCT,M,M,1700,5000,M,M,M,M,M,M,M,M,M,75.2,VVTS 302130Z 33006KT 6000 FEW017 SCT050 24/21 Q1011 NOSIG,M
VVTS,1/30/2021 22:00,106.6667,10.8167,75.2,69.8,83.32,330,5,0,29.85,M,4.35,M,FEW,M,M,M,1700,M,M,M,M,M,M,M,M,M,M,75.2,VVTS 302200Z 33005KT 7000 FEW017 24/21 Q1011 NOSIG,M
VVTS,1/30/2021 22:30,106.6667,10.8167,75.2,68,78.34,360,4,0,29.85,M,4.35,M,FEW,M,M,M,1700,M,M,M,M,M,M,M,M,M,M,75.2,VVTS 302230Z 36004KT 330V040 7000 FEW017 24/20 Q1011 NOSIG,M
VVTS,1/30/2021 23:00,106.6667,10.8167,75.2,68,78.34,M,3,0,29.88,M,4.35,M,FEW,M,M,M,1700,M,M,M,M,M,M,M,M,M,M,75.2,VVTS 302300Z VRB03KT 7000 FEW017 24/20 Q1012 NOSIG,M
VVTS,1/30/2021 23:30,106.6667,10.8167,75.2,68,78.34,350,4,0,29.88,M,3.73,M,FEW,M,M,M,1700,M,M,M,M,M,M,M,M,M,M,75.2,VVTS 302330Z 35004KT 6000 FEW017 24/20 Q1012 NOSIG,M
VVTS,1/31/2021 0:00,106.6667,10.8167,75.2,68,78.34,M,2,0,29.88,M,3.73,M,FEW,BKN,M,M,1700,4000,M,M,M,M,M,M,M,M,M,75.2,VVTS 310000Z VRB02KT 6000 FEW017 BKN040 24/20 Q1012 NOSIG,M
VVTS,1/31/2021 0:30,106.6667,10.8167,77,68,73.78,M,2,0,29.91,M,4.35,M,FEW,BKN,M,M,1700,4000,M,M,M,M,M,M,M,M,M,77,VVTS 310030Z VRB02KT 7000 FEW017 BKN040 25/20 Q1013 NOSIG,M
VVTS,1/31/2021 1:00,106.6667,10.8167,77,68,73.78,100,7,0,29.91,M,4.35,M,FEW,BKN,M,M,1700,4000,M,M,M,M,M,M,M,M,M,77,VVTS 310100Z 10007KT 7000 FEW017 BKN040 25/20 Q1013 NOSIG,M
VVTS,1/31/2021 1:30,106.6667,10.8167,77,68,73.78,120,6,0,29.94,M,4.35,M,FEW,BKN,M,M,1700,4000,M,M,M,M,M,M,M,M,M,77,VVTS 310130Z 12006KT 080V150 7000 FEW017 BKN040 25/20 Q1014 NOSIG,M
VVTS,1/31/2021 2:00,106.6667,10.8167,78.8,66.2,65.33,110,4,0,29.94,M,4.35,M,FEW,BKN,M,M,1700,4000,M,M,M,M,M,M,M,M,M,78.8,VVTS 310200Z 11004KT 060V170 7000 FEW017 BKN040 26/19 Q1014 NOSIG,M
VVTS,1/31/2021 2:30,106.6667,10.8167,80.6,66.2,61.58,80,4,0,29.94,M,4.97,M,FEW,BKN,M,M,1700,4000,M,M,M,M,M,M,M,M,M,82.75,VVTS 310230Z 08004KT 030V150 8000 FEW017 BKN040 27/19 Q1014 NOSIG,M
VVTS,1/31/2021 3:00,106.6667,10.8167,82.4,66.2,58.08,M,2,0,29.94,M,4.97,M,FEW,BKN,M,M,1700,5000,M,M,M,M,M,M,M,M,M,84.63,VVTS 310300Z VRB02KT 8000 FEW017 BKN050 28/19 Q1014 NOSIG,M
VVTS,1/31/2021 3:30,106.6667,10.8167,82.4,66.2,58.08,M,1,0,29.91,M,4.97,M,FEW,BKN,M,M,1700,5000,M,M,M,M,M,M,M,M,M,84.63,VVTS 310330Z VRB01KT 8000 FEW017 BKN050 28/19 Q1013 NOSIG,M
VVTS,1/31/2021 4:00,106.6667,10.8167,84.2,66.2,54.8,M,2,0,29.91,M,4.97,M,FEW,BKN,M,M,1700,5000,M,M,M,M,M,M,M,M,M,86.5,VVTS 310400Z VRB02KT 8000 FEW017 BKN050 29/19 Q1013 NOSIG,M
VVTS,1/31/2021 4:30,106.6667,10.8167,86,66.2,51.72,M,2,0,29.88,M,4.97,M,FEW,BKN,M,M,1700,5000,M,M,M,M,M,M,M,M,M,88.39,VVTS 310430Z VRB02KT 8000 FEW017 BKN050 30/19 Q1012 NOSIG,M
VVTS,1/31/2021 5:00,106.6667,10.8167,87.8,64.4,45.88,M,1,0,29.88,M,4.97,M,FEW,BKN,M,M,1700,5000,M,M,M,M,M,M,M,M,M,89.33,VVTS 310500Z VRB01KT 8000 FEW017 BKN050 31/18 Q1012 NOSIG,M
VVTS,1/31/2021 5:30,106.6667,10.8167,89.6,62.6,40.69,M,3,0,29.85,M,5.59,M,FEW,SCT,M,M,1700,5000,M,M,M,M,M,M,M,M,M,90.32,VVTS 310530Z VRB03KT 9000 FEW017 SCT050 32/17 Q1011 NOSIG,M
VVTS,1/31/2021 6:00,106.6667,10.8167,89.6,62.6,40.69,M,4,0,29.85,M,5.59,M,SCT,M,M,M,2000,M,M,M,M,M,M,M,M,M,M,90.32,VVTS 310600Z VRB04KT 9000 SCT020 32/17 Q1011 NOSIG,M
VVTS,1/31/2021 6:30,106.6667,10.8167,93.2,62.6,36.35,M,2,0,29.83,M,5.59,M,SCT,M,M,M,2000,M,M,M,M,M,M,M,M,M,M,94.2,VVTS 310630Z VRB02KT 9000 SCT020 34/17 Q1010 NOSIG,M
VVTS,1/31/2021 7:00,106.6667,10.8167,93.2,60.8,34.11,M,2,0,29.83,M,6.21,M,SCT,M,M,M,2000,M,M,M,M,M,M,M,M,M,M,93.32,VVTS 310700Z VRB02KT 9999 SCT020 34/16 Q1010 NOSIG,M
VVTS,1/31/2021 7:30,106.6667,10.8167,93.2,60.8,34.11,M,3,0,29.83,M,6.21,M,SCT,M,M,M,2000,M,M,M,M,M,M,M,M,M,M,93.32,VVTS 310730Z VRB03KT 9999 SCT020 34/16 Q1010 NOSIG,M
VVTS,1/31/2021 8:00,106.6667,10.8167,91.4,60.8,36.08,M,1,0,29.8,M,6.21,M,SCT,M,M,M,2000,M,M,M,M,M,M,M,M,M,M,91.4,VVTS 310800Z VRB01KT 9999 SCT020 33/16 Q1009 NOSIG,M
VVTS,1/31/2021 8:30,106.6667,10.8167,89.6,66.2,46.14,270,6,0,29.8,M,4.97,M,SCT,M,M,M,2000,M,M,M,M,M,M,M,M,M,M,92.27,VVTS 310830Z 27006KT 230V310 8000 SCT020 32/19 Q1009 NOSIG,M
VVTS,1/31/2021 9:00,106.6667,10.8167,89.6,68,49.1,280,7,0,29.83,M,4.97,M,SCT,M,M,M,2000,M,M,M,M,M,M,M,M,M,M,93.47,VVTS 310900Z 28007KT 240V330 8000 SCT020 32/20 Q1010 NOSIG,M
VVTS,1/31/2021 9:30,106.6667,10.8167,87.8,68,51.98,230,7,0,29.83,M,4.97,M,FEW,SCT,M,M,2000,5000,M,M,M,M,M,M,M,M,M,91.43,VVTS 310930Z 23007KT 180V260 8000 FEW020 SCT050 31/20 Q1010 NOSIG,M
VVTS,1/31/2021 10:00,106.6667,10.8167,84.2,68,58.32,200,11,0,29.83,M,4.97,M,FEW,SCT,M,M,2000,5000,M,M,M,M,M,M,M,M,M,87.4,VVTS 311000Z 20011KT 160V220 8000 FEW020 SCT050 29/20 Q1010 NOSIG,M
VVTS,1/31/2021 10:30,106.6667,10.8167,82.4,66.2,58.08,200,10,0,29.85,M,4.97,M,FEW,SCT,M,M,2000,5000,M,M,M,M,M,M,M,M,M,84.63,VVTS 311030Z 20010KT 8000 FEW020 SCT050 28/19 Q1011 NOSIG,M
VVTS,1/31/2021 11:00,106.6667,10.8167,82.4,64.4,54.55,180,9,0,29.85,M,4.97,M,FEW,SCT,M,M,2000,5000,M,M,M,M,M,M,M,M,M,83.98,VVTS 311100Z 18009KT 150V210 8000 FEW020 SCT050 28/18 Q1011 NOSIG,M
VVTS,1/31/2021 11:30,106.6667,10.8167,82.4,68,61.81,190,6,0,29.85,M,4.97,M,FEW,SCT,M,M,2000,5000,M,M,M,M,M,M,M,M,M,85.38,VVTS 311130Z 19006KT 150V210 8000 FEW020 SCT050 28/20 Q1011 NOSIG,M
VVTS,1/31/2021 12:00,106.6667,10.8167,80.6,69.8,69.71,190,6,0,29.85,M,4.97,M,FEW,SCT,M,M,2000,5000,M,M,M,M,M,M,M,M,M,83.9,VVTS 311200Z 19006KT 160V220 8000 FEW020 SCT050 27/21 Q1011 NOSIG,M
VVTS,1/31/2021 12:30,106.6667,10.8167,80.6,69.8,69.71,180,4,0,29.88,M,4.97,M,FEW,SCT,M,M,2000,5000,M,M,M,M,M,M,M,M,M,83.9,VVTS 311230Z 18004KT 140V220 8000 FEW020 SCT050 27/21 Q1012 NOSIG,M
VVTS,1/31/2021 13:00,106.6667,10.8167,80.6,71.6,74.11,190,4,0,29.88,M,4.97,M,FEW,SCT,M,M,2000,5000,M,M,M,M,M,M,M,M,M,84.57,VVTS 311300Z 19004KT 140V220 8000 FEW020 SCT050 27/22 Q1012 NOSIG,M
VVTS,1/31/2021 13:30,106.6667,10.8167,80.6,71.6,74.11,170,6,0,29.88,M,4.97,M,FEW,SCT,M,M,1700,5000,M,M,M,M,M,M,M,M,M,84.57,VVTS 311330Z 17006KT 8000 FEW017 SCT050 27/22 Q1012 NOSIG,M
VVTS,1/31/2021 14:00,106.6667,10.8167,78.8,71.6,78.62,180,4,0,29.88,M,4.97,M,FEW,SCT,M,M,1700,5000,M,M,M,M,M,M,M,M,M,78.8,VVTS 311400Z 18004KT 150V210 8000 FEW017 SCT050 26/22 Q1012 NOSIG,M
VVTS,1/31/2021 14:30,106.6667,10.8167,78.8,71.6,78.62,M,3,0,29.88,M,4.97,M,FEW,SCT,M,M,1700,5000,M,M,M,M,M,M,M,M,M,78.8,VVTS 311430Z VRB03KT 8000 FEW017 SCT050 26/22 Q1012 NOSIG,M
VVTS,1/31/2021 15:00,106.6667,10.8167,78.8,71.6,78.62,200,5,0,29.88,M,4.97,M,FEW,SCT,M,M,1700,5000,M,M,M,M,M,M,M,M,M,78.8,VVTS 311500Z 20005KT 8000 FEW017 SCT050 26/22 Q1012 NOSIG,M
VVTS,1/31/2021 15:30,106.6667,10.8167,78.8,71.6,78.62,170,3,0,29.88,M,4.97,M,FEW,SCT,M,M,1700,5000,M,M,M,M,M,M,M,M,M,78.8,VVTS 311530Z 17003KT 8000 FEW017 SCT050 26/22 Q1012 NOSIG,M
VVTS,1/31/2021 16:00,106.6667,10.8167,78.8,71.6,78.62,M,3,0,29.88,M,4.97,M,FEW,SCT,M,M,2000,5000,M,M,M,M,M,M,M,M,M,78.8,VVTS 311600Z VRB03KT 8000 FEW020 SCT050 26/22 Q1012 NOSIG,M
VVTS,1/31/2021 16:30,106.6667,10.8167,77,71.6,83.44,M,2,0,29.88,M,4.97,M,FEW,SCT,M,M,1700,5000,M,M,M,M,M,M,M,M,M,77,VVTS 311630Z VRB02KT 8000 FEW017 SCT050 25/22 Q1012 NOSIG,M
VVTS,1/31/2021 17:00,106.6667,10.8167,77,71.6,83.44,M,3,0,29.91,M,4.97,M,FEW,SCT,M,M,1700,5000,M,M,M,M,M,M,M,M,M,77,VVTS 311700Z VRB03KT 8000 FEW017 SCT050 25/22 Q1013 NOSIG,M
VVTS,1/31/2021 17:30,106.6667,10.8167,77,71.6,83.44,M,3,0,29.91,M,4.97,M,FEW,SCT,M,M,1700,5000,M,M,M,M,M,M,M,M,M,77,VVTS 311730Z VRB03KT 8000 FEW017 SCT050 25/22 Q1013 NOSIG,M
VVTS,1/31/2021 18:00,106.6667,10.8167,75.2,71.6,88.59,70,4,0,29.88,M,4.97,M,FEW,SCT,M,M,1700,5000,M,M,M,M,M,M,M,M,M,75.2,VVTS 311800Z 07004KT 8000 FEW017 SCT050 24/22 Q1012 NOSIG,M
VVTS,1/31/2021 18:30,106.6667,10.8167,75.2,71.6,88.59,M,3,0,29.88,M,4.97,M,FEW,SCT,M,M,1700,5000,M,M,M,M,M,M,M,M,M,75.2,VVTS 311830Z VRB03KT 8000 FEW017 SCT050 24/22 Q1012 NOSIG,M
VVTS,1/31/2021 19:00,106.6667,10.8167,75.2,71.6,88.59,80,3,0,29.88,M,4.97,M,FEW,M,M,M,1700,M,M,M,M,M,M,M,M,M,M,75.2,VVTS 311900Z 08003KT 8000 FEW017 24/22 Q1012 NOSIG,M
VVTS,1/31/2021 19:30,106.6667,10.8167,75.2,71.6,88.59,M,1,0,29.88,M,4.97,M,FEW,M,M,M,1700,M,M,M,M,M,M,M,M,M,M,75.2,VVTS 311930Z VRB01KT 8000 FEW017 24/22 Q1012 NOSIG,M
VVTS,1/31/2021 20:00,106.6667,10.8167,75.2,71.6,88.59,30,1,0,29.85,M,4.97,M,FEW,M,M,M,1700,M,M,M,M,M,M,M,M,M,M,75.2,VVTS 312000Z 03001KT 8000 FEW017 24/22 Q1011 NOSIG,M
VVTS,1/31/2021 20:30,106.6667,10.8167,75.2,69.8,83.32,M,2,0,29.85,M,4.97,M,FEW,M,M,M,1700,M,M,M,M,M,M,M,M,M,M,75.2,VVTS 312030Z VRB02KT 8000 FEW017 24/21 Q1011 NOSIG,M
VVTS,1/31/2021 21:00,106.6667,10.8167,75.2,69.8,83.32,M,3,0,29.85,M,4.97,M,FEW,M,M,M,1700,M,M,M,M,M,M,M,M,M,M,75.2,VVTS 312100Z VRB03KT 8000 FEW017 24/21 Q1011 NOSIG,M
VVTS,1/31/2021 21:30,106.6667,10.8167,75.2,71.6,88.59,0,0,0,29.85,M,4.97,M,FEW,SCT,M,M,1700,5000,M,M,M,M,M,M,M,M,M,75.2,VVTS 312130Z 00000KT 8000 FEW017 SCT050 24/22 Q1011 NOSIG,M
VVTS,1/31/2021 22:00,106.6667,10.8167,75.2,71.6,88.59,0,0,0,29.88,M,4.97,M,FEW,SCT,M,M,1700,5000,M,M,M,M,M,M,M,M,M,75.2,VVTS 312200Z 00000KT 8000 FEW017 SCT050 24/22 Q1012,M
VVTS,1/31/2021 22:30,106.6667,10.8167,75.2,71.6,88.59,M,1,0,29.88,M,4.35,M,FEW,SCT,M,M,1700,5000,M,M,M,M,M,M,M,M,M,75.2,VVTS 312230Z VRB01KT 7000 FEW017 SCT050 24/22 Q1012 NOSIG,M
VVTS,1/31/2021 23:00,106.6667,10.8167,75.2,71.6,88.59,50,2,0,29.88,M,4.35,M,FEW,M,M,M,1700,M,M,M,M,M,M,M,M,M,M,75.2,VVTS 312300Z 05002KT 7000 FEW017 24/22 Q1012 NOSIG,M
VVTS,1/31/2021 23:30,106.6667,10.8167,75.2,71.6,88.59,M,3,0,29.88,M,4.35,M,FEW,M,M,M,1700,M,M,M,M,M,M,M,M,M,M,75.2,VVTS 312330Z VRB03KT 7000 FEW017 24/22 Q1012 NOSIG,M
VVTS,2/1/2021 0:00,106.6667,10.8167,75.2,71.6,88.59,10,3,0,29.91,M,3.11,M,FEW,M,M,M,1700,M,M,M,BR,M,M,M,M,M,M,75.2,VVTS 010000Z 01003KT 5000 BR FEW017 24/22 Q1013 NOSIG,M
VVTS,2/1/2021 0:30,106.6667,10.8167,77,71.6,83.44,10,4,0,29.91,M,3.11,M,FEW,M,M,M,1700,M,M,M,BR,M,M,M,M,M,M,77,VVTS 010030Z 01004KT 5000 BR FEW017 25/22 Q1013 NOSIG,M
VVTS,2/1/2021 1:00,106.6667,10.8167,77,71.6,83.44,20,5,0,29.94,M,3.11,M,FEW,M,M,M,1700,M,M,M,BR,M,M,M,M,M,M,77,VVTS 010100Z 02005KT 340V060 5000 BR FEW017 25/22 Q1014 NOSIG,M
VVTS,2/1/2021 1:30,106.6667,10.8167,78.8,71.6,78.62,M,1,0,29.94,M,3.73,M,FEW,M,M,M,1700,M,M,M,M,M,M,M,M,M,M,78.8,VVTS 010130Z VRB01KT 6000 FEW017 26/22 Q1014 NOSIG,M
VVTS,2/1/2021 2:00,106.6667,10.8167,80.6,71.6,74.11,M,2,0,29.94,M,4.35,M,FEW,M,M,M,1700,M,M,M,M,M,M,M,M,M,M,84.57,VVTS 010200Z VRB02KT 7000 FEW017 27/22 Q1014 NOSIG,M
VVTS,2/1/2021 2:30,106.6667,10.8167,82.4,71.6,69.9,M,1,0,29.94,M,4.35,M,FEW,M,M,M,1700,M,M,M,M,M,M,M,M,M,M,87.18,VVTS 010230Z VRB01KT 7000 FEW017 28/22 Q1014 NOSIG,M
VVTS,2/1/2021 3:00,106.6667,10.8167,82.4,71.6,69.9,320,4,0,29.94,M,4.97,M,FEW,M,M,M,2000,M,M,M,M,M,M,M,M,M,M,87.18,VVTS 010300Z 32004KT 270V360 8000 FEW020 28/22 Q1014 NOSIG,M
VVTS,2/1/2021 3:30,106.6667,10.8167,86,68,55.04,M,3,0,29.94,M,4.97,M,FEW,M,M,M,2000,M,M,M,M,M,M,M,M,M,M,89.41,VVTS 010330Z VRB03KT 8000 FEW020 30/20 Q1014 NOSIG,M
VVTS,2/1/2021 4:00,106.6667,10.8167,87.8,68,51.98,320,5,0,29.91,M,4.97,M,FEW,M,M,M,2000,M,M,M,M,M,M,M,M,M,M,91.43,VVTS 010400Z 32005KT 270V010 8000 FEW020 31/20 Q1013 NOSIG,M
VVTS,2/1/2021 4:30,106.6667,10.8167,87.8,64.4,45.88,330,5,0,29.91,M,4.97,M,FEW,M,M,M,2000,M,M,M,M,M,M,M,M,M,M,89.33,VVTS 010430Z 33005KT 300V020 8000 FEW020 31/18 Q1013 NOSIG,M
VVTS,2/1/2021 5:00,106.6667,10.8167,87.8,66.2,48.84,M,4,0,29.88,M,4.97,M,FEW,M,M,M,2000,M,M,M,M,M,M,M,M,M,M,90.31,VVTS 010500Z VRB04KT 8000 FEW020 31/19 Q1012 NOSIG,M
VVTS,2/1/2021 5:30,106.6667,10.8167,89.6,64.4,43.34,330,4,0,29.88,M,6.21,M,FEW,M,M,M,2000,M,M,M,M,M,M,M,M,M,M,91.23,VVTS 010530Z 33004KT 260V020 9999 FEW020 32/18 Q1012 NOSIG,M
VVTS,2/1/2021 6:00,106.6667,10.8167,89.6,64.4,43.34,M,3,0,29.85,M,6.21,M,FEW,M,M,M,2000,M,M,M,M,M,M,M,M,M,M,91.23,VVTS 010600Z VRB03KT 9999 FEW020 32/18 Q1011 NOSIG,M
VVTS,2/1/2021 6:30,106.6667,10.8167,89.6,64.4,43.34,M,4,0,29.85,M,6.21,M,FEW,M,M,M,1700,M,M,M,M,M,M,M,M,M,M,91.23,VVTS 010630Z VRB04KT 9999 FEW017 32/18 Q1011 NOSIG,M
VVTS,2/1/2021 7:00,106.6667,10.8167,89.6,62.6,40.69,290,3,0,29.83,M,6.21,M,SCT,M,M,M,1700,M,M,M,M,M,M,M,M,M,M,90.32,VVTS 010700Z 29003KT 9999 SCT017 32/17 Q1010 NOSIG,M
VVTS,2/1/2021 7:30,106.6667,10.8167,91.4,62.6,38.45,270,4,0,29.83,M,6.21,M,SCT,M,M,M,1700,M,M,M,M,M,M,M,M,M,M,92.23,VVTS 010730Z 27004KT 220V330 9999 SCT017 33/17 Q1010 NOSIG,M
VVTS,2/1/2021 8:00,106.6667,10.8167,91.4,62.6,38.45,M,3,0,29.8,M,6.21,M,SCT,M,M,M,1700,M,M,M,M,M,M,M,M,M,M,92.23,VVTS 010800Z VRB03KT 9999 SCT017 33/17 Q1009 NOSIG,M
VVTS,2/1/2021 8:30,106.6667,10.8167,89.6,64.4,43.34,180,2,0,29.8,M,6.21,M,SCT,M,M,M,1700,M,M,M,M,M,M,M,M,M,M,91.23,VVTS 010830Z 18002KT 9999 SCT017 32/18 Q1009 NOSIG,M
VVTS,2/1/2021 9:00,106.6667,10.8167,86,73.4,66.15,190,11,0,29.83,M,4.97,M,SCT,M,M,M,2000,M,M,M,M,M,M,M,M,M,M,93.45,VVTS 010900Z 19011KT 150V210 8000 SCT020 30/23 Q1010 NOSIG,M
VVTS,2/1/2021 9:30,106.6667,10.8167,86,73.4,66.15,170,10,0,29.83,M,4.97,M,SCT,M,M,M,2000,M,M,M,M,M,M,M,M,M,M,93.45,VVTS 010930Z 17010KT 8000 SCT020 30/23 Q1010 NOSIG,M
VVTS,2/1/2021 10:00,106.6667,10.8167,84.2,71.6,65.95,170,7,0,29.83,M,4.97,M,FEW,SCT,M,M,2000,5000,M,M,M,M,M,M,M,M,M,89.6,VVTS 011000Z 17007KT 120V200 8000 FEW020 SCT050 29/22 Q1010 NOSIG,M
VVTS,2/1/2021 10:30,106.6667,10.8167,82.4,69.8,65.74,150,8,0,29.83,M,4.97,M,FEW,SCT,M,M,2000,5000,M,M,M,M,M,M,M,M,M,86.22,VVTS 011030Z 15008KT 8000 FEW020 SCT050 28/21 Q1010 NOSIG,M
VVTS,2/1/2021 11:00,106.6667,10.8167,82.4,69.8,65.74,180,9,0,29.85,M,4.97,M,FEW,SCT,M,M,2000,5000,M,M,M,M,M,M,M,M,M,86.22,VVTS 011100Z 18009KT 8000 FEW020 SCT050 28/21 Q1011 NOSIG,M
VVTS,2/1/2021 11:30,106.6667,10.8167,80.6,68,65.54,180,8,0,29.85,M,4.97,M,FEW,SCT,M,M,2000,5000,M,M,M,M,M,M,M,M,M,83.29,VVTS 011130Z 18008KT 140V220 8000 FEW020 SCT050 27/20 Q1011 NOSIG,M
VVTS,2/1/2021 12:00,106.6667,10.8167,80.6,69.8,69.71,150,8,0,29.85,M,6.21,M,FEW,SCT,M,M,2000,5000,M,M,M,M,M,M,M,M,M,83.9,VVTS 011200Z 15008KT 9999 FEW020 SCT050 27/21 Q1011 NOSIG,M
VVTS,2/1/2021 12:30,106.6667,10.8167,80.6,68,65.54,150,7,0,29.85,M,6.21,M,FEW,M,M,M,2000,M,M,M,M,M,M,M,M,M,M,83.29,VVTS 011230Z 15007KT 120V180 9999 FEW020 27/20 Q1011 NOSIG,M
VVTS,2/1/2021 13:00,106.6667,10.8167,80.6,66.2,61.58,160,7,0,29.88,M,6.21,M,FEW,M,M,M,2000,M,M,M,M,M,M,M,M,M,M,82.75,VVTS 011300Z 16007KT 140V200 9999 FEW020 27/19 Q1012 NOSIG,M
VVTS,2/1/2021 13:30,106.6667,10.8167,78.8,66.2,65.33,160,6,0,29.88,M,6.21,M,FEW,M,M,M,2000,M,M,M,M,M,M,M,M,M,M,78.8,VVTS 011330Z 16006KT 120V200 9999 FEW020 26/19 Q1012 NOSIG,M
VVTS,2/1/2021 14:00,106.6667,10.8167,78.8,68,69.52,130,7,0,29.88,M,5.59,M,FEW,M,M,M,2000,M,M,M,M,M,M,M,M,M,M,78.8,VVTS 011400Z 13007KT 9000 FEW020 26/20 Q1012 NOSIG,M
VVTS,2/1/2021 14:30,106.6667,10.8167,78.8,68,69.52,130,5,0,29.88,M,6.21,M,FEW,SCT,M,M,2000,5000,M,M,M,M,M,M,M,M,M,78.8,VVTS 011430Z 13005KT 9999 FEW020 SCT050 26/20 Q1012 NOSIG,M
VVTS,2/1/2021 15:00,106.6667,10.8167,78.8,68,69.52,120,6,0,29.88,M,6.21,M,FEW,SCT,M,M,2000,5000,M,M,M,M,M,M,M,M,M,78.8,VVTS 011500Z 12006KT 9999 FEW020 SCT050 26/20 Q1012 NOSIG,M
VVTS,2/1/2021 15:30,106.6667,10.8167,77,68,73.78,110,4,0,29.88,M,6.21,M,FEW,SCT,M,M,2000,5000,M,M,M,M,M,M,M,M,M,77,VVTS 011530Z 11004KT 9999 FEW020 SCT050 25/20 Q1012 NOSIG,M
VVTS,2/1/2021 16:00,106.6667,10.8167,77,68,73.78,M,3,0,29.91,M,6.21,M,FEW,SCT,M,M,2000,5000,M,M,M,M,M,M,M,M,M,77,VVTS 011600Z VRB03KT 9999 FEW020 SCT050 25/20 Q1013 NOSIG,M
VVTS,2/1/2021 16:30,106.6667,10.8167,77,68,73.78,100,4,0,29.91,M,6.21,M,FEW,SCT,M,M,2000,5000,M,M,M,M,M,M,M,M,M,77,VVTS 011630Z 10004KT 060V150 9999 FEW020 SCT050 25/20 Q1013 NOSIG,M
VVTS,2/1/2021 17:00,106.6667,10.8167,75.2,69.8,83.32,70,4,0,29.88,M,6.21,M,FEW,M,M,M,2000,M,M,M,M,M,M,M,M,M,M,75.2,VVTS 011700Z 07004KT 040V120 9999 FEW020 24/21 Q1012 NOSIG,M
VVTS,2/1/2021 17:30,106.6667,10.8167,73.4,69.8,88.51,90,3,0,29.88,M,6.21,M,FEW,M,M,M,2000,M,M,M,M,M,M,M,M,M,M,73.4,VVTS 011730Z 09003KT 9999 FEW020 23/21 Q1012 NOSIG,M
VVTS,2/1/2021 18:00,106.6667,10.8167,75.2,69.8,83.32,M,3,0,29.88,M,6.21,M,FEW,M,M,M,2000,M,M,M,M,M,M,M,M,M,M,75.2,VVTS 011800Z VRB03KT 9999 FEW020 24/21 Q1012 NOSIG,M
VVTS,2/1/2021 18:30,106.6667,10.8167,75.2,69.8,83.32,M,2,0,29.88,M,6.21,M,FEW,M,M,M,2000,M,M,M,M,M,M,M,M,M,M,75.2,VVTS 011830Z VRB02KT 9999 FEW020 24/21 Q1012 NOSIG,M
VVTS,2/1/2021 19:00,106.6667,10.8167,75.2,69.8,83.32,140,3,0,29.85,M,6.21,M,FEW,M,M,M,2000,M,M,M,M,M,M,M,M,M,M,75.2,VVTS 011900Z 14003KT 9999 FEW020 24/21 Q1011 NOSIG,M
VVTS,2/1/2021 19:30,106.6667,10.8167,75.2,69.8,83.32,M,2,0,29.85,M,6.21,M,FEW,M,M,M,2000,M,M,M,M,M,M,M,M,M,M,75.2,VVTS 011930Z VRB02KT 9999 FEW020 24/21 Q1011 NOSIG,M
VVTS,2/1/2021 20:00,106.6667,10.8167,73.4,69.8,88.51,M,2,0,29.85,M,6.21,M,FEW,M,M,M,2000,M,M,M,M,M,M,M,M,M,M,73.4,VVTS 012000Z VRB02KT 9999 FEW020 23/21 Q1011 NOSIG,M
VVTS,2/1/2021 20:30,106.6667,10.8167,75.2,69.8,83.32,M,3,0,29.85,M,6.21,M,FEW,M,M,M,2000,M,M,M,M,M,M,M,M,M,M,75.2,VVTS 012030Z VRB03KT 9999 FEW020 24/21 Q1011 NOSIG,M
VVTS,2/1/2021 21:00,106.6667,10.8167,75.2,69.8,83.32,M,1,0,29.85,M,6.21,M,FEW,M,M,M,2000,M,M,M,M,M,M,M,M,M,M,75.2,VVTS 012100Z VRB01KT 9999 FEW020 24/21 Q1011 NOSIG,M
VVTS,2/1/2021 21:30,106.6667,10.8167,73.4,69.8,88.51,70,2,0,29.88,M,6.21,M,FEW,M,M,M,2000,M,M,M,M,M,M,M,M,M,M,73.4,VVTS 012130Z 07002KT 9999 FEW020 23/21 Q1012 NOSIG,M
VVTS,2/1/2021 22:00,106.6667,10.8167,73.4,69.8,88.51,60,2,0,29.88,M,6.21,M,FEW,SCT,M,M,1700,6000,M,M,M,M,M,M,M,M,M,73.4,VVTS 012200Z 06002KT 9999 FEW017 SCT060 23/21 Q1012,M
VVTS,2/1/2021 22:30,106.6667,10.8167,73.4,71.6,94.1,M,1,0,29.88,M,6.21,M,FEW,SCT,M,M,1700,6000,M,M,M,M,M,M,M,M,M,73.4,VVTS 012230Z VRB01KT 9999 FEW017 SCT060 23/22 Q1012 NOSIG,M
VVTS,2/1/2021 23:00,106.6667,10.8167,73.4,71.6,94.1,M,3,0,29.88,M,6.21,M,FEW,SCT,M,M,1700,6000,M,M,M,M,M,M,M,M,M,73.4,VVTS 012300Z VRB03KT 9999 FEW017 SCT060 23/22 Q1012 NOSIG,M
VVTS,2/1/2021 23:30,106.6667,10.8167,73.4,69.8,88.51,M,3,0,29.91,M,3.11,M,SCT,SCT,M,M,1700,4000,M,M,BR,M,M,M,M,M,M,73.4,VVTS 012330Z VRB03KT 5000 BR SCT017 SCT040 23/21 Q1013 NOSIG,M
VVTS,2/2/2021 0:00,106.6667,10.8167,73.4,69.8,88.51,360,4,0,29.91,M,3.11,M,SCT,M,M,M,1700,M,M,M,BR,M,M,M,M,M,M,73.4,VVTS 020000Z 36004KT 330V030 5000 BR SCT017 23/21 Q1013 NOSIG,M
VVTS,2/2/2021 0:30,106.6667,10.8167,75.2,68,78.34,360,5,0,29.94,M,3.73,M,FEW,M,M,M,1700,M,M,M,M,M,M,M,M,M,M,75.2,VVTS 020030Z 36005KT 330V060 6000 FEW017 24/20 Q1014 NOSIG,M
VVTS,2/2/2021 1:00,106.6667,10.8167,75.2,66.2,73.61,360,6,0,29.94,M,4.35,M,FEW,M,M,M,1700,M,M,M,M,M,M,M,M,M,M,75.2,VVTS 020100Z 36006KT 7000 FEW017 24/19 Q1014 NOSIG,M
VVTS,2/2/2021 1:30,106.6667,10.8167,77,64.4,65.12,350,5,0,29.94,M,4.35,M,FEW,M,M,M,1700,M,M,M,M,M,M,M,M,M,M,77,VVTS 020130Z 35005KT 330V030 7000 FEW017 25/18 Q1014 NOSIG,M
VVTS,2/2/2021 2:00,106.6667,10.8167,78.8,62.6,57.6,10,4,0,29.97,M,4.97,M,NSC,M,M,M,M,M,M,M,M,M,M,M,M,M,M,78.8,VVTS 020200Z 01004KT 330V070 8000 NSC 26/17 Q1015 NOSIG,M
VVTS,2/2/2021 2:30,106.6667,10.8167,80.6,62.6,54.3,10,5,0,29.94,M,4.97,M,NSC,M,M,M,M,M,M,M,M,M,M,M,M,M,M,81.84,VVTS 020230Z 01005KT 8000 NSC 27/17 Q1014 NOSIG,M
VVTS,2/2/2021 3:00,106.6667,10.8167,82.4,60.8,48.05,20,4,0,29.94,M,4.97,M,NSC,M,M,M,M,M,M,M,M,M,M,M,M,M,M,82.9,VVTS 020300Z 02004KT 310V060 8000 NSC 28/16 Q1014 NOSIG,M
VVTS,2/2/2021 3:30,106.6667,10.8167,84.2,62.6,48.32,10,5,0,29.94,M,4.97,M,NSC,M,M,M,M,M,M,M,M,M,M,M,M,M,M,85.03,VVTS 020330Z 01005KT 340V070 8000 NSC 29/17 Q1014 NOSIG,M
VVTS,2/2/2021 4:00,106.6667,10.8167,86,62.6,45.61,30,5,0,29.94,M,4.97,M,FEW,M,M,M,2000,M,M,M,M,M,M,M,M,M,M,86.72,VVTS 020400Z 03005KT 350V070 8000 FEW020 30/17 Q1014 NOSIG,M
VVTS,2/2/2021 4:30,106.6667,10.8167,87.8,62.6,43.07,340,6,0,29.91,M,4.97,M,FEW,M,M,M,2000,M,M,M,M,M,M,M,M,M,M,88.48,VVTS 020430Z 34006KT 270V040 8000 FEW020 31/17 Q1013 NOSIG,M
VVTS,2/2/2021 5:00,106.6667,10.8167,87.8,62.6,43.07,290,7,0,29.91,M,4.97,M,FEW,M,M,M,2000,M,M,M,M,M,M,M,M,M,M,88.48,VVTS 020500Z 29007KT 250V330 8000 FEW020 31/17 Q1013 NOSIG,M
VVTS,2/2/2021 5:30,106.6667,10.8167,89.6,59,35.81,300,6,0,29.88,M,4.97,M,FEW,M,M,M,2000,M,M,M,M,M,M,M,M,M,M,88.86,VVTS 020530Z 30006KT 260V340 8000 FEW020 32/15 Q1012 NOSIG,M
VVTS,2/2/2021 6:00,106.6667,10.8167,89.6,60.8,38.18,360,5,0,29.85,M,4.97,M,FEW,M,M,M,2000,M,M,M,M,M,M,M,M,M,M,89.54,VVTS 020600Z 36005KT 290V070 8000 FEW020 32/16 Q1011 NOSIG,M
VVTS,2/2/2021 6:30,106.6667,10.8167,89.6,60.8,38.18,310,5,0,29.85,M,6.21,M,FEW,M,M,M,2000,M,M,M,M,M,M,M,M,M,M,89.54,VVTS 020630Z 31005KT 250V030 9999 FEW020 32/16 Q1011 NOSIG,M
VVTS,2/2/2021 7:00,106.6667,10.8167,89.6,60.8,38.18,320,5,0,29.83,M,6.21,M,SCT,M,M,M,2000,M,M,M,M,M,M,M,M,M,M,89.54,VVTS 020700Z 32005KT 260V040 9999 SCT020 32/16 Q1010 NOSIG,M
VVTS,2/2/2021 7:30,106.6667,10.8167,91.4,62.6,38.45,290,6,0,29.83,M,6.21,M,SCT,M,M,M,2000,M,M,M,M,M,M,M,M,M,M,92.23,VVTS 020730Z 29006KT 250V330 9999 SCT020 33/17 Q1010 NOSIG,M
VVTS,2/2/2021 8:00,106.6667,10.8167,91.4,62.6,38.45,310,4,0,29.83,M,6.21,M,SCT,M,M,M,2000,M,M,M,M,M,M,M,M,M,M,92.23,VVTS 020800Z 31004KT 230V010 9999 SCT020 33/17 Q1010 NOSIG,M
VVTS,2/2/2021 8:30,106.6667,10.8167,87.8,69.8,55.29,180,8,0,29.83,M,6.21,M,SCT,M,M,M,2000,M,M,M,M,M,M,M,M,M,M,92.71,VVTS 020830Z 18008KT 150V280 9999 SCT020 31/21 Q1010 NOSIG,M
VVTS,2/2/2021 9:00,106.6667,10.8167,86,68,55.04,190,10,0,29.83,M,6.21,M,SCT,M,M,M,2000,M,M,M,M,M,M,M,M,M,M,89.41,VVTS 020900Z 19010KT 9999 SCT020 30/20 Q1010 NOSIG,M
VVTS,2/2/2021 9:30,106.6667,10.8167,84.2,68,58.32,190,9,0,29.83,M,6.21,M,SCT,M,M,M,2000,M,M,M,M,M,M,M,M,M,M,87.4,VVTS 020930Z 19009KT 150V220 9999 SCT020 29/20 Q1010 NOSIG,M
VVTS,2/2/2021 10:00,106.6667,10.8167,84.2,68,58.32,190,9,0,29.85,M,6.21,M,FEW,M,M,M,2000,M,M,M,M,M,M,M,M,M,M,87.4,VVTS 021000Z 19009KT 160V220 9999 FEW020 29/20 Q1011 NOSIG,M
VVTS,2/2/2021 10:30,106.6667,10.8167,82.4,66.2,58.08,190,9,0,29.85,M,6.21,M,FEW,M,M,M,2000,M,M,M,M,M,M,M,M,M,M,84.63,VVTS 021030Z 19009KT 140V220 9999 FEW020 28/19 Q1011 NOSIG,M
VVTS,2/2/2021 11:00,106.6667,10.8167,82.4,66.2,58.08,170,8,0,29.85,M,6.21,M,FEW,M,M,M,2000,M,M,M,M,M,M,M,M,M,M,84.63,VVTS 021100Z 17008KT 9999 FEW020 28/19 Q1011 NOSIG,M
VVTS,2/2/2021 11:30,106.6667,10.8167,80.6,66.2,61.58,160,7,0,29.88,M,6.21,M,FEW,M,M,M,2000,M,M,M,M,M,M,M,M,M,M,82.75,VVTS 021130Z 16007KT 120V190 9999 FEW020 27/19 Q1012 NOSIG,M
VVTS,2/2/2021 12:00,106.6667,10.8167,80.6,64.4,57.84,160,6,0,29.88,M,6.21,M,FEW,M,M,M,2000,M,M,M,M,M,M,M,M,M,M,82.27,VVTS 021200Z 16006KT 130V190 9999 FEW020 27/18 Q1012 NOSIG,M
VVTS,2/2/2021 12:30,106.6667,10.8167,80.6,64.4,57.84,150,4,0,29.88,M,6.21,M,FEW,M,M,M,2000,M,M,M,M,M,M,M,M,M,M,82.27,VVTS 021230Z 15004KT 110V210 9999 FEW020 27/18 Q1012 NOSIG,M
VVTS,2/2/2021 13:00,106.6667,10.8167,80.6,66.2,61.58,130,7,0,29.88,M,6.21,M,FEW,M,M,M,2000,M,M,M,M,M,M,M,M,M,M,82.75,VVTS 021300Z 13007KT 9999 FEW020 27/19 Q1012 NOSIG,M
VVTS,2/2/2021 13:30,106.6667,10.8167,78.8,64.4,61.36,140,5,0,29.91,M,6.21,M,FEW,M,M,M,2000,M,M,M,M,M,M,M,M,M,M,78.8,VVTS 021330Z 14005KT 110V180 9999 FEW020 26/18 Q1013 NOSIG,M
VVTS,2/2/2021 14:00,106.6667,10.8167,78.8,64.4,61.36,150,4,0,29.91,M,6.21,M,FEW,M,M,M,2000,M,M,M,M,M,M,M,M,M,M,78.8,VVTS 021400Z 15004KT 9999 FEW020 26/18 Q1013 NOSIG,M
VVTS,2/2/2021 14:30,106.6667,10.8167,78.8,64.4,61.36,M,3,0,29.91,M,6.21,M,FEW,M,M,M,2000,M,M,M,M,M,M,M,M,M,M,78.8,VVTS 021430Z VRB03KT 9999 FEW020 26/18 Q1013 NOSIG,M
VVTS,2/2/2021 15:00,106.6667,10.8167,77,64.4,65.12,M,3,0,29.91,M,6.21,M,FEW,M,M,M,2000,M,M,M,M,M,M,M,M,M,M,77,VVTS 021500Z VRB03KT 9999 FEW020 25/18 Q1013 NOSIG,M
VVTS,2/2/2021 15:30,106.6667,10.8167,77,66.2,69.33,90,5,0,29.91,M,6.21,M,FEW,M,M,M,2000,M,M,M,M,M,M,M,M,M,M,77,VVTS 021530Z 09005KT 9999 FEW020 25/19 Q1013 NOSIG,M
VVTS,2/2/2021 16:00,106.6667,10.8167,77,66.2,69.33,80,5,0,29.91,M,6.21,M,FEW,M,M,M,2000,M,M,M,M,M,M,M,M,M,M,77,VVTS 021600Z 08005KT 9999 FEW020 25/19 Q1013 NOSIG,M
VVTS,2/2/2021 16:30,106.6667,10.8167,77,66.2,69.33,M,2,0,29.91,M,6.21,M,FEW,M,M,M,2000,M,M,M,M,M,M,M,M,M,M,77,VVTS 021630Z VRB02KT 9999 FEW020 25/19 Q1013 NOSIG,M
VVTS,2/2/2021 17:00,106.6667,10.8167,77,66.2,69.33,M,2,0,29.88,M,6.21,M,FEW,M,M,M,2000,M,M,M,M,M,M,M,M,M,M,77,VVTS 021700Z VRB02KT 9999 FEW020 25/19 Q1012 NOSIG,M
VVTS,2/2/2021 17:30,106.6667,10.8167,75.2,68,78.34,M,2,0,29.88,M,6.21,M,FEW,M,M,M,2000,M,M,M,M,M,M,M,M,M,M,75.2,VVTS 021730Z VRB02KT 9999 FEW020 24/20 Q1012 NOSIG,M
VVTS,2/2/2021 18:00,106.6667,10.8167,75.2,68,78.34,80,1,0,29.88,M,6.21,M,FEW,M,M,M,2000,M,M,M,M,M,M,M,M,M,M,75.2,VVTS 021800Z 08001KT 9999 FEW020 24/20 Q1012 NOSIG,M
VVTS,2/2/2021 18:30,106.6667,10.8167,75.2,68,78.34,M,3,0,29.88,M,6.21,M,SCT,M,M,M,2000,M,M,M,M,M,M,M,M,M,M,75.2,VVTS 021830Z VRB03KT 9999 SCT020 24/20 Q1012 NOSIG,M
VVTS,2/2/2021 19:00,106.6667,10.8167,75.2,69.8,83.32,M,2,0,29.88,M,6.21,M,SCT,M,M,M,2000,M,M,M,M,M,M,M,M,M,M,75.2,VVTS 021900Z VRB02KT 9999 SCT020 24/21 Q1012 NOSIG,M
VVTS,2/2/2021 19:30,106.6667,10.8167,75.2,69.8,83.32,M,1,0,29.88,M,6.21,M,SCT,M,M,M,2000,M,M,M,M,M,M,M,M,M,M,75.2,VVTS 021930Z VRB01KT 9999 SCT020 24/21 Q1012 NOSIG,M
VVTS,2/2/2021 20:00,106.6667,10.8167,75.2,69.8,83.32,M,3,0,29.88,M,6.21,M,SCT,M,M,M,2000,M,M,M,M,M,M,M,M,M,M,75.2,VVTS 022000Z VRB03KT 9999 SCT020 24/21 Q1012 NOSIG,M
VVTS,2/2/2021 20:30,106.6667,10.8167,75.2,68,78.34,320,2,0,29.88,M,6.21,M,SCT,M,M,M,2000,M,M,M,M,M,M,M,M,M,M,75.2,VVTS 022030Z 32002KT 9999 SCT020 24/20 Q1012 NOSIG,M
VVTS,2/2/2021 21:00,106.6667,10.8167,75.2,68,78.34,320,2,0,29.88,M,6.21,M,SCT,M,M,M,2000,M,M,M,M,M,M,M,M,M,M,75.2,VVTS 022100Z 32002KT 9999 SCT020 24/20 Q1012 NOSIG,M
VVTS,2/2/2021 21:30,106.6667,10.8167,75.2,68,78.34,300,2,0,29.88,M,6.21,M,SCT,SCT,M,M,1700,5000,M,M,M,M,M,M,M,M,M,75.2,VVTS 022130Z 30002KT 9999 SCT017 SCT050 24/20 Q1012 NOSIG,M
VVTS,2/2/2021 22:00,106.6667,10.8167,73.4,68,83.21,300,2,0,29.88,M,6.21,M,SCT,SCT,M,M,1700,5000,M,M,M,M,M,M,M,M,M,73.4,VVTS 022200Z 30002KT 9999 SCT017 SCT050 23/20 Q1012 NOSIG,M
VVTS,2/2/2021 22:30,106.6667,10.8167,73.4,68,83.21,320,2,0,29.88,M,6.21,M,SCT,SCT,M,M,1700,5000,M,M,M,M,M,M,M,M,M,73.4,VVTS 022230Z 32002KT 9999 SCT017 SCT050 23/20 Q1012 NOSIG,M
VVTS,2/2/2021 23:00,106.6667,10.8167,73.4,68,83.21,330,3,0,29.88,M,6.21,M,SCT,SCT,M,M,1700,5000,M,M,M,M,M,M,M,M,M,73.4,VVTS 022300Z 33003KT 9999 SCT017 SCT050 23/20 Q1012 NOSIG,M
VVTS,2/2/2021 23:30,106.6667,10.8167,73.4,68,83.21,M,1,0,29.91,M,4.35,M,FEW,SCT,M,M,1700,5000,M,M,M,M,M,M,M,M,M,73.4,VVTS 022330Z VRB01KT 7000 FEW017 SCT050 23/20 Q1013 NOSIG,M
VVTS,2/3/2021 0:00,106.6667,10.8167,73.4,68,83.21,310,2,0,29.91,M,3.73,M,FEW,SCT,M,M,1700,5000,M,M,M,M,M,M,M,M,M,73.4,VVTS 030000Z 31002KT 6000 FEW017 SCT050 23/20 Q1013 NOSIG,M
VVTS,2/3/2021 0:30,106.6667,10.8167,75.2,68,78.34,310,2,0,29.91,M,3.73,M,FEW,SCT,M,M,1700,5000,M,M,M,M,M,M,M,M,M,75.2,VVTS 030030Z 31002KT 6000 FEW017 SCT050 24/20 Q1013 NOSIG,M
VVTS,2/3/2021 1:00,106.6667,10.8167,75.2,66.2,73.61,320,1,0,29.91,M,4.35,M,FEW,SCT,M,M,2000,5000,M,M,M,M,M,M,M,M,M,75.2,VVTS 030100Z 32001KT 7000 FEW020 SCT050 24/19 Q1013 NOSIG,M
VVTS,2/3/2021 1:30,106.6667,10.8167,77,66.2,69.33,M,2,0,29.94,M,4.97,M,NSC,M,M,M,M,M,M,M,M,M,M,M,M,M,M,77,VVTS 030130Z VRB02KT 8000 NSC 25/19 Q1014 NOSIG,M
VVTS,2/3/2021 2:00,106.6667,10.8167,78.8,66.2,65.33,M,3,0,29.94,M,4.97,M,NSC,M,M,M,M,M,M,M,M,M,M,M,M,M,M,78.8,VVTS 030200Z VRB03KT 8000 NSC 26/19 Q1014 NOSIG,M
VVTS,2/3/2021 2:30,106.6667,10.8167,80.6,66.2,61.58,80,4,0,29.94,M,4.97,M,NSC,M,M,M,M,M,M,M,M,M,M,M,M,M,M,82.75,VVTS 030230Z 08004KT 020V140 8000 NSC 27/19 Q1014 NOSIG,M
VVTS,2/3/2021 3:00,106.6667,10.8167,82.4,66.2,58.08,130,5,0,29.94,M,4.97,M,NSC,M,M,M,M,M,M,M,M,M,M,M,M,M,M,84.63,VVTS 030300Z 13005KT 8000 NSC 28/19 Q1014 NOSIG,M
VVTS,2/3/2021 3:30,106.6667,10.8167,84.2,68,58.32,140,4,0,29.91,M,4.97,M,FEW,M,M,M,2000,M,M,M,M,M,M,M,M,M,M,87.4,VVTS 030330Z 14004KT 110V260 8000 FEW020 29/20 Q1013 NOSIG,M
VVTS,2/3/2021 4:00,106.6667,10.8167,84.2,66.2,54.8,M,5,0,29.91,M,4.97,M,FEW,M,M,M,2000,M,M,M,M,M,M,M,M,M,M,86.5,VVTS 030400Z VRB05KT 8000 FEW020 29/19 Q1013 NOSIG,M
VVTS,2/3/2021 4:30,106.6667,10.8167,84.2,66.2,54.8,120,5,0,29.88,M,4.97,M,FEW,M,M,M,2000,M,M,M,M,M,M,M,M,M,M,86.5,VVTS 030430Z 12005KT 060V190 8000 FEW020 29/19 Q1012 NOSIG,M
VVTS,2/3/2021 5:00,106.6667,10.8167,86,66.2,51.72,M,4,0,29.88,M,4.97,M,SCT,M,M,M,2000,M,M,M,M,M,M,M,M,M,M,88.39,VVTS 030500Z VRB04KT 8000 SCT020 30/19 Q1012 NOSIG,M
VVTS,2/3/2021 5:30,106.6667,10.8167,86,66.2,51.72,190,4,0,29.85,M,4.97,M,SCT,M,M,M,2000,M,M,M,M,M,M,M,M,M,M,88.39,VVTS 030530Z 19004KT 090V250 8000 SCT020 30/19 Q1011 NOSIG,M
VVTS,2/3/2021 6:00,106.6667,10.8167,87.8,66.2,48.84,M,3,0,29.85,M,4.97,M,SCT,M,M,M,2000,M,M,M,M,M,M,M,M,M,M,90.31,VVTS 030600Z VRB03KT 8000 SCT020 31/19 Q1011 NOSIG,M
VVTS,2/3/2021 6:30,106.6667,10.8167,87.8,64.4,45.88,160,4,0,29.83,M,4.97,M,SCT,M,M,M,2000,M,M,M,M,M,M,M,M,M,M,89.33,VVTS 030630Z 16004KT 110V220 8000 SCT020 31/18 Q1010 NOSIG,M
VVTS,2/3/2021 7:00,106.6667,10.8167,87.8,64.4,45.88,M,2,0,29.83,M,4.97,M,SCT,M,M,M,2000,M,M,M,M,M,M,M,M,M,M,89.33,VVTS 030700Z VRB02KT 8000 SCT020 31/18 Q1010 NOSIG,M
VVTS,2/3/2021 7:30,106.6667,10.8167,89.6,64.4,43.34,200,5,0,29.8,M,5.59,M,SCT,M,M,M,1700,M,M,M,M,M,M,M,M,M,M,91.23,VVTS 030730Z 20005KT 140V270 9000 SCT017 32/18 Q1009 NOSIG,M
VVTS,2/3/2021 8:00,106.6667,10.8167,87.8,64.4,45.88,210,6,0,29.8,M,5.59,M,SCT,M,M,M,1700,M,M,M,M,M,M,M,M,M,M,89.33,VVTS 030800Z 21006KT 160V260 9000 SCT017 31/18 Q1009 NOSIG,M
VVTS,2/3/2021 8:30,106.6667,10.8167,87.8,64.4,45.88,220,8,0,29.8,M,5.59,M,SCT,M,M,M,1700,M,M,M,M,M,M,M,M,M,M,89.33,VVTS 030830Z 22008KT 180V270 9000 SCT017 31/18 Q1009 NOSIG,M
VVTS,2/3/2021 9:00,106.6667,10.8167,87.8,64.4,45.88,210,6,0,29.8,M,5.59,M,SCT,M,M,M,1700,M,M,M,M,M,M,M,M,M,M,89.33,VVTS 030900Z 21006KT 180V250 9000 SCT017 31/18 Q1009 NOSIG,M
VVTS,2/3/2021 9:30,106.6667,10.8167,87.8,64.4,45.88,240,6,0,29.83,M,5.59,M,SCT,M,M,M,1700,M,M,M,M,M,M,M,M,M,M,89.33,VVTS 030930Z 24006KT 190V260 9000 SCT017 31/18 Q1010 NOSIG,M
VVTS,2/3/2021 10:00,106.6667,10.8167,86,64.4,48.58,210,9,0,29.83,M,5.59,M,FEW,M,M,M,1700,M,M,M,M,M,M,M,M,M,M,87.49,VVTS 031000Z 21009KT 170V230 9000 FEW017 30/18 Q1010 NOSIG,M
VVTS,2/3/2021 10:30,106.6667,10.8167,84.2,68,58.32,180,9,0,29.83,M,4.97,M,FEW,M,M,M,1700,M,M,M,M,M,M,M,M,M,M,87.4,VVTS 031030Z 18009KT 150V220 8000 FEW017 29/20 Q1010 NOSIG,M
VVTS,2/3/2021 11:00,106.6667,10.8167,80.6,68,65.54,180,9,0,29.83,M,4.97,M,FEW,M,M,M,1700,M,M,M,M,M,M,M,M,M,M,83.29,VVTS 031100Z 18009KT 8000 FEW017 27/20 Q1010 NOSIG,M
VVTS,2/3/2021 11:30,106.6667,10.8167,80.6,68,65.54,170,7,0,29.85,M,4.97,M,FEW,M,M,M,1700,M,M,M,M,M,M,M,M,M,M,83.29,VVTS 031130Z 17007KT 130V210 8000 FEW017 27/20 Q1011 NOSIG,M
VVTS,2/3/2021 12:00,106.6667,10.8167,80.6,66.2,61.58,170,8,0,29.85,M,4.97,M,FEW,M,M,M,1700,M,M,M,M,M,M,M,M,M,M,82.75,VVTS 031200Z 17008KT 140V200 8000 FEW017 27/19 Q1011 NOSIG,M
VVTS,2/3/2021 12:30,106.6667,10.8167,80.6,68,65.54,170,6,0,29.85,M,4.97,M,FEW,M,M,M,1700,M,M,M,M,M,M,M,M,M,M,83.29,VVTS 031230Z 17006KT 140V200 8000 FEW017 27/20 Q1011 NOSIG,M
VVTS,2/3/2021 13:00,106.6667,10.8167,80.6,69.8,69.71,170,4,0,29.88,M,4.97,M,FEW,M,M,M,1700,M,M,M,M,M,M,M,M,M,M,83.9,VVTS 031300Z 17004KT 140V210 8000 FEW017 27/21 Q1012 NOSIG,M
VVTS,2/3/2021 13:30,106.6667,10.8167,80.6,69.8,69.71,M,3,0,29.88,M,4.97,M,FEW,M,M,M,1700,M,M,M,M,M,M,M,M,M,M,83.9,VVTS 031330Z VRB03KT 8000 FEW017 27/21 Q1012 NOSIG,M
VVTS,2/3/2021 14:00,106.6667,10.8167,78.8,69.8,73.95,M,3,0,29.88,M,4.97,M,FEW,M,M,M,1700,M,M,M,M,M,M,M,M,M,M,78.8,VVTS 031400Z VRB03KT 8000 FEW017 26/21 Q1012 NOSIG,M
VVTS,2/3/2021 14:30,106.6667,10.8167,78.8,69.8,73.95,140,4,0,29.91,M,4.97,M,FEW,M,M,M,1700,M,M,M,M,M,M,M,M,M,M,78.8,VVTS 031430Z 14004KT 120V190 8000 FEW017 26/21 Q1013 NOSIG,M
VVTS,2/3/2021 15:00,106.6667,10.8167,77,69.8,78.48,M,1,0,29.88,M,4.97,M,FEW,M,M,M,1700,M,M,M,M,M,M,M,M,M,M,77,VVTS 031500Z VRB01KT 8000 FEW017 25/21 Q1012 NOSIG,M
VVTS,2/3/2021 15:30,106.6667,10.8167,77,69.8,78.48,M,1,0,29.88,M,4.97,M,FEW,M,M,M,1700,M,M,M,M,M,M,M,M,M,M,77,VVTS 031530Z VRB01KT 8000 FEW017 25/21 Q1012 NOSIG,M
VVTS,2/3/2021 16:00,106.6667,10.8167,77,69.8,78.48,M,3,0,29.88,M,4.97,M,FEW,M,M,M,1700,M,M,M,M,M,M,M,M,M,M,77,VVTS 031600Z VRB03KT 8000 FEW017 25/21 Q1012 NOSIG,M
VVTS,2/3/2021 16:30,106.6667,10.8167,77,69.8,78.48,330,4,0,29.88,M,4.97,M,FEW,M,M,M,1700,M,M,M,M,M,M,M,M,M,M,77,VVTS 031630Z 33004KT 8000 FEW017 25/21 Q1012 NOSIG,M
VVTS,2/3/2021 17:00,106.6667,10.8167,77,71.6,83.44,M,3,0,29.88,M,4.97,M,FEW,M,M,M,1700,M,M,M,M,M,M,M,M,M,M,77,VVTS 031700Z VRB03KT 8000 FEW017 25/22 Q1012 NOSIG,M
VVTS,2/3/2021 17:30,106.6667,10.8167,75.2,71.6,88.59,M,3,0,29.88,M,4.97,M,FEW,M,M,M,1700,M,M,M,M,M,M,M,M,M,M,75.2,VVTS 031730Z VRB03KT 8000 FEW017 24/22 Q1012 NOSIG,M
VVTS,2/3/2021 18:00,106.6667,10.8167,75.2,71.6,88.59,M,2,0,29.88,M,4.97,M,FEW,M,M,M,1700,M,M,M,M,M,M,M,M,M,M,75.2,VVTS 031800Z VRB02KT 8000 FEW017 24/22 Q1012 NOSIG,M
VVTS,2/3/2021 18:30,106.6667,10.8167,75.2,69.8,83.32,M,2,0,29.88,M,4.35,M,FEW,M,M,M,1700,M,M,M,M,M,M,M,M,M,M,75.2,VVTS 031830Z VRB02KT 7000 FEW017 24/21 Q1012 NOSIG,M
VVTS,2/3/2021 19:00,106.6667,10.8167,73.4,68,83.21,300,3,0,29.88,M,4.35,M,FEW,M,M,M,1700,M,M,M,M,M,M,M,M,M,M,73.4,VVTS 031900Z 30003KT 7000 FEW017 23/20 Q1012 NOSIG,M
VVTS,2/3/2021 19:30,106.6667,10.8167,75.2,66.2,73.61,M,2,0,29.88,M,4.35,M,FEW,M,M,M,1700,M,M,M,M,M,M,M,M,M,M,75.2,VVTS 031930Z VRB02KT 7000 FEW017 24/19 Q1012 NOSIG,M
VVTS,2/3/2021 20:00,106.6667,10.8167,73.4,66.2,78.19,310,2,0,29.88,M,4.35,M,FEW,M,M,M,1700,M,M,M,M,M,M,M,M,M,M,73.4,VVTS 032000Z 31002KT 7000 FEW017 23/19 Q1012 NOSIG,M
VVTS,2/3/2021 20:30,106.6667,10.8167,73.4,64.4,73.44,300,2,0,29.88,M,4.35,M,FEW,M,M,M,1700,M,M,M,M,M,M,M,M,M,M,73.4,VVTS 032030Z 30002KT 7000 FEW017 23/18 Q1012 NOSIG,M
VVTS,2/3/2021 21:00,106.6667,10.8167,73.4,64.4,73.44,310,3,0,29.88,M,4.35,M,FEW,M,M,M,1700,M,M,M,M,M,M,M,M,M,M,73.4,VVTS 032100Z 31003KT 7000 FEW017 23/18 Q1012 NOSIG,M
VVTS,2/3/2021 21:30,106.6667,10.8167,73.4,64.4,73.44,330,2,0,29.88,M,4.35,M,FEW,M,M,M,1700,M,M,M,M,M,M,M,M,M,M,73.4,VVTS 032130Z 33002KT 7000 FEW017 23/18 Q1012 NOSIG,M
VVTS,2/3/2021 22:00,106.6667,10.8167,73.4,64.4,73.44,M,1,0,29.91,M,4.35,M,FEW,M,M,M,1700,M,M,M,M,M,M,M,M,M,M,73.4,VVTS 032200Z VRB01KT 7000 FEW017 23/18 Q1013 NOSIG,M
VVTS,2/3/2021 22:30,106.6667,10.8167,73.4,64.4,73.44,M,2,0,29.91,M,4.35,M,FEW,M,M,M,1700,M,M,M,M,M,M,M,M,M,M,73.4,VVTS 032230Z VRB02KT 7000 FEW017 23/18 Q1013 NOSIG,M
VVTS,2/3/2021 23:00,106.6667,10.8167,71.6,64.4,78.04,M,2,0,29.91,M,4.35,M,FEW,M,M,M,1700,M,M,M,M,M,M,M,M,M,M,71.6,VVTS 032300Z VRB02KT 7000 FEW017 22/18 Q1013 NOSIG,M
VVTS,2/3/2021 23:30,106.6667,10.8167,69.8,64.4,82.98,340,1,0,29.94,M,4.35,M,FEW,M,M,M,1700,M,M,M,M,M,M,M,M,M,M,69.8,VVTS 032330Z 34001KT 7000 FEW017 21/18 Q1014 NOSIG,M
VVTS,2/4/2021 0:00,106.6667,10.8167,73.4,64.4,73.44,10,2,0,29.94,M,4.97,M,NSC,M,M,M,M,M,M,M,M,M,M,M,M,M,M,73.4,VVTS 040000Z 01002KT 8000 NSC 23/18 Q1014 NOSIG,M
VVTS,2/4/2021 0:30,106.6667,10.8167,73.4,64.4,73.44,M,2,0,29.94,M,4.97,M,NSC,M,M,M,M,M,M,M,M,M,M,M,M,M,M,73.4,VVTS 040030Z VRB02KT 8000 NSC 23/18 Q1014 NOSIG,M
VVTS,2/4/2021 1:00,106.6667,10.8167,75.2,64.4,69.14,M,2,0,29.97,M,4.97,M,NSC,M,M,M,M,M,M,M,M,M,M,M,M,M,M,75.2,VVTS 040100Z VRB02KT 8000 NSC 24/18 Q1015 NOSIG,M
VVTS,2/4/2021 1:30,106.6667,10.8167,77,66.2,69.33,M,1,0,29.97,M,4.97,M,NSC,M,M,M,M,M,M,M,M,M,M,M,M,M,M,77,VVTS 040130Z VRB01KT 8000 NSC 25/19 Q1015 NOSIG,M
VVTS,2/4/2021 2:00,106.6667,10.8167,80.6,66.2,61.58,M,1,0,29.97,M,4.97,M,NSC,M,M,M,M,M,M,M,M,M,M,M,M,M,M,82.75,VVTS 040200Z VRB01KT 8000 NSC 27/19 Q1015 NOSIG,M
VVTS,2/4/2021 2:30,106.6667,10.8167,82.4,64.4,54.55,M,2,0,29.97,M,4.97,M,NSC,M,M,M,M,M,M,M,M,M,M,M,M,M,M,83.98,VVTS 040230Z VRB02KT 8000 NSC 28/18 Q1015 NOSIG,M
VVTS,2/4/2021 3:00,106.6667,10.8167,84.2,66.2,54.8,180,3,0,29.97,M,4.97,M,NSC,M,M,M,M,M,M,M,M,M,M,M,M,M,M,86.5,VVTS 040300Z 18003KT 8000 NSC 29/19 Q1015 NOSIG,M
VVTS,2/4/2021 3:30,106.6667,10.8167,86,64.4,48.58,M,3,0,29.94,M,4.97,M,NSC,M,M,M,M,M,M,M,M,M,M,M,M,M,M,87.49,VVTS 040330Z VRB03KT 8000 NSC 30/18 Q1014 NOSIG,M
VVTS,2/4/2021 4:00,106.6667,10.8167,87.8,64.4,45.88,M,2,0,29.94,M,4.97,M,NSC,M,M,M,M,M,M,M,M,M,M,M,M,M,M,89.33,VVTS 040400Z VRB02KT 8000 NSC 31/18 Q1014 NOSIG,M
VVTS,2/4/2021 4:30,106.6667,10.8167,89.6,64.4,43.34,M,3,0,29.91,M,6.21,M,M,M,M,M,M,M,M,M,M,M,M,M,M,M,M,91.23,VVTS 040430Z VRB03KT CAVOK 32/18 Q1013 NOSIG,M
VVTS,2/4/2021 5:00,106.6667,10.8167,89.6,60.8,38.18,M,2,0,29.91,M,6.21,M,M,M,M,M,M,M,M,M,M,M,M,M,M,M,M,89.54,VVTS 040500Z VRB02KT CAVOK 32/16 Q1013 NOSIG,M
VVTS,2/4/2021 5:30,106.6667,10.8167,89.6,60.8,38.18,270,2,0,29.88,M,6.21,M,FEW,M,M,M,2000,M,M,M,M,M,M,M,M,M,M,89.54,VVTS 040530Z 27002KT 9999 FEW020 32/16 Q1012 NOSIG,M
VVTS,2/4/2021 6:00,106.6667,10.8167,91.4,60.8,36.08,M,5,0,29.88,M,6.21,M,FEW,M,M,M,2000,M,M,M,M,M,M,M,M,M,M,91.4,VVTS 040600Z VRB05KT 9999 FEW020 33/16 Q1012 NOSIG,M
VVTS,2/4/2021 6:30,106.6667,10.8167,93.2,60.8,34.11,110,3,0,29.85,M,6.21,M,FEW,M,M,M,2000,M,M,M,M,M,M,M,M,M,M,93.32,VVTS 040630Z 11003KT 9999 FEW020 34/16 Q1011 NOSIG,M
VVTS,2/4/2021 7:00,106.6667,10.8167,91.4,60.8,36.08,M,2,0,29.83,M,6.21,M,FEW,M,M,M,2000,M,M,M,M,M,M,M,M,M,M,91.4,VVTS 040700Z VRB02KT 9999 FEW020 33/16 Q1010 NOSIG,M
VVTS,2/4/2021 7:30,106.6667,10.8167,91.4,60.8,36.08,M,2,0,29.83,M,6.21,M,FEW,SCT,M,M,2000,5000,M,M,M,M,M,M,M,M,M,91.4,VVTS 040730Z VRB02KT 9999 FEW020 SCT050 33/16 Q1010 NOSIG,M
VVTS,2/4/2021 8:00,106.6667,10.8167,91.4,60.8,36.08,120,4,0,29.8,M,6.21,M,FEW,SCT,M,M,2000,5000,M,M,M,M,M,M,M,M,M,91.4,VVTS 040800Z 12004KT 050V180 9999 FEW020 SCT050 33/16 Q1009 NOSIG,M
VVTS,2/4/2021 8:30,106.6667,10.8167,89.6,62.6,40.69,M,3,0,29.8,M,6.21,M,FEW,SCT,M,M,2000,5000,M,M,M,M,M,M,M,M,M,90.32,VVTS 040830Z VRB03KT 9999 FEW020 SCT050 32/17 Q1009 NOSIG,M
VVTS,2/4/2021 9:00,106.6667,10.8167,87.8,66.2,48.84,280,8,0,29.8,M,6.21,M,FEW,BKN,M,M,2000,5000,M,M,M,M,M,M,M,M,M,90.31,VVTS 040900Z 28008KT 250V320 9999 FEW020 BKN050 31/19 Q1009 NOSIG,M
VVTS,2/4/2021 9:30,106.6667,10.8167,87.8,66.2,48.84,280,8,0,29.83,M,6.21,M,SCT,BKN,M,M,2000,5000,M,M,M,M,M,M,M,M,M,90.31,VVTS 040930Z 28008KT 9999 SCT020 BKN050 31/19 Q1010 NOSIG,M
VVTS,2/4/2021 10:00,106.6667,10.8167,86,68,55.04,200,8,0,29.83,M,4.97,M,SCT,BKN,M,M,2000,5000,M,M,M,M,M,M,M,M,M,89.41,VVTS 041000Z 20008KT 170V240 8000 SCT020 BKN050 30/20 Q1010 NOSIG,M
VVTS,2/4/2021 10:30,106.6667,10.8167,84.2,71.6,65.95,190,7,0,29.83,M,4.97,M,SCT,BKN,M,M,2000,5000,M,M,M,M,M,M,M,M,M,89.6,VVTS 041030Z 19007KT 8000 SCT020 BKN050 29/22 Q1010 NOSIG,M
VVTS,2/4/2021 11:00,106.6667,10.8167,82.4,71.6,69.9,180,8,0,29.85,M,4.97,M,SCT,BKN,M,M,2000,5000,M,M,M,M,M,M,M,M,M,87.18,VVTS 041100Z 18008KT 150V210 8000 SCT020 BKN050 28/22 Q1011 NOSIG,M
VVTS,2/4/2021 11:30,106.6667,10.8167,82.4,69.8,65.74,190,7,0,29.85,M,4.97,M,SCT,BKN,M,M,2000,5000,M,M,M,M,M,M,M,M,M,86.22,VVTS 041130Z 19007KT 160V220 8000 SCT020 BKN050 28/21 Q1011 NOSIG,M
VVTS,2/4/2021 12:00,106.6667,10.8167,82.4,69.8,65.74,190,6,0,29.85,M,6.21,M,SCT,SCT,M,M,2000,5000,M,M,M,M,M,M,M,M,M,86.22,VVTS 041200Z 19006KT 160V220 9999 SCT020 SCT050 28/21 Q1011 NOSIG,M
VVTS,2/4/2021 12:30,106.6667,10.8167,82.4,68,61.81,190,6,0,29.85,M,6.21,M,SCT,SCT,M,M,2000,5000,M,M,M,M,M,M,M,M,M,85.38,VVTS 041230Z 19006KT 9999 SCT020 SCT050 28/20 Q1011 NOSIG,M
VVTS,2/4/2021 13:00,106.6667,10.8167,80.6,68,65.54,190,5,0,29.88,M,6.21,M,SCT,SCT,M,M,2000,5000,M,M,M,M,M,M,M,M,M,83.29,VVTS 041300Z 19005KT 150V220 9999 SCT020 SCT050 27/20 Q1012 NOSIG,M
VVTS,2/4/2021 13:30,106.6667,10.8167,82.4,68,61.81,180,6,0,29.88,M,6.21,M,SCT,SCT,M,M,2000,5000,M,M,M,M,M,M,M,M,M,85.38,VVTS 041330Z 18006KT 9999 SCT020 SCT050 28/20 Q1012 NOSIG,M
VVTS,2/4/2021 14:00,106.6667,10.8167,82.4,68,61.81,190,5,0,29.88,M,6.21,M,SCT,SCT,M,M,2000,5000,M,M,M,M,M,M,M,M,M,85.38,VVTS 041400Z 19005KT 9999 SCT020 SCT050 28/20 Q1012 NOSIG,M
VVTS,2/4/2021 14:30,106.6667,10.8167,82.4,68,61.81,190,5,0,29.88,M,6.21,M,SCT,SCT,M,M,2000,5000,M,M,M,M,M,M,M,M,M,85.38,VVTS 041430Z 19005KT 160V220 9999 SCT020 SCT050 28/20 Q1012 NOSIG,M
VVTS,2/4/2021 15:00,106.6667,10.8167,80.6,68,65.54,170,4,0,29.88,M,4.97,M,FEW,SCT,M,M,1700,5000,M,M,M,M,M,M,M,M,M,83.29,VVTS 041500Z 17004KT 140V210 8000 FEW017 SCT050 27/20 Q1012 NOSIG,M
VVTS,2/4/2021 15:30,106.6667,10.8167,80.6,68,65.54,M,2,0,29.88,M,4.97,M,FEW,SCT,M,M,1700,5000,M,M,M,M,M,M,M,M,M,83.29,VVTS 041530Z VRB02KT 8000 FEW017 SCT050 27/20 Q1012 NOSIG,M
VVTS,2/4/2021 16:00,106.6667,10.8167,80.6,69.8,69.71,M,1,0,29.88,M,4.97,M,FEW,SCT,M,M,1700,5000,M,M,M,M,M,M,M,M,M,83.9,VVTS 041600Z VRB01KT 8000 FEW017 SCT050 27/21 Q1012 NOSIG,M
VVTS,2/4/2021 16:30,106.6667,10.8167,80.6,69.8,69.71,M,1,0,29.88,M,4.97,M,FEW,SCT,M,M,1700,5000,M,M,M,M,M,M,M,M,M,83.9,VVTS 041630Z VRB01KT 8000 FEW017 SCT050 27/21 Q1012 NOSIG,M
VVTS,2/4/2021 17:00,106.6667,10.8167,80.6,69.8,69.71,300,3,0,29.88,M,4.97,M,FEW,SCT,M,M,1700,5000,M,M,M,M,M,M,M,M,M,83.9,VVTS 041700Z 30003KT 8000 FEW017 SCT050 27/21 Q1012 NOSIG,M
VVTS,2/4/2021 17:30,106.6667,10.8167,78.8,69.8,73.95,320,4,0,29.85,M,4.35,M,SCT,M,M,M,1700,M,M,M,M,M,M,M,M,M,M,78.8,VVTS 041730Z 32004KT 7000 SCT017 26/21 Q1011 NOSIG,M
VVTS,2/4/2021 18:00,106.6667,10.8167,78.8,71.6,78.62,320,3,0,29.85,M,4.35,M,SCT,M,M,M,1700,M,M,M,M,M,M,M,M,M,M,78.8,VVTS 041800Z 32003KT 7000 SCT017 26/22 Q1011 NOSIG,M
VVTS,2/4/2021 18:30,106.6667,10.8167,78.8,73.4,83.55,M,3,0,29.85,M,4.35,M,SCT,M,M,M,1700,M,M,M,M,M,M,M,M,M,M,78.8,VVTS 041830Z VRB03KT 7000 SCT017 26/23 Q1011 NOSIG,M
VVTS,2/4/2021 19:00,106.6667,10.8167,78.8,73.4,83.55,260,3,0,29.85,M,4.35,M,SCT,SCT,M,M,1700,5000,M,M,M,M,M,M,M,M,M,78.8,VVTS 041900Z 26003KT 7000 SCT017 SCT050 26/23 Q1011 NOSIG,M
VVTS,2/4/2021 19:30,106.6667,10.8167,77,73.4,88.67,M,3,0,29.85,M,4.35,M,SCT,SCT,M,M,1700,5000,M,M,M,M,M,M,M,M,M,77,VVTS 041930Z VRB03KT 7000 SCT017 SCT050 25/23 Q1011 NOSIG,M
VVTS,2/4/2021 20:00,106.6667,10.8167,78.8,73.4,83.55,290,3,0,29.83,M,4.35,M,SCT,SCT,M,M,1700,5000,M,M,M,M,M,M,M,M,M,78.8,VVTS 042000Z 29003KT 7000 SCT017 SCT050 26/23 Q1010 NOSIG,M
VVTS,2/4/2021 20:30,106.6667,10.8167,78.8,73.4,83.55,290,3,0,29.83,M,4.35,M,SCT,SCT,M,M,1700,5000,M,M,M,M,M,M,M,M,M,78.8,VVTS 042030Z 29003KT 7000 SCT017 SCT050 26/23 Q1010 NOSIG,M
VVTS,2/4/2021 21:00,106.6667,10.8167,77,73.4,88.67,290,2,0,29.83,M,4.35,M,SCT,SCT,M,M,1700,5000,M,M,M,M,M,M,M,M,M,77,VVTS 042100Z 29002KT 7000 SCT017 SCT050 25/23 Q1010 NOSIG,M
VVTS,2/4/2021 21:30,106.6667,10.8167,78.8,73.4,83.55,M,2,0,29.85,M,4.35,M,SCT,SCT,M,M,1700,5000,M,M,M,M,M,M,M,M,M,78.8,VVTS 042130Z VRB02KT 7000 SCT017 SCT050 26/23 Q1011 NOSIG,M
VVTS,2/4/2021 22:00,106.6667,10.8167,78.8,73.4,83.55,310,2,0,29.85,M,3.73,M,SCT,SCT,M,M,1700,5000,M,M,M,M,M,M,M,M,M,78.8,VVTS 042200Z 31002KT 6000 SCT017 SCT050 26/23 Q1011 NOSIG,M
VVTS,2/4/2021 22:30,106.6667,10.8167,77,73.4,88.67,M,3,0,29.85,M,3.73,M,SCT,SCT,M,M,1700,5000,M,M,M,M,M,M,M,M,M,77,VVTS 042230Z VRB03KT 6000 SCT017 SCT050 25/23 Q1011 NOSIG,M
VVTS,2/4/2021 23:00,106.6667,10.8167,77,73.4,88.67,280,3,0,29.88,M,3.73,M,SCT,SCT,M,M,1700,5000,M,M,M,M,M,M,M,M,M,77,VVTS 042300Z 28003KT 6000 SCT017 SCT050 25/23 Q1012 NOSIG,M
VVTS,2/4/2021 23:30,106.6667,10.8167,77,73.4,88.67,290,4,0,29.88,M,3.11,M,SCT,SCT,M,M,1700,5000,M,M,BR,M,M,M,M,M,M,77,VVTS 042330Z 29004KT 5000 BR SCT017 SCT050 25/23 Q1012 NOSIG,M
VVTS,2/5/2021 0:00,106.6667,10.8167,77,73.4,88.67,300,2,0,29.88,M,2.49,M,FEW,SCT,M,M,1500,5000,M,M,BR,M,M,M,M,M,M,77,VVTS 050000Z 30002KT 4000 BR FEW015 SCT050 25/23 Q1012 NOSIG,M
VVTS,2/5/2021 0:30,106.6667,10.8167,78.8,73.4,83.55,300,4,0,29.91,M,2.49,M,FEW,SCT,M,M,1500,5000,M,M,BR,M,M,M,M,M,M,78.8,VVTS 050030Z 30004KT 4000 BR FEW015 SCT050 26/23 Q1013 NOSIG,M
VVTS,2/5/2021 1:00,106.6667,10.8167,78.8,73.4,83.55,300,4,0,29.91,M,2.49,M,SCT,M,M,M,1500,M,M,M,BR,M,M,M,M,M,M,78.8,VVTS 050100Z 30004KT 260V350 4000 BR SCT015 26/23 Q1013 NOSIG,M
VVTS,2/5/2021 1:30,106.6667,10.8167,80.6,73.4,78.76,M,3,0,29.94,M,3.73,M,SCT,M,M,M,1500,M,M,M,M,M,M,M,M,M,M,85.32,VVTS 050130Z VRB03KT 6000 SCT015 27/23 Q1014 NOSIG,M
VVTS,2/5/2021 2:00,106.6667,10.8167,80.6,73.4,78.76,310,4,0,29.94,M,3.73,M,SCT,M,M,M,1500,M,M,M,M,M,M,M,M,M,M,85.32,VVTS 050200Z 31004KT 250V350 6000 SCT015 27/23 Q1014 NOSIG,M
VVTS,2/5/2021 2:30,106.6667,10.8167,82.4,71.6,69.9,330,4,0,29.94,M,4.35,M,FEW,SCT,M,M,1700,5000,M,M,M,M,M,M,M,M,M,87.18,VVTS 050230Z 33004KT 270V050 7000 FEW017 SCT050 28/22 Q1014 NOSIG,M
VVTS,2/5/2021 3:00,106.6667,10.8167,82.4,71.6,69.9,M,3,0,29.94,M,4.35,M,FEW,SCT,M,M,1700,5000,M,M,M,M,M,M,M,M,M,87.18,VVTS 050300Z VRB03KT 7000 FEW017 SCT050 28/22 Q1014 NOSIG,M
VVTS,2/5/2021 3:30,106.6667,10.8167,84.2,71.6,65.95,310,5,0,29.91,M,4.35,M,FEW,SCT,M,M,2000,5000,M,M,M,M,M,M,M,M,M,89.6,VVTS 050330Z 31005KT 200V350 7000 FEW020 SCT050 29/22 Q1013 NOSIG,M
VVTS,2/5/2021 4:00,106.6667,10.8167,84.2,71.6,65.95,M,4,0,29.91,M,4.35,M,FEW,M,M,M,2000,M,M,M,M,M,M,M,M,M,M,89.6,VVTS 050400Z VRB04KT 7000 FEW020 29/22 Q1013 NOSIG,M
VVTS,2/5/2021 4:30,106.6667,10.8167,87.8,69.8,55.29,310,4,0,29.88,M,4.35,M,FEW,M,M,M,2000,M,M,M,M,M,M,M,M,M,M,92.71,VVTS 050430Z 31004KT 220V020 7000 FEW020 31/21 Q1012 NOSIG,M
VVTS,2/5/2021 5:00,106.6667,10.8167,87.8,68,51.98,M,5,0,29.88,M,4.97,M,FEW,M,M,M,2000,M,M,M,M,M,M,M,M,M,M,91.43,VVTS 050500Z VRB05KT 8000 FEW020 31/20 Q1012 NOSIG,M
VVTS,2/5/2021 5:30,106.6667,10.8167,87.8,68,51.98,260,6,0,29.85,M,4.97,M,SCT,M,M,M,2000,M,M,M,M,M,M,M,M,M,M,91.43,VVTS 050530Z 26006KT 8000 SCT020 31/20 Q1011 NOSIG,M
VVTS,2/5/2021 6:00,106.6667,10.8167,89.6,68,49.1,270,5,0,29.85,M,4.97,M,SCT,M,M,M,2000,M,M,M,M,M,M,M,M,M,M,93.47,VVTS 050600Z 27005KT 230V310 8000 SCT020 32/20 Q1011 NOSIG,M
VVTS,2/5/2021 6:30,106.6667,10.8167,89.6,68,49.1,280,6,0,29.83,M,4.97,M,BKN,M,M,M,2000,M,M,M,M,M,M,M,M,M,M,93.47,VVTS 050630Z 28006KT 240V320 8000 BKN020 32/20 Q1010 NOSIG,M
VVTS,2/5/2021 7:00,106.6667,10.8167,87.8,68,51.98,280,6,0,29.83,M,4.97,M,BKN,M,M,M,2000,M,M,M,M,M,M,M,M,M,M,91.43,VVTS 050700Z 28006KT 220V360 8000 BKN020 31/20 Q1010 NOSIG,M
VVTS,2/5/2021 7:30,106.6667,10.8167,89.6,68,49.1,260,5,0,29.8,M,4.97,M,BKN,M,M,M,2000,M,M,M,M,M,M,M,M,M,M,93.47,VVTS 050730Z 26005KT 220V320 8000 BKN020 32/20 Q1009 NOSIG,M
VVTS,2/5/2021 8:00,106.6667,10.8167,89.6,66.2,46.14,280,6,0,29.8,M,4.97,M,BKN,M,M,M,2000,M,M,M,M,M,M,M,M,M,M,92.27,VVTS 050800Z 28006KT 240V320 8000 BKN020 32/19 Q1009 NOSIG,M
VVTS,2/5/2021 8:30,106.6667,10.8167,91.4,66.2,43.61,290,4,0,29.8,M,4.97,M,BKN,M,M,M,2000,M,M,M,M,M,M,M,M,M,M,94.29,VVTS 050830Z 29004KT 230V330 8000 BKN020 33/19 Q1009 NOSIG,M
VVTS,2/5/2021 9:00,106.6667,10.8167,89.6,66.2,46.14,280,4,0,29.8,M,4.97,M,BKN,M,M,M,2000,M,M,M,M,M,M,M,M,M,M,92.27,VVTS 050900Z 28004KT 240V360 8000 BKN020 32/19 Q1009 NOSIG,M
VVTS,2/5/2021 9:30,106.6667,10.8167,89.6,66.2,46.14,300,4,0,29.8,M,6.21,M,SCT,M,M,M,2000,M,M,M,M,M,M,M,M,M,M,92.27,VVTS 050930Z 30004KT 260V330 9999 SCT020 32/19 Q1009 NOSIG,M
VVTS,2/5/2021 10:00,106.6667,10.8167,86,73.4,66.15,230,5,0,29.8,M,6.21,M,SCT,M,M,M,2000,M,M,M,M,M,M,M,M,M,M,93.45,VVTS 051000Z 23005KT 160V290 9999 SCT020 30/23 Q1009 NOSIG,M
VVTS,2/5/2021 10:30,106.6667,10.8167,84.2,73.4,70.08,180,10,0,29.83,M,6.21,M,SCT,SCT,M,M,1700,5000,M,M,M,M,M,M,M,M,M,90.94,VVTS 051030Z 18010KT 9999 SCT017 SCT050 29/23 Q1010 NOSIG,M
VVTS,2/5/2021 11:00,106.6667,10.8167,82.4,71.6,69.9,190,10,0,29.83,M,6.21,M,SCT,SCT,M,M,1700,5000,M,M,M,M,M,M,M,M,M,87.18,VVTS 051100Z 19010KT 9999 SCT017 SCT050 28/22 Q1010 NOSIG,M
VVTS,2/5/2021 11:30,106.6667,10.8167,82.4,71.6,69.9,180,8,0,29.83,M,6.21,M,SCT,SCT,M,M,1700,5000,M,M,M,M,M,M,M,M,M,87.18,VVTS 051130Z 18008KT 130V210 9999 SCT017 SCT050 28/22 Q1010 NOSIG,M
VVTS,2/5/2021 12:00,106.6667,10.8167,80.6,69.8,69.71,160,9,0,29.85,M,6.21,M,SCT,SCT,M,M,1700,5000,M,M,M,M,M,M,M,M,M,83.9,VVTS 051200Z 16009KT 130V200 9999 SCT017 SCT050 27/21 Q1011 NOSIG,M
VVTS,2/5/2021 12:30,106.6667,10.8167,80.6,69.8,69.71,150,8,0,29.85,M,6.21,M,SCT,M,M,M,1700,M,M,M,M,M,M,M,M,M,M,83.9,VVTS 051230Z 15008KT 130V200 9999 SCT017 27/21 Q1011 NOSIG,M
VVTS,2/5/2021 13:00,106.6667,10.8167,80.6,68,65.54,160,6,0,29.85,M,6.21,M,SCT,M,M,M,1700,M,M,M,M,M,M,M,M,M,M,83.29,VVTS 051300Z 16006KT 130V200 9999 SCT017 27/20 Q1011 NOSIG,M
VVTS,2/5/2021 13:30,106.6667,10.8167,80.6,68,65.54,170,7,0,29.85,M,6.21,M,SCT,M,M,M,1700,M,M,M,M,M,M,M,M,M,M,83.29,VVTS 051330Z 17007KT 140V210 9999 SCT017 27/20 Q1011 NOSIG,M
VVTS,2/5/2021 14:00,106.6667,10.8167,80.6,69.8,69.71,160,5,0,29.88,M,6.21,M,SCT,M,M,M,1700,M,M,M,M,M,M,M,M,M,M,83.9,VVTS 051400Z 16005KT 120V190 9999 SCT017 27/21 Q1012 NOSIG,M
VVTS,2/5/2021 14:30,106.6667,10.8167,78.8,69.8,73.95,150,5,0,29.88,M,6.21,M,SCT,M,M,M,1700,M,M,M,M,M,M,M,M,M,M,78.8,VVTS 051430Z 15005KT 9999 SCT017 26/21 Q1012 NOSIG,M
VVTS,2/5/2021 15:00,106.6667,10.8167,78.8,68,69.52,160,4,0,29.85,M,6.21,M,SCT,M,M,M,1700,M,M,M,M,M,M,M,M,M,M,78.8,VVTS 051500Z 16004KT 130V190 9999 SCT017 26/20 Q1011 NOSIG,M
VVTS,2/5/2021 15:30,106.6667,10.8167,78.8,69.8,73.95,120,6,0,29.85,M,6.21,M,FEW,M,M,M,1700,M,M,M,M,M,M,M,M,M,M,78.8,VVTS 051530Z 12006KT 110V170 9999 FEW017 26/21 Q1011 NOSIG,M
VVTS,2/5/2021 16:00,106.6667,10.8167,78.8,69.8,73.95,M,3,0,29.85,M,6.21,M,FEW,SCT,M,M,1700,5000,M,M,M,M,M,M,M,M,M,78.8,VVTS 051600Z VRB03KT 9999 FEW017 SCT050 26/21 Q1011 NOSIG,M
VVTS,2/5/2021 16:30,106.6667,10.8167,77,69.8,78.48,M,3,0,29.85,M,6.21,M,FEW,SCT,M,M,1700,5000,M,M,M,M,M,M,M,M,M,77,VVTS 051630Z VRB03KT 9999 FEW017 SCT050 25/21 Q1011 NOSIG,M
VVTS,2/5/2021 17:00,106.6667,10.8167,77,69.8,78.48,50,6,0,29.85,M,6.21,M,FEW,SCT,M,M,1700,5000,M,M,M,M,M,M,M,M,M,77,VVTS 051700Z 05006KT 010V070 9999 FEW017 SCT050 25/21 Q1011 NOSIG,M
VVTS,2/5/2021 17:30,106.6667,10.8167,75.2,69.8,83.32,M,3,0,29.85,M,6.21,M,FEW,SCT,M,M,1700,5000,M,M,M,M,M,M,M,M,M,75.2,VVTS 051730Z VRB03KT 9999 FEW017 SCT050 24/21 Q1011 NOSIG,M
VVTS,2/5/2021 18:00,106.6667,10.8167,75.2,69.8,83.32,0,0,0,29.85,M,6.21,M,FEW,SCT,M,M,1700,5000,M,M,M,M,M,M,M,M,M,75.2,VVTS 051800Z 00000KT 9999 FEW017 SCT050 24/21 Q1011 NOSIG,M
VVTS,2/5/2021 18:30,106.6667,10.8167,75.2,69.8,83.32,M,2,0,29.85,M,6.21,M,SCT,SCT,M,M,1700,5000,M,M,M,M,M,M,M,M,M,75.2,VVTS 051830Z VRB02KT 9999 SCT017 SCT050 24/21 Q1011 NOSIG,M
VVTS,2/5/2021 19:00,106.6667,10.8167,75.2,69.8,83.32,300,1,0,29.83,M,6.21,M,SCT,SCT,M,M,1700,5000,M,M,M,M,M,M,M,M,M,75.2,VVTS 051900Z 30001KT 9999 SCT017 SCT050 24/21 Q1010 NOSIG,M
VVTS,2/5/2021 19:30,106.6667,10.8167,75.2,69.8,83.32,300,3,0,29.83,M,6.21,M,SCT,SCT,M,M,1700,5000,M,M,M,M,M,M,M,M,M,75.2,VVTS 051930Z 30003KT 9999 SCT017 SCT050 24/21 Q1010 NOSIG,M
VVTS,2/5/2021 20:00,106.6667,10.8167,75.2,69.8,83.32,M,3,0,29.83,M,6.21,M,SCT,SCT,M,M,1700,5000,M,M,M,M,M,M,M,M,M,75.2,VVTS 052000Z VRB03KT 9999 SCT017 SCT050 24/21 Q1010 NOSIG,M
VVTS,2/5/2021 20:30,106.6667,10.8167,75.2,71.6,88.59,270,1,0,29.8,M,6.21,M,SCT,SCT,M,M,1700,5000,M,M,M,M,M,M,M,M,M,75.2,VVTS 052030Z 27001KT 9999 SCT017 SCT050 24/22 Q1009 NOSIG,M
VVTS,2/5/2021 21:00,106.6667,10.8167,75.2,71.6,88.59,M,2,0,29.83,M,6.21,M,SCT,SCT,M,M,1700,5000,M,M,M,M,M,M,M,M,M,75.2,VVTS 052100Z VRB02KT 9999 SCT017 SCT050 24/22 Q1010 NOSIG,M
VVTS,2/5/2021 21:30,106.6667,10.8167,77,71.6,83.44,M,1,0,29.83,M,4.97,M,SCT,SCT,M,M,1700,4000,M,M,M,M,M,M,M,M,M,77,VVTS 052130Z VRB01KT 8000 SCT017 SCT040 25/22 Q1010 NOSIG,M
VVTS,2/5/2021 22:00,106.6667,10.8167,77,71.6,83.44,M,1,0,29.83,M,4.97,M,SCT,SCT,M,M,1700,4000,M,M,M,M,M,M,M,M,M,77,VVTS 052200Z VRB01KT 8000 SCT017 SCT040 25/22 Q1010 NOSIG,M
VVTS,2/5/2021 22:30,106.6667,10.8167,77,71.6,83.44,M,2,0,29.85,M,4.97,M,SCT,SCT,M,M,1700,4000,M,M,M,M,M,M,M,M,M,77,VVTS 052230Z VRB02KT 8000 SCT017 SCT040 25/22 Q1011 NOSIG,M
VVTS,2/5/2021 23:00,106.6667,10.8167,75.2,71.6,88.59,M,1,0,29.85,M,4.97,M,SCT,SCT,M,M,1700,4000,M,M,M,M,M,M,M,M,M,75.2,VVTS 052300Z VRB01KT 8000 SCT017 SCT040 24/22 Q1011 NOSIG,M
VVTS,2/5/2021 23:30,106.6667,10.8167,75.2,71.6,88.59,M,1,0,29.85,M,4.35,M,FEW,SCT,M,M,1700,4000,M,M,M,M,M,M,M,M,M,75.2,VVTS 052330Z VRB01KT 7000 FEW017 SCT040 24/22 Q1011 NOSIG,M
VVTS,2/6/2021 0:00,106.6667,10.8167,77,73.4,88.67,M,1,0,29.88,M,3.73,M,FEW,SCT,M,M,1700,4000,M,M,M,M,M,M,M,M,M,77,VVTS 060000Z VRB01KT 6000 FEW017 SCT040 25/23 Q1012 NOSIG,M
VVTS,2/6/2021 0:30,106.6667,10.8167,77,73.4,88.67,300,2,0,29.88,M,2.49,M,FEW,SCT,M,M,1700,4000,M,M,BR,M,M,M,M,M,M,77,VVTS 060030Z 30002KT 4000 BR FEW017 SCT040 25/23 Q1012 NOSIG,M
VVTS,2/6/2021 1:00,106.6667,10.8167,78.8,73.4,83.55,M,2,0,29.88,M,2.49,M,FEW,SCT,M,M,1700,4000,M,M,BR,M,M,M,M,M,M,78.8,VVTS 060100Z VRB02KT 4000 BR FEW017 SCT040 26/23 Q1012 BECMG TL0130 5000 BR,M
VVTS,2/6/2021 1:30,106.6667,10.8167,78.8,71.6,78.62,M,1,0,29.88,M,1.86,M,FEW,SCT,M,M,1700,4000,M,M,BR,M,M,M,M,M,M,78.8,VVTS 060130Z VRB01KT 3000 BR FEW017 SCT040 26/22 Q1012 BECMG TL0230 3000 BR,M
VVTS,2/6/2021 2:00,106.6667,10.8167,80.6,71.6,74.11,M,3,0,29.91,M,1.24,M,FEW,BKN,M,M,1700,4000,M,M,BR,M,M,M,M,M,M,84.57,VVTS 060200Z VRB03KT 2000 BR FEW017 BKN040 27/22 Q1013 BECMG TL0230 3000 BR,M
VVTS,2/6/2021 2:30,106.6667,10.8167,82.4,71.6,69.9,M,3,0,29.91,M,1.86,M,FEW,BKN,M,M,1700,4000,M,M,BR,M,M,M,M,M,M,87.18,VVTS 060230Z VRB03KT 3000 BR FEW017 BKN040 28/22 Q1013 BECMG TL0300 5000 BR,M
VVTS,2/6/2021 3:00,106.6667,10.8167,84.2,71.6,65.95,M,1,0,29.91,M,1.86,M,FEW,BKN,M,M,1700,4000,M,M,BR,M,M,M,M,M,M,89.6,VVTS 060300Z VRB01KT 3000 BR FEW017 BKN040 29/22 Q1013 BECMG TL0350 6000 NSW,M
VVTS,2/6/2021 3:30,106.6667,10.8167,86,69.8,58.55,M,3,0,29.88,M,3.11,M,NSC,M,M,M,M,M,M,M,HZ,M,M,M,M,M,M,90.58,VVTS 060330Z VRB03KT 5000 HZ NSC 30/21 Q1012 NOSIG,M
VVTS,2/6/2021 4:00,106.6667,10.8167,86,68,55.04,290,4,0,29.88,M,3.73,M,NSC,M,M,M,M,M,M,M,M,M,M,M,M,M,M,89.41,VVTS 060400Z 29004KT 250V350 6000 NSC 30/20 Q1012 NOSIG,M
VVTS,2/6/2021 4:30,106.6667,10.8167,87.8,68,51.98,M,3,0,29.85,M,3.73,M,NSC,M,M,M,M,M,M,M,M,M,M,M,M,M,M,91.43,VVTS 060430Z VRB03KT 6000 NSC 31/20 Q1011 NOSIG,M
VVTS,2/6/2021 5:00,106.6667,10.8167,87.8,66.2,48.84,M,4,0,29.83,M,3.73,M,NSC,M,M,M,M,M,M,M,M,M,M,M,M,M,M,90.31,VVTS 060500Z VRB04KT 6000 NSC 31/19 Q1010 NOSIG,M
VVTS,2/6/2021 5:30,106.6667,10.8167,87.8,68,51.98,290,4,0,29.83,M,3.73,M,SCT,M,M,M,1700,M,M,M,M,M,M,M,M,M,M,91.43,VVTS 060530Z 29004KT 170V340 6000 SCT017 31/20 Q1010 NOSIG,M
VVTS,2/6/2021 6:00,106.6667,10.8167,89.6,68,49.1,M,2,0,29.8,M,4.97,M,SCT,M,M,M,1700,M,M,M,M,M,M,M,M,M,M,93.47,VVTS 060600Z VRB02KT 8000 SCT017 32/20 Q1009 NOSIG,M
VVTS,2/6/2021 6:30,106.6667,10.8167,91.4,68,46.41,320,5,0,29.77,M,4.97,M,SCT,M,M,M,1700,M,M,M,M,M,M,M,M,M,M,95.55,VVTS 060630Z 32005KT 270V020 8000 SCT017 33/20 Q1008 NOSIG,M
VVTS,2/6/2021 7:00,106.6667,10.8167,91.4,66.2,43.61,260,5,0,29.77,M,4.97,M,SCT,M,M,M,1700,M,M,M,M,M,M,M,M,M,M,94.29,VVTS 060700Z 26005KT 230V340 8000 SCT017 33/19 Q1008 NOSIG,M
VVTS,2/6/2021 7:30,106.6667,10.8167,91.4,66.2,43.61,300,4,0,29.74,M,4.97,M,SCT,M,M,M,1700,M,M,M,M,M,M,M,M,M,M,94.29,VVTS 060730Z 30004KT 240V050 8000 SCT017 33/19 Q1007 NOSIG,M
VVTS,2/6/2021 8:00,106.6667,10.8167,89.6,64.4,43.34,M,1,0,29.74,M,4.97,M,SCT,SCT,M,M,1700,4000,M,M,M,M,M,M,M,M,M,91.23,VVTS 060800Z VRB01KT 8000 SCT017 SCT040 32/18 Q1007 NOSIG,M
VVTS,2/6/2021 8:30,106.6667,10.8167,89.6,66.2,46.14,M,3,0,29.74,M,4.97,M,SCT,SCT,M,M,1700,4000,M,M,M,M,M,M,M,M,M,92.27,VVTS 060830Z VRB03KT 8000 SCT017 SCT040 32/19 Q1007 NOSIG,M
VVTS,2/6/2021 9:00,106.6667,10.8167,89.6,68,49.1,220,7,0,29.74,M,4.35,M,SCT,BKN,M,M,1700,4000,M,M,M,M,M,M,M,M,M,93.47,VVTS 060900Z 22007KT 200V260 7000 SCT017 BKN040 32/20 Q1007 NOSIG,M
VVTS,2/6/2021 9:30,106.6667,10.8167,86,71.6,62.25,160,10,0,29.74,M,4.35,M,SCT,FEW,BKN,M,1700,2000,4000,M,#NAME?,M,M,M,M,M,M,91.92,VVTS 060930Z 16010KT 130V200 7000 -RA SCT017 FEW020TCU BKN040 30/22 Q1007 NOSIG RMK TCU OVER RWY,M
VVTS,2/6/2021 10:00,106.6667,10.8167,84.2,71.6,65.95,180,9,0,29.74,M,4.97,M,SCT,BKN,M,M,1700,4000,M,M,M,M,M,M,M,M,M,89.6,VVTS 061000Z 18009KT 150V220 8000 SCT017 BKN040 29/22 Q1007 NOSIG,M
VVTS,2/6/2021 10:30,106.6667,10.8167,84.2,73.4,70.08,180,7,0,29.77,M,4.97,M,SCT,BKN,M,M,1700,4000,M,M,M,M,M,M,M,M,M,90.94,VVTS 061030Z 18007KT 150V210 8000 SCT017 BKN040 29/23 Q1008 NOSIG,M
VVTS,2/6/2021 11:00,106.6667,10.8167,82.4,71.6,69.9,170,7,0,29.77,M,4.97,M,SCT,BKN,M,M,1700,4000,M,M,M,M,M,M,M,M,M,87.18,VVTS 061100Z 17007KT 140V210 8000 SCT017 BKN040 28/22 Q1008 NOSIG,M
VVTS,2/6/2021 11:30,106.6667,10.8167,82.4,69.8,65.74,180,8,0,29.8,M,4.97,M,SCT,BKN,M,M,1700,4000,M,M,M,M,M,M,M,M,M,86.22,VVTS 061130Z 18008KT 8000 SCT017 BKN040 28/21 Q1009 NOSIG,M
VVTS,2/6/2021 12:00,106.6667,10.8167,82.4,68,61.81,180,8,0,29.8,M,4.97,M,SCT,BKN,M,M,1700,4000,M,M,M,M,M,M,M,M,M,85.38,VVTS 061200Z 18008KT 150V210 8000 SCT017 BKN040 28/20 Q1009 NOSIG,M
VVTS,2/6/2021 12:30,106.6667,10.8167,80.6,69.8,69.71,190,7,0,29.83,M,4.97,M,SCT,BKN,M,M,1700,4000,M,M,M,M,M,M,M,M,M,83.9,VVTS 061230Z 19007KT 150V210 8000 SCT017 BKN040 27/21 Q1010 NOSIG,M
VVTS,2/6/2021 13:00,106.6667,10.8167,80.6,69.8,69.71,190,7,0,29.83,M,4.97,M,SCT,BKN,M,M,1700,4000,M,M,M,M,M,M,M,M,M,83.9,VVTS 061300Z 19007KT 160V220 8000 SCT017 BKN040 27/21 Q1010 NOSIG,M
VVTS,2/6/2021 13:30,106.6667,10.8167,80.6,71.6,74.11,190,7,0,29.83,M,4.97,M,SCT,BKN,M,M,1700,4000,M,M,M,M,M,M,M,M,M,84.57,VVTS 061330Z 19007KT 8000 SCT017 BKN040 27/22 Q1010 NOSIG,M
VVTS,2/6/2021 14:00,106.6667,10.8167,80.6,71.6,74.11,180,5,0,29.85,M,4.97,M,SCT,BKN,M,M,1700,4000,M,M,M,M,M,M,M,M,M,84.57,VVTS 061400Z 18005KT 160V230 8000 SCT017 BKN040 27/22 Q1011 NOSIG,M
VVTS,2/6/2021 14:30,106.6667,10.8167,80.6,71.6,74.11,190,4,0,29.85,M,4.97,M,SCT,BKN,M,M,1700,4000,M,M,M,M,M,M,M,M,M,84.57,VVTS 061430Z 19004KT 150V210 8000 SCT017 BKN040 27/22 Q1011 NOSIG,M
VVTS,2/6/2021 15:00,106.6667,10.8167,80.6,71.6,74.11,170,4,0,29.85,M,4.97,M,SCT,BKN,M,M,1700,4000,M,M,M,M,M,M,M,M,M,84.57,VVTS 061500Z 17004KT 150V230 8000 SCT017 BKN040 27/22 Q1011 NOSIG,M
VVTS,2/6/2021 15:30,106.6667,10.8167,80.6,71.6,74.11,M,3,0,29.85,M,4.97,M,SCT,BKN,M,M,1700,4000,M,M,M,M,M,M,M,M,M,84.57,VVTS 061530Z VRB03KT 8000 SCT017 BKN040 27/22 Q1011 NOSIG,M
VVTS,2/6/2021 16:00,106.6667,10.8167,78.8,71.6,78.62,M,1,0,29.85,M,4.97,M,SCT,SCT,M,M,1700,4000,M,M,M,M,M,M,M,M,M,78.8,VVTS 061600Z VRB01KT 8000 SCT017 SCT040 26/22 Q1011 NOSIG,M
VVTS,2/6/2021 16:30,106.6667,10.8167,78.8,71.6,78.62,M,2,0,29.83,M,4.97,M,SCT,SCT,M,M,1700,4000,M,M,M,M,M,M,M,M,M,78.8,VVTS 061630Z VRB02KT 8000 SCT017 SCT040 26/22 Q1010 NOSIG,M
VVTS,2/6/2021 17:00,106.6667,10.8167,78.8,71.6,78.62,0,0,0,29.83,M,4.97,M,SCT,SCT,M,M,1700,4000,M,M,M,M,M,M,M,M,M,78.8,VVTS 061700Z 00000KT 8000 SCT017 SCT040 26/22 Q1010 NOSIG,M
VVTS,2/6/2021 17:30,106.6667,10.8167,78.8,73.4,83.55,290,4,0,29.83,M,4.97,M,SCT,SCT,M,M,1700,4000,M,M,M,M,M,M,M,M,M,78.8,VVTS 061730Z 29004KT 260V320 8000 SCT017 SCT040 26/23 Q1010 NOSIG,M
VVTS,2/6/2021 18:00,106.6667,10.8167,78.8,73.4,83.55,300,3,0,29.83,M,4.97,M,SCT,SCT,M,M,1700,4000,M,M,M,M,M,M,M,M,M,78.8,VVTS 061800Z 30003KT 8000 SCT017 SCT040 26/23 Q1010 NOSIG,M
VVTS,2/6/2021 18:30,106.6667,10.8167,78.8,73.4,83.55,M,2,0,29.83,M,4.35,M,FEW,SCT,M,M,1700,4000,M,M,M,M,M,M,M,M,M,78.8,VVTS 061830Z VRB02KT 7000 FEW017 SCT040 26/23 Q1010 NOSIG,M
VVTS,2/6/2021 19:00,106.6667,10.8167,78.8,73.4,83.55,M,2,0,29.8,M,4.35,M,FEW,SCT,M,M,1700,4000,M,M,M,M,M,M,M,M,M,78.8,VVTS 061900Z VRB02KT 7000 FEW017 SCT040 26/23 Q1009 NOSIG,M
VVTS,2/6/2021 19:30,106.6667,10.8167,78.8,73.4,83.55,M,2,0,29.8,M,4.35,M,FEW,SCT,M,M,1700,4000,M,M,M,M,M,M,M,M,M,78.8,VVTS 061930Z VRB02KT 7000 FEW017 SCT040 26/23 Q1009 NOSIG,M
VVTS,2/6/2021 20:00,106.6667,10.8167,78.8,73.4,83.55,M,2,0,29.8,M,4.35,M,FEW,SCT,M,M,1700,4000,M,M,M,M,M,M,M,M,M,78.8,VVTS 062000Z VRB02KT 7000 FEW017 SCT040 26/23 Q1009 NOSIG,M
VVTS,2/6/2021 20:30,106.6667,10.8167,77,73.4,88.67,300,2,0,29.8,M,4.35,M,FEW,SCT,M,M,1700,4000,M,M,M,M,M,M,M,M,M,77,VVTS 062030Z 30002KT 7000 R25R/1600VP2000N FEW017 SCT040 25/23 Q1009 NOSIG,M
VVTS,2/6/2021 21:00,106.6667,10.8167,77,73.4,88.67,300,2,0,29.8,M,4.35,M,FEW,SCT,M,M,1700,4000,M,M,M,M,M,M,M,M,M,77,VVTS 062100Z 30002KT 7000 FEW017 SCT040 25/23 Q1009 NOSIG,M
VVTS,2/6/2021 21:30,106.6667,10.8167,77,73.4,88.67,M,2,0,29.83,M,3.73,M,FEW,SCT,M,M,1500,4000,M,M,M,M,M,M,M,M,M,77,VVTS 062130Z VRB02KT 6000 FEW015 SCT040 25/23 Q1010 NOSIG,M
VVTS,2/6/2021 22:00,106.6667,10.8167,77,73.4,88.67,320,4,0,29.83,M,3.73,M,FEW,SCT,M,M,1500,4000,M,M,M,M,M,M,M,M,M,77,VVTS 062200Z 32004KT 6000 R25R/1600VP2000N FEW015 SCT040 25/23 Q1010 NOSIG,M
VVTS,2/6/2021 22:30,106.6667,10.8167,77,73.4,88.67,M,1,0,29.83,M,3.73,M,FEW,SCT,M,M,1500,4000,M,M,M,M,M,M,M,M,M,77,VVTS 062230Z VRB01KT 6000 FEW015 SCT040 25/23 Q1010 NOSIG,M
VVTS,2/6/2021 23:00,106.6667,10.8167,77,73.4,88.67,M,3,0,29.85,M,3.73,M,FEW,SCT,M,M,1500,4000,M,M,M,M,M,M,M,M,M,77,VVTS 062300Z VRB03KT 6000 FEW015 SCT040 25/23 Q1011 NOSIG,M
VVTS,2/6/2021 23:30,106.6667,10.8167,75.2,73.4,94.14,340,4,0,29.85,M,3.11,M,FEW,SCT,M,M,1500,4000,M,M,BR,M,M,M,M,M,M,75.2,VVTS 062330Z 34004KT 5000 BR FEW015 SCT040 24/23 Q1011 NOSIG,M
VVTS,2/7/2021 0:00,106.6667,10.8167,75.2,73.4,94.14,M,2,0,29.85,M,3.73,M,FEW,SCT,M,M,1700,4000,M,M,M,M,M,M,M,M,M,75.2,VVTS 070000Z VRB02KT 6000 FEW017 SCT040 24/23 Q1011 NOSIG,M
VVTS,2/7/2021 0:30,106.6667,10.8167,75.2,73.4,94.14,M,3,0,29.88,M,3.73,M,FEW,SCT,M,M,1700,4000,M,M,M,M,M,M,M,M,M,75.2,VVTS 070030Z VRB03KT 6000 FEW017 SCT040 24/23 Q1012 NOSIG,M
VVTS,2/7/2021 1:00,106.6667,10.8167,77,73.4,88.67,M,3,0,29.88,M,3.11,M,FEW,SCT,M,M,1700,4000,M,M,BR,M,M,M,M,M,M,77,VVTS 070100Z VRB03KT 5000 BR FEW017 SCT040 25/23 Q1012 NOSIG,M
VVTS,2/7/2021 1:30,106.6667,10.8167,M,M,M,M,3,0,M,M,2.49,M,FEW,BKN,M,M,1700,4000,M,M,,M,M,M,M,M,M,M,VVTS 070130Z VRB03KT 4000 // FEW017 BKN040 ///// Q//// NOSIG,M
VVTS,2/7/2021 2:00,106.6667,10.8167,78.8,73.4,83.55,320,4,0,29.88,M,2.49,M,FEW,BKN,M,M,1700,4000,M,M,BR,M,M,M,M,M,M,78.8,VVTS 070200Z 32004KT 260V020 4000 BR FEW017 BKN040 26/23 Q1012 NOSIG,M
VVTS,2/7/2021 2:30,106.6667,10.8167,80.6,73.4,78.76,330,5,0,29.88,M,3.11,M,FEW,BKN,M,M,1700,4000,M,M,BR,M,M,M,M,M,M,85.32,VVTS 070230Z 33005KT 300V020 5000 BR FEW017 BKN040 27/23 Q1012 NOSIG,M
VVTS,2/7/2021 3:00,106.6667,10.8167,80.6,73.4,78.76,340,6,0,29.88,M,3.73,M,FEW,BKN,M,M,1700,4000,M,M,M,M,M,M,M,M,M,85.32,VVTS 070300Z 34006KT 310V030 6000 FEW017 BKN040 27/23 Q1012 NOSIG,M
VVTS,2/7/2021 3:30,106.6667,10.8167,82.4,73.4,74.28,350,5,0,29.88,M,3.73,M,FEW,BKN,M,M,1700,4000,M,M,M,M,M,M,M,M,M,88.26,VVTS 070330Z 35005KT 300V060 6000 FEW017 BKN040 28/23 Q1012 NOSIG,M
VVTS,2/7/2021 4:00,106.6667,10.8167,86,73.4,66.15,340,2,0,29.88,M,4.35,M,FEW,BKN,M,M,2000,4000,M,M,M,M,M,M,M,M,M,93.45,VVTS 070400Z 34002KT 7000 FEW020 BKN040 30/23 Q1012 NOSIG,M
VVTS,2/7/2021 4:30,106.6667,10.8167,86,73.4,66.15,M,3,0,29.85,M,4.35,M,FEW,BKN,M,M,2000,4000,M,M,M,M,M,M,M,M,M,93.45,VVTS 070430Z VRB03KT 7000 FEW020 BKN040 30/23 Q1011 NOSIG,M
VVTS,2/7/2021 5:00,106.6667,10.8167,87.8,73.4,62.47,70,3,0,29.85,M,4.35,M,FEW,BKN,M,M,2000,4000,M,M,M,M,M,M,M,M,M,95.86,VVTS 070500Z 07003KT 7000 FEW020 BKN040 31/23 Q1011 NOSIG,M
VVTS,2/7/2021 5:30,106.6667,10.8167,86,73.4,66.15,M,2,0,29.83,M,4.35,M,FEW,BKN,M,M,2000,4000,M,M,M,M,M,M,M,M,M,93.45,VVTS 070530Z VRB02KT 7000 FEW020 BKN040 30/23 Q1010 NOSIG,M
VVTS,2/7/2021 6:00,106.6667,10.8167,87.8,71.6,58.78,240,2,0,29.83,M,4.35,M,SCT,BKN,M,M,2000,4000,M,M,M,M,M,M,M,M,M,94.18,VVTS 070600Z 24002KT 7000 SCT020 BKN040 31/22 Q1010 NOSIG,M
VVTS,2/7/2021 6:30,106.6667,10.8167,87.8,71.6,58.78,360,5,0,29.8,M,4.97,M,SCT,SCT,M,M,2000,5000,M,M,M,M,M,M,M,M,M,94.18,VVTS 070630Z 36005KT 180V310 8000 SCT020 SCT050 31/22 Q1009 NOSIG,M
VVTS,2/7/2021 7:00,106.6667,10.8167,87.8,69.8,55.29,M,3,0,29.8,M,4.97,M,SCT,SCT,M,M,2000,5000,M,M,M,M,M,M,M,M,M,92.71,VVTS 070700Z VRB03KT 8000 SCT020 SCT050 31/21 Q1009 NOSIG,M
VVTS,2/7/2021 7:30,106.6667,10.8167,84.2,73.4,70.08,270,5,0,29.77,M,3.11,M,SCT,FEW,SCT,M,1700,2000,5000,M,SHRA,M,M,M,M,M,M,90.94,VVTS 070730Z 27005KT 200V330 5000 SHRA SCT017 FEW020CB SCT050 29/23 Q1008 TEMPO TL0800 5000 SHRA RMK CB OVER RWY,M
VVTS,2/7/2021 8:00,106.6667,10.8167,82.4,73.4,74.28,240,10,0,29.77,M,4.97,M,SCT,FEW,SCT,M,1700,2000,5000,M,#NAME?,M,M,M,M,M,M,88.26,VVTS 070800Z 24010KT 8000 -SHRA SCT017 FEW020CB SCT050 28/23 Q1008 NOSIG RMK CB OVER RWY,M
VVTS,2/7/2021 8:30,106.6667,10.8167,82.4,75.2,78.9,260,7,0,29.77,M,4.97,M,SCT,FEW,BKN,M,1700,2000,5000,M,M,M,M,M,M,M,M,89.48,VVTS 070830Z 26007KT 8000 SCT017 FEW020CB BKN050 28/24 Q1008 NOSIG RMK CB/SE,M
VVTS,2/7/2021 9:00,106.6667,10.8167,82.4,75.2,78.9,250,6,0,29.77,M,4.35,M,SCT,BKN,M,M,1700,5000,M,M,M,M,M,M,M,M,M,89.48,VVTS 070900Z 25006KT 7000 SCT017 BKN050 28/24 Q1008 NOSIG,M
VVTS,2/7/2021 9:30,106.6667,10.8167,84.2,71.6,65.95,250,3,0,29.77,M,4.35,M,SCT,BKN,M,M,1700,5000,M,M,#NAME?,M,M,M,M,M,M,89.6,VVTS 070930Z 25003KT 7000 -RA SCT017 BKN050 29/22 Q1008 NOSIG,M
VVTS,2/7/2021 10:00,106.6667,10.8167,86,69.8,58.55,230,3,0,29.77,M,4.97,M,SCT,BKN,M,M,1700,5000,M,M,M,M,M,M,M,M,M,90.58,VVTS 071000Z 23003KT 8000 SCT017 BKN050 30/21 Q1008 NOSIG,M
VVTS,2/7/2021 10:30,106.6667,10.8167,86,71.6,62.25,210,4,0,29.8,M,4.97,M,FEW,SCT,M,M,1700,5000,M,M,M,M,M,M,M,M,M,91.92,VVTS 071030Z 21004KT 8000 FEW017 SCT050 30/22 Q1009 NOSIG,M
VVTS,2/7/2021 11:00,106.6667,10.8167,82.4,75.2,78.9,180,7,0,29.8,M,4.35,M,FEW,SCT,M,M,1700,5000,M,M,M,M,M,M,M,M,M,89.48,VVTS 071100Z 18007KT 150V210 7000 FEW017 SCT050 28/24 Q1009 NOSIG,M
VVTS,2/7/2021 11:30,106.6667,10.8167,82.4,73.4,74.28,180,6,0,29.83,M,4.35,M,FEW,SCT,M,M,1700,5000,M,M,M,M,M,M,M,M,M,88.26,VVTS 071130Z 18006KT 150V230 7000 FEW017 SCT050 28/23 Q1010 NOSIG,M
VVTS,2/7/2021 12:00,106.6667,10.8167,82.4,71.6,69.9,180,6,0,29.83,M,4.97,M,FEW,SCT,M,M,1700,5000,M,M,M,M,M,M,M,M,M,87.18,VVTS 071200Z 18006KT 8000 FEW017 SCT050 28/22 Q1010 NOSIG,M
VVTS,2/7/2021 12:30,106.6667,10.8167,82.4,69.8,65.74,160,5,0,29.83,M,5.59,M,SCT,SCT,M,M,1700,5000,M,M,M,M,M,M,M,M,M,86.22,VVTS 071230Z 16005KT 9000 SCT017 SCT050 28/21 Q1010 NOSIG,M
VVTS,2/7/2021 13:00,106.6667,10.8167,82.4,69.8,65.74,180,4,0,29.83,M,5.59,M,SCT,SCT,M,M,1700,5000,M,M,M,M,M,M,M,M,M,86.22,VVTS 071300Z 18004KT 150V210 9000 SCT017 SCT050 28/21 Q1010 NOSIG,M
VVTS,2/7/2021 13:30,106.6667,10.8167,80.6,71.6,74.11,M,3,0,29.85,M,5.59,M,SCT,SCT,M,M,1700,5000,M,M,M,M,M,M,M,M,M,84.57,VVTS 071330Z VRB03KT 9000 SCT017 SCT050 27/22 Q1011 NOSIG,M
VVTS,2/7/2021 14:00,106.6667,10.8167,80.6,71.6,74.11,200,4,0,29.85,M,5.59,M,SCT,SCT,M,M,1700,5000,M,M,M,M,M,M,M,M,M,84.57,VVTS 071400Z 20004KT 160V230 9000 SCT017 SCT050 27/22 Q1011 NOSIG,M
VVTS,2/7/2021 14:30,106.6667,10.8167,80.6,73.4,78.76,M,3,0,29.85,M,5.59,M,SCT,SCT,M,M,1700,5000,M,M,M,M,M,M,M,M,M,85.32,VVTS 071430Z VRB03KT 9000 SCT017 SCT050 27/23 Q1011 NOSIG,M
VVTS,2/7/2021 15:00,106.6667,10.8167,80.6,73.4,78.76,190,4,0,29.85,M,4.97,M,FEW,SCT,M,M,1700,5000,M,M,M,M,M,M,M,M,M,85.32,VVTS 071500Z 19004KT 160V220 8000 FEW017 SCT050 27/23 Q1011 NOSIG,M
VVTS,2/7/2021 15:30,106.6667,10.8167,80.6,73.4,78.76,M,3,0,29.85,M,4.97,M,FEW,SCT,M,M,1700,5000,M,M,M,M,M,M,M,M,M,85.32,VVTS 071530Z VRB03KT 8000 FEW017 SCT050 27/23 Q1011 NOSIG,M
VVTS,2/7/2021 16:00,106.6667,10.8167,80.6,73.4,78.76,M,3,0,29.85,M,4.97,M,FEW,SCT,M,M,1700,5000,M,M,M,M,M,M,M,M,M,85.32,VVTS 071600Z VRB03KT 8000 FEW017 SCT050 27/23 Q1011 NOSIG,M
VVTS,2/7/2021 16:30,106.6667,10.8167,80.6,73.4,78.76,M,2,0,29.83,M,4.97,M,FEW,SCT,M,M,1700,5000,M,M,M,M,M,M,M,M,M,85.32,VVTS 071630Z VRB02KT 8000 FEW017 SCT050 27/23 Q1010 NOSIG,M
VVTS,2/7/2021 17:00,106.6667,10.8167,78.8,71.6,78.62,M,1,0,29.83,M,4.97,M,FEW,BKN,M,M,1700,5000,M,M,M,M,M,M,M,M,M,78.8,VVTS 071700Z VRB01KT 8000 FEW017 BKN050 26/22 Q1010 NOSIG,M
VVTS,2/7/2021 17:30,106.6667,10.8167,78.8,73.4,83.55,M,2,0,29.83,M,4.97,M,FEW,BKN,M,M,1700,5000,M,M,M,M,M,M,M,M,M,78.8,VVTS 071730Z VRB02KT 8000 FEW017 BKN050 26/23 Q1010 NOSIG,M
VVTS,2/7/2021 18:00,106.6667,10.8167,77,73.4,88.67,100,4,0,29.83,M,4.97,M,FEW,BKN,M,M,1700,5000,M,M,M,M,M,M,M,M,M,77,VVTS 071800Z 10004KT 070V140 8000 FEW017 BKN050 25/23 Q1010 NOSIG,M
VVTS,2/7/2021 18:30,106.6667,10.8167,78.8,71.6,78.62,M,2,0,29.8,M,4.97,M,FEW,BKN,M,M,1700,5000,M,M,M,M,M,M,M,M,M,78.8,VVTS 071830Z VRB02KT 8000 FEW017 BKN050 26/22 Q1009 NOSIG,M
VVTS,2/7/2021 19:00,106.6667,10.8167,77,71.6,83.44,M,1,0,29.8,M,4.97,M,FEW,BKN,M,M,1700,5000,M,M,M,M,M,M,M,M,M,77,VVTS 071900Z VRB01KT 8000 FEW017 BKN050 25/22 Q1009 NOSIG,M
VVTS,2/7/2021 19:30,106.6667,10.8167,77,73.4,88.67,M,2,0,29.8,M,4.97,M,FEW,SCT,M,M,1700,5000,M,M,M,M,M,M,M,M,M,77,VVTS 071930Z VRB02KT 8000 FEW017 SCT050 25/23 Q1009 NOSIG,M
VVTS,2/7/2021 20:00,106.6667,10.8167,77,73.4,88.67,40,2,0,29.8,M,4.97,M,FEW,SCT,M,M,1700,5000,M,M,M,M,M,M,M,M,M,77,VVTS 072000Z 04002KT 8000 FEW017 SCT050 25/23 Q1009 NOSIG,M
VVTS,2/7/2021 20:30,106.6667,10.8167,75.2,73.4,94.14,90,2,0,29.8,M,4.97,M,FEW,SCT,M,M,1700,5000,M,M,M,M,M,M,M,M,M,75.2,VVTS 072030Z 09002KT 8000 FEW017 SCT050 24/23 Q1009 NOSIG,M
VVTS,2/7/2021 21:00,106.6667,10.8167,78.8,73.4,83.55,130,4,0,29.8,M,4.97,M,FEW,SCT,M,M,1700,5000,M,M,M,M,M,M,M,M,M,78.8,VVTS 072100Z 13004KT 100V170 8000 FEW017 SCT050 26/23 Q1009 NOSIG,M
VVTS,2/7/2021 21:30,106.6667,10.8167,77,73.4,88.67,140,5,0,29.8,M,4.97,M,FEW,SCT,M,M,1700,5000,M,M,M,M,M,M,M,M,M,77,VVTS 072130Z 14005KT 8000 FEW017 SCT050 25/23 Q1009 NOSIG,M
VVTS,2/7/2021 22:00,106.6667,10.8167,77,73.4,88.67,120,3,0,29.83,M,4.97,M,FEW,SCT,M,M,1700,5000,M,M,M,M,M,M,M,M,M,77,VVTS 072200Z 12003KT 8000 FEW017 SCT050 25/23 Q1010 NOSIG,M
VVTS,2/7/2021 22:30,106.6667,10.8167,77,73.4,88.67,M,3,0,29.83,M,3.73,M,FEW,SCT,M,M,1700,5000,M,M,M,M,M,M,M,M,M,77,VVTS 072230Z VRB03KT 6000 FEW017 SCT050 25/23 Q1010 NOSIG,M
VVTS,2/7/2021 23:00,106.6667,10.8167,77,73.4,88.67,M,3,0,29.83,M,3.73,M,FEW,SCT,M,M,1700,5000,M,M,M,M,M,M,M,M,M,77,VVTS 072300Z VRB03KT 6000 FEW017 SCT050 25/23 Q1010 NOSIG,M
VVTS,2/7/2021 23:30,106.6667,10.8167,77,73.4,88.67,30,3,0,29.85,M,3.73,M,SCT,BKN,M,M,1700,5000,M,M,M,M,M,M,M,M,M,77,VVTS 072330Z 03003KT 6000 SCT017 BKN050 25/23 Q1011 NOSIG,M
VVTS,2/8/2021 0:00,106.6667,10.8167,77,73.4,88.67,M,3,0,29.85,M,3.73,M,SCT,FEW,SCT,M,1700,2000,5000,M,M,M,M,M,M,M,M,77,VVTS 080000Z VRB03KT 6000 SCT017 FEW020TCU SCT050 25/23 Q1011 NOSIG RMK TCU/N,M
VVTS,2/8/2021 0:30,106.6667,10.8167,78.8,73.4,83.55,80,3,0,29.85,M,3.73,M,SCT,FEW,SCT,M,1700,2000,5000,M,M,M,M,M,M,M,M,78.8,VVTS 080030Z 08003KT 6000 SCT017 FEW020TCU SCT050 26/23 Q1011 NOSIG RMK TCU/E,M
VVTS,2/8/2021 1:00,106.6667,10.8167,78.8,73.4,83.55,80,6,0,29.88,M,3.73,M,SCT,FEW,SCT,M,1700,2000,5000,M,M,M,M,M,M,M,M,78.8,VVTS 080100Z 08006KT 6000 SCT017 FEW020TCU SCT050 26/23 Q1012 NOSIG RMK TCU/E,M
VVTS,2/8/2021 1:30,106.6667,10.8167,78.8,73.4,83.55,50,4,0,29.88,M,3.73,M,SCT,FEW,SCT,M,1700,2000,5000,M,M,M,M,M,M,M,M,78.8,VVTS 080130Z 05004KT 020V100 6000 SCT017 FEW020TCU SCT050 26/23 Q1012 NOSIG RMK TCU/E,M
VVTS,2/8/2021 2:00,106.6667,10.8167,80.6,73.4,78.76,20,4,0,29.88,M,3.73,M,SCT,FEW,SCT,M,1700,2000,5000,M,M,M,M,M,M,M,M,85.32,VVTS 080200Z 02004KT 340V050 6000 SCT017 FEW020TCU SCT050 27/23 Q1012 NOSIG RMK TCU/E,M
VVTS,2/8/2021 2:30,106.6667,10.8167,80.6,73.4,78.76,360,5,0,29.88,M,3.11,M,SCT,BKN,M,M,1700,5000,M,M,BR,M,M,M,M,M,M,85.32,VVTS 080230Z 36005KT 320V040 5000 BR SCT017 BKN050 27/23 Q1012 NOSIG,M
VVTS,2/8/2021 3:00,106.6667,10.8167,82.4,75.2,78.9,10,4,0,29.88,M,2.17,M,SCT,BKN,M,M,1700,5000,M,M,BR,M,M,M,M,M,M,89.48,VVTS 080300Z 01004KT 320V040 3500 BR SCT017 BKN050 28/24 Q1012 BECMG TL0330 2000 BR,M
VVTS,2/8/2021 3:30,106.6667,10.8167,82.4,75.2,78.9,330,5,0,29.88,M,2.17,M,SCT,FEW,SCT,M,1700,2000,5000,M,BR,M,M,M,M,M,M,89.48,VVTS 080330Z 33005KT 300V360 3500 BR SCT017 FEW020TCU SCT050 28/24 Q1012 BECMG TL0430 5000 BR RMK TCU OVER RWY,M
VVTS,2/8/2021 4:00,106.6667,10.8167,82.4,75.2,78.9,320,5,0,29.88,M,2.49,M,SCT,FEW,SCT,M,1700,2000,5000,M,BR,M,M,M,M,M,M,89.48,VVTS 080400Z 32005KT 290V020 4000 BR SCT017 FEW020TCU SCT050 28/24 Q1012 NOSIG RMK TCU OVER RWY,M
VVTS,2/8/2021 4:30,106.6667,10.8167,84.2,75.2,74.44,320,4,0,29.85,M,3.73,M,SCT,M,M,M,1700,M,M,M,M,M,M,M,M,M,M,92.45,VVTS 080430Z 32004KT 270V030 6000 SCT017 29/24 Q1011 NOSIG,M
VVTS,2/8/2021 5:00,106.6667,10.8167,84.2,75.2,74.44,310,7,0,29.85,M,3.73,M,SCT,M,M,M,1700,M,M,M,M,M,M,M,M,M,M,92.45,VVTS 080500Z 31007KT 280V340 6000 SCT017 29/24 Q1011 NOSIG,M
VVTS,2/8/2021 5:30,106.6667,10.8167,87.8,75.2,66.35,300,8,0,29.83,M,4.35,M,SCT,M,M,M,1700,M,M,M,M,M,M,M,M,M,M,97.76,VVTS 080530Z 30008KT 260V340 7000 SCT017 31/24 Q1010 NOSIG,M
VVTS,2/8/2021 6:00,106.6667,10.8167,87.8,73.4,62.47,320,7,0,29.8,M,4.35,M,SCT,M,M,M,1700,M,M,M,M,M,M,M,M,M,M,95.86,VVTS 080600Z 32007KT 270V350 7000 SCT017 31/23 Q1009 NOSIG,M
VVTS,2/8/2021 6:30,106.6667,10.8167,89.6,73.4,59.01,290,7,0,29.8,M,4.35,M,SCT,FEW,M,M,1700,2000,M,M,M,M,M,M,M,M,M,98.2,VVTS 080630Z 29007KT 250V320 7000 SCT017 FEW020TCU 32/23 Q1009 NOSIG RMK TCU/NE,M
VVTS,2/8/2021 7:00,106.6667,10.8167,89.6,71.6,55.53,320,9,0,29.77,M,4.97,M,SCT,FEW,M,M,1700,2000,M,M,M,M,M,M,M,M,M,96.41,VVTS 080700Z 32009KT 270V340 8000 SCT017 FEW020CB 32/22 Q1008 TEMPO FM0720 TL0755 04015G25KT 3000 TSRA RMK CB/NE/SE,M
VVTS,2/8/2021 7:30,106.6667,10.8167,87.8,71.6,58.78,290,6,0,29.77,M,4.35,M,SCT,FEW,M,M,1700,2000,M,M,#NAME?,M,M,M,M,M,M,94.18,VVTS 080730Z 29006KT 250V340 7000 -SHRA SCT017 FEW020CB 31/22 Q1008 TEMPO TL0755 04015G25KT 5000 TSRA RMK CB OVER RWY,M
VVTS,2/8/2021 8:00,106.6667,10.8167,82.4,73.4,74.28,M,8,0,29.77,M,4.35,M,SCT,FEW,SCT,M,1500,1700,5000,M,#NAME?,M,M,M,M,M,M,88.26,VVTS 080800Z VRB08KT 7000 -SHRA SCT015 FEW017CB SCT050 28/23 Q1008 TEMPO TL0825 14015G25KT 5000 TSRA,M
VVTS,2/8/2021 8:30,106.6667,10.8167,73.4,73.4,100,140,8,0,29.77,M,0.93,M,SCT,SCT,M,M,1000,1300,M,M,#NAME?,M,M,M,M,M,M,73.4,VVTS 080830Z 14008KT 1500 R25R/0500V0750 +TSRA SCT010 SCT013CB 23/23 Q1008 BECMG TL0850 3000 TSRA,M
VVTS,2/8/2021 9:00,106.6667,10.8167,75.2,75.2,100,170,7,0,29.77,M,3.11,M,SCT,FEW,BKN,M,1000,1300,5000,M,TSRA,M,M,M,M,M,M,75.2,VVTS 080900Z 17007KT 5000 TSRA SCT010 FEW013CB BKN050 24/24 Q1008 NOSIG RMK CB OVER RWY,M
VVTS,2/8/2021 9:30,106.6667,10.8167,75.2,75.2,100,190,7,0,29.77,M,3.73,M,SCT,FEW,BKN,M,1300,1500,5000,M,-RA BR,M,M,M,M,M,M,75.2,VVTS 080930Z 19007KT 6000 -RA BR SCT013 FEW015CB BKN050 24/24 Q1008 RERA NOSIG RMK CB/SW,M
VVTS,2/8/2021 10:00,106.6667,10.8167,75.2,73.4,94.14,200,7,0,29.77,M,4.97,M,SCT,BKN,M,M,1300,5000,M,M,#NAME?,M,M,M,M,M,M,75.2,VVTS 081000Z 20007KT 8000 -RA SCT013 BKN050 24/23 Q1008 NOSIG,M
VVTS,2/8/2021 10:30,106.6667,10.8167,77,73.4,88.67,180,6,0,29.8,M,4.97,M,FEW,BKN,M,M,1300,5000,M,M,M,M,M,M,M,M,M,77,VVTS 081030Z 18006KT 150V210 8000 FEW013 BKN050 25/23 Q1009 NOSIG,M
VVTS,2/8/2021 11:00,106.6667,10.8167,77,75.2,94.19,170,7,0,29.8,M,4.97,M,FEW,BKN,M,M,1300,5000,M,M,M,M,M,M,M,M,M,77,VVTS 081100Z 17007KT 140V210 8000 FEW013 BKN050 25/24 Q1009 NOSIG,M
VVTS,2/8/2021 11:30,106.6667,10.8167,77,73.4,88.67,230,4,0,29.8,M,4.97,M,FEW,BKN,M,M,1300,5000,M,M,M,M,M,M,M,M,M,77,VVTS 081130Z 23004KT 160V260 8000 FEW013 BKN050 25/23 Q1009 NOSIG,M
VVTS,2/8/2021 12:00,106.6667,10.8167,77,75.2,94.19,170,5,0,29.8,M,4.97,M,FEW,BKN,M,M,1500,5000,M,M,M,M,M,M,M,M,M,77,VVTS 081200Z 17005KT 8000 FEW015 BKN050 25/24 Q1009 NOSIG,M
VVTS,2/8/2021 12:30,106.6667,10.8167,77,75.2,94.19,180,5,0,29.8,M,4.97,M,FEW,BKN,M,M,1500,5000,M,M,M,M,M,M,M,M,M,77,VVTS 081230Z 18005KT 8000 FEW015 BKN050 25/24 Q1009 NOSIG,M
VVTS,2/8/2021 13:00,106.6667,10.8167,77,75.2,94.19,M,3,0,29.83,M,6.21,M,FEW,BKN,M,M,1700,5000,M,M,M,M,M,M,M,M,M,77,VVTS 081300Z VRB03KT 9999 FEW017 BKN050 25/24 Q1010 NOSIG,M
VVTS,2/8/2021 13:30,106.6667,10.8167,78.8,73.4,83.55,170,4,0,29.83,M,6.21,M,FEW,BKN,M,M,1700,5000,M,M,M,M,M,M,M,M,M,78.8,VVTS 081330Z 17004KT 9999 FEW017 BKN050 26/23 Q1010 NOSIG,M
VVTS,2/8/2021 14:00,106.6667,10.8167,77,73.4,88.67,190,5,0,29.83,M,6.21,M,FEW,BKN,M,M,1700,5000,M,M,M,M,M,M,M,M,M,77,VVTS 081400Z 19005KT 9999 FEW017 BKN050 25/23 Q1010 NOSIG,M
VVTS,2/8/2021 14:30,106.6667,10.8167,78.8,73.4,83.55,M,3,0,29.85,M,6.21,M,FEW,BKN,M,M,1700,5000,M,M,M,M,M,M,M,M,M,78.8,VVTS 081430Z VRB03KT 9999 FEW017 BKN050 26/23 Q1011 NOSIG,M
VVTS,2/8/2021 15:00,106.6667,10.8167,78.8,73.4,83.55,M,2,0,29.83,M,6.21,M,FEW,BKN,M,M,1700,5000,M,M,M,M,M,M,M,M,M,78.8,VVTS 081500Z VRB02KT 9999 FEW017 BKN050 26/23 Q1010 NOSIG,M
VVTS,2/8/2021 15:30,106.6667,10.8167,78.8,73.4,83.55,M,1,0,29.85,M,6.21,M,SCT,BKN,M,M,1700,5000,M,M,M,M,M,M,M,M,M,78.8,VVTS 081530Z VRB01KT 9999 SCT017 BKN050 26/23 Q1011 NOSIG,M
VVTS,2/8/2021 16:00,106.6667,10.8167,78.8,73.4,83.55,60,4,0,29.85,M,6.21,M,SCT,BKN,M,M,1700,5000,M,M,M,M,M,M,M,M,M,78.8,VVTS 081600Z 06004KT 020V090 9999 SCT017 BKN050 26/23 Q1011 NOSIG,M
VVTS,2/8/2021 16:30,106.6667,10.8167,78.8,73.4,83.55,M,3,0,29.85,M,6.21,M,SCT,BKN,M,M,1700,5000,M,M,M,M,M,M,M,M,M,78.8,VVTS 081630Z VRB03KT 9999 SCT017 BKN050 26/23 Q1011 NOSIG,M
VVTS,2/8/2021 17:00,106.6667,10.8167,77,75.2,94.19,M,3,0,29.83,M,4.97,M,SCT,BKN,M,M,1700,5000,M,M,M,M,M,M,M,M,M,77,VVTS 081700Z VRB03KT 8000 SCT017 BKN050 25/24 Q1010 NOSIG,M
VVTS,2/8/2021 17:30,106.6667,10.8167,77,75.2,94.19,M,3,0,29.83,M,4.97,M,SCT,FEW,BKN,M,1500,1700,5000,M,M,M,M,M,M,M,M,77,VVTS 081730Z VRB03KT 8000 SCT015 FEW017TCU BKN050 25/24 Q1010 NOSIG,M
VVTS,2/8/2021 18:00,106.6667,10.8167,77,75.2,94.19,M,3,0,29.83,M,4.97,M,SCT,BKN,M,M,1500,5000,M,M,M,M,M,M,M,M,M,77,VVTS 081800Z VRB03KT 8000 SCT015 BKN050 25/24 Q1010 NOSIG,M
VVTS,2/8/2021 18:30,106.6667,10.8167,77,73.4,88.67,M,2,0,29.8,M,4.97,M,SCT,BKN,M,M,1500,5000,M,M,M,M,M,M,M,M,M,77,VVTS 081830Z VRB02KT 8000 SCT015 BKN050 25/23 Q1009 NOSIG,M
VVTS,2/8/2021 19:00,106.6667,10.8167,77,75.2,94.19,M,1,0,29.8,M,4.97,M,SCT,BKN,M,M,1500,5000,M,M,M,M,M,M,M,M,M,77,VVTS 081900Z VRB01KT 8000 SCT015 BKN050 25/24 Q1009 NOSIG,M
VVTS,2/8/2021 19:30,106.6667,10.8167,77,75.2,94.19,M,1,0,29.8,M,4.97,M,SCT,BKN,M,M,1500,5000,M,M,M,M,M,M,M,M,M,77,VVTS 081930Z VRB01KT 8000 SCT015 BKN050 25/24 Q1009 NOSIG,M
VVTS,2/8/2021 20:00,106.6667,10.8167,77,75.2,94.19,M,1,0,29.77,M,4.97,M,SCT,BKN,M,M,1700,5000,M,M,M,M,M,M,M,M,M,77,VVTS 082000Z VRB01KT 8000 SCT017 BKN050 25/24 Q1008 NOSIG,M
VVTS,2/8/2021 20:30,106.6667,10.8167,77,75.2,94.19,M,2,0,29.77,M,4.97,M,SCT,BKN,M,M,1700,5000,M,M,M,M,M,M,M,M,M,77,VVTS 082030Z VRB02KT 8000 SCT017 BKN050 25/24 Q1008 NOSIG,M
VVTS,2/8/2021 21:00,106.6667,10.8167,77,75.2,94.19,M,1,0,29.77,M,4.97,M,SCT,BKN,M,M,1700,5000,M,M,M,M,M,M,M,M,M,77,VVTS 082100Z VRB01KT 8000 SCT017 BKN050 25/24 Q1008 NOSIG,M
VVTS,2/8/2021 21:30,106.6667,10.8167,77,75.2,94.19,M,2,0,29.8,M,4.97,M,SCT,BKN,M,M,1700,5000,M,M,M,M,M,M,M,M,M,77,VVTS 082130Z VRB02KT 8000 SCT017 BKN050 25/24 Q1009 NOSIG,M
VVTS,2/8/2021 22:00,106.6667,10.8167,77,73.4,88.67,310,2,0,29.8,M,4.35,M,FEW,BKN,M,M,1700,5000,M,M,M,M,M,M,M,M,M,77,VVTS 082200Z 31002KT 7000 FEW017 BKN050 25/23 Q1009 NOSIG,M
VVTS,2/8/2021 22:30,106.6667,10.8167,77,73.4,88.67,M,3,0,29.8,M,4.35,M,FEW,BKN,M,M,1700,5000,M,M,M,M,M,M,M,M,M,77,VVTS 082230Z VRB03KT 7000 FEW017 BKN050 25/23 Q1009 NOSIG,M
VVTS,2/8/2021 23:00,106.6667,10.8167,77,73.4,88.67,M,2,0,29.83,M,4.35,M,FEW,BKN,M,M,1700,5000,M,M,M,M,M,M,M,M,M,77,VVTS 082300Z VRB02KT 7000 FEW017 BKN050 25/23 Q1010 NOSIG,M
VVTS,2/8/2021 23:30,106.6667,10.8167,75.2,73.4,94.14,M,1,0,29.83,M,4.35,M,FEW,BKN,M,M,1700,5000,M,M,M,M,M,M,M,M,M,75.2,VVTS 082330Z VRB01KT 7000 FEW017 BKN050 24/23 Q1010 NOSIG,M
VVTS,2/9/2021 0:00,106.6667,10.8167,77,73.4,88.67,M,2,0,29.85,M,4.97,M,FEW,SCT,M,M,1700,5000,M,M,M,M,M,M,M,M,M,77,VVTS 090000Z VRB02KT 8000 FEW017 SCT050 25/23 Q1011 NOSIG,M
VVTS,2/9/2021 0:30,106.6667,10.8167,77,73.4,88.67,M,2,0,29.85,M,4.97,M,FEW,SCT,M,M,1700,5000,M,M,M,M,M,M,M,M,M,77,VVTS 090030Z VRB02KT 8000 FEW017 SCT050 25/23 Q1011 NOSIG,M
VVTS,2/9/2021 1:00,106.6667,10.8167,77,73.4,88.67,M,2,0,29.85,M,4.97,M,FEW,SCT,M,M,1700,5000,M,M,M,M,M,M,M,M,M,77,VVTS 090100Z VRB02KT 8000 FEW017 SCT050 25/23 Q1011 NOSIG,M
VVTS,2/9/2021 1:30,106.6667,10.8167,80.6,75.2,83.66,M,3,0,29.88,M,6.21,M,FEW,M,M,M,2000,M,M,M,M,M,M,M,M,M,M,86.17,VVTS 090130Z VRB03KT 9999 FEW020 27/24 Q1012 NOSIG,M
VVTS,2/9/2021 2:00,106.6667,10.8167,82.4,73.4,74.28,310,4,0,29.88,M,6.21,M,FEW,M,M,M,2000,M,M,M,M,M,M,M,M,M,M,88.26,VVTS 090200Z 31004KT 240V010 9999 FEW020 28/23 Q1012 NOSIG,M
VVTS,2/9/2021 2:30,106.6667,10.8167,82.4,71.6,69.9,300,4,0,29.88,M,6.21,M,SCT,M,M,M,2000,M,M,M,M,M,M,M,M,M,M,87.18,VVTS 090230Z 30004KT 220V350 9999 SCT020 28/22 Q1012 NOSIG,M
VVTS,2/9/2021 3:00,106.6667,10.8167,84.2,73.4,70.08,300,4,0,29.88,M,6.21,M,SCT,M,M,M,2000,M,M,M,M,M,M,M,M,M,M,90.94,VVTS 090300Z 30004KT 210V340 9999 SCT020 29/23 Q1012 NOSIG,M
VVTS,2/9/2021 3:30,106.6667,10.8167,84.2,73.4,70.08,300,5,0,29.85,M,6.21,M,SCT,M,M,M,2000,M,M,M,M,M,M,M,M,M,M,90.94,VVTS 090330Z 30005KT 260V330 9999 SCT020 29/23 Q1011 NOSIG,M
VVTS,2/9/2021 4:00,106.6667,10.8167,87.8,68,51.98,M,2,0,29.85,M,6.21,M,SCT,M,M,M,2000,M,M,M,M,M,M,M,M,M,M,91.43,VVTS 090400Z VRB02KT 9999 SCT020 31/20 Q1011 NOSIG,M
VVTS,2/9/2021 4:30,106.6667,10.8167,86,71.6,62.25,M,3,0,29.83,M,6.21,M,BKN,M,M,M,2000,M,M,M,M,M,M,M,M,M,M,91.92,VVTS 090430Z VRB03KT 9999 BKN020 30/22 Q1010 NOSIG,M
VVTS,2/9/2021 5:00,106.6667,10.8167,89.6,68,49.1,190,3,0,29.83,M,6.21,M,BKN,M,M,M,2000,M,M,M,M,M,M,M,M,M,M,93.47,VVTS 090500Z 19003KT 9999 BKN020 32/20 Q1010 NOSIG,M
VVTS,2/9/2021 5:30,106.6667,10.8167,91.4,68,46.41,M,2,0,29.8,M,6.21,M,BKN,M,M,M,2000,M,M,M,M,M,M,M,M,M,M,95.55,VVTS 090530Z VRB02KT 9999 BKN020 33/20 Q1009 NOSIG,M
VVTS,2/9/2021 6:00,106.6667,10.8167,91.4,66.2,43.61,140,6,0,29.77,M,6.21,M,SCT,M,M,M,2000,M,M,M,M,M,M,M,M,M,M,94.29,VVTS 090600Z 14006KT 080V230 9999 SCT020 33/19 Q1008 NOSIG,M
VVTS,2/9/2021 6:30,106.6667,10.8167,91.4,66.2,43.61,M,6,0,29.74,M,6.21,M,SCT,M,M,M,2000,M,M,M,M,M,M,M,M,M,M,94.29,VVTS 090630Z VRB06KT 9999 SCT020 33/19 Q1007 NOSIG,M
VVTS,2/9/2021 7:00,106.6667,10.8167,89.6,66.2,46.14,170,5,0,29.74,M,6.21,M,SCT,M,M,M,2000,M,M,M,M,M,M,M,M,M,M,92.27,VVTS 090700Z 17005KT 110V270 9999 SCT020 32/19 Q1007 NOSIG,M
VVTS,2/9/2021 7:30,106.6667,10.8167,89.6,66.2,46.14,160,6,0,29.74,M,6.21,M,SCT,M,M,M,2000,M,M,M,M,M,M,M,M,M,M,92.27,VVTS 090730Z 16006KT 120V220 9999 SCT020 32/19 Q1007 NOSIG,M
VVTS,2/9/2021 8:00,106.6667,10.8167,91.4,66.2,43.61,130,5,0,29.71,M,6.21,M,SCT,M,M,M,2000,M,M,M,M,M,M,M,M,M,M,94.29,VVTS 090800Z 13005KT 100V220 9999 SCT020 33/19 Q1006 NOSIG,M
VVTS,2/9/2021 8:30,106.6667,10.8167,91.4,68,46.41,150,6,0,29.71,M,6.21,M,SCT,M,M,M,2000,M,M,M,M,M,M,M,M,M,M,95.55,VVTS 090830Z 15006KT 100V240 9999 SCT020 33/20 Q1006 NOSIG,M
VVTS,2/9/2021 9:00,106.6667,10.8167,89.6,69.8,52.23,160,6,0,29.71,M,6.21,M,SCT,M,M,M,2000,M,M,M,M,M,M,M,M,M,M,94.85,VVTS 090900Z 16006KT 110V230 9999 SCT020 32/21 Q1006 NOSIG,M
VVTS,2/9/2021 9:30,106.6667,10.8167,89.6,68,49.1,170,7,0,29.71,M,6.21,M,FEW,M,M,M,2000,M,M,M,M,M,M,M,M,M,M,93.47,VVTS 090930Z 17007KT 110V220 9999 FEW020 32/20 Q1006 NOSIG,M
VVTS,2/9/2021 10:00,106.6667,10.8167,87.8,66.2,48.84,160,7,0,29.71,M,6.21,M,FEW,M,M,M,2000,M,M,M,M,M,M,M,M,M,M,90.31,VVTS 091000Z 16007KT 080V190 9999 FEW020 31/19 Q1006 NOSIG,M
VVTS,2/9/2021 10:30,106.6667,10.8167,86,69.8,58.55,160,9,0,29.74,M,6.21,M,FEW,M,M,M,2000,M,M,M,M,M,M,M,M,M,M,90.58,VVTS 091030Z 16009KT 130V210 9999 FEW020 30/21 Q1007 NOSIG,M
VVTS,2/9/2021 11:00,106.6667,10.8167,84.2,68,58.32,160,9,0,29.74,M,6.21,M,FEW,M,M,M,2000,M,M,M,M,M,M,M,M,M,M,87.4,VVTS 091100Z 16009KT 9999 FEW020 29/20 Q1007 NOSIG,M
VVTS,2/9/2021 11:30,106.6667,10.8167,84.2,68,58.32,170,9,0,29.74,M,6.21,M,FEW,M,M,M,2000,M,M,M,M,M,M,M,M,M,M,87.4,VVTS 091130Z 17009KT 140V200 9999 FEW020 29/20 Q1007 NOSIG,M
VVTS,2/9/2021 12:00,106.6667,10.8167,82.4,69.8,65.74,170,7,0,29.77,M,6.21,M,FEW,M,M,M,2000,M,M,M,M,M,M,M,M,M,M,86.22,VVTS 091200Z 17007KT 9999 FEW020 28/21 Q1008 NOSIG,M
VVTS,2/9/2021 12:30,106.6667,10.8167,82.4,69.8,65.74,160,7,0,29.77,M,6.21,M,FEW,M,M,M,2000,M,M,M,M,M,M,M,M,M,M,86.22,VVTS 091230Z 16007KT 130V190 9999 FEW020 28/21 Q1008 NOSIG,M
VVTS,2/9/2021 13:00,106.6667,10.8167,82.4,71.6,69.9,160,5,0,29.77,M,6.21,M,FEW,M,M,M,2000,M,M,M,M,M,M,M,M,M,M,87.18,VVTS 091300Z 16005KT 140V200 9999 FEW020 28/22 Q1008 NOSIG,M
VVTS,2/9/2021 13:30,106.6667,10.8167,82.4,71.6,69.9,160,4,0,29.8,M,6.21,M,FEW,M,M,M,2000,M,M,M,M,M,M,M,M,M,M,87.18,VVTS 091330Z 16004KT 130V190 9999 FEW020 28/22 Q1009 NOSIG,M
VVTS,2/9/2021 14:00,106.6667,10.8167,80.6,71.6,74.11,160,4,0,29.8,M,6.21,M,FEW,M,M,M,2000,M,M,M,M,M,M,M,M,M,M,84.57,VVTS 091400Z 16004KT 120V190 9999 FEW020 27/22 Q1009 NOSIG,M
VVTS,2/9/2021 14:30,106.6667,10.8167,80.6,71.6,74.11,M,3,0,29.83,M,6.21,M,FEW,M,M,M,2000,M,M,M,M,M,M,M,M,M,M,84.57,VVTS 091430Z VRB03KT 9999 FEW020 27/22 Q1010 NOSIG,M
VVTS,2/9/2021 15:00,106.6667,10.8167,80.6,73.4,78.76,150,6,0,29.83,M,6.21,M,FEW,M,M,M,2000,M,M,M,M,M,M,M,M,M,M,85.32,VVTS 091500Z 15006KT 120V200 9999 FEW020 27/23 Q1010 NOSIG,M
VVTS,2/9/2021 15:30,106.6667,10.8167,80.6,71.6,74.11,160,4,0,29.83,M,6.21,M,FEW,M,M,M,2000,M,M,M,M,M,M,M,M,M,M,84.57,VVTS 091530Z 16004KT 100V210 9999 FEW020 27/22 Q1010 NOSIG,M
VVTS,2/9/2021 16:00,106.6667,10.8167,80.6,71.6,74.11,140,5,0,29.83,M,6.21,M,FEW,M,M,M,2000,M,M,M,M,M,M,M,M,M,M,84.57,VVTS 091600Z 14005KT 110V190 9999 FEW020 27/22 Q1010 NOSIG,M
VVTS,2/9/2021 16:30,106.6667,10.8167,80.6,71.6,74.11,150,4,0,29.8,M,6.21,M,FEW,M,M,M,2000,M,M,M,M,M,M,M,M,M,M,84.57,VVTS 091630Z 15004KT 110V200 9999 FEW020 27/22 Q1009 NOSIG,M
VVTS,2/9/2021 17:00,106.6667,10.8167,80.6,71.6,74.11,150,5,0,29.8,M,6.21,M,FEW,M,M,M,2000,M,M,M,M,M,M,M,M,M,M,84.57,VVTS 091700Z 15005KT 110V200 9999 FEW020 27/22 Q1009 NOSIG,M
VVTS,2/9/2021 17:30,106.6667,10.8167,78.8,71.6,78.62,150,6,0,29.8,M,6.21,M,FEW,M,M,M,2000,M,M,M,M,M,M,M,M,M,M,78.8,VVTS 091730Z 15006KT 120V200 9999 FEW020 26/22 Q1009 NOSIG,M
VVTS,2/9/2021 18:00,106.6667,10.8167,78.8,71.6,78.62,140,5,0,29.8,M,6.21,M,FEW,M,M,M,2000,M,M,M,M,M,M,M,M,M,M,78.8,VVTS 091800Z 14005KT 100V170 9999 FEW020 26/22 Q1009 NOSIG,M
VVTS,2/9/2021 18:30,106.6667,10.8167,78.8,71.6,78.62,120,5,0,29.8,M,6.21,M,FEW,M,M,M,1700,M,M,M,M,M,M,M,M,M,M,78.8,VVTS 091830Z 12005KT 070V160 9999 FEW017 26/22 Q1009 NOSIG,M
VVTS,2/9/2021 19:00,106.6667,10.8167,78.8,71.6,78.62,140,5,0,29.8,M,6.21,M,FEW,M,M,M,1700,M,M,M,M,M,M,M,M,M,M,78.8,VVTS 091900Z 14005KT 100V160 9999 FEW017 26/22 Q1009 NOSIG,M
VVTS,2/9/2021 19:30,106.6667,10.8167,78.8,73.4,83.55,130,6,0,29.77,M,6.21,M,FEW,M,M,M,1700,M,M,M,M,M,M,M,M,M,M,78.8,VVTS 091930Z 13006KT 060V170 9999 FEW017 26/23 Q1008 NOSIG,M
VVTS,2/9/2021 20:00,106.6667,10.8167,78.8,73.4,83.55,150,4,0,29.77,M,6.21,M,FEW,M,M,M,1700,M,M,M,M,M,M,M,M,M,M,78.8,VVTS 092000Z 15004KT 110V200 9999 FEW017 26/23 Q1008 NOSIG,M
VVTS,2/9/2021 20:30,106.6667,10.8167,78.8,71.6,78.62,150,8,0,29.77,M,6.21,M,FEW,M,M,M,1700,M,M,M,M,M,M,M,M,M,M,78.8,VVTS 092030Z 15008KT 120V180 9999 FEW017 26/22 Q1008 NOSIG,M
VVTS,2/9/2021 21:00,106.6667,10.8167,78.8,71.6,78.62,140,7,0,29.77,M,6.21,M,FEW,M,M,M,1700,M,M,M,M,M,M,M,M,M,M,78.8,VVTS 092100Z 14007KT 100V170 9999 FEW017 26/22 Q1008 NOSIG,M
VVTS,2/9/2021 21:30,106.6667,10.8167,78.8,73.4,83.55,M,3,0,29.8,M,6.21,M,FEW,M,M,M,1700,M,M,M,M,M,M,M,M,M,M,78.8,VVTS 092130Z VRB03KT 9999 FEW017 26/23 Q1009 NOSIG,M
VVTS,2/9/2021 22:00,106.6667,10.8167,77,73.4,88.67,150,4,0,29.8,M,6.21,M,FEW,M,M,M,1700,M,M,M,M,M,M,M,M,M,M,77,VVTS 092200Z 15004KT 110V200 9999 FEW017 25/23 Q1009 NOSIG,M
VVTS,2/9/2021 22:30,106.6667,10.8167,77,73.4,88.67,140,6,0,29.8,M,6.21,M,FEW,M,M,M,1700,M,M,M,M,M,M,M,M,M,M,77,VVTS 092230Z 14006KT 9999 FEW017 25/23 Q1009 NOSIG,M
VVTS,2/9/2021 23:00,106.6667,10.8167,77,73.4,88.67,150,5,0,29.8,M,6.21,M,FEW,SCT,M,M,1700,5000,M,M,M,M,M,M,M,M,M,77,VVTS 092300Z 15005KT 9999 FEW017 SCT050 25/23 Q1009 NOSIG,M
VVTS,2/9/2021 23:30,106.6667,10.8167,78.8,73.4,83.55,140,4,0,29.83,M,6.21,M,FEW,BKN,M,M,1700,5000,M,M,M,M,M,M,M,M,M,78.8,VVTS 092330Z 14004KT 9999 FEW017 BKN050 26/23 Q1010 NOSIG,M
VVTS,2/10/2021 0:00,106.6667,10.8167,78.8,73.4,83.55,M,3,0,29.83,M,6.21,M,FEW,BKN,M,M,1700,5000,M,M,M,M,M,M,M,M,M,78.8,VVTS 100000Z VRB03KT 9999 FEW017 BKN050 26/23 Q1010 NOSIG,M
VVTS,2/10/2021 0:30,106.6667,10.8167,78.8,73.4,83.55,M,3,0,29.85,M,6.21,M,FEW,BKN,M,M,1700,5000,M,M,M,M,M,M,M,M,M,78.8,VVTS 100030Z VRB03KT 9999 FEW017 BKN050 26/23 Q1011 NOSIG,M
VVTS,2/10/2021 1:00,106.6667,10.8167,78.8,73.4,83.55,M,3,0,29.85,M,6.21,M,FEW,BKN,M,M,1700,5000,M,M,M,M,M,M,M,M,M,78.8,VVTS 100100Z VRB03KT 9999 FEW017 BKN050 26/23 Q1011 NOSIG,M
VVTS,2/10/2021 1:30,106.6667,10.8167,78.8,73.4,83.55,M,2,0,29.85,M,6.21,M,SCT,SCT,M,M,1700,5000,M,M,M,M,M,M,M,M,M,78.8,VVTS 100130Z VRB02KT 9999 SCT017 SCT050 26/23 Q1011 NOSIG,M
VVTS,2/10/2021 2:00,106.6667,10.8167,82.4,73.4,74.28,M,1,0,29.88,M,6.21,M,SCT,M,M,M,1700,M,M,M,M,M,M,M,M,M,M,88.26,VVTS 100200Z VRB01KT 9999 SCT017 28/23 Q1012 NOSIG,M
VVTS,2/10/2021 2:30,106.6667,10.8167,82.4,73.4,74.28,M,1,0,29.88,M,6.21,M,BKN,M,M,M,1700,M,M,M,M,M,M,M,M,M,M,88.26,VVTS 100230Z VRB01KT 9999 BKN017 28/23 Q1012 NOSIG,M
VVTS,2/10/2021 3:00,106.6667,10.8167,86,73.4,66.15,120,1,0,29.88,M,6.21,M,BKN,M,M,M,1700,M,M,M,M,M,M,M,M,M,M,93.45,VVTS 100300Z 12001KT 9999 BKN017 30/23 Q1012 NOSIG,M
VVTS,2/10/2021 3:30,106.6667,10.8167,84.2,71.6,65.95,M,1,0,29.88,M,6.21,M,BKN,M,M,M,1700,M,M,M,M,M,M,M,M,M,M,89.6,VVTS 100330Z VRB01KT 9999 BKN017 29/22 Q1012 NOSIG,M
VVTS,2/10/2021 4:00,106.6667,10.8167,84.2,73.4,70.08,M,2,0,29.85,M,6.21,M,BKN,M,M,M,1700,M,M,M,M,M,M,M,M,M,M,90.94,VVTS 100400Z VRB02KT 9999 BKN017 29/23 Q1011 NOSIG,M
VVTS,2/10/2021 4:30,106.6667,10.8167,87.8,73.4,62.47,M,2,0,29.83,M,6.21,M,BKN,M,M,M,1700,M,M,M,M,M,M,M,M,M,M,95.86,VVTS 100430Z VRB02KT 9999 BKN017 31/23 Q1010 NOSIG,M
VVTS,2/10/2021 5:00,106.6667,10.8167,86,73.4,66.15,M,3,0,29.83,M,6.21,M,BKN,M,M,M,1700,M,M,M,M,M,M,M,M,M,M,93.45,VVTS 100500Z VRB03KT 9999 BKN017 30/23 Q1010 NOSIG,M
VVTS,2/10/2021 5:30,106.6667,10.8167,86,71.6,62.25,M,2,0,29.8,M,6.21,M,BKN,M,M,M,1700,M,M,M,M,M,M,M,M,M,M,91.92,VVTS 100530Z VRB02KT 9999 BKN017 30/22 Q1009 NOSIG,M
VVTS,2/10/2021 6:00,106.6667,10.8167,87.8,71.6,58.78,M,3,0,29.8,M,6.21,M,BKN,M,M,M,1700,M,M,M,M,M,M,M,M,M,M,94.18,VVTS 100600Z VRB03KT 9999 BKN017 31/22 Q1009 NOSIG,M
VVTS,2/10/2021 6:30,106.6667,10.8167,87.8,71.6,58.78,0,0,0,29.77,M,6.21,M,BKN,M,M,M,1700,M,M,M,M,M,M,M,M,M,M,94.18,VVTS 100630Z 00000KT 9999 BKN017 31/22 Q1008 NOSIG,M
VVTS,2/10/2021 7:00,106.6667,10.8167,87.8,71.6,58.78,M,2,0,29.77,M,6.21,M,BKN,M,M,M,1700,M,M,M,M,M,M,M,M,M,M,94.18,VVTS 100700Z VRB02KT 9999 BKN017 31/22 Q1008 NOSIG,M
VVTS,2/10/2021 7:30,106.6667,10.8167,89.6,69.8,52.23,300,2,0,29.74,M,6.21,M,BKN,M,M,M,1700,M,M,M,M,M,M,M,M,M,M,94.85,VVTS 100730Z 30002KT 9999 BKN017 32/21 Q1007 NOSIG,M
VVTS,2/10/2021 8:00,106.6667,10.8167,87.8,71.6,58.78,330,6,0,29.74,M,6.21,M,BKN,M,M,M,1700,M,M,M,M,M,M,M,M,M,M,94.18,VVTS 100800Z 33006KT 280V010 9999 BKN017 31/22 Q1007 NOSIG,M
VVTS,2/10/2021 8:30,106.6667,10.8167,87.8,71.6,58.78,320,5,0,29.74,M,6.21,M,SCT,FEW,M,M,1700,2000,M,M,M,M,M,M,M,M,M,94.18,VVTS 100830Z 32005KT 280V360 9999 SCT017 FEW020TCU 31/22 Q1007 NOSIG RMK TCU/E,M
VVTS,2/10/2021 9:00,106.6667,10.8167,87.8,68,51.98,350,4,0,29.74,M,6.21,M,SCT,FEW,M,M,1700,2000,M,M,M,M,M,M,M,M,M,91.43,VVTS 100900Z 35004KT 290V060 9999 SCT017 FEW020TCU 31/20 Q1007 NOSIG RMK TCU/E,M
VVTS,2/10/2021 9:30,106.6667,10.8167,87.8,69.8,55.29,M,2,0,29.74,M,6.21,M,SCT,FEW,M,M,1700,2000,M,M,M,M,M,M,M,M,M,92.71,VVTS 100930Z VRB02KT 9999 SCT017 FEW020TCU 31/21 Q1007 NOSIG RMK TCU/S,M
VVTS,2/10/2021 10:00,106.6667,10.8167,87.8,69.8,55.29,320,4,0,29.74,M,6.21,M,SCT,FEW,M,M,1700,2000,M,M,M,M,M,M,M,M,M,92.71,VVTS 101000Z 32004KT 290V360 9999 SCT017 FEW020TCU 31/21 Q1007 NOSIG RMK TCU/SW,M
VVTS,2/10/2021 10:30,106.6667,10.8167,84.2,75.2,74.44,190,6,0,29.77,M,6.21,M,SCT,FEW,M,M,1700,2000,M,M,M,M,M,M,M,M,M,92.45,VVTS 101030Z 19006KT 150V220 9999 SCT017 FEW020TCU 29/24 Q1008 NOSIG RMK TCU/S,M
VVTS,2/10/2021 11:00,106.6667,10.8167,82.4,75.2,78.9,180,8,0,29.77,M,6.21,M,SCT,M,M,M,1700,M,M,M,M,M,M,M,M,M,M,89.48,VVTS 101100Z 18008KT 150V210 9999 SCT017 28/24 Q1008 NOSIG,M
VVTS,2/10/2021 11:30,106.6667,10.8167,80.6,73.4,78.76,180,7,0,29.77,M,4.97,M,SCT,M,M,M,1700,M,M,M,M,M,M,M,M,M,M,85.32,VVTS 101130Z 18007KT 8000 SCT017 27/23 Q1008 NOSIG,M
VVTS,2/10/2021 12:00,106.6667,10.8167,80.6,73.4,78.76,180,5,0,29.8,M,4.97,M,SCT,M,M,M,1700,M,M,M,M,M,M,M,M,M,M,85.32,VVTS 101200Z 18005KT 8000 SCT017 27/23 Q1009 NOSIG,M
VVTS,2/10/2021 12:30,106.6667,10.8167,80.6,75.2,83.66,160,4,0,29.8,M,4.97,M,SCT,M,M,M,1700,M,M,M,M,M,M,M,M,M,M,86.17,VVTS 101230Z 16004KT 130V190 8000 SCT017 27/24 Q1009 NOSIG,M
VVTS,2/10/2021 13:00,106.6667,10.8167,80.6,75.2,83.66,170,4,0,29.8,M,5.59,M,SCT,FEW,M,M,1700,2000,M,M,M,M,M,M,M,M,M,86.17,VVTS 101300Z 17004KT 9000 SCT017 FEW020TCU 27/24 Q1009 NOSIG,M
VVTS,2/10/2021 13:30,106.6667,10.8167,80.6,73.4,78.76,150,5,0,29.83,M,5.59,M,SCT,FEW,M,M,1700,2000,M,M,M,M,M,M,M,M,M,85.32,VVTS 101330Z 15005KT 100V190 9000 SCT017 FEW020TCU 27/23 Q1010 NOSIG RMK TCU/SE,M
VVTS,2/10/2021 14:00,106.6667,10.8167,80.6,73.4,78.76,170,5,0,29.83,M,5.59,M,SCT,FEW,M,M,1700,2000,M,M,M,M,M,M,M,M,M,85.32,VVTS 101400Z 17005KT 140V200 9000 SCT017 FEW020TCU 27/23 Q1010 NOSIG RMK TCU/N/E,M
VVTS,2/10/2021 14:30,106.6667,10.8167,80.6,73.4,78.76,140,6,0,29.83,M,4.97,M,SCT,FEW,M,M,1700,2000,M,M,M,M,M,M,M,M,M,85.32,VVTS 101430Z 14006KT 8000 SCT017 FEW020CB 27/23 Q1010 NOSIG RMK CB/N,M
VVTS,2/10/2021 15:00,106.6667,10.8167,80.6,73.4,78.76,120,6,0,29.83,M,4.97,M,SCT,FEW,M,M,1700,2000,M,M,M,M,M,M,M,M,M,85.32,VVTS 101500Z 12006KT 8000 SCT017 FEW020CB 27/23 Q1010 NOSIG RMK CB/N/E/SE,M
VVTS,2/10/2021 15:30,106.6667,10.8167,78.8,73.4,83.55,130,3,0,29.85,M,4.97,M,SCT,FEW,M,M,1700,2000,M,M,M,M,M,M,M,M,M,78.8,VVTS 101530Z 13003KT 8000 SCT017 FEW020CB 26/23 Q1011 NOSIG RMK CB/N/E/SE,M
VVTS,2/10/2021 16:00,106.6667,10.8167,78.8,73.4,83.55,M,1,0,29.83,M,3.73,M,SCT,FEW,M,M,1700,2000,M,M,M,M,M,M,M,M,M,78.8,VVTS 101600Z VRB01KT 6000 SCT017 FEW020CB 26/23 Q1010 NOSIG RMK CB OVER RWY,M
VVTS,2/10/2021 16:30,106.6667,10.8167,78.8,73.4,83.55,M,3,0,29.83,M,4.35,M,SCT,SCT,M,M,1700,4000,M,M,#NAME?,M,M,M,M,M,M,78.8,VVTS 101630Z VRB03KT 7000 -RA SCT017 SCT040 26/23 Q1010 NOSIG,M
VVTS,2/10/2021 17:00,106.6667,10.8167,78.8,73.4,83.55,180,4,0,29.83,M,4.97,M,FEW,SCT,M,M,1700,5000,M,M,M,M,M,M,M,M,M,78.8,VVTS 101700Z 18004KT 140V210 8000 FEW017 SCT050 26/23 Q1010 NOSIG,M
VVTS,2/10/2021 17:30,106.6667,10.8167,78.8,73.4,83.55,190,5,0,29.83,M,4.97,M,FEW,SCT,M,M,1700,5000,M,M,M,M,M,M,M,M,M,78.8,VVTS 101730Z 19005KT 8000 FEW017 SCT050 26/23 Q1010 NOSIG,M
VVTS,2/10/2021 18:00,106.6667,10.8167,77,73.4,88.67,190,7,0,29.83,M,4.97,M,FEW,SCT,M,M,1700,5000,M,M,M,M,M,M,M,M,M,77,VVTS 101800Z 19007KT 8000 FEW017 SCT050 25/23 Q1010 NOSIG,M
VVTS,2/10/2021 18:30,106.6667,10.8167,77,73.4,88.67,180,5,0,29.83,M,4.97,M,FEW,SCT,M,M,1700,5000,M,M,M,M,M,M,M,M,M,77,VVTS 101830Z 18005KT 8000 FEW017 SCT050 25/23 Q1010 NOSIG,M
VVTS,2/10/2021 19:00,106.6667,10.8167,77,73.4,88.67,170,5,0,29.8,M,4.97,M,FEW,SCT,M,M,1700,5000,M,M,M,M,M,M,M,M,M,77,VVTS 101900Z 17005KT 140V210 8000 FEW017 SCT050 25/23 Q1009 NOSIG,M
VVTS,2/10/2021 19:30,106.6667,10.8167,77,73.4,88.67,M,3,0,29.8,M,4.97,M,FEW,SCT,M,M,1700,5000,M,M,M,M,M,M,M,M,M,77,VVTS 101930Z VRB03KT 8000 FEW017 SCT050 25/23 Q1009 NOSIG,M
VVTS,2/10/2021 20:00,106.6667,10.8167,77,73.4,88.67,190,5,0,29.8,M,4.97,M,SCT,SCT,M,M,1700,5000,M,M,M,M,M,M,M,M,M,77,VVTS 102000Z 19005KT 8000 SCT017 SCT050 25/23 Q1009 NOSIG,M
VVTS,2/10/2021 20:30,106.6667,10.8167,77,73.4,88.67,190,6,0,29.8,M,4.97,M,SCT,SCT,M,M,1700,5000,M,M,M,M,M,M,M,M,M,77,VVTS 102030Z 19006KT 150V210 8000 SCT017 SCT050 25/23 Q1009 NOSIG,M
VVTS,2/10/2021 21:00,106.6667,10.8167,77,73.4,88.67,M,3,0,29.8,M,4.97,M,SCT,SCT,M,M,1700,5000,M,M,M,M,M,M,M,M,M,77,VVTS 102100Z VRB03KT 8000 SCT017 SCT050 25/23 Q1009 NOSIG,M
VVTS,2/10/2021 21:30,106.6667,10.8167,77,73.4,88.67,M,3,0,29.8,M,4.97,M,SCT,SCT,M,M,1700,5000,M,M,M,M,M,M,M,M,M,77,VVTS 102130Z VRB03KT 8000 SCT017 SCT050 25/23 Q1009 NOSIG,M
VVTS,2/10/2021 22:00,106.6667,10.8167,77,73.4,88.67,M,1,0,29.83,M,4.97,M,SCT,SCT,M,M,1700,5000,M,M,M,M,M,M,M,M,M,77,VVTS 102200Z VRB01KT 8000 SCT017 SCT050 25/23 Q1010 NOSIG,M
VVTS,2/10/2021 22:30,106.6667,10.8167,77,73.4,88.67,0,0,0,29.83,M,4.97,M,SCT,SCT,M,M,1700,5000,M,M,M,M,M,M,M,M,M,77,VVTS 102230Z 00000KT 8000 SCT017 SCT050 25/23 Q1010 NOSIG,M
VVTS,2/10/2021 23:00,106.6667,10.8167,77,73.4,88.67,M,1,0,29.83,M,4.97,M,SCT,SCT,M,M,1700,5000,M,M,M,M,M,M,M,M,M,77,VVTS 102300Z VRB01KT 8000 SCT017 SCT050 25/23 Q1010 NOSIG,M
VVTS,2/10/2021 23:30,106.6667,10.8167,77,73.4,88.67,M,2,0,29.85,M,6.21,M,BKN,M,M,M,1700,M,M,M,M,M,M,M,M,M,M,77,VVTS 102330Z VRB02KT 9999 BKN017 25/23 Q1011 NOSIG,M
VVTS,2/11/2021 0:00,106.6667,10.8167,77,73.4,88.67,330,2,0,29.85,M,6.21,M,BKN,M,M,M,1500,M,M,M,M,M,M,M,M,M,M,77,VVTS 110000Z 33002KT 9999 BKN015 25/23 Q1011 NOSIG,M
VVTS,2/11/2021 0:30,106.6667,10.8167,78.8,73.4,83.55,M,1,0,29.85,M,4.97,M,SCT,FEW,M,M,1500,1700,M,M,M,M,M,M,M,M,M,78.8,VVTS 110030Z VRB01KT 8000 SCT015 FEW017TCU 26/23 Q1011 NOSIG RMK TCU OVER RWY,M
VVTS,2/11/2021 1:00,106.6667,10.8167,78.8,73.4,83.55,M,3,0,29.85,M,4.97,M,SCT,FEW,M,M,1500,1700,M,M,M,M,M,M,M,M,M,78.8,VVTS 110100Z VRB03KT 8000 SCT015 FEW017TCU 26/23 Q1011 NOSIG RMK TCU OVER RWY,M
VVTS,2/11/2021 1:30,106.6667,10.8167,78.8,73.4,83.55,360,1,0,29.88,M,4.97,M,SCT,FEW,M,M,1500,1700,M,M,M,M,M,M,M,M,M,78.8,VVTS 110130Z 36001KT 8000 SCT015 FEW017TCU 26/23 Q1012 RMK TCU OVER RWY,M
VVTS,2/11/2021 2:00,106.6667,10.8167,80.6,73.4,78.76,M,2,0,29.88,M,4.97,M,SCT,FEW,M,M,1500,1700,M,M,M,M,M,M,M,M,M,85.32,VVTS 110200Z VRB02KT 8000 SCT015 FEW017TCU 27/23 Q1012 NOSIG RMK TCU OVER RWY,M
VVTS,2/11/2021 2:30,106.6667,10.8167,82.4,73.4,74.28,M,1,0,29.88,M,4.97,M,BKN,M,M,M,1500,M,M,M,M,M,M,M,M,M,M,88.26,VVTS 110230Z VRB01KT 8000 BKN015 28/23 Q1012 NOSIG,M
VVTS,2/11/2021 3:00,106.6667,10.8167,82.4,71.6,69.9,170,1,0,29.88,M,6.21,M,BKN,M,M,M,1500,M,M,M,M,M,M,M,M,M,M,87.18,VVTS 110300Z 17001KT 9999 BKN015 28/22 Q1012 NOSIG,M
VVTS,2/11/2021 3:30,106.6667,10.8167,82.4,73.4,74.28,M,2,0,29.88,M,6.21,M,BKN,M,M,M,1700,M,M,M,M,M,M,M,M,M,M,88.26,VVTS 110330Z VRB02KT 9999 BKN017 28/23 Q1012 NOSIG,M
VVTS,2/11/2021 4:00,106.6667,10.8167,80.6,73.4,78.76,M,2,0,29.88,M,4.97,M,SCT,FEW,SCT,M,1500,1700,5000,M,#NAME?,M,M,M,M,M,M,85.32,VVTS 110400Z VRB02KT 8000 -SHRA SCT015 FEW017TCU SCT050 27/23 Q1012 NOSIG RMK TCU OVER RWY,M
VVTS,2/11/2021 4:30,106.6667,10.8167,82.4,71.6,69.9,0,0,0,29.85,M,4.97,M,SCT,FEW,SCT,M,1500,1700,5000,M,#NAME?,M,M,M,M,M,M,87.18,VVTS 110430Z 00000KT 8000 -SHRA SCT015 FEW017TCU SCT050 28/22 Q1011 NOSIG RMK TCU OVER RWY,M
VVTS,2/11/2021 5:00,106.6667,10.8167,84.2,73.4,70.08,0,0,0,29.85,M,4.97,M,SCT,FEW,SCT,M,1500,1700,5000,M,#NAME?,M,M,M,M,M,M,90.94,VVTS 110500Z 00000KT 8000 -SHRA SCT015 FEW017TCU SCT050 29/23 Q1011 NOSIG RMK TCU/SW,M
VVTS,2/11/2021 5:30,106.6667,10.8167,82.4,71.6,69.9,M,1,0,29.83,M,4.97,M,SCT,FEW,SCT,M,1500,1700,5000,M,M,M,M,M,M,M,M,87.18,VVTS 110530Z VRB01KT 8000 SCT015 FEW017TCU SCT050 28/22 Q1010 NOSIG RMK TCU/NE,M
VVTS,2/11/2021 6:00,106.6667,10.8167,82.4,73.4,74.28,190,5,0,29.83,M,4.97,M,SCT,BKN,M,M,1500,5000,M,M,#NAME?,M,M,M,M,M,M,88.26,VVTS 110600Z 19005KT 8000 -RA SCT015 BKN050 28/23 Q1010 NOSIG,M
VVTS,2/11/2021 6:30,106.6667,10.8167,82.4,73.4,74.28,210,6,0,29.83,M,4.97,M,SCT,SCT,M,M,1500,5000,M,M,M,M,M,M,M,M,M,88.26,VVTS 110630Z 21006KT 8000 SCT015 SCT050 28/23 Q1010 NOSIG,M
VVTS,2/11/2021 7:00,106.6667,10.8167,82.4,73.4,74.28,190,7,0,29.8,M,4.97,M,SCT,FEW,SCT,M,1500,1700,5000,M,#NAME?,M,M,M,M,M,M,88.26,VVTS 110700Z 19007KT 8000 -SHRA SCT015 FEW017CB SCT050 28/23 Q1009 NOSIG RMK CB OVER RWY,M
VVTS,2/11/2021 7:30,106.6667,10.8167,78.8,75.2,88.75,230,6,0,29.8,M,3.11,M,SCT,FEW,SCT,M,1500,1700,5000,M,SHRA,M,M,M,M,M,M,78.8,VVTS 110730Z 23006KT 5000 SHRA SCT015 FEW017CB SCT050 26/24 Q1009 TEMPO TL0745 4000 SHRA RMK CB OVER RWY,M
VVTS,2/11/2021 8:00,106.6667,10.8167,80.6,75.2,83.66,220,4,0,29.8,M,4.97,M,SCT,FEW,SCT,M,1500,1700,5000,M,M,M,M,M,M,M,M,86.17,VVTS 110800Z 22004KT 8000 SCT015 FEW017CB SCT050 27/24 Q1009 NOSIG RMK CB/SW,M
VVTS,2/11/2021 8:30,106.6667,10.8167,82.4,75.2,78.9,220,5,0,29.77,M,4.97,M,SCT,FEW,SCT,M,1500,1700,5000,M,M,M,M,M,M,M,M,89.48,VVTS 110830Z 22005KT 180V240 8000 SCT015 FEW017CB SCT050 28/24 Q1008 NOSIG RMK CB/SW/W,M
VVTS,2/11/2021 9:00,106.6667,10.8167,82.4,73.4,74.28,220,6,0,29.77,M,4.97,M,SCT,SCT,M,M,1500,5000,M,M,M,M,M,M,M,M,M,88.26,VVTS 110900Z 22006KT 8000 SCT015 SCT050 28/23 Q1008 NOSIG,M
VVTS,2/11/2021 9:30,106.6667,10.8167,82.4,75.2,78.9,230,5,0,29.8,M,4.97,M,SCT,FEW,SCT,M,1500,1700,5000,M,M,M,M,M,M,M,M,89.48,VVTS 110930Z 23005KT 190V260 8000 SCT015 FEW017TCU SCT050 28/24 Q1009 NOSIG RMK TCU/W,M
VVTS,2/11/2021 10:00,106.6667,10.8167,80.6,75.2,83.66,210,6,0,29.8,M,4.97,M,SCT,SCT,M,M,1500,5000,M,M,M,M,M,M,M,M,M,86.17,VVTS 111000Z 21006KT 8000 SCT015 SCT050 27/24 Q1009 NOSIG,M
VVTS,2/11/2021 10:30,106.6667,10.8167,78.8,73.4,83.55,180,7,0,29.8,M,4.97,M,SCT,SCT,M,M,1500,5000,M,M,M,M,M,M,M,M,M,78.8,VVTS 111030Z 18007KT 8000 SCT015 SCT050 26/23 Q1009 NOSIG,M
VVTS,2/11/2021 11:00,106.6667,10.8167,78.8,75.2,88.75,180,7,0,29.8,M,4.97,M,FEW,BKN,M,M,1500,5000,M,M,M,M,M,M,M,M,M,78.8,VVTS 111100Z 18007KT 8000 FEW015 BKN050 26/24 Q1009 NOSIG,M
VVTS,2/11/2021 11:30,106.6667,10.8167,78.8,73.4,83.55,180,7,0,29.83,M,4.97,M,FEW,BKN,M,M,1500,5000,M,M,M,M,M,M,M,M,M,78.8,VVTS 111130Z 18007KT 8000 FEW015 BKN050 26/23 Q1010 NOSIG,M
VVTS,2/11/2021 12:00,106.6667,10.8167,78.8,73.4,83.55,190,6,0,29.83,M,4.97,M,FEW,BKN,M,M,1500,5000,M,M,M,M,M,M,M,M,M,78.8,VVTS 111200Z 19006KT 8000 FEW015 BKN050 26/23 Q1010 NOSIG,M
VVTS,2/11/2021 12:30,106.6667,10.8167,78.8,73.4,83.55,190,6,0,29.83,M,6.21,M,FEW,BKN,M,M,1700,5000,M,M,M,M,M,M,M,M,M,78.8,VVTS 111230Z 19006KT 9999 FEW017 BKN050 26/23 Q1010 NOSIG,M
VVTS,2/11/2021 13:00,106.6667,10.8167,78.8,73.4,83.55,180,5,0,29.83,M,6.21,M,FEW,BKN,M,M,1700,5000,M,M,M,M,M,M,M,M,M,78.8,VVTS 111300Z 18005KT 160V220 9999 FEW017 BKN050 26/23 Q1010 NOSIG,M
VVTS,2/11/2021 13:30,106.6667,10.8167,78.8,73.4,83.55,190,4,0,29.85,M,6.21,M,FEW,BKN,M,M,1700,5000,M,M,M,M,M,M,M,M,M,78.8,VVTS 111330Z 19004KT 160V220 9999 FEW017 BKN050 26/23 Q1011 NOSIG,M
VVTS,2/11/2021 14:00,106.6667,10.8167,78.8,73.4,83.55,190,5,0,29.85,M,6.21,M,FEW,BKN,M,M,1700,5000,M,M,M,M,M,M,M,M,M,78.8,VVTS 111400Z 19005KT 9999 FEW017 BKN050 26/23 Q1011 NOSIG,M
VVTS,2/11/2021 14:30,106.6667,10.8167,78.8,73.4,83.55,180,4,0,29.85,M,6.21,M,FEW,BKN,M,M,1700,5000,M,M,M,M,M,M,M,M,M,78.8,VVTS 111430Z 18004KT 9999 FEW017 BKN050 26/23 Q1011 NOSIG,M
VVTS,2/11/2021 15:00,106.6667,10.8167,77,73.4,88.67,180,5,0,29.85,M,6.21,M,FEW,BKN,M,M,1700,5000,M,M,M,M,M,M,M,M,M,77,VVTS 111500Z 18005KT 9999 FEW017 BKN050 25/23 Q1011 NOSIG,M
VVTS,2/11/2021 15:30,106.6667,10.8167,77,73.4,88.67,190,5,0,29.88,M,6.21,M,OVC,M,M,M,2600,M,M,M,M,M,M,M,M,M,M,77,VVTS 111530Z 19005KT 9999 OVC026 25/23 Q1012 NOSIG,M
VVTS,2/11/2021 16:00,106.6667,10.8167,77,71.6,83.44,190,4,0,29.85,M,6.21,M,FEW,SCT,M,M,1700,5000,M,M,M,M,M,M,M,M,M,77,VVTS 111600Z 19004KT 150V210 9999 FEW017 SCT050 25/22 Q1011 NOSIG,M
VVTS,2/11/2021 16:30,106.6667,10.8167,77,71.6,83.44,150,5,0,29.85,M,6.21,M,FEW,SCT,M,M,1700,5000,M,M,M,M,M,M,M,M,M,77,VVTS 111630Z 15005KT 9999 FEW017 SCT050 25/22 Q1011 NOSIG,M
VVTS,2/11/2021 17:00,106.6667,10.8167,77,71.6,83.44,180,5,0,29.85,M,6.21,M,FEW,SCT,M,M,1700,5000,M,M,M,M,M,M,M,M,M,77,VVTS 111700Z 18005KT 9999 FEW017 SCT050 25/22 Q1011 NOSIG,M
VVTS,2/11/2021 17:30,106.6667,10.8167,75.2,71.6,88.59,M,3,0,29.85,M,6.21,M,FEW,SCT,M,M,1700,5000,M,M,M,M,M,M,M,M,M,75.2,VVTS 111730Z VRB03KT 9999 FEW017 SCT050 24/22 Q1011 NOSIG,M
VVTS,2/11/2021 18:00,106.6667,10.8167,75.2,71.6,88.59,M,3,0,29.85,M,6.21,M,FEW,SCT,M,M,1700,5000,M,M,M,M,M,M,M,M,M,75.2,VVTS 111800Z VRB03KT 9999 FEW017 SCT050 24/22 Q1011 NOSIG,M
VVTS,2/11/2021 18:30,106.6667,10.8167,75.2,71.6,88.59,180,2,0,29.85,M,6.21,M,FEW,SCT,M,M,1700,5000,M,M,M,M,M,M,M,M,M,75.2,VVTS 111830Z 18002KT 9999 FEW017 SCT050 24/22 Q1011 NOSIG,M
VVTS,2/11/2021 19:00,106.6667,10.8167,75.2,71.6,88.59,170,3,0,29.85,M,6.21,M,FEW,SCT,M,M,1700,5000,M,M,M,M,M,M,M,M,M,75.2,VVTS 111900Z 17003KT 9999 FEW017 SCT050 24/22 Q1011 NOSIG,M
VVTS,2/11/2021 19:30,106.6667,10.8167,75.2,71.6,88.59,M,3,0,29.85,M,5.59,M,FEW,SCT,M,M,1700,5000,M,M,M,M,M,M,M,M,M,75.2,VVTS 111930Z VRB03KT 9000 FEW017 SCT050 24/22 Q1011 NOSIG,M
VVTS,2/11/2021 20:00,106.6667,10.8167,75.2,71.6,88.59,170,3,0,29.83,M,5.59,M,FEW,SCT,M,M,1700,5000,M,M,M,M,M,M,M,M,M,75.2,VVTS 112000Z 17003KT 9000 FEW017 SCT050 24/22 Q1010 NOSIG,M
VVTS,2/11/2021 20:30,106.6667,10.8167,75.2,71.6,88.59,M,2,0,29.83,M,5.59,M,FEW,SCT,M,M,1700,5000,M,M,M,M,M,M,M,M,M,75.2,VVTS 112030Z VRB02KT 9000 FEW017 SCT050 24/22 Q1010 NOSIG,M
VVTS,2/11/2021 21:00,106.6667,10.8167,75.2,71.6,88.59,M,2,0,29.85,M,5.59,M,FEW,SCT,M,M,1700,5000,M,M,M,M,M,M,M,M,M,75.2,VVTS 112100Z VRB02KT 9000 FEW017 SCT050 24/22 Q1011 NOSIG,M
VVTS,2/11/2021 21:30,106.6667,10.8167,75.2,71.6,88.59,170,4,0,29.85,M,5.59,M,FEW,SCT,M,M,1700,5000,M,M,M,M,M,M,M,M,M,75.2,VVTS 112130Z 17004KT 9000 FEW017 SCT050 24/22 Q1011 NOSIG,M
VVTS,2/11/2021 22:00,106.6667,10.8167,75.2,69.8,83.32,M,2,0,29.85,M,5.59,M,FEW,SCT,M,M,1700,5000,M,M,M,M,M,M,M,M,M,75.2,VVTS 112200Z VRB02KT 9000 FEW017 SCT050 24/21 Q1011 NOSIG,M
VVTS,2/11/2021 22:30,106.6667,10.8167,75.2,69.8,83.32,180,4,0,29.85,M,6.21,M,M,M,M,M,M,M,M,M,M,M,M,M,M,M,M,75.2,VVTS 112230Z 18004KT CAVOK 24/21 Q1011 NOSIG,M
VVTS,2/11/2021 23:00,106.6667,10.8167,75.2,69.8,83.32,180,3,0,29.85,M,6.21,M,FEW,SCT,M,M,1700,5000,M,M,M,M,M,M,M,M,M,75.2,VVTS 112300Z 18003KT 9999 FEW017 SCT050 24/21 Q1011 NOSIG,M
VVTS,2/11/2021 23:30,106.6667,10.8167,75.2,69.8,83.32,M,2,0,29.88,M,6.21,M,FEW,SCT,M,M,1700,5000,M,M,M,M,M,M,M,M,M,75.2,VVTS 112330Z VRB02KT 9999 FEW017 SCT050 24/21 Q1012 NOSIG,M
VVTS,2/12/2021 0:00,106.6667,10.8167,75.2,71.6,88.59,M,2,0,29.88,M,6.21,M,M,M,M,M,M,M,M,M,M,M,M,M,M,M,M,75.2,VVTS 120000Z VRB02KT CAVOK 24/22 Q1012 NOSIG,M
VVTS,2/12/2021 0:30,106.6667,10.8167,77,71.6,83.44,M,2,0,29.88,M,6.21,M,M,M,M,M,M,M,M,M,M,M,M,M,M,M,M,77,VVTS 120030Z VRB02KT CAVOK 25/22 Q1012 NOSIG,M
VVTS,2/12/2021 1:00,106.6667,10.8167,77,71.6,83.44,M,1,0,29.91,M,6.21,M,M,M,M,M,M,M,M,M,M,M,M,M,M,M,M,77,VVTS 120100Z VRB01KT CAVOK 25/22 Q1013 NOSIG,M
VVTS,2/12/2021 1:30,106.6667,10.8167,78.8,71.6,78.62,0,0,0,29.91,M,6.21,M,M,M,M,M,M,M,M,M,M,M,M,M,M,M,M,78.8,VVTS 120130Z 00000KT CAVOK 26/22 Q1013 NOSIG,M
VVTS,2/12/2021 2:00,106.6667,10.8167,80.6,71.6,74.11,M,1,0,29.91,M,6.21,M,FEW,M,M,M,2000,M,M,M,M,M,M,M,M,M,M,84.57,VVTS 120200Z VRB01KT 9999 FEW020 27/22 Q1013 NOSIG,M
VVTS,2/12/2021 2:30,106.6667,10.8167,82.4,71.6,69.9,190,1,0,29.91,M,6.21,M,FEW,M,M,M,2000,M,M,M,M,M,M,M,M,M,M,87.18,VVTS 120230Z 19001KT 9999 FEW020 28/22 Q1013 NOSIG,M
VVTS,2/12/2021 3:00,106.6667,10.8167,84.2,71.6,65.95,M,1,0,29.91,M,6.21,M,SCT,M,M,M,2000,M,M,M,M,M,M,M,M,M,M,89.6,VVTS 120300Z VRB01KT 9999 SCT020 29/22 Q1013 NOSIG,M
VVTS,2/12/2021 3:30,106.6667,10.8167,82.4,69.8,65.74,M,2,0,29.91,M,6.21,M,BKN,M,M,M,2000,M,M,M,M,M,M,M,M,M,M,86.22,VVTS 120330Z VRB02KT 9999 BKN020 28/21 Q1013 NOSIG,M
VVTS,2/12/2021 4:00,106.6667,10.8167,86,66.2,51.72,290,2,0,29.91,M,6.21,M,BKN,M,M,M,2000,M,M,M,M,M,M,M,M,M,M,88.39,VVTS 120400Z 29002KT 9999 BKN020 30/19 Q1013 NOSIG,M
VVTS,2/12/2021 4:30,106.6667,10.8167,86,64.4,48.58,350,4,0,29.88,M,6.21,M,BKN,M,M,M,2000,M,M,M,M,M,M,M,M,M,M,87.49,VVTS 120430Z 35004KT 240V030 9999 BKN020 30/18 Q1012 NOSIG,M
VVTS,2/12/2021 5:00,106.6667,10.8167,87.8,66.2,48.84,M,4,0,29.88,M,6.21,M,BKN,M,M,M,2000,M,M,M,M,M,M,M,M,M,M,90.31,VVTS 120500Z VRB04KT 9999 BKN020 31/19 Q1012 NOSIG,M
VVTS,2/12/2021 5:30,106.6667,10.8167,87.8,66.2,48.84,300,4,0,29.85,M,6.21,M,BKN,M,M,M,2000,M,M,M,M,M,M,M,M,M,M,90.31,VVTS 120530Z 30004KT 230V360 9999 BKN020 31/19 Q1011 NOSIG,M
VVTS,2/12/2021 6:00,106.6667,10.8167,86,66.2,51.72,M,3,0,29.85,M,6.21,M,BKN,M,M,M,2000,M,M,M,M,M,M,M,M,M,M,88.39,VVTS 120600Z VRB03KT 9999 BKN020 30/19 Q1011 NOSIG,M
VVTS,2/12/2021 6:30,106.6667,10.8167,87.8,66.2,48.84,M,4,0,29.83,M,6.21,M,BKN,M,M,M,2000,M,M,M,M,M,M,M,M,M,M,90.31,VVTS 120630Z VRB04KT 9999 BKN020 31/19 Q1010 NOSIG,M
VVTS,2/12/2021 7:00,106.6667,10.8167,87.8,66.2,48.84,M,2,0,29.83,M,6.21,M,BKN,M,M,M,2000,M,M,M,M,M,M,M,M,M,M,90.31,VVTS 120700Z VRB02KT 9999 BKN020 31/19 Q1010 NOSIG,M
VVTS,2/12/2021 7:30,106.6667,10.8167,89.6,66.2,46.14,M,3,0,29.8,M,6.21,M,BKN,M,M,M,2000,M,M,M,M,M,M,M,M,M,M,92.27,VVTS 120730Z VRB03KT 9999 BKN020 32/19 Q1009 NOSIG,M
VVTS,2/12/2021 8:00,106.6667,10.8167,87.8,66.2,48.84,M,2,0,29.8,M,6.21,M,BKN,M,M,M,2000,M,M,M,M,M,M,M,M,M,M,90.31,VVTS 120800Z VRB02KT 9999 BKN020 31/19 Q1009 NOSIG,M
VVTS,2/12/2021 8:30,106.6667,10.8167,86,69.8,58.55,170,8,0,29.8,M,6.21,M,BKN,FEW,M,M,1700,2000,M,M,M,M,M,M,M,M,M,90.58,VVTS 120830Z 17008KT 150V220 9999 BKN017 FEW020TCU 30/21 Q1009 NOSIG RMK TCU OVER RWY,M
VVTS,2/12/2021 9:00,106.6667,10.8167,82.4,73.4,74.28,190,11,0,29.8,M,6.21,M,SCT,SCT,M,M,1700,5000,M,M,M,M,M,M,M,M,M,88.26,VVTS 120900Z 19011KT 9999 SCT017 SCT050 28/23 Q1009 NOSIG,M
VVTS,2/12/2021 9:30,106.6667,10.8167,82.4,73.4,74.28,170,9,0,29.8,M,6.21,M,BKN,M,M,M,1700,M,M,M,M,M,M,M,M,M,M,88.26,VVTS 120930Z 17009KT 130V190 9999 BKN017 28/23 Q1009 NOSIG,M
VVTS,2/12/2021 10:00,106.6667,10.8167,80.6,73.4,78.76,170,11,0,29.83,M,6.21,M,SCT,SCT,M,M,1700,5000,M,M,M,M,M,M,M,M,M,85.32,VVTS 121000Z 17011KT 9999 SCT017 SCT050 27/23 Q1010 NOSIG,M
VVTS,2/12/2021 10:30,106.6667,10.8167,80.6,71.6,74.11,180,10,0,29.83,M,6.21,M,SCT,SCT,M,M,1700,5000,M,M,M,M,M,M,M,M,M,84.57,VVTS 121030Z 18010KT 9999 SCT017 SCT050 27/22 Q1010 NOSIG,M
VVTS,2/12/2021 11:00,106.6667,10.8167,78.8,71.6,78.62,190,8,0,29.83,M,6.21,M,SCT,SCT,M,M,1700,5000,M,M,M,M,M,M,M,M,M,78.8,VVTS 121100Z 19008KT 150V210 9999 SCT017 SCT050 26/22 Q1010 NOSIG,M
VVTS,2/12/2021 11:30,106.6667,10.8167,78.8,71.6,78.62,170,6,0,29.83,M,6.21,M,SCT,SCT,M,M,1700,5000,M,M,M,M,M,M,M,M,M,78.8,VVTS 121130Z 17006KT 140V200 9999 SCT017 SCT050 26/22 Q1010 NOSIG,M
VVTS,2/12/2021 12:00,106.6667,10.8167,78.8,71.6,78.62,150,7,0,29.85,M,6.21,M,SCT,SCT,M,M,1700,5000,M,M,M,M,M,M,M,M,M,78.8,VVTS 121200Z 15007KT 130V190 9999 SCT017 SCT050 26/22 Q1011 NOSIG,M
VVTS,2/12/2021 12:30,106.6667,10.8167,78.8,71.6,78.62,150,8,0,29.85,M,6.21,M,SCT,SCT,M,M,1700,5000,M,M,M,M,M,M,M,M,M,78.8,VVTS 121230Z 15008KT 9999 SCT017 SCT050 26/22 Q1011 NOSIG,M
VVTS,2/12/2021 13:00,106.6667,10.8167,78.8,69.8,73.95,150,6,0,29.85,M,6.21,M,SCT,SCT,M,M,1700,5000,M,M,M,M,M,M,M,M,M,78.8,VVTS 121300Z 15006KT 120V190 9999 SCT017 SCT050 26/21 Q1011 NOSIG,M
VVTS,2/12/2021 13:30,106.6667,10.8167,77,71.6,83.44,140,8,0,29.88,M,6.21,M,SCT,SCT,M,M,1700,5000,M,M,M,M,M,M,M,M,M,77,VVTS 121330Z 14008KT 110V180 9999 SCT017 SCT050 25/22 Q1012 NOSIG,M
VVTS,2/12/2021 14:00,106.6667,10.8167,77,71.6,83.44,140,9,0,29.88,M,6.21,M,SCT,SCT,M,M,1700,5000,M,M,M,M,M,M,M,M,M,77,VVTS 121400Z 14009KT 9999 SCT017 SCT050 25/22 Q1012 NOSIG,M
VVTS,2/12/2021 14:30,106.6667,10.8167,77,69.8,78.48,140,8,0,29.88,M,6.21,M,SCT,SCT,M,M,1700,5000,M,M,M,M,M,M,M,M,M,77,VVTS 121430Z 14008KT 9999 SCT017 SCT050 25/21 Q1012 NOSIG,M
VVTS,2/12/2021 15:00,106.6667,10.8167,77,69.8,78.48,130,6,0,29.91,M,6.21,M,SCT,SCT,M,M,1700,5000,M,M,M,M,M,M,M,M,M,77,VVTS 121500Z 13006KT 9999 SCT017 SCT050 25/21 Q1013 NOSIG,M
VVTS,2/12/2021 15:30,106.6667,10.8167,75.2,69.8,83.32,120,5,0,29.91,M,6.21,M,SCT,SCT,M,M,1700,5000,M,M,M,M,M,M,M,M,M,75.2,VVTS 121530Z 12005KT 9999 SCT017 SCT050 24/21 Q1013 NOSIG,M
VVTS,2/12/2021 16:00,106.6667,10.8167,75.2,69.8,83.32,140,5,0,29.91,M,6.21,M,SCT,SCT,M,M,1700,5000,M,M,M,M,M,M,M,M,M,75.2,VVTS 121600Z 14005KT 9999 SCT017 SCT050 24/21 Q1013 NOSIG,M
VVTS,2/12/2021 16:30,106.6667,10.8167,75.2,69.8,83.32,130,6,0,29.91,M,6.21,M,SCT,SCT,M,M,1700,5000,M,M,M,M,M,M,M,M,M,75.2,VVTS 121630Z 13006KT 9999 SCT017 SCT050 24/21 Q1013 NOSIG,M
VVTS,2/12/2021 17:00,106.6667,10.8167,75.2,69.8,83.32,140,5,0,29.91,M,6.21,M,FEW,SCT,M,M,1700,5000,M,M,M,M,M,M,M,M,M,75.2,VVTS 121700Z 14005KT 110V190 9999 FEW017 SCT050 24/21 Q1013 NOSIG,M
VVTS,2/12/2021 17:30,106.6667,10.8167,75.2,69.8,83.32,140,6,0,29.88,M,6.21,M,FEW,SCT,M,M,1700,5000,M,M,M,M,M,M,M,M,M,75.2,VVTS 121730Z 14006KT 9999 FEW017 SCT050 24/21 Q1012 NOSIG,M
VVTS,2/12/2021 18:00,106.6667,10.8167,75.2,69.8,83.32,150,7,0,29.88,M,6.21,M,FEW,SCT,M,M,1700,5000,M,M,M,M,M,M,M,M,M,75.2,VVTS 121800Z 15007KT 9999 FEW017 SCT050 24/21 Q1012 NOSIG,M
VVTS,2/12/2021 18:30,106.6667,10.8167,73.4,69.8,88.51,130,6,0,29.88,M,6.21,M,FEW,SCT,M,M,1700,5000,M,M,M,M,M,M,M,M,M,73.4,VVTS 121830Z 13006KT 9999 FEW017 SCT050 23/21 Q1012 NOSIG,M
VVTS,2/12/2021 19:00,106.6667,10.8167,75.2,69.8,83.32,140,8,0,29.88,M,6.21,M,FEW,SCT,M,M,1700,5000,M,M,M,M,M,M,M,M,M,75.2,VVTS 121900Z 14008KT 9999 FEW017 SCT050 24/21 Q1012 NOSIG,M
VVTS,2/12/2021 19:30,106.6667,10.8167,73.4,69.8,88.51,140,6,0,29.85,M,6.21,M,FEW,SCT,M,M,1700,5000,M,M,M,M,M,M,M,M,M,73.4,VVTS 121930Z 14006KT 100V160 9999 FEW017 SCT050 23/21 Q1011 NOSIG,M
VVTS,2/12/2021 20:00,106.6667,10.8167,75.2,69.8,83.32,130,5,0,29.85,M,6.21,M,FEW,SCT,M,M,1700,5000,M,M,M,M,M,M,M,M,M,75.2,VVTS 122000Z 13005KT 100V160 9999 FEW017 SCT050 24/21 Q1011 NOSIG,M
VVTS,2/12/2021 20:30,106.6667,10.8167,73.4,69.8,88.51,130,4,0,29.85,M,6.21,M,FEW,SCT,M,M,1700,5000,M,M,M,M,M,M,M,M,M,73.4,VVTS 122030Z 13004KT 9999 FEW017 SCT050 23/21 Q1011 NOSIG,M
VVTS,2/12/2021 21:00,106.6667,10.8167,73.4,69.8,88.51,M,3,0,29.85,M,6.21,M,FEW,SCT,M,M,1700,5000,M,M,M,M,M,M,M,M,M,73.4,VVTS 122100Z VRB03KT 9999 FEW017 SCT050 23/21 Q1011 NOSIG,M
VVTS,2/12/2021 21:30,106.6667,10.8167,73.4,69.8,88.51,M,2,0,29.85,M,6.21,M,FEW,SCT,M,M,1700,5000,M,M,M,M,M,M,M,M,M,73.4,VVTS 122130Z VRB02KT 9999 FEW017 SCT050 23/21 Q1011 NOSIG,M
VVTS,2/12/2021 22:00,106.6667,10.8167,73.4,69.8,88.51,110,2,0,29.85,M,6.21,M,FEW,SCT,M,M,1700,5000,M,M,M,M,M,M,M,M,M,73.4,VVTS 122200Z 11002KT 9999 FEW017 SCT050 23/21 Q1011 NOSIG,M
VVTS,2/12/2021 22:30,106.6667,10.8167,73.4,69.8,88.51,M,2,0,29.88,M,6.21,M,FEW,SCT,M,M,1700,5000,M,M,M,M,M,M,M,M,M,73.4,VVTS 122230Z VRB02KT 9999 FEW017 SCT050 23/21 Q1012 NOSIG,M
VVTS,2/12/2021 23:00,106.6667,10.8167,73.4,71.6,94.1,M,3,0,29.88,M,6.21,M,FEW,SCT,M,M,1700,5000,M,M,M,M,M,M,M,M,M,73.4,VVTS 122300Z VRB03KT 9999 FEW017 SCT050 23/22 Q1012 NOSIG,M
VVTS,2/12/2021 23:30,106.6667,10.8167,73.4,71.6,94.1,320,2,0,29.88,M,4.35,M,SCT,SCT,M,M,1500,5000,M,M,M,M,M,M,M,M,M,73.4,VVTS 122330Z 32002KT 7000 SCT015 SCT050 23/22 Q1012 NOSIG,M
VVTS,2/13/2021 0:00,106.6667,10.8167,73.4,71.6,94.1,330,1,0,29.91,M,4.35,M,SCT,SCT,M,M,1500,5000,M,M,M,M,M,M,M,M,M,73.4,VVTS 130000Z 33001KT 7000 SCT015 SCT050 23/22 Q1013 NOSIG,M
VVTS,2/13/2021 0:30,106.6667,10.8167,75.2,71.6,88.59,M,1,0,29.91,M,4.35,M,SCT,SCT,M,M,1500,5000,M,M,M,M,M,M,M,M,M,75.2,VVTS 130030Z VRB01KT 7000 SCT015 SCT050 24/22 Q1013 NOSIG,M
VVTS,2/13/2021 1:00,106.6667,10.8167,75.2,71.6,88.59,M,2,0,29.91,M,4.97,M,FEW,SCT,M,M,1700,5000,M,M,M,M,M,M,M,M,M,75.2,VVTS 130100Z VRB02KT 8000 FEW017 SCT050 24/22 Q1013 NOSIG,M
VVTS,2/13/2021 1:30,106.6667,10.8167,77,71.6,83.44,M,1,0,29.94,M,6.21,M,SCT,M,M,M,1700,M,M,M,M,M,M,M,M,M,M,77,VVTS 130130Z VRB01KT 9999 SCT017 25/22 Q1014 NOSIG,M
VVTS,2/13/2021 2:00,106.6667,10.8167,80.6,71.6,74.11,M,1,0,29.94,M,6.21,M,SCT,M,M,M,1700,M,M,M,M,M,M,M,M,M,M,84.57,VVTS 130200Z VRB01KT 9999 SCT017 27/22 Q1014 NOSIG,M
VVTS,2/13/2021 2:30,106.6667,10.8167,80.6,71.6,74.11,M,1,0,29.94,M,6.21,M,BKN,M,M,M,1700,M,M,M,M,M,M,M,M,M,M,84.57,VVTS 130230Z VRB01KT 9999 BKN017 27/22 Q1014 NOSIG,M
VVTS,2/13/2021 3:00,106.6667,10.8167,80.6,71.6,74.11,M,2,0,29.94,M,6.21,M,BKN,M,M,M,1700,M,M,M,M,M,M,M,M,M,M,84.57,VVTS 130300Z VRB02KT 9999 BKN017 27/22 Q1014 NOSIG,M
VVTS,2/13/2021 3:30,106.6667,10.8167,82.4,69.8,65.74,M,1,0,29.94,M,6.21,M,BKN,M,M,M,1700,M,M,M,M,M,M,M,M,M,M,86.22,VVTS 130330Z VRB01KT 9999 BKN017 28/21 Q1014 NOSIG,M
VVTS,2/13/2021 4:00,106.6667,10.8167,82.4,69.8,65.74,M,1,0,29.91,M,6.21,M,BKN,M,M,M,1700,M,M,M,M,M,M,M,M,M,M,86.22,VVTS 130400Z VRB01KT 9999 BKN017 28/21 Q1013 NOSIG,M
VVTS,2/13/2021 4:30,106.6667,10.8167,84.2,68,58.32,M,1,0,29.91,M,6.21,M,BKN,M,M,M,1700,M,M,M,M,M,M,M,M,M,M,87.4,VVTS 130430Z VRB01KT 9999 BKN017 29/20 Q1013 NOSIG,M
VVTS,2/13/2021 5:00,106.6667,10.8167,86,64.4,48.58,M,2,0,29.88,M,6.21,M,BKN,M,M,M,1700,M,M,M,M,M,M,M,M,M,M,87.49,VVTS 130500Z VRB02KT 9999 BKN017 30/18 Q1012 NOSIG,M
VVTS,2/13/2021 5:30,106.6667,10.8167,86,64.4,48.58,350,4,0,29.88,M,6.21,M,BKN,M,M,M,1700,M,M,M,M,M,M,M,M,M,M,87.49,VVTS 130530Z 35004KT 270V070 9999 BKN017 30/18 Q1012 NOSIG,M
VVTS,2/13/2021 6:00,106.6667,10.8167,86,64.4,48.58,M,2,0,29.85,M,6.21,M,BKN,M,M,M,1700,M,M,M,M,M,M,M,M,M,M,87.49,VVTS 130600Z VRB02KT 9999 BKN017 30/18 Q1011 NOSIG,M
VVTS,2/13/2021 6:30,106.6667,10.8167,87.8,64.4,45.88,M,2,0,29.85,M,6.21,M,BKN,M,M,M,1700,M,M,M,M,M,M,M,M,M,M,89.33,VVTS 130630Z VRB02KT 9999 BKN017 31/18 Q1011 NOSIG,M
VVTS,2/13/2021 7:00,106.6667,10.8167,87.8,62.6,43.07,M,2,0,29.83,M,6.21,M,BKN,M,M,M,1700,M,M,M,M,M,M,M,M,M,M,88.48,VVTS 130700Z VRB02KT 9999 BKN017 31/17 Q1010 NOSIG,M
VVTS,2/13/2021 7:30,106.6667,10.8167,86,62.6,45.61,M,3,0,29.83,M,6.21,M,SCT,M,M,M,1700,M,M,M,M,M,M,M,M,M,M,86.72,VVTS 130730Z VRB03KT 9999 SCT017 30/17 Q1010 NOSIG,M
VVTS,2/13/2021 8:00,106.6667,10.8167,87.8,62.6,43.07,M,2,0,29.8,M,6.21,M,SCT,M,M,M,1700,M,M,M,M,M,M,M,M,M,M,88.48,VVTS 130800Z VRB02KT 9999 SCT017 31/17 Q1009 NOSIG,M
VVTS,2/13/2021 8:30,106.6667,10.8167,87.8,64.4,45.88,230,2,0,29.8,M,6.21,M,SCT,M,M,M,1700,M,M,M,M,M,M,M,M,M,M,89.33,VVTS 130830Z 23002KT 9999 SCT017 31/18 Q1009 NOSIG,M
VVTS,2/13/2021 9:00,106.6667,10.8167,87.8,66.2,48.84,220,6,0,29.8,M,6.21,M,SCT,M,M,M,1700,M,M,M,M,M,M,M,M,M,M,90.31,VVTS 130900Z 22006KT 160V250 9999 SCT017 31/19 Q1009 NOSIG,M
VVTS,2/13/2021 9:30,106.6667,10.8167,82.4,71.6,69.9,170,11,0,29.83,M,6.21,M,SCT,M,M,M,1700,M,M,M,M,M,M,M,M,M,M,87.18,VVTS 130930Z 17011KT 150V210 9999 SCT017 28/22 Q1010 NOSIG,M
VVTS,2/13/2021 10:00,106.6667,10.8167,80.6,71.6,74.11,170,11,0,29.83,M,5.59,M,SCT,M,M,M,1700,M,M,M,M,M,M,M,M,M,M,84.57,VVTS 131000Z 17011KT 9000 SCT017 27/22 Q1010 NOSIG,M
VVTS,2/13/2021 10:30,106.6667,10.8167,80.6,71.6,74.11,180,10,0,29.83,M,5.59,M,SCT,M,M,M,1700,M,M,M,M,M,M,M,M,M,M,84.57,VVTS 131030Z 18010KT 150V210 9000 SCT017 27/22 Q1010 NOSIG,M
VVTS,2/13/2021 11:00,106.6667,10.8167,78.8,69.8,73.95,180,9,0,29.85,M,5.59,M,FEW,M,M,M,2000,M,M,M,M,M,M,M,M,M,M,78.8,VVTS 131100Z 18009KT 150V220 9000 FEW020 26/21 Q1011 NOSIG,M
VVTS,2/13/2021 11:30,106.6667,10.8167,77,69.8,78.48,170,9,0,29.85,M,5.59,M,FEW,M,M,M,2000,M,M,M,M,M,M,M,M,M,M,77,VVTS 131130Z 17009KT 140V210 9000 FEW020 25/21 Q1011 NOSIG,M
VVTS,2/13/2021 12:00,106.6667,10.8167,77,69.8,78.48,170,9,0,29.88,M,5.59,M,FEW,M,M,M,2000,M,M,M,M,M,M,M,M,M,M,77,VVTS 131200Z 17009KT 9000 FEW020 25/21 Q1012 NOSIG,M
VVTS,2/13/2021 12:30,106.6667,10.8167,77,68,73.78,170,7,0,29.88,M,5.59,M,FEW,M,M,M,2000,M,M,M,M,M,M,M,M,M,M,77,VVTS 131230Z 17007KT 130V200 9000 FEW020 25/20 Q1012 NOSIG,M
VVTS,2/13/2021 13:00,106.6667,10.8167,77,68,73.78,160,7,0,29.88,M,6.21,M,FEW,M,M,M,2000,M,M,M,M,M,M,M,M,M,M,77,VVTS 131300Z 16007KT 130V190 9999 FEW020 25/20 Q1012 NOSIG,M
VVTS,2/13/2021 13:30,106.6667,10.8167,77,68,73.78,160,5,0,29.91,M,6.21,M,FEW,M,M,M,2000,M,M,M,M,M,M,M,M,M,M,77,VVTS 131330Z 16005KT 120V200 9999 FEW020 25/20 Q1013 NOSIG,M
VVTS,2/13/2021 14:00,106.6667,10.8167,77,68,73.78,140,8,0,29.91,M,6.21,M,FEW,M,M,M,2000,M,M,M,M,M,M,M,M,M,M,77,VVTS 131400Z 14008KT 9999 FEW020 25/20 Q1013 NOSIG,M
VVTS,2/13/2021 14:30,106.6667,10.8167,75.2,68,78.34,150,9,0,29.91,M,6.21,M,FEW,M,M,M,2000,M,M,M,M,M,M,M,M,M,M,75.2,VVTS 131430Z 15009KT 9999 FEW020 24/20 Q1013 NOSIG,M
VVTS,2/13/2021 15:00,106.6667,10.8167,75.2,68,78.34,140,9,0,29.91,M,6.21,M,FEW,M,M,M,2000,M,M,M,M,M,M,M,M,M,M,75.2,VVTS 131500Z 14009KT 9999 FEW020 24/20 Q1013 NOSIG,M
VVTS,2/13/2021 15:30,106.6667,10.8167,75.2,68,78.34,130,9,0,29.91,M,6.21,M,FEW,M,M,M,2000,M,M,M,M,M,M,M,M,M,M,75.2,VVTS 131530Z 13009KT 110V170 9999 FEW020 24/20 Q1013 NOSIG,M
VVTS,2/13/2021 16:00,106.6667,10.8167,75.2,68,78.34,140,8,0,29.91,M,6.21,M,SCT,M,M,M,2000,M,M,M,M,M,M,M,M,M,M,75.2,VVTS 131600Z 14008KT 9999 SCT020 24/20 Q1013 NOSIG,M
VVTS,2/13/2021 16:30,106.6667,10.8167,75.2,68,78.34,140,6,0,29.91,M,6.21,M,SCT,M,M,M,2000,M,M,M,M,M,M,M,M,M,M,75.2,VVTS 131630Z 14006KT 110V200 9999 SCT020 24/20 Q1013 NOSIG,M
VVTS,2/13/2021 17:00,106.6667,10.8167,73.4,68,83.21,130,5,0,29.91,M,6.21,M,SCT,M,M,M,1700,M,M,M,M,M,M,M,M,M,M,73.4,VVTS 131700Z 13005KT 100V170 9999 SCT017 23/20 Q1013 NOSIG,M
VVTS,2/13/2021 17:30,106.6667,10.8167,73.4,69.8,88.51,140,5,0,29.91,M,6.21,M,SCT,M,M,M,1700,M,M,M,M,M,M,M,M,M,M,73.4,VVTS 131730Z 14005KT 9999 SCT017 23/21 Q1013 NOSIG,M
VVTS,2/13/2021 18:00,106.6667,10.8167,73.4,69.8,88.51,150,5,0,29.91,M,6.21,M,SCT,M,M,M,1700,M,M,M,M,M,M,M,M,M,M,73.4,VVTS 131800Z 15005KT 110V180 9999 SCT017 23/21 Q1013 NOSIG,M
VVTS,2/13/2021 18:30,106.6667,10.8167,73.4,69.8,88.51,150,6,0,29.91,M,6.21,M,SCT,M,M,M,1700,M,M,M,M,M,M,M,M,M,M,73.4,VVTS 131830Z 15006KT 120V190 9999 SCT017 23/21 Q1013 NOSIG,M
VVTS,2/13/2021 19:00,106.6667,10.8167,73.4,69.8,88.51,160,5,0,29.88,M,6.21,M,SCT,M,M,M,1700,M,M,M,M,M,M,M,M,M,M,73.4,VVTS 131900Z 16005KT 120V190 9999 SCT017 23/21 Q1012 NOSIG,M
VVTS,2/13/2021 19:30,106.6667,10.8167,73.4,68,83.21,150,4,0,29.88,M,4.97,M,FEW,SCT,M,M,1700,4000,M,M,M,M,M,M,M,M,M,73.4,VVTS 131930Z 15004KT 100V190 8000 FEW017 SCT040 23/20 Q1012 NOSIG,M
VVTS,2/13/2021 20:00,106.6667,10.8167,73.4,69.8,88.51,140,6,0,29.88,M,4.97,M,FEW,SCT,M,M,1700,4000,M,M,M,M,M,M,M,M,M,73.4,VVTS 132000Z 14006KT 110V180 8000 FEW017 SCT040 23/21 Q1012 NOSIG,M
VVTS,2/13/2021 20:30,106.6667,10.8167,73.4,69.8,88.51,140,6,0,29.88,M,4.97,M,FEW,SCT,M,M,1700,4000,M,M,M,M,M,M,M,M,M,73.4,VVTS 132030Z 14006KT 110V180 8000 FEW017 SCT040 23/21 Q1012 NOSIG,M
VVTS,2/13/2021 21:00,106.6667,10.8167,73.4,69.8,88.51,M,2,0,29.88,M,4.97,M,FEW,SCT,M,M,1700,4000,M,M,M,M,M,M,M,M,M,73.4,VVTS 132100Z VRB02KT 8000 FEW017 SCT040 23/21 Q1012 NOSIG,M
VVTS,2/13/2021 21:30,106.6667,10.8167,73.4,68,83.21,150,4,0,29.91,M,4.97,M,FEW,SCT,M,M,1700,4000,M,M,M,M,M,M,M,M,M,73.4,VVTS 132130Z 15004KT 120V200 8000 FEW017 SCT040 23/20 Q1013 NOSIG,M
VVTS,2/13/2021 22:00,106.6667,10.8167,73.4,68,83.21,M,3,0,29.91,M,4.97,M,FEW,SCT,M,M,1700,4000,M,M,M,M,M,M,M,M,M,73.4,VVTS 132200Z VRB03KT 8000 FEW017 SCT040 23/20 Q1013 NOSIG,M
VVTS,2/13/2021 22:30,106.6667,10.8167,73.4,68,83.21,160,5,0,29.91,M,4.97,M,SCT,M,M,M,1700,M,M,M,M,M,M,M,M,M,M,73.4,VVTS 132230Z 16005KT 8000 SCT017 23/20 Q1013 NOSIG,M
VVTS,2/13/2021 23:00,106.6667,10.8167,73.4,69.8,88.51,160,4,0,29.91,M,4.97,M,SCT,M,M,M,1700,M,M,M,M,M,M,M,M,M,M,73.4,VVTS 132300Z 16004KT 130V190 8000 SCT017 23/21 Q1013 NOSIG,M
VVTS,2/13/2021 23:30,106.6667,10.8167,73.4,69.8,88.51,170,4,0,29.91,M,4.97,M,FEW,SCT,M,M,1700,5000,M,M,M,M,M,M,M,M,M,73.4,VVTS 132330Z 17004KT 8000 FEW017 SCT050 23/21 Q1013 NOSIG,M
VVTS,2/14/2021 0:00,106.6667,10.8167,73.4,69.8,88.51,M,3,0,29.94,M,6.21,M,FEW,SCT,M,M,1700,5000,M,M,M,M,M,M,M,M,M,73.4,VVTS 140000Z VRB03KT 9999 FEW017 SCT050 23/21 Q1014 NOSIG,M
VVTS,2/14/2021 0:30,106.6667,10.8167,75.2,69.8,83.32,120,4,0,29.97,M,6.21,M,SCT,SCT,M,M,1700,5000,M,M,M,M,M,M,M,M,M,75.2,VVTS 140030Z 12004KT 090V180 9999 SCT017 SCT050 24/21 Q1015 NOSIG,M
VVTS,2/14/2021 1:00,106.6667,10.8167,75.2,69.8,83.32,120,7,0,29.97,M,6.21,M,SCT,SCT,M,M,1700,5000,M,M,M,M,M,M,M,M,M,75.2,VVTS 140100Z 12007KT 090V160 9999 SCT017 SCT050 24/21 Q1015 NOSIG,M
VVTS,2/14/2021 1:30,106.6667,10.8167,77,69.8,78.48,140,6,0,29.97,M,6.21,M,SCT,SCT,M,M,1700,5000,M,M,M,M,M,M,M,M,M,77,VVTS 140130Z 14006KT 9999 SCT017 SCT050 25/21 Q1015 NOSIG,M
VVTS,2/14/2021 2:00,106.6667,10.8167,78.8,69.8,73.95,140,5,0,29.97,M,6.21,M,SCT,SCT,M,M,1700,5000,M,M,M,M,M,M,M,M,M,78.8,VVTS 140200Z 14005KT 110V170 9999 SCT017 SCT050 26/21 Q1015 NOSIG,M
VVTS,2/14/2021 2:30,106.6667,10.8167,78.8,69.8,73.95,140,6,0,30,M,6.21,M,BKN,M,M,M,1700,M,M,M,M,M,M,M,M,M,M,78.8,VVTS 140230Z 14006KT 100V180 9999 BKN017 26/21 Q1016 NOSIG,M
VVTS,2/14/2021 3:00,106.6667,10.8167,80.6,69.8,69.71,M,2,0,29.97,M,6.21,M,BKN,M,M,M,1700,M,M,M,M,M,M,M,M,M,M,83.9,VVTS 140300Z VRB02KT 9999 BKN017 27/21 Q1015 NOSIG,M
VVTS,2/14/2021 3:30,106.6667,10.8167,80.6,69.8,69.71,M,3,0,29.97,M,6.21,M,BKN,M,M,M,1700,M,M,M,M,M,M,M,M,M,M,83.9,VVTS 140330Z VRB03KT 9999 BKN017 27/21 Q1015 NOSIG,M
VVTS,2/14/2021 4:00,106.6667,10.8167,82.4,69.8,65.74,110,5,0,29.97,M,6.21,M,BKN,M,M,M,1700,M,M,M,M,M,M,M,M,M,M,86.22,VVTS 140400Z 11005KT 070V160 9999 BKN017 28/21 Q1015 NOSIG,M
VVTS,2/14/2021 4:30,106.6667,10.8167,82.4,68,61.81,140,4,0,29.94,M,6.21,M,BKN,M,M,M,1700,M,M,M,M,M,M,M,M,M,M,85.38,VVTS 140430Z 14004KT 050V200 9999 BKN017 28/20 Q1014 NOSIG,M
VVTS,2/14/2021 5:00,106.6667,10.8167,84.2,68,58.32,M,2,0,29.94,M,6.21,M,BKN,M,M,M,1700,M,M,M,M,M,M,M,M,M,M,87.4,VVTS 140500Z VRB02KT 9999 BKN017 29/20 Q1014 NOSIG,M
VVTS,2/14/2021 5:30,106.6667,10.8167,82.4,68,61.81,M,2,0,29.91,M,6.21,M,BKN,M,M,M,1700,M,M,M,M,M,M,M,M,M,M,85.38,VVTS 140530Z VRB02KT 9999 BKN017 28/20 Q1013 NOSIG,M
VVTS,2/14/2021 6:00,106.6667,10.8167,84.2,66.2,54.8,M,1,0,29.91,M,6.21,M,BKN,M,M,M,1700,M,M,M,M,M,M,M,M,M,M,86.5,VVTS 140600Z VRB01KT 9999 BKN017 29/19 Q1013 NOSIG,M
VVTS,2/14/2021 6:30,106.6667,10.8167,84.2,66.2,54.8,230,5,0,29.88,M,6.21,M,BKN,M,M,M,1700,M,M,M,M,M,M,M,M,M,M,86.5,VVTS 140630Z 23005KT 180V260 9999 BKN017 29/19 Q1012 NOSIG,M
VVTS,2/14/2021 7:00,106.6667,10.8167,86,66.2,51.72,M,5,0,29.85,M,6.21,M,BKN,M,M,M,1700,M,M,M,M,M,M,M,M,M,M,88.39,VVTS 140700Z VRB05KT 9999 BKN017 30/19 Q1011 NOSIG,M
VVTS,2/14/2021 7:30,106.6667,10.8167,86,64.4,48.58,250,4,0,29.85,M,6.21,M,BKN,M,M,M,1700,M,M,M,M,M,M,M,M,M,M,87.49,VVTS 140730Z 25004KT 160V310 9999 BKN017 30/18 Q1011 NOSIG,M
VVTS,2/14/2021 8:00,106.6667,10.8167,86,66.2,51.72,150,7,0,29.83,M,6.21,M,BKN,M,M,M,1700,M,M,M,M,M,M,M,M,M,M,88.39,VVTS 140800Z 15007KT 9999 BKN017 30/19 Q1010 NOSIG,M
VVTS,2/14/2021 8:30,106.6667,10.8167,84.2,68,58.32,160,8,0,29.83,M,6.21,M,BKN,M,M,M,1700,M,M,M,M,M,M,M,M,M,M,87.4,VVTS 140830Z 16008KT 140V200 9999 BKN017 29/20 Q1010 NOSIG,M
VVTS,2/14/2021 9:00,106.6667,10.8167,84.2,68,58.32,160,6,0,29.83,M,6.21,M,BKN,M,M,M,1700,M,M,M,M,M,M,M,M,M,M,87.4,VVTS 140900Z 16006KT 130V200 9999 BKN017 29/20 Q1010 NOSIG,M
VVTS,2/14/2021 9:30,106.6667,10.8167,82.4,69.8,65.74,170,8,0,29.83,M,6.21,M,BKN,M,M,M,1700,M,M,M,M,M,M,M,M,M,M,86.22,VVTS 140930Z 17008KT 140V200 9999 BKN017 28/21 Q1010 NOSIG,M
VVTS,2/14/2021 10:00,106.6667,10.8167,80.6,69.8,69.71,180,11,0,29.83,M,6.21,M,SCT,M,M,M,1700,M,M,M,M,M,M,M,M,M,M,83.9,VVTS 141000Z 18011KT 150V210 9999 SCT017 27/21 Q1010 NOSIG,M
VVTS,2/14/2021 10:30,106.6667,10.8167,78.8,68,69.52,180,10,0,29.85,M,6.21,M,SCT,M,M,M,1700,M,M,M,M,M,M,M,M,M,M,78.8,VVTS 141030Z 18010KT 150V210 9999 SCT017 26/20 Q1011 NOSIG,M
VVTS,2/14/2021 11:00,106.6667,10.8167,77,68,73.78,160,9,0,29.85,M,6.21,M,FEW,M,M,M,1700,M,M,M,M,M,M,M,M,M,M,77,VVTS 141100Z 16009KT 130V190 9999 FEW017 25/20 Q1011 NOSIG,M
VVTS,2/14/2021 11:30,106.6667,10.8167,77,68,73.78,160,9,0,29.85,M,6.21,M,FEW,M,M,M,1700,M,M,M,M,M,M,M,M,M,M,77,VVTS 141130Z 16009KT 9999 FEW017 25/20 Q1011 NOSIG,M
VVTS,2/14/2021 12:00,106.6667,10.8167,77,68,73.78,150,7,0,29.85,M,6.21,M,FEW,M,M,M,1700,M,M,M,M,M,M,M,M,M,M,77,VVTS 141200Z 15007KT 120V190 9999 FEW017 25/20 Q1011 NOSIG,M
VVTS,2/14/2021 12:30,106.6667,10.8167,75.2,68,78.34,150,8,0,29.88,M,6.21,M,FEW,M,M,M,1700,M,M,M,M,M,M,M,M,M,M,75.2,VVTS 141230Z 15008KT 120V190 9999 FEW017 24/20 Q1012 NOSIG,M
VVTS,2/14/2021 13:00,106.6667,10.8167,75.2,69.8,83.32,140,9,0,29.88,M,6.21,M,FEW,M,M,M,1700,M,M,M,M,M,M,M,M,M,M,75.2,VVTS 141300Z 14009KT 9999 FEW017 24/21 Q1012 NOSIG,M
VVTS,2/14/2021 13:30,106.6667,10.8167,75.2,68,78.34,150,10,0,29.88,M,6.21,M,FEW,M,M,M,2000,M,M,M,M,M,M,M,M,M,M,75.2,VVTS 141330Z 15010KT 120V190 9999 FEW020 24/20 Q1012 NOSIG,M
VVTS,2/14/2021 14:00,106.6667,10.8167,75.2,68,78.34,140,9,0,29.88,M,6.21,M,FEW,M,M,M,2000,M,M,M,M,M,M,M,M,M,M,75.2,VVTS 141400Z 14009KT 9999 FEW020 24/20 Q1012 NOSIG,M
VVTS,2/14/2021 14:30,106.6667,10.8167,75.2,68,78.34,130,8,0,29.91,M,6.21,M,FEW,M,M,M,2000,M,M,M,M,M,M,M,M,M,M,75.2,VVTS 141430Z 13008KT 9999 FEW020 24/20 Q1013 NOSIG,M
VVTS,2/14/2021 15:00,106.6667,10.8167,75.2,68,78.34,140,8,0,29.91,M,6.21,M,FEW,M,M,M,2000,M,M,M,M,M,M,M,M,M,M,75.2,VVTS 141500Z 14008KT 9999 FEW020 24/20 Q1013 NOSIG,M
VVTS,2/14/2021 15:30,106.6667,10.8167,73.4,68,83.21,130,7,0,29.91,M,6.21,M,FEW,M,M,M,2000,M,M,M,M,M,M,M,M,M,M,73.4,VVTS 141530Z 13007KT 9999 FEW020 23/20 Q1013 NOSIG,M
VVTS,2/14/2021 16:00,106.6667,10.8167,73.4,68,83.21,130,7,0,29.88,M,6.21,M,FEW,M,M,M,2000,M,M,M,M,M,M,M,M,M,M,73.4,VVTS 141600Z 13007KT 9999 FEW020 23/20 Q1012 NOSIG,M
VVTS,2/14/2021 16:30,106.6667,10.8167,73.4,68,83.21,130,6,0,29.88,M,6.21,M,FEW,M,M,M,2000,M,M,M,M,M,M,M,M,M,M,73.4,VVTS 141630Z 13006KT 9999 FEW020 23/20 Q1012 NOSIG,M
VVTS,2/14/2021 17:00,106.6667,10.8167,73.4,68,83.21,130,8,0,29.88,M,6.21,M,FEW,M,M,M,2000,M,M,M,M,M,M,M,M,M,M,73.4,VVTS 141700Z 13008KT 9999 FEW020 23/20 Q1012 NOSIG,M
VVTS,2/14/2021 17:30,106.6667,10.8167,73.4,68,83.21,130,7,0,29.88,M,6.21,M,FEW,M,M,M,1700,M,M,M,M,M,M,M,M,M,M,73.4,VVTS 141730Z 13007KT 100V160 9999 FEW017 23/20 Q1012 NOSIG,M
VVTS,2/14/2021 18:00,106.6667,10.8167,73.4,68,83.21,140,6,0,29.88,M,6.21,M,FEW,M,M,M,1700,M,M,M,M,M,M,M,M,M,M,73.4,VVTS 141800Z 14006KT 9999 FEW017 23/20 Q1012 NOSIG,M
VVTS,2/14/2021 18:30,106.6667,10.8167,73.4,68,83.21,140,6,0,29.85,M,6.21,M,FEW,M,M,M,1700,M,M,M,M,M,M,M,M,M,M,73.4,VVTS 141830Z 14006KT 9999 FEW017 23/20 Q1011 NOSIG,M
VVTS,2/14/2021 19:00,106.6667,10.8167,71.6,68,88.43,140,5,0,29.85,M,6.21,M,FEW,M,M,M,1700,M,M,M,M,M,M,M,M,M,M,71.6,VVTS 141900Z 14005KT 9999 FEW017 22/20 Q1011 NOSIG,M
VVTS,2/14/2021 19:30,106.6667,10.8167,71.6,68,88.43,130,2,0,29.85,M,4.97,M,FEW,SCT,M,M,1700,5000,M,M,M,M,M,M,M,M,M,71.6,VVTS 141930Z 13002KT 8000 FEW017 SCT050 22/20 Q1011 NOSIG,M
VVTS,2/14/2021 20:00,106.6667,10.8167,71.6,68,88.43,110,2,0,29.85,M,4.97,M,FEW,SCT,M,M,1700,5000,M,M,M,M,M,M,M,M,M,71.6,VVTS 142000Z 11002KT 8000 FEW017 SCT050 22/20 Q1011 NOSIG,M
VVTS,2/14/2021 20:30,106.6667,10.8167,71.6,68,88.43,100,2,0,29.85,M,4.97,M,FEW,SCT,M,M,1700,5000,M,M,M,M,M,M,M,M,M,71.6,VVTS 142030Z 10002KT 8000 FEW017 SCT050 22/20 Q1011 NOSIG,M
VVTS,2/14/2021 21:00,106.6667,10.8167,71.6,68,88.43,M,1,0,29.85,M,4.97,M,FEW,SCT,M,M,1700,5000,M,M,M,M,M,M,M,M,M,71.6,VVTS 142100Z VRB01KT 8000 FEW017 SCT050 22/20 Q1011 NOSIG,M
VVTS,2/14/2021 21:30,106.6667,10.8167,69.8,69.8,100,0,0,0,29.85,M,4.97,M,FEW,SCT,M,M,1700,5000,M,M,M,M,M,M,M,M,M,69.8,VVTS 142130Z 00000KT 8000 FEW017 SCT050 21/21 Q1011 NOSIG,M
VVTS,2/14/2021 22:00,106.6667,10.8167,69.8,68,94.01,0,0,0,29.85,M,4.97,M,FEW,SCT,M,M,1700,5000,M,M,M,M,M,M,M,M,M,69.8,VVTS 142200Z 00000KT 8000 FEW017 SCT050 21/20 Q1011 NOSIG,M
VVTS,2/14/2021 22:30,106.6667,10.8167,69.8,68,94.01,M,1,0,29.88,M,4.97,M,FEW,M,M,M,1700,M,M,M,M,M,M,M,M,M,M,69.8,VVTS 142230Z VRB01KT 8000 FEW017 21/20 Q1012 NOSIG,M
VVTS,2/14/2021 23:00,106.6667,10.8167,69.8,68,94.01,0,0,0,29.88,M,4.97,M,FEW,M,M,M,1700,M,M,M,M,M,M,M,M,M,M,69.8,VVTS 142300Z 00000KT 8000 FEW017 21/20 Q1012 NOSIG,M
VVTS,2/14/2021 23:30,106.6667,10.8167,71.6,69.8,94.06,M,1,0,29.91,M,4.97,M,FEW,M,M,M,1700,M,M,M,M,M,M,M,M,M,M,71.6,VVTS 142330Z VRB01KT 8000 FEW017 22/21 Q1013 NOSIG,M
VVTS,2/15/2021 0:00,106.6667,10.8167,71.6,69.8,94.06,0,0,0,29.91,M,4.97,M,FEW,M,M,M,2000,M,M,M,M,M,M,M,M,M,M,71.6,VVTS 150000Z 00000KT 8000 FEW020 22/21 Q1013 NOSIG,M
VVTS,2/15/2021 0:30,106.6667,10.8167,73.4,71.6,94.1,M,3,0,29.91,M,4.97,M,SCT,M,M,M,2000,M,M,M,M,M,M,M,M,M,M,73.4,VVTS 150030Z VRB03KT 8000 SCT020 23/22 Q1013 NOSIG,M
VVTS,2/15/2021 1:00,106.6667,10.8167,75.2,69.8,83.32,150,4,0,29.91,M,4.97,M,SCT,M,M,M,2000,M,M,M,M,M,M,M,M,M,M,75.2,VVTS 150100Z 15004KT 070V190 8000 SCT020 24/21 Q1013 NOSIG,M
VVTS,2/15/2021 1:30,106.6667,10.8167,77,69.8,78.48,M,3,0,29.94,M,4.97,M,BKN,M,M,M,2000,M,M,M,M,M,M,M,M,M,M,77,VVTS 150130Z VRB03KT 8000 BKN020 25/21 Q1014 NOSIG,M
VVTS,2/15/2021 2:00,106.6667,10.8167,77,69.8,78.48,M,2,0,29.94,M,4.97,M,BKN,M,M,M,2000,M,M,M,M,M,M,M,M,M,M,77,VVTS 150200Z VRB02KT 8000 BKN020 25/21 Q1014 NOSIG,M
VVTS,2/15/2021 2:30,106.6667,10.8167,77,69.8,78.48,140,5,0,29.94,M,4.97,M,BKN,M,M,M,2000,M,M,M,M,M,M,M,M,M,M,77,VVTS 150230Z 14005KT 100V190 8000 BKN020 25/21 Q1014 NOSIG,M
VVTS,2/15/2021 3:00,106.6667,10.8167,78.8,69.8,73.95,160,5,0,29.94,M,6.21,M,BKN,M,M,M,2000,M,M,M,M,M,M,M,M,M,M,78.8,VVTS 150300Z 16005KT 120V240 9999 BKN020 26/21 Q1014 NOSIG,M
VVTS,2/15/2021 3:30,106.6667,10.8167,80.6,69.8,69.71,M,2,0,29.94,M,6.21,M,BKN,M,M,M,2000,M,M,M,M,M,M,M,M,M,M,83.9,VVTS 150330Z VRB02KT 9999 BKN020 27/21 Q1014 NOSIG,M
VVTS,2/15/2021 4:00,106.6667,10.8167,80.6,69.8,69.71,M,3,0,29.91,M,6.21,M,BKN,M,M,M,2000,M,M,M,M,M,M,M,M,M,M,83.9,VVTS 150400Z VRB03KT 9999 BKN020 27/21 Q1013 NOSIG,M
VVTS,2/15/2021 4:30,106.6667,10.8167,82.4,69.8,65.74,120,4,0,29.91,M,6.21,M,BKN,M,M,M,2000,M,M,M,M,M,M,M,M,M,M,86.22,VVTS 150430Z 12004KT 070V190 9999 BKN020 28/21 Q1013 NOSIG,M
VVTS,2/15/2021 5:00,106.6667,10.8167,84.2,68,58.32,M,2,0,29.88,M,6.21,M,BKN,M,M,M,2000,M,M,M,M,M,M,M,M,M,M,87.4,VVTS 150500Z VRB02KT 9999 BKN020 29/20 Q1012 NOSIG,M
VVTS,2/15/2021 5:30,106.6667,10.8167,84.2,68,58.32,M,2,0,29.88,M,6.21,M,BKN,M,M,M,2000,M,M,M,M,M,M,M,M,M,M,87.4,VVTS 150530Z VRB02KT 9999 BKN020 29/20 Q1012 NOSIG,M
VVTS,2/15/2021 6:00,106.6667,10.8167,84.2,68,58.32,140,4,0,29.85,M,6.21,M,BKN,M,M,M,2000,M,M,M,M,M,M,M,M,M,M,87.4,VVTS 150600Z 14004KT 090V190 9999 BKN020 29/20 Q1011 NOSIG,M
VVTS,2/15/2021 6:30,106.6667,10.8167,86,69.8,58.55,220,4,0,29.85,M,6.21,M,BKN,M,M,M,2000,M,M,M,M,M,M,M,M,M,M,90.58,VVTS 150630Z 22004KT 160V250 9999 BKN020 30/21 Q1011 NOSIG,M
VVTS,2/15/2021 7:00,106.6667,10.8167,84.2,69.8,62.03,220,6,0,29.83,M,6.21,M,BKN,M,M,M,2000,M,M,M,M,M,M,M,M,M,M,88.43,VVTS 150700Z 22006KT 180V270 9999 BKN020 29/21 Q1010 NOSIG,M
VVTS,2/15/2021 7:30,106.6667,10.8167,87.8,68,51.98,200,6,0,29.8,M,6.21,M,BKN,M,M,M,2000,M,M,M,M,M,M,M,M,M,M,91.43,VVTS 150730Z 20006KT 140V250 9999 BKN020 31/20 Q1009 NOSIG,M
VVTS,2/15/2021 8:00,106.6667,10.8167,86,69.8,58.55,160,7,0,29.8,M,6.21,M,BKN,M,M,M,2000,M,M,M,M,M,M,M,M,M,M,90.58,VVTS 150800Z 16007KT 120V190 9999 BKN020 30/21 Q1009 NOSIG,M
VVTS,2/15/2021 8:30,106.6667,10.8167,84.2,68,58.32,200,7,0,29.8,M,6.21,M,BKN,M,M,M,2000,M,M,M,M,M,M,M,M,M,M,87.4,VVTS 150830Z 20007KT 160V240 9999 BKN020 29/20 Q1009 NOSIG,M
VVTS,2/15/2021 9:00,106.6667,10.8167,84.2,68,58.32,190,8,0,29.8,M,6.21,M,SCT,M,M,M,2000,M,M,M,M,M,M,M,M,M,M,87.4,VVTS 150900Z 19008KT 150V230 9999 SCT020 29/20 Q1009 NOSIG,M
VVTS,2/15/2021 9:30,106.6667,10.8167,82.4,68,61.81,190,10,0,29.8,M,6.21,M,SCT,M,M,M,2000,M,M,M,M,M,M,M,M,M,M,85.38,VVTS 150930Z 19010KT 9999 SCT020 28/20 Q1009 NOSIG,M
VVTS,2/15/2021 10:00,106.6667,10.8167,80.6,68,65.54,180,10,0,29.8,M,6.21,M,SCT,M,M,M,2000,M,M,M,M,M,M,M,M,M,M,83.29,VVTS 151000Z 18010KT 150V210 9999 SCT020 27/20 Q1009 NOSIG,M
VVTS,2/15/2021 10:30,106.6667,10.8167,78.8,68,69.52,170,10,0,29.8,M,6.21,M,SCT,M,M,M,2000,M,M,M,M,M,M,M,M,M,M,78.8,VVTS 151030Z 17010KT 9999 SCT020 26/20 Q1009 NOSIG,M
VVTS,2/15/2021 11:00,106.6667,10.8167,77,68,73.78,180,8,0,29.83,M,6.21,M,SCT,M,M,M,2000,M,M,M,M,M,M,M,M,M,M,77,VVTS 151100Z 18008KT 9999 SCT020 25/20 Q1010 NOSIG,M
VVTS,2/15/2021 11:30,106.6667,10.8167,77,68,73.78,160,8,0,29.83,M,6.21,M,SCT,M,M,M,2000,M,M,M,M,M,M,M,M,M,M,77,VVTS 151130Z 16008KT 9999 SCT020 25/20 Q1010 NOSIG,M
VVTS,2/15/2021 12:00,106.6667,10.8167,77,68,73.78,170,8,0,29.83,M,6.21,M,SCT,M,M,M,2000,M,M,M,M,M,M,M,M,M,M,77,VVTS 151200Z 17008KT 140V200 9999 SCT020 25/20 Q1010 NOSIG,M
VVTS,2/15/2021 12:30,106.6667,10.8167,77,66.2,69.33,150,9,0,29.83,M,6.21,M,SCT,M,M,M,2000,M,M,M,M,M,M,M,M,M,M,77,VVTS 151230Z 15009KT 9999 SCT020 25/19 Q1010 NOSIG,M
VVTS,2/15/2021 13:00,106.6667,10.8167,77,68,73.78,140,8,0,29.85,M,6.21,M,SCT,M,M,M,2000,M,M,M,M,M,M,M,M,M,M,77,VVTS 151300Z 14008KT 110V170 9999 SCT020 25/20 Q1011 NOSIG,M
VVTS,2/15/2021 13:30,106.6667,10.8167,75.2,66.2,73.61,140,10,0,29.85,M,6.21,M,SCT,M,M,M,2000,M,M,M,M,M,M,M,M,M,M,75.2,VVTS 151330Z 14010KT 9999 SCT020 24/19 Q1011 NOSIG,M
VVTS,2/15/2021 14:00,106.6667,10.8167,75.2,68,78.34,140,8,0,29.85,M,6.21,M,SCT,M,M,M,2000,M,M,M,M,M,M,M,M,M,M,75.2,VVTS 151400Z 14008KT 9999 SCT020 24/20 Q1011 NOSIG,M
VVTS,2/15/2021 14:30,106.6667,10.8167,75.2,68,78.34,120,5,0,29.85,M,6.21,M,SCT,M,M,M,2000,M,M,M,M,M,M,M,M,M,M,75.2,VVTS 151430Z 12005KT 100V190 9999 SCT020 24/20 Q1011 NOSIG,M
VVTS,2/15/2021 15:00,106.6667,10.8167,75.2,68,78.34,130,8,0,29.85,M,6.21,M,SCT,M,M,M,2000,M,M,M,M,M,M,M,M,M,M,75.2,VVTS 151500Z 13008KT 100V160 9999 SCT020 24/20 Q1011 NOSIG,M
VVTS,2/15/2021 15:30,106.6667,10.8167,73.4,68,83.21,130,10,0,29.85,M,6.21,M,SCT,M,M,M,2000,M,M,M,M,M,M,M,M,M,M,73.4,VVTS 151530Z 13010KT 9999 SCT020 23/20 Q1011 NOSIG,M
VVTS,2/15/2021 16:00,106.6667,10.8167,73.4,68,83.21,130,9,0,29.85,M,6.21,M,SCT,M,M,M,1700,M,M,M,M,M,M,M,M,M,M,73.4,VVTS 151600Z 13009KT 9999 SCT017 23/20 Q1011 NOSIG,M
VVTS,2/15/2021 16:30,106.6667,10.8167,73.4,68,83.21,130,8,0,29.85,M,6.21,M,SCT,M,M,M,1700,M,M,M,M,M,M,M,M,M,M,73.4,VVTS 151630Z 13008KT 9999 SCT017 23/20 Q1011 NOSIG,M
VVTS,2/15/2021 17:00,106.6667,10.8167,73.4,68,83.21,130,9,0,29.85,M,6.21,M,SCT,M,M,M,1700,M,M,M,M,M,M,M,M,M,M,73.4,VVTS 151700Z 13009KT 9999 SCT017 23/20 Q1011 NOSIG,M
VVTS,2/15/2021 17:30,106.6667,10.8167,73.4,68,83.21,130,7,0,29.85,M,6.21,M,SCT,M,M,M,1700,M,M,M,M,M,M,M,M,M,M,73.4,VVTS 151730Z 13007KT 9999 SCT017 23/20 Q1011 NOSIG,M
VVTS,2/15/2021 18:00,106.6667,10.8167,73.4,68,83.21,130,6,0,29.85,M,6.21,M,SCT,M,M,M,1700,M,M,M,M,M,M,M,M,M,M,73.4,VVTS 151800Z 13006KT 080V160 9999 SCT017 23/20 Q1011 NOSIG,M
VVTS,2/15/2021 18:30,106.6667,10.8167,73.4,68,83.21,140,7,0,29.83,M,6.21,M,SCT,M,M,M,1700,M,M,M,M,M,M,M,M,M,M,73.4,VVTS 151830Z 14007KT 9999 SCT017 23/20 Q1010 NOSIG,M
VVTS,2/15/2021 19:00,106.6667,10.8167,73.4,69.8,88.51,130,7,0,29.83,M,6.21,M,SCT,M,M,M,1700,M,M,M,M,M,M,M,M,M,M,73.4,VVTS 151900Z 13007KT 9999 SCT017 23/21 Q1010 NOSIG,M
VVTS,2/15/2021 19:30,106.6667,10.8167,73.4,69.8,88.51,130,6,0,29.83,M,6.21,M,FEW,M,M,M,1700,M,M,M,M,M,M,M,M,M,M,73.4,VVTS 151930Z 13006KT 9999 FEW017 23/21 Q1010 NOSIG,M
VVTS,2/15/2021 20:00,106.6667,10.8167,73.4,69.8,88.51,130,8,0,29.83,M,6.21,M,FEW,M,M,M,1700,M,M,M,M,M,M,M,M,M,M,73.4,VVTS 152000Z 13008KT 9999 FEW017 23/21 Q1010 NOSIG,M
VVTS,2/15/2021 20:30,106.6667,10.8167,71.6,69.8,94.06,120,4,0,29.83,M,6.21,M,FEW,M,M,M,1700,M,M,M,M,M,M,M,M,M,M,71.6,VVTS 152030Z 12004KT 090V150 9999 FEW017 22/21 Q1010 NOSIG,M
VVTS,2/15/2021 21:00,106.6667,10.8167,71.6,69.8,94.06,130,4,0,29.83,M,6.21,M,FEW,M,M,M,1700,M,M,M,M,M,M,M,M,M,M,71.6,VVTS 152100Z 13004KT 080V160 9999 FEW017 22/21 Q1010 NOSIG,M
VVTS,2/15/2021 21:30,106.6667,10.8167,71.6,69.8,94.06,140,5,0,29.83,M,6.21,M,FEW,M,M,M,1700,M,M,M,M,M,M,M,M,M,M,71.6,VVTS 152130Z 14005KT 110V170 9999 FEW017 22/21 Q1010 NOSIG,M
VVTS,2/15/2021 22:00,106.6667,10.8167,71.6,69.8,94.06,140,5,0,29.83,M,6.21,M,FEW,M,M,M,1700,M,M,M,M,M,M,M,M,M,M,71.6,VVTS 152200Z 14005KT 9999 FEW017 22/21 Q1010 NOSIG,M
VVTS,2/15/2021 22:30,106.6667,10.8167,71.6,69.8,94.06,140,6,0,29.83,M,6.21,M,FEW,M,M,M,1700,M,M,M,M,M,M,M,M,M,M,71.6,VVTS 152230Z 14006KT 9999 FEW017 22/21 Q1010 NOSIG,M
VVTS,2/15/2021 23:00,106.6667,10.8167,71.6,69.8,94.06,140,4,0,29.85,M,4.97,M,FEW,SCT,M,M,1700,5000,M,M,M,M,M,M,M,M,M,71.6,VVTS 152300Z 14004KT 8000 FEW017 SCT050 22/21 Q1011 NOSIG,M
VVTS,2/15/2021 23:30,106.6667,10.8167,71.6,69.8,94.06,140,4,0,29.85,M,4.97,M,FEW,SCT,M,M,1700,5000,M,M,M,M,M,M,M,M,M,71.6,VVTS 152330Z 14004KT 8000 FEW017 SCT050 22/21 Q1011 NOSIG,M
VVTS,2/16/2021 0:00,106.6667,10.8167,73.4,69.8,88.51,M,2,0,29.88,M,4.97,M,FEW,SCT,M,M,1700,5000,M,M,M,M,M,M,M,M,M,73.4,VVTS 160000Z VRB02KT 8000 FEW017 SCT050 23/21 Q1012 NOSIG,M
VVTS,2/16/2021 0:30,106.6667,10.8167,73.4,69.8,88.51,130,5,0,29.88,M,4.97,M,SCT,SCT,M,M,1700,5000,M,M,M,M,M,M,M,M,M,73.4,VVTS 160030Z 13005KT 100V170 8000 SCT017 SCT050 23/21 Q1012 NOSIG,M
VVTS,2/16/2021 1:00,106.6667,10.8167,75.2,69.8,83.32,140,6,0,29.88,M,4.97,M,SCT,SCT,M,M,1700,5000,M,M,M,M,M,M,M,M,M,75.2,VVTS 160100Z 14006KT 8000 SCT017 SCT050 24/21 Q1012 NOSIG,M
VVTS,2/16/2021 1:30,106.6667,10.8167,77,69.8,78.48,140,7,0,29.91,M,6.21,M,SCT,M,M,M,1700,M,M,M,M,M,M,M,M,M,M,77,VVTS 160130Z 14007KT 110V170 9999 SCT017 25/21 Q1013 NOSIG,M
VVTS,2/16/2021 2:00,106.6667,10.8167,78.8,69.8,73.95,140,7,0,29.91,M,6.21,M,FEW,M,M,M,1700,M,M,M,M,M,M,M,M,M,M,78.8,VVTS 160200Z 14007KT 110V170 9999 FEW017 26/21 Q1013 NOSIG,M
VVTS,2/16/2021 2:30,106.6667,10.8167,80.6,69.8,69.71,130,8,0,29.91,M,6.21,M,FEW,M,M,M,1700,M,M,M,M,M,M,M,M,M,M,83.9,VVTS 160230Z 13008KT 100V160 9999 FEW017 27/21 Q1013 NOSIG,M
VVTS,2/16/2021 3:00,106.6667,10.8167,80.6,69.8,69.71,140,6,0,29.91,M,6.21,M,FEW,M,M,M,1700,M,M,M,M,M,M,M,M,M,M,83.9,VVTS 160300Z 14006KT 090V200 9999 FEW017 27/21 Q1013 NOSIG,M
VVTS,2/16/2021 3:30,106.6667,10.8167,80.6,66.2,61.58,M,4,0,29.88,M,6.21,M,FEW,M,M,M,2000,M,M,M,M,M,M,M,M,M,M,82.75,VVTS 160330Z VRB04KT 9999 FEW020 27/19 Q1012 NOSIG,M
VVTS,2/16/2021 4:00,106.6667,10.8167,84.2,66.2,54.8,170,4,0,29.88,M,6.21,M,FEW,M,M,M,2000,M,M,M,M,M,M,M,M,M,M,86.5,VVTS 160400Z 17004KT 070V240 9999 FEW020 29/19 Q1012 NOSIG,M
VVTS,2/16/2021 4:30,106.6667,10.8167,86,66.2,51.72,M,1,0,29.88,M,6.21,M,FEW,M,M,M,2000,M,M,M,M,M,M,M,M,M,M,88.39,VVTS 160430Z VRB01KT 9999 FEW020 30/19 Q1012 NOSIG,M
VVTS,2/16/2021 5:00,106.6667,10.8167,86,66.2,51.72,140,3,0,29.85,M,6.21,M,SCT,M,M,M,2000,M,M,M,M,M,M,M,M,M,M,88.39,VVTS 160500Z 14003KT 9999 SCT020 30/19 Q1011 NOSIG,M
VVTS,2/16/2021 5:30,106.6667,10.8167,87.8,64.4,45.88,120,3,0,29.83,M,6.21,M,SCT,M,M,M,2000,M,M,M,M,M,M,M,M,M,M,89.33,VVTS 160530Z 12003KT 9999 SCT020 31/18 Q1010 NOSIG,M
VVTS,2/16/2021 6:00,106.6667,10.8167,87.8,62.6,43.07,M,3,0,29.83,M,6.21,M,SCT,M,M,M,2000,M,M,M,M,M,M,M,M,M,M,88.48,VVTS 160600Z VRB03KT 9999 SCT020 31/17 Q1010 NOSIG,M
VVTS,2/16/2021 6:30,106.6667,10.8167,87.8,60.8,40.41,M,2,0,29.8,M,6.21,M,BKN,M,M,M,2000,M,M,M,M,M,M,M,M,M,M,87.75,VVTS 160630Z VRB02KT 9999 BKN020 31/16 Q1009 NOSIG,M
VVTS,2/16/2021 7:00,106.6667,10.8167,87.8,60.8,40.41,M,4,0,29.8,M,6.21,M,BKN,M,M,M,2000,M,M,M,M,M,M,M,M,M,M,87.75,VVTS 160700Z VRB04KT 9999 BKN020 31/16 Q1009 NOSIG,M
VVTS,2/16/2021 7:30,106.6667,10.8167,86,66.2,51.72,220,9,0,29.8,M,6.21,M,BKN,M,M,M,2000,M,M,M,M,M,M,M,M,M,M,88.39,VVTS 160730Z 22009KT 200V270 9999 BKN020 30/19 Q1009 NOSIG,M
VVTS,2/16/2021 8:00,106.6667,10.8167,84.2,68,58.32,200,13,0,29.8,M,6.21,M,BKN,M,M,M,2000,M,M,M,M,M,M,M,M,M,M,87.4,VVTS 160800Z 20013KT 9999 BKN020 29/20 Q1009 NOSIG,M
VVTS,2/16/2021 8:30,106.6667,10.8167,84.2,68,58.32,190,11,0,29.8,M,6.21,M,SCT,M,M,M,2000,M,M,M,M,M,M,M,M,M,M,87.4,VVTS 160830Z 19011KT 140V220 9999 SCT020 29/20 Q1009 NOSIG,M
VVTS,2/16/2021 9:00,106.6667,10.8167,84.2,66.2,54.8,170,12,0,29.8,M,6.21,M,FEW,M,M,M,2000,M,M,M,M,M,M,M,M,M,M,86.5,VVTS 160900Z 17012KT 150V220 9999 FEW020 29/19 Q1009 NOSIG,M
VVTS,2/16/2021 9:30,106.6667,10.8167,82.4,66.2,58.08,200,12,0,29.8,M,6.21,M,FEW,M,M,M,2000,M,M,M,M,M,M,M,M,M,M,84.63,VVTS 160930Z 20012KT 9999 FEW020 28/19 Q1009 NOSIG,M
VVTS,2/16/2021 10:00,106.6667,10.8167,80.6,66.2,61.58,180,11,0,29.8,M,6.21,M,FEW,M,M,M,2000,M,M,M,M,M,M,M,M,M,M,82.75,VVTS 161000Z 18011KT 150V220 9999 FEW020 27/19 Q1009 NOSIG,M
VVTS,2/16/2021 10:30,106.6667,10.8167,78.8,66.2,65.33,180,9,0,29.8,M,6.21,M,FEW,M,M,M,2000,M,M,M,M,M,M,M,M,M,M,78.8,VVTS 161030Z 18009KT 150V210 9999 FEW020 26/19 Q1009 NOSIG,M
VVTS,2/16/2021 11:00,106.6667,10.8167,78.8,64.4,61.36,160,9,0,29.83,M,6.21,M,FEW,M,M,M,2000,M,M,M,M,M,M,M,M,M,M,78.8,VVTS 161100Z 16009KT 130V200 9999 FEW020 26/18 Q1010 NOSIG,M
VVTS,2/16/2021 11:30,106.6667,10.8167,77,66.2,69.33,160,10,0,29.83,M,6.21,M,FEW,M,M,M,2000,M,M,M,M,M,M,M,M,M,M,77,VVTS 161130Z 16010KT 140V200 9999 FEW020 25/19 Q1010 NOSIG,M
VVTS,2/16/2021 12:00,106.6667,10.8167,77,68,73.78,160,8,0,29.83,M,6.21,M,FEW,M,M,M,2000,M,M,M,M,M,M,M,M,M,M,77,VVTS 161200Z 16008KT 130V190 9999 FEW020 25/20 Q1010 NOSIG,M
VVTS,2/16/2021 12:30,106.6667,10.8167,77,68,73.78,160,8,0,29.85,M,6.21,M,FEW,M,M,M,2000,M,M,M,M,M,M,M,M,M,M,77,VVTS 161230Z 16008KT 9999 FEW020 25/20 Q1011 NOSIG,M
VVTS,2/16/2021 13:00,106.6667,10.8167,77,68,73.78,160,9,0,29.85,M,6.21,M,FEW,M,M,M,2000,M,M,M,M,M,M,M,M,M,M,77,VVTS 161300Z 16009KT 130V190 9999 FEW020 25/20 Q1011 NOSIG,M
VVTS,2/16/2021 13:30,106.6667,10.8167,75.2,68,78.34,140,7,0,29.85,M,6.21,M,M,M,M,M,M,M,M,M,,M,M,M,M,M,M,75.2,VVTS 161330Z 14007KT 9999 ////// 24/20 Q1011 NOSIG,M
VVTS,2/16/2021 14:00,106.6667,10.8167,75.2,68,78.34,150,10,0,29.88,M,6.21,M,FEW,M,M,M,2000,M,M,M,M,M,M,M,M,M,M,75.2,VVTS 161400Z 15010KT 9999 FEW020 24/20 Q1012 NOSIG,M
VVTS,2/16/2021 14:30,106.6667,10.8167,75.2,68,78.34,150,8,0,29.88,M,6.21,M,FEW,M,M,M,2000,M,M,M,M,M,M,M,M,M,M,75.2,VVTS 161430Z 15008KT 110V190 9999 FEW020 24/20 Q1012 NOSIG,M
VVTS,2/16/2021 15:00,106.6667,10.8167,75.2,68,78.34,140,8,0,29.88,M,6.21,M,FEW,M,M,M,2000,M,M,M,M,M,M,M,M,M,M,75.2,VVTS 161500Z 14008KT 9999 FEW020 24/20 Q1012 NOSIG,M
VVTS,2/16/2021 15:30,106.6667,10.8167,75.2,68,78.34,140,8,0,29.88,M,6.21,M,FEW,M,M,M,2000,M,M,M,M,M,M,M,M,M,M,75.2,VVTS 161530Z 14008KT 110V180 9999 FEW020 24/20 Q1012 NOSIG,M
VVTS,2/16/2021 16:00,106.6667,10.8167,75.2,69.8,83.32,140,8,0,29.88,M,6.21,M,FEW,M,M,M,2000,M,M,M,M,M,M,M,M,M,M,75.2,VVTS 161600Z 14008KT 9999 FEW020 24/21 Q1012 NOSIG,M
VVTS,2/16/2021 16:30,106.6667,10.8167,73.4,69.8,88.51,140,6,0,29.88,M,6.21,M,FEW,M,M,M,1700,M,M,M,M,M,M,M,M,M,M,73.4,VVTS 161630Z 14006KT 9999 FEW017 23/21 Q1012 NOSIG,M
VVTS,2/16/2021 17:00,106.6667,10.8167,75.2,68,78.34,150,7,0,29.88,M,6.21,M,FEW,M,M,M,1700,M,M,M,M,M,M,M,M,M,M,75.2,VVTS 161700Z 15007KT 110V190 9999 FEW017 24/20 Q1012 NOSIG,M
VVTS,2/16/2021 17:30,106.6667,10.8167,73.4,68,83.21,130,4,0,29.88,M,6.21,M,FEW,M,M,M,1700,M,M,M,M,M,M,M,M,M,M,73.4,VVTS 161730Z 13004KT 9999 FEW017 23/20 Q1012 NOSIG,M
VVTS,2/16/2021 18:00,106.6667,10.8167,73.4,68,83.21,140,5,0,29.88,M,6.21,M,SCT,M,M,M,1700,M,M,M,M,M,M,M,M,M,M,73.4,VVTS 161800Z 14005KT 090V170 9999 SCT017 23/20 Q1012 NOSIG,M
VVTS,2/16/2021 18:30,106.6667,10.8167,73.4,68,83.21,120,5,0,29.85,M,6.21,M,SCT,M,M,M,1700,M,M,M,M,M,M,M,M,M,M,73.4,VVTS 161830Z 12005KT 9999 SCT017 23/20 Q1011 NOSIG,M
VVTS,2/16/2021 19:00,106.6667,10.8167,73.4,68,83.21,130,5,0,29.85,M,6.21,M,SCT,M,M,M,1700,M,M,M,M,M,M,M,M,M,M,73.4,VVTS 161900Z 13005KT 9999 SCT017 23/20 Q1011 NOSIG,M
VVTS,2/16/2021 19:30,106.6667,10.8167,73.4,68,83.21,140,4,0,29.85,M,6.21,M,SCT,M,M,M,1700,M,M,M,M,M,M,M,M,M,M,73.4,VVTS 161930Z 14004KT 120V180 9999 SCT017 23/20 Q1011 NOSIG,M
VVTS,2/16/2021 20:00,106.6667,10.8167,73.4,68,83.21,140,5,0,29.85,M,6.21,M,SCT,M,M,M,1700,M,M,M,M,M,M,M,M,M,M,73.4,VVTS 162000Z 14005KT 9999 SCT017 23/20 Q1011 NOSIG,M
VVTS,2/16/2021 20:30,106.6667,10.8167,73.4,68,83.21,130,4,0,29.85,M,6.21,M,SCT,M,M,M,1700,M,M,M,M,M,M,M,M,M,M,73.4,VVTS 162030Z 13004KT 9999 SCT017 23/20 Q1011 NOSIG,M
VVTS,2/16/2021 21:00,106.6667,10.8167,73.4,68,83.21,130,6,0,29.85,M,6.21,M,FEW,M,M,M,1700,M,M,M,M,M,M,M,M,M,M,73.4,VVTS 162100Z 13006KT 9999 FEW017 23/20 Q1011 NOSIG,M
VVTS,2/16/2021 21:30,106.6667,10.8167,73.4,68,83.21,120,6,0,29.85,M,6.21,M,FEW,M,M,M,1700,M,M,M,M,M,M,M,M,M,M,73.4,VVTS 162130Z 12006KT 080V140 9999 FEW017 23/20 Q1011 NOSIG,M
VVTS,2/16/2021 22:00,106.6667,10.8167,73.4,68,83.21,110,6,0,29.85,M,6.21,M,FEW,M,M,M,1700,M,M,M,M,M,M,M,M,M,M,73.4,VVTS 162200Z 11006KT 9999 FEW017 23/20 Q1011 NOSIG,M
VVTS,2/16/2021 22:30,106.6667,10.8167,73.4,68,83.21,110,5,0,29.88,M,6.21,M,FEW,M,M,M,1700,M,M,M,M,M,M,M,M,M,M,73.4,VVTS 162230Z 11005KT 080V160 9999 FEW017 23/20 Q1012 NOSIG,M
VVTS,2/16/2021 23:00,106.6667,10.8167,71.6,68,88.43,100,6,0,29.88,M,6.21,M,FEW,M,M,M,1700,M,M,M,M,M,M,M,M,M,M,71.6,VVTS 162300Z 10006KT 9999 FEW017 22/20 Q1012 NOSIG,M
VVTS,2/16/2021 23:30,106.6667,10.8167,71.6,68,88.43,100,4,0,29.88,M,6.21,M,M,M,M,M,M,M,M,M,M,M,M,M,M,M,M,71.6,VVTS 162330Z 10004KT 070V130 CAVOK 22/20 Q1012 NOSIG,M
VVTS,2/17/2021 0:00,106.6667,10.8167,73.4,68,83.21,100,4,0,29.91,M,6.21,M,M,M,M,M,M,M,M,M,M,M,M,M,M,M,M,73.4,VVTS 170000Z 10004KT CAVOK 23/20 Q1013 NOSIG,M
VVTS,2/17/2021 0:30,106.6667,10.8167,75.2,66.2,73.61,90,5,0,29.91,M,6.21,M,M,M,M,M,M,M,M,M,M,M,M,M,M,M,M,75.2,VVTS 170030Z 09005KT CAVOK 24/19 Q1013 NOSIG,M
VVTS,2/17/2021 1:00,106.6667,10.8167,77,66.2,69.33,90,5,0,29.91,M,6.21,M,M,M,M,M,M,M,M,M,M,M,M,M,M,M,M,77,VVTS 170100Z 09005KT 070V130 CAVOK 25/19 Q1013 NOSIG,M
VVTS,2/17/2021 1:30,106.6667,10.8167,78.8,66.2,65.33,80,7,0,29.94,M,6.21,M,M,M,M,M,M,M,M,M,M,M,M,M,M,M,M,78.8,VVTS 170130Z 08007KT CAVOK 26/19 Q1014 NOSIG,M
VVTS,2/17/2021 2:00,106.6667,10.8167,80.6,64.4,57.84,90,5,0,29.94,M,6.21,M,M,M,M,M,M,M,M,M,M,M,M,M,M,M,M,82.27,VVTS 170200Z 09005KT CAVOK 27/18 Q1014 NOSIG,M
VVTS,2/17/2021 2:30,106.6667,10.8167,82.4,64.4,54.55,120,7,0,29.94,M,6.21,M,M,M,M,M,M,M,M,M,M,M,M,M,M,M,M,83.98,VVTS 170230Z 12007KT 090V150 CAVOK 28/18 Q1014 NOSIG,M
VVTS,2/17/2021 3:00,106.6667,10.8167,82.4,62.6,51.21,100,5,0,29.94,M,6.21,M,M,M,M,M,M,M,M,M,M,M,M,M,M,M,M,83.41,VVTS 170300Z 10005KT 040V130 CAVOK 28/17 Q1014 NOSIG,M
VVTS,2/17/2021 3:30,106.6667,10.8167,84.2,59,42.52,130,6,0,29.94,M,6.21,M,FEW,M,M,M,2000,M,M,M,M,M,M,M,M,M,M,83.92,VVTS 170330Z 13006KT 100V160 9999 FEW020 29/15 Q1014 NOSIG,M
VVTS,2/17/2021 4:00,106.6667,10.8167,84.2,60.8,45.34,130,5,0,29.94,M,6.21,M,FEW,M,M,M,2000,M,M,M,M,M,M,M,M,M,M,84.43,VVTS 170400Z 13005KT 060V180 9999 FEW020 29/16 Q1014 NOSIG,M
VVTS,2/17/2021 4:30,106.6667,10.8167,87.8,60.8,40.41,M,3,0,29.91,M,6.21,M,FEW,M,M,M,2000,M,M,M,M,M,M,M,M,M,M,87.75,VVTS 170430Z VRB03KT 9999 FEW020 31/16 Q1013 NOSIG,M
VVTS,2/17/2021 5:00,106.6667,10.8167,87.8,59,37.9,M,3,0,29.88,M,6.21,M,FEW,M,M,M,2000,M,M,M,M,M,M,M,M,M,M,87.12,VVTS 170500Z VRB03KT 9999 FEW020 31/15 Q1012 NOSIG,M
VVTS,2/17/2021 5:30,106.6667,10.8167,89.6,60.8,38.18,M,3,0,29.88,M,6.21,M,FEW,M,M,M,2000,M,M,M,M,M,M,M,M,M,M,89.54,VVTS 170530Z VRB03KT 9999 FEW020 32/16 Q1012 NOSIG,M
VVTS,2/17/2021 6:00,106.6667,10.8167,87.8,59,37.9,M,2,0,29.85,M,6.21,M,FEW,M,M,M,2000,M,M,M,M,M,M,M,M,M,M,87.12,VVTS 170600Z VRB02KT 9999 FEW020 31/15 Q1011 NOSIG,M
VVTS,2/17/2021 6:30,106.6667,10.8167,89.6,59,35.81,M,1,0,29.85,M,6.21,M,FEW,M,M,M,2000,M,M,M,M,M,M,M,M,M,M,88.86,VVTS 170630Z VRB01KT 9999 FEW020 32/15 Q1011 NOSIG,M
VVTS,2/17/2021 7:00,106.6667,10.8167,89.6,59,35.81,300,5,0,29.83,M,6.21,M,FEW,M,M,M,2000,M,M,M,M,M,M,M,M,M,M,88.86,VVTS 170700Z 30005KT 250V350 9999 FEW020 32/15 Q1010 NOSIG,M
VVTS,2/17/2021 7:30,106.6667,10.8167,89.6,59,35.81,M,2,0,29.83,M,6.21,M,FEW,M,M,M,2000,M,M,M,M,M,M,M,M,M,M,88.86,VVTS 170730Z VRB02KT 9999 FEW020 32/15 Q1010 NOSIG,M
VVTS,2/17/2021 8:00,106.6667,10.8167,89.6,59,35.81,M,2,0,29.83,M,6.21,M,FEW,M,M,M,2000,M,M,M,M,M,M,M,M,M,M,88.86,VVTS 170800Z VRB02KT 9999 FEW020 32/15 Q1010 NOSIG,M
VVTS,2/17/2021 8:30,106.6667,10.8167,89.6,59,35.81,M,5,0,29.8,M,6.21,M,FEW,M,M,M,2000,M,M,M,M,M,M,M,M,M,M,88.86,VVTS 170830Z VRB05KT 9999 FEW020 32/15 Q1009 NOSIG,M
VVTS,2/17/2021 9:00,106.6667,10.8167,89.6,59,35.81,270,6,0,29.8,M,6.21,M,FEW,M,M,M,2000,M,M,M,M,M,M,M,M,M,M,88.86,VVTS 170900Z 27006KT 230V010 9999 FEW020 32/15 Q1009 NOSIG,M
VVTS,2/17/2021 9:30,106.6667,10.8167,86,62.6,45.61,210,10,0,29.83,M,6.21,M,FEW,M,M,M,2000,M,M,M,M,M,M,M,M,M,M,86.72,VVTS 170930Z 21010KT 9999 FEW020 30/17 Q1010 NOSIG,M
VVTS,2/17/2021 10:00,106.6667,10.8167,84.2,64.4,51.47,210,9,0,29.83,M,6.21,M,FEW,M,M,M,2000,M,M,M,M,M,M,M,M,M,M,85.71,VVTS 171000Z 21009KT 180V250 9999 FEW020 29/18 Q1010 NOSIG,M
VVTS,2/17/2021 10:30,106.6667,10.8167,82.4,68,61.81,190,10,0,29.83,M,6.21,M,FEW,M,M,M,2000,M,M,M,M,M,M,M,M,M,M,85.38,VVTS 171030Z 19010KT 160V220 9999 FEW020 28/20 Q1010 NOSIG,M
VVTS,2/17/2021 11:00,106.6667,10.8167,80.6,66.2,61.58,170,9,0,29.85,M,6.21,M,FEW,M,M,M,2000,M,M,M,M,M,M,M,M,M,M,82.75,VVTS 171100Z 17009KT 140V210 9999 FEW020 27/19 Q1011 NOSIG,M
VVTS,2/17/2021 11:30,106.6667,10.8167,80.6,66.2,61.58,170,9,0,29.85,M,6.21,M,FEW,M,M,M,2000,M,M,M,M,M,M,M,M,M,M,82.75,VVTS 171130Z 17009KT 140V200 9999 FEW020 27/19 Q1011 NOSIG,M
VVTS,2/17/2021 12:00,106.6667,10.8167,78.8,68,69.52,170,8,0,29.85,M,6.21,M,FEW,M,M,M,2000,M,M,M,M,M,M,M,M,M,M,78.8,VVTS 171200Z 17008KT 140V210 9999 FEW020 26/20 Q1011 NOSIG,M
VVTS,2/17/2021 12:30,106.6667,10.8167,78.8,68,69.52,160,7,0,29.85,M,6.21,M,FEW,M,M,M,2000,M,M,M,M,M,M,M,M,M,M,78.8,VVTS 171230Z 16007KT 9999 FEW020 26/20 Q1011 NOSIG,M
VVTS,2/17/2021 13:00,106.6667,10.8167,78.8,66.2,65.33,150,6,0,29.88,M,6.21,M,FEW,M,M,M,2000,M,M,M,M,M,M,M,M,M,M,78.8,VVTS 171300Z 15006KT 120V180 9999 FEW020 26/19 Q1012 NOSIG,M
VVTS,2/17/2021 13:30,106.6667,10.8167,78.8,68,69.52,140,6,0,29.88,M,6.21,M,FEW,M,M,M,2000,M,M,M,M,M,M,M,M,M,M,78.8,VVTS 171330Z 14006KT 110V170 9999 FEW020 26/20 Q1012 NOSIG,M
VVTS,2/17/2021 14:00,106.6667,10.8167,77,68,73.78,130,6,0,29.91,M,6.21,M,FEW,M,M,M,2000,M,M,M,M,M,M,M,M,M,M,77,VVTS 171400Z 13006KT 9999 FEW020 25/20 Q1013 NOSIG,M
VVTS,2/17/2021 14:30,106.6667,10.8167,77,68,73.78,130,6,0,29.91,M,6.21,M,FEW,M,M,M,2000,M,M,M,M,M,M,M,M,M,M,77,VVTS 171430Z 13006KT 9999 FEW020 25/20 Q1013 NOSIG,M
VVTS,2/17/2021 15:00,106.6667,10.8167,77,68,73.78,120,4,0,29.91,M,6.21,M,FEW,M,M,M,2000,M,M,M,M,M,M,M,M,M,M,77,VVTS 171500Z 12004KT 080V150 9999 FEW020 25/20 Q1013 NOSIG,M
VVTS,2/17/2021 15:30,106.6667,10.8167,77,68,73.78,130,7,0,29.91,M,6.21,M,FEW,M,M,M,2000,M,M,M,M,M,M,M,M,M,M,77,VVTS 171530Z 13007KT 9999 FEW020 25/20 Q1013 NOSIG,M
VVTS,2/17/2021 16:00,106.6667,10.8167,77,68,73.78,140,6,0,29.91,M,6.21,M,FEW,M,M,M,2000,M,M,M,M,M,M,M,M,M,M,77,VVTS 171600Z 14006KT 9999 FEW020 25/20 Q1013 NOSIG,M
VVTS,2/17/2021 16:30,106.6667,10.8167,75.2,68,78.34,140,5,0,29.91,M,6.21,M,FEW,SCT,M,M,1700,5000,M,M,M,M,M,M,M,M,M,75.2,VVTS 171630Z 14005KT 9999 FEW017 SCT050 24/20 Q1013 NOSIG,M
VVTS,2/17/2021 17:00,106.6667,10.8167,75.2,68,78.34,140,3,0,29.91,M,6.21,M,FEW,SCT,M,M,1700,5000,M,M,M,M,M,M,M,M,M,75.2,VVTS 171700Z 14003KT 9999 FEW017 SCT050 24/20 Q1013 NOSIG,M
VVTS,2/17/2021 17:30,106.6667,10.8167,75.2,68,78.34,130,4,0,29.91,M,6.21,M,FEW,SCT,M,M,1700,5000,M,M,M,M,M,M,M,M,M,75.2,VVTS 171730Z 13004KT 9999 FEW017 SCT050 24/20 Q1013 NOSIG,M
VVTS,2/17/2021 18:00,106.6667,10.8167,75.2,68,78.34,M,1,0,29.91,M,6.21,M,FEW,SCT,M,M,1700,5000,M,M,M,M,M,M,M,M,M,75.2,VVTS 171800Z VRB01KT 9999 FEW017 SCT050 24/20 Q1013 NOSIG,M
VVTS,2/17/2021 18:30,106.6667,10.8167,73.4,68,83.21,0,0,0,29.88,M,6.21,M,FEW,SCT,M,M,1700,5000,M,M,M,M,M,M,M,M,M,73.4,VVTS 171830Z 00000KT 9999 FEW017 SCT050 23/20 Q1012 NOSIG,M
VVTS,2/17/2021 19:00,106.6667,10.8167,73.4,68,83.21,M,1,0,29.88,M,6.21,M,FEW,SCT,M,M,1700,5000,M,M,M,M,M,M,M,M,M,73.4,VVTS 171900Z VRB01KT 9999 FEW017 SCT050 23/20 Q1012 NOSIG,M
VVTS,2/17/2021 19:30,106.6667,10.8167,73.4,68,83.21,330,4,0,29.88,M,6.21,M,FEW,SCT,M,M,1700,5000,M,M,M,M,M,M,M,M,M,73.4,VVTS 171930Z 33004KT 290V350 9999 FEW017 SCT050 23/20 Q1012 NOSIG,M
VVTS,2/17/2021 20:00,106.6667,10.8167,73.4,68,83.21,340,2,0,29.88,M,5.59,M,FEW,SCT,M,M,1700,5000,M,M,M,M,M,M,M,M,M,73.4,VVTS 172000Z 34002KT 9000 FEW017 SCT050 23/20 Q1012 NOSIG,M
VVTS,2/17/2021 20:30,106.6667,10.8167,71.6,69.8,94.06,M,3,0,29.88,M,5.59,M,FEW,SCT,M,M,2000,5000,M,M,M,M,M,M,M,M,M,71.6,VVTS 172030Z VRB03KT 9000 FEW020 SCT050 22/21 Q1012 NOSIG,M
VVTS,2/17/2021 21:00,106.6667,10.8167,71.6,69.8,94.06,330,4,0,29.88,M,5.59,M,FEW,SCT,M,M,2000,5000,M,M,M,M,M,M,M,M,M,71.6,VVTS 172100Z 33004KT 9000 FEW020 SCT050 22/21 Q1012 NOSIG,M
VVTS,2/17/2021 21:30,106.6667,10.8167,71.6,64.4,78.04,320,5,0,29.88,M,5.59,M,FEW,SCT,M,M,2000,5000,M,M,M,M,M,M,M,M,M,71.6,VVTS 172130Z 32005KT 9000 FEW020 SCT050 22/18 Q1012 NOSIG,M
VVTS,2/17/2021 22:00,106.6667,10.8167,71.6,62.6,73.27,M,2,0,29.91,M,5.59,M,FEW,SCT,M,M,2000,5000,M,M,M,M,M,M,M,M,M,71.6,VVTS 172200Z VRB02KT 9000 FEW020 SCT050 22/17 Q1013 NOSIG,M
VVTS,2/17/2021 22:30,106.6667,10.8167,71.6,62.6,73.27,0,0,0,29.91,M,5.59,M,FEW,SCT,M,M,2000,5000,M,M,M,M,M,M,M,M,M,71.6,VVTS 172230Z 00000KT 9000 FEW020 SCT050 22/17 Q1013 NOSIG,M
VVTS,2/17/2021 23:00,106.6667,10.8167,69.8,62.6,77.9,M,2,0,29.91,M,5.59,M,FEW,M,M,M,1700,M,M,M,M,M,M,M,M,M,M,69.8,VVTS 172300Z VRB02KT 9000 FEW017 21/17 Q1013 NOSIG,M
VVTS,2/17/2021 23:30,106.6667,10.8167,68,62.6,82.86,M,2,0,29.94,M,5.59,M,FEW,M,M,M,1700,M,M,M,M,M,M,M,M,M,M,68,VVTS 172330Z VRB02KT 9000 FEW017 20/17 Q1014 NOSIG,M
VVTS,2/18/2021 0:00,106.6667,10.8167,69.8,62.6,77.9,M,2,0,29.94,M,6.21,M,FEW,M,M,M,1700,M,M,M,M,M,M,M,M,M,M,69.8,VVTS 180000Z VRB02KT 9999 FEW017 21/17 Q1014 NOSIG,M
VVTS,2/18/2021 0:30,106.6667,10.8167,71.6,62.6,73.27,M,1,0,29.97,M,6.21,M,M,M,M,M,M,M,M,M,M,M,M,M,M,M,M,71.6,VVTS 180030Z VRB01KT CAVOK 22/17 Q1015 NOSIG,M
VVTS,2/18/2021 1:00,106.6667,10.8167,73.4,62.6,68.94,M,2,0,29.97,M,6.21,M,M,M,M,M,M,M,M,M,M,M,M,M,M,M,M,73.4,VVTS 180100Z VRB02KT CAVOK 23/17 Q1015 NOSIG,M
VVTS,2/18/2021 1:30,106.6667,10.8167,75.2,62.6,64.91,0,0,0,30,M,6.21,M,M,M,M,M,M,M,M,M,M,M,M,M,M,M,M,75.2,VVTS 180130Z 00000KT CAVOK 24/17 Q1016 NOSIG,M
VVTS,2/18/2021 2:00,106.6667,10.8167,77,62.6,61.13,M,2,0,30,M,6.21,M,M,M,M,M,M,M,M,M,M,M,M,M,M,M,M,77,VVTS 180200Z VRB02KT CAVOK 25/17 Q1016 NOSIG,M
VVTS,2/18/2021 2:30,106.6667,10.8167,78.8,62.6,57.6,M,3,0,30,M,6.21,M,FEW,M,M,M,2000,M,M,M,M,M,M,M,M,M,M,78.8,VVTS 180230Z VRB03KT 9999 FEW020 26/17 Q1016 NOSIG,M
VVTS,2/18/2021 3:00,106.6667,10.8167,82.4,62.6,51.21,M,3,0,30,M,6.21,M,FEW,M,M,M,2000,M,M,M,M,M,M,M,M,M,M,83.41,VVTS 180300Z VRB03KT 9999 FEW020 28/17 Q1016 NOSIG,M
VVTS,2/18/2021 3:30,106.6667,10.8167,82.4,62.6,51.21,M,4,0,30,M,6.21,M,FEW,M,M,M,2000,M,M,M,M,M,M,M,M,M,M,83.41,VVTS 180330Z VRB04KT 9999 FEW020 28/17 Q1016 NOSIG,M
VVTS,2/18/2021 4:00,106.6667,10.8167,84.2,62.6,48.32,M,3,0,29.97,M,6.21,M,SCT,M,M,M,2000,M,M,M,M,M,M,M,M,M,M,85.03,VVTS 180400Z VRB03KT 9999 SCT020 29/17 Q1015 NOSIG,M
VVTS,2/18/2021 4:30,106.6667,10.8167,86,62.6,45.61,M,2,0,29.97,M,6.21,M,SCT,M,M,M,2000,M,M,M,M,M,M,M,M,M,M,86.72,VVTS 180430Z VRB02KT 9999 SCT020 30/17 Q1015 NOSIG,M
VVTS,2/18/2021 5:00,106.6667,10.8167,84.2,64.4,51.47,M,3,0,29.97,M,6.21,M,BKN,M,M,M,2000,M,M,M,M,M,M,M,M,M,M,85.71,VVTS 180500Z VRB03KT 9999 BKN020 29/18 Q1015 NOSIG,M
VVTS,2/18/2021 5:30,106.6667,10.8167,84.2,62.6,48.32,60,1,0,29.94,M,6.21,M,BKN,M,M,M,2000,M,M,M,M,M,M,M,M,M,M,85.03,VVTS 180530Z 06001KT 9999 BKN020 29/17 Q1014 NOSIG,M
VVTS,2/18/2021 6:00,106.6667,10.8167,86,62.6,45.61,M,3,0,29.91,M,6.21,M,SCT,M,M,M,2000,M,M,M,M,M,M,M,M,M,M,86.72,VVTS 180600Z VRB03KT 9999 SCT020 30/17 Q1013 NOSIG,M
VVTS,2/18/2021 6:30,106.6667,10.8167,87.8,60.8,40.41,M,1,0,29.91,M,6.21,M,SCT,M,M,M,2000,M,M,M,M,M,M,M,M,M,M,87.75,VVTS 180630Z VRB01KT 9999 SCT020 31/16 Q1013 NOSIG,M
VVTS,2/18/2021 7:00,106.6667,10.8167,87.8,62.6,43.07,M,3,0,29.91,M,6.21,M,SCT,M,M,M,2000,M,M,M,M,M,M,M,M,M,M,88.48,VVTS 180700Z VRB03KT 9999 SCT020 31/17 Q1013 NOSIG,M
VVTS,2/18/2021 7:30,106.6667,10.8167,87.8,60.8,40.41,M,3,0,29.88,M,6.21,M,SCT,M,M,M,2000,M,M,M,M,M,M,M,M,M,M,87.75,VVTS 180730Z VRB03KT 9999 SCT020 31/16 Q1012 NOSIG,M
VVTS,2/18/2021 8:00,106.6667,10.8167,87.8,59,37.9,310,4,0,29.88,M,6.21,M,SCT,M,M,M,2000,M,M,M,M,M,M,M,M,M,M,87.12,VVTS 180800Z 31004KT 270V360 9999 SCT020 31/15 Q1012 NOSIG,M
VVTS,2/18/2021 8:30,106.6667,10.8167,86,60.8,42.8,310,4,0,29.85,M,6.21,M,SCT,M,M,M,2000,M,M,M,M,M,M,M,M,M,M,86.05,VVTS 180830Z 31004KT 260V030 9999 SCT020 30/16 Q1011 NOSIG,M
VVTS,2/18/2021 9:00,106.6667,10.8167,87.8,59,37.9,M,3,0,29.85,M,6.21,M,FEW,M,M,M,2000,M,M,M,M,M,M,M,M,M,M,87.12,VVTS 180900Z VRB03KT 9999 FEW020 31/15 Q1011 NOSIG,M
VVTS,2/18/2021 9:30,106.6667,10.8167,87.8,57.2,35.53,M,3,0,29.85,M,6.21,M,FEW,M,M,M,2000,M,M,M,M,M,M,M,M,M,M,86.58,VVTS 180930Z VRB03KT 9999 FEW020 31/14 Q1011 NOSIG,M
VVTS,2/18/2021 10:00,106.6667,10.8167,87.8,55.4,33.29,M,1,0,29.85,M,6.21,M,FEW,M,M,M,2000,M,M,M,M,M,M,M,M,M,M,86.11,VVTS 181000Z VRB01KT 9999 FEW020 31/13 Q1011 NOSIG,M
VVTS,2/18/2021 10:30,106.6667,10.8167,87.8,59,37.9,0,0,0,29.85,M,6.21,M,FEW,M,M,M,2000,M,M,M,M,M,M,M,M,M,M,87.12,VVTS 181030Z 00000KT 9999 FEW020 31/15 Q1011 NOSIG,M
VVTS,2/18/2021 11:00,106.6667,10.8167,82.4,62.6,51.21,270,5,0,29.88,M,6.21,M,FEW,M,M,M,2000,M,M,M,M,M,M,M,M,M,M,83.41,VVTS 181100Z 27005KT 9999 FEW020 28/17 Q1012 NOSIG,M
VVTS,2/18/2021 11:30,106.6667,10.8167,82.4,66.2,58.08,200,8,0,29.88,M,6.21,M,FEW,M,M,M,2000,M,M,M,M,M,M,M,M,M,M,84.63,VVTS 181130Z 20008KT 170V230 9999 FEW020 28/19 Q1012 NOSIG,M
VVTS,2/18/2021 12:00,106.6667,10.8167,82.4,64.4,54.55,190,7,0,29.88,M,6.21,M,FEW,M,M,M,2000,M,M,M,M,M,M,M,M,M,M,83.98,VVTS 181200Z 19007KT 9999 FEW020 28/18 Q1012 NOSIG,M
VVTS,2/18/2021 12:30,106.6667,10.8167,80.6,64.4,57.84,180,4,0,29.88,M,6.21,M,FEW,M,M,M,2000,M,M,M,M,M,M,M,M,M,M,82.27,VVTS 181230Z 18004KT 150V210 9999 FEW020 27/18 Q1012 NOSIG,M
VVTS,2/18/2021 13:00,106.6667,10.8167,80.6,66.2,61.58,170,4,0,29.91,M,6.21,M,FEW,M,M,M,2000,M,M,M,M,M,M,M,M,M,M,82.75,VVTS 181300Z 17004KT 9999 FEW020 27/19 Q1013 NOSIG,M
VVTS,2/18/2021 13:30,106.6667,10.8167,80.6,66.2,61.58,M,1,0,29.91,M,6.21,M,FEW,M,M,M,2000,M,M,M,M,M,M,M,M,M,M,82.75,VVTS 181330Z VRB01KT 9999 FEW020 27/19 Q1013 NOSIG,M
VVTS,2/18/2021 14:00,106.6667,10.8167,78.8,68,69.52,320,2,0,29.94,M,6.21,M,FEW,M,M,M,2000,M,M,M,M,M,M,M,M,M,M,78.8,VVTS 181400Z 32002KT 9999 FEW020 26/20 Q1014 NOSIG,M
VVTS,2/18/2021 14:30,106.6667,10.8167,78.8,68,69.52,M,1,0,29.94,M,6.21,M,FEW,M,M,M,2000,M,M,M,M,M,M,M,M,M,M,78.8,VVTS 181430Z VRB01KT 9999 FEW020 26/20 Q1014 NOSIG,M
VVTS,2/18/2021 15:00,106.6667,10.8167,78.8,68,69.52,310,4,0,29.94,M,6.21,M,FEW,M,M,M,2000,M,M,M,M,M,M,M,M,M,M,78.8,VVTS 181500Z 31004KT 280V340 9999 FEW020 26/20 Q1014 NOSIG,M
VVTS,2/18/2021 15:30,106.6667,10.8167,78.8,68,69.52,340,5,0,29.94,M,6.21,M,FEW,M,M,M,2000,M,M,M,M,M,M,M,M,M,M,78.8,VVTS 181530Z 34005KT 300V360 9999 FEW020 26/20 Q1014 NOSIG,M
VVTS,2/18/2021 16:00,106.6667,10.8167,78.8,64.4,61.36,360,6,0,29.94,M,6.21,M,FEW,M,M,M,2000,M,M,M,M,M,M,M,M,M,M,78.8,VVTS 181600Z 36006KT 330V030 9999 FEW020 26/18 Q1014 NOSIG,M
VVTS,2/18/2021 16:30,106.6667,10.8167,78.8,59,50.69,10,4,0,29.94,M,6.21,M,FEW,M,M,M,2000,M,M,M,M,M,M,M,M,M,M,78.8,VVTS 181630Z 01004KT 340V060 9999 FEW020 26/15 Q1014 NOSIG,M
VVTS,2/18/2021 17:00,106.6667,10.8167,77,59,53.8,M,3,0,29.94,M,6.21,M,FEW,M,M,M,2000,M,M,M,M,M,M,M,M,M,M,77,VVTS 181700Z VRB03KT 9999 FEW020 25/15 Q1014 NOSIG,M
VVTS,2/18/2021 17:30,106.6667,10.8167,77,59,53.8,360,4,0,29.94,M,6.21,M,FEW,M,M,M,2000,M,M,M,M,M,M,M,M,M,M,77,VVTS 181730Z 36004KT 320V060 9999 FEW020 25/15 Q1014 NOSIG,M
VVTS,2/18/2021 18:00,106.6667,10.8167,77,59,53.8,350,3,0,29.94,M,6.21,M,FEW,M,M,M,2000,M,M,M,M,M,M,M,M,M,M,77,VVTS 181800Z 35003KT 9999 FEW020 25/15 Q1014 NOSIG,M
VVTS,2/18/2021 18:30,106.6667,10.8167,75.2,59,57.12,10,5,0,29.94,M,6.21,M,FEW,M,M,M,2000,M,M,M,M,M,M,M,M,M,M,75.2,VVTS 181830Z 01005KT 330V030 9999 FEW020 24/15 Q1014 NOSIG,M
VVTS,2/18/2021 19:00,106.6667,10.8167,75.2,59,57.12,20,5,0,29.91,M,6.21,M,FEW,M,M,M,2000,M,M,M,M,M,M,M,M,M,M,75.2,VVTS 181900Z 02005KT 340V050 9999 FEW020 24/15 Q1013 NOSIG,M
VVTS,2/18/2021 19:30,106.6667,10.8167,75.2,57.2,53.55,360,4,0,29.91,M,6.21,M,FEW,M,M,M,2000,M,M,M,M,M,M,M,M,M,M,75.2,VVTS 181930Z 36004KT 9999 FEW020 24/14 Q1013 NOSIG,M
VVTS,2/18/2021 20:00,106.6667,10.8167,73.4,57.2,56.88,10,6,0,29.91,M,6.21,M,FEW,M,M,M,2000,M,M,M,M,M,M,M,M,M,M,73.4,VVTS 182000Z 01006KT 320V050 9999 FEW020 23/14 Q1013 NOSIG,M
VVTS,2/18/2021 20:30,106.6667,10.8167,73.4,59,60.67,10,6,0,29.91,M,6.21,M,FEW,M,M,M,2000,M,M,M,M,M,M,M,M,M,M,73.4,VVTS 182030Z 01006KT 330V040 9999 FEW020 23/15 Q1013 NOSIG,M
VVTS,2/18/2021 21:00,106.6667,10.8167,71.6,59,64.48,20,6,0,29.91,M,6.21,M,FEW,M,M,M,2000,M,M,M,M,M,M,M,M,M,M,71.6,VVTS 182100Z 02006KT 9999 FEW020 22/15 Q1013 NOSIG,M
VVTS,2/18/2021 21:30,106.6667,10.8167,71.6,59,64.48,20,6,0,29.91,M,6.21,M,FEW,M,M,M,2000,M,M,M,M,M,M,M,M,M,M,71.6,VVTS 182130Z 02006KT 9999 FEW020 22/15 Q1013 NOSIG,M
VVTS,2/18/2021 22:00,106.6667,10.8167,71.6,59,64.48,30,4,0,29.91,M,6.21,M,FEW,M,M,M,2000,M,M,M,M,M,M,M,M,M,M,71.6,VVTS 182200Z 03004KT 9999 FEW020 22/15 Q1013 NOSIG,M
VVTS,2/18/2021 22:30,106.6667,10.8167,71.6,60.8,68.75,360,3,0,29.91,M,6.21,M,FEW,M,M,M,2000,M,M,M,M,M,M,M,M,M,M,71.6,VVTS 182230Z 36003KT 9999 FEW020 22/16 Q1013 NOSIG,M
VVTS,2/18/2021 23:00,106.6667,10.8167,69.8,59,68.55,20,3,0,29.94,M,6.21,M,FEW,M,M,M,2000,M,M,M,M,M,M,M,M,M,M,69.8,VVTS 182300Z 02003KT 9999 FEW020 21/15 Q1014 NOSIG,M
VVTS,2/18/2021 23:30,106.6667,10.8167,69.8,60.8,73.09,M,3,0,29.94,M,6.21,M,M,M,M,M,M,M,M,M,M,M,M,M,M,M,M,69.8,VVTS 182330Z VRB03KT CAVOK 21/16 Q1014 NOSIG,M
VVTS,2/19/2021 0:00,106.6667,10.8167,71.6,60.8,68.75,M,2,0,29.94,M,6.21,M,M,M,M,M,M,M,M,M,M,M,M,M,M,M,M,71.6,VVTS 190000Z VRB02KT CAVOK 22/16 Q1014 NOSIG,M
VVTS,2/19/2021 0:30,106.6667,10.8167,75.2,60.8,60.9,M,3,0,29.97,M,6.21,M,M,M,M,M,M,M,M,M,M,M,M,M,M,M,M,75.2,VVTS 190030Z VRB03KT CAVOK 24/16 Q1015 NOSIG,M
VVTS,2/19/2021 1:00,106.6667,10.8167,77,60.8,57.36,60,5,0,29.97,M,6.21,M,M,M,M,M,M,M,M,M,M,M,M,M,M,M,M,77,VVTS 190100Z 06005KT 350V090 CAVOK 25/16 Q1015 NOSIG,M
VVTS,2/19/2021 1:30,106.6667,10.8167,77,60.8,57.36,70,6,0,29.97,M,6.21,M,M,M,M,M,M,M,M,M,M,M,M,M,M,M,M,77,VVTS 190130Z 07006KT 030V090 CAVOK 25/16 Q1015 NOSIG,M
VVTS,2/19/2021 2:00,106.6667,10.8167,78.8,60.8,54.05,50,6,0,29.97,M,6.21,M,M,M,M,M,M,M,M,M,M,M,M,M,M,M,M,78.8,VVTS 190200Z 05006KT 010V080 CAVOK 26/16 Q1015 NOSIG,M
VVTS,2/19/2021 2:30,106.6667,10.8167,82.4,59,45.07,20,4,0,30,M,6.21,M,M,M,M,M,M,M,M,M,M,M,M,M,M,M,M,82.46,VVTS 190230Z 02004KT 290V080 CAVOK 28/15 Q1016 NOSIG,M
VVTS,2/19/2021 3:00,106.6667,10.8167,82.4,59,45.07,M,2,0,29.97,M,6.21,M,M,M,M,M,M,M,M,M,M,M,M,M,M,M,M,82.46,VVTS 190300Z VRB02KT CAVOK 28/15 Q1015 NOSIG,M
VVTS,2/19/2021 3:30,106.6667,10.8167,84.2,60.8,45.34,M,1,0,29.97,M,6.21,M,M,M,M,M,M,M,M,M,M,M,M,M,M,M,M,84.43,VVTS 190330Z VRB01KT CAVOK 29/16 Q1015 NOSIG,M
VVTS,2/19/2021 4:00,106.6667,10.8167,84.2,57.2,39.86,M,3,0,29.97,M,6.21,M,FEW,M,M,M,2000,M,M,M,M,M,M,M,M,M,M,83.47,VVTS 190400Z VRB03KT 9999 FEW020 29/14 Q1015 NOSIG,M
VVTS,2/19/2021 4:30,106.6667,10.8167,86,57.2,37.62,M,3,0,29.97,M,6.21,M,FEW,M,M,M,2000,M,M,M,M,M,M,M,M,M,M,84.97,VVTS 190430Z VRB03KT 9999 FEW020 30/14 Q1015 NOSIG,M
VVTS,2/19/2021 5:00,106.6667,10.8167,87.8,59,37.9,M,1,0,29.94,M,6.21,M,FEW,M,M,M,2000,M,M,M,M,M,M,M,M,M,M,87.12,VVTS 190500Z VRB01KT 9999 FEW020 31/15 Q1014 NOSIG,M
VVTS,2/19/2021 5:30,106.6667,10.8167,89.6,57.2,33.56,270,4,0,29.91,M,6.21,M,SCT,M,M,M,2000,M,M,M,M,M,M,M,M,M,M,88.28,VVTS 190530Z 27004KT 190V330 9999 SCT020 32/14 Q1013 NOSIG,M
VVTS,2/19/2021 6:00,106.6667,10.8167,89.6,57.2,33.56,M,2,0,29.91,M,6.21,M,SCT,M,M,M,2000,M,M,M,M,M,M,M,M,M,M,88.28,VVTS 190600Z VRB02KT 9999 SCT020 32/14 Q1013 NOSIG,M
VVTS,2/19/2021 6:30,106.6667,10.8167,89.6,59,35.81,330,6,0,29.88,M,6.21,M,SCT,M,M,M,2000,M,M,M,M,M,M,M,M,M,M,88.86,VVTS 190630Z 33006KT 290V040 9999 SCT020 32/15 Q1012 NOSIG,M
VVTS,2/19/2021 7:00,106.6667,10.8167,89.6,57.2,33.56,280,4,0,29.85,M,6.21,M,SCT,M,M,M,2000,M,M,M,M,M,M,M,M,M,M,88.28,VVTS 190700Z 28004KT 210V320 9999 SCT020 32/14 Q1011 NOSIG,M
VVTS,2/19/2021 7:30,106.6667,10.8167,91.4,57.2,31.72,M,2,0,29.85,M,6.21,M,SCT,M,M,M,2000,M,M,M,M,M,M,M,M,M,M,90.06,VVTS 190730Z VRB02KT 9999 SCT020 33/14 Q1011 NOSIG,M
VVTS,2/19/2021 8:00,106.6667,10.8167,91.4,57.2,31.72,320,4,0,29.83,M,6.21,M,SCT,M,M,M,2000,M,M,M,M,M,M,M,M,M,M,90.06,VVTS 190800Z 32004KT 270V050 9999 SCT020 33/14 Q1010 NOSIG,M
VVTS,2/19/2021 8:30,106.6667,10.8167,89.6,57.2,33.56,M,1,0,29.83,M,6.21,M,SCT,M,M,M,2000,M,M,M,M,M,M,M,M,M,M,88.28,VVTS 190830Z VRB01KT 9999 SCT020 32/14 Q1010 NOSIG,M
VVTS,2/19/2021 9:00,106.6667,10.8167,89.6,57.2,33.56,M,6,0,29.83,M,6.21,M,FEW,SCT,M,M,2000,4000,M,M,M,M,M,M,M,M,M,88.28,VVTS 190900Z VRB06KT 9999 FEW020 SCT040 32/14 Q1010 NOSIG,M
VVTS,2/19/2021 9:30,106.6667,10.8167,87.8,64.4,45.88,180,8,0,29.83,M,6.21,M,SCT,SCT,M,M,2000,4000,M,M,M,M,M,M,M,M,M,89.33,VVTS 190930Z 18008KT 9999 SCT020 SCT040 31/18 Q1010 NOSIG,M
VVTS,2/19/2021 10:00,106.6667,10.8167,86,66.2,51.72,170,10,0,29.85,M,6.21,M,SCT,M,M,M,2000,M,M,M,M,M,M,M,M,M,M,88.39,VVTS 191000Z 17010KT 9999 SCT020 30/19 Q1011 NOSIG,M
VVTS,2/19/2021 10:30,106.6667,10.8167,84.2,66.2,54.8,180,9,0,29.85,M,6.21,M,FEW,M,M,M,2000,M,M,M,M,M,M,M,M,M,M,86.5,VVTS 191030Z 18009KT 150V210 9999 FEW020 29/19 Q1011 NOSIG,M
VVTS,2/19/2021 11:00,106.6667,10.8167,82.4,66.2,58.08,170,9,0,29.85,M,6.21,M,FEW,M,M,M,2000,M,M,M,M,M,M,M,M,M,M,84.63,VVTS 191100Z 17009KT 140V210 9999 FEW020 28/19 Q1011 NOSIG,M
VVTS,2/19/2021 11:30,106.6667,10.8167,82.4,66.2,58.08,180,7,0,29.88,M,6.21,M,FEW,M,M,M,2000,M,M,M,M,M,M,M,M,M,M,84.63,VVTS 191130Z 18007KT 140V200 9999 FEW020 28/19 Q1012 NOSIG,M
VVTS,2/19/2021 12:00,106.6667,10.8167,82.4,66.2,58.08,160,7,0,29.88,M,6.21,M,FEW,M,M,M,2000,M,M,M,M,M,M,M,M,M,M,84.63,VVTS 191200Z 16007KT 130V190 9999 FEW020 28/19 Q1012 NOSIG,M
VVTS,2/19/2021 12:30,106.6667,10.8167,80.6,66.2,61.58,150,6,0,29.88,M,6.21,M,FEW,M,M,M,2000,M,M,M,M,M,M,M,M,M,M,82.75,VVTS 191230Z 15006KT 9999 FEW020 27/19 Q1012 NOSIG,M
VVTS,2/19/2021 13:00,106.6667,10.8167,80.6,66.2,61.58,160,4,0,29.88,M,6.21,M,FEW,M,M,M,2000,M,M,M,M,M,M,M,M,M,M,82.75,VVTS 191300Z 16004KT 110V200 9999 FEW020 27/19 Q1012 NOSIG,M
VVTS,2/19/2021 13:30,106.6667,10.8167,80.6,66.2,61.58,120,6,0,29.91,M,6.21,M,FEW,M,M,M,2000,M,M,M,M,M,M,M,M,M,M,82.75,VVTS 191330Z 12006KT 9999 FEW020 27/19 Q1013 NOSIG,M
VVTS,2/19/2021 14:00,106.6667,10.8167,78.8,66.2,65.33,110,5,0,29.91,M,6.21,M,FEW,M,M,M,2000,M,M,M,M,M,M,M,M,M,M,78.8,VVTS 191400Z 11005KT 080V140 9999 FEW020 26/19 Q1013 NOSIG,M
VVTS,2/19/2021 14:30,106.6667,10.8167,78.8,66.2,65.33,120,5,0,29.94,M,6.21,M,FEW,M,M,M,2000,M,M,M,M,M,M,M,M,M,M,78.8,VVTS 191430Z 12005KT 9999 FEW020 26/19 Q1014 NOSIG,M
VVTS,2/19/2021 15:00,106.6667,10.8167,78.8,66.2,65.33,130,5,0,29.94,M,6.21,M,FEW,M,M,M,2000,M,M,M,M,M,M,M,M,M,M,78.8,VVTS 191500Z 13005KT 100V170 9999 FEW020 26/19 Q1014 NOSIG,M
VVTS,2/19/2021 15:30,106.6667,10.8167,78.8,66.2,65.33,M,3,0,29.94,M,6.21,M,FEW,M,M,M,2000,M,M,M,M,M,M,M,M,M,M,78.8,VVTS 191530Z VRB03KT 9999 FEW020 26/19 Q1014 NOSIG,M
VVTS,2/19/2021 16:00,106.6667,10.8167,77,66.2,69.33,M,3,0,29.94,M,6.21,M,FEW,M,M,M,2000,M,M,M,M,M,M,M,M,M,M,77,VVTS 191600Z VRB03KT 9999 FEW020 25/19 Q1014 NOSIG,M
VVTS,2/19/2021 16:30,106.6667,10.8167,77,68,73.78,M,3,0,29.91,M,6.21,M,FEW,M,M,M,2000,M,M,M,M,M,M,M,M,M,M,77,VVTS 191630Z VRB03KT 9999 FEW020 25/20 Q1013 NOSIG,M
VVTS,2/19/2021 17:00,106.6667,10.8167,75.2,66.2,73.61,M,2,0,29.91,M,6.21,M,FEW,M,M,M,2000,M,M,M,M,M,M,M,M,M,M,75.2,VVTS 191700Z VRB02KT 9999 FEW020 24/19 Q1013 NOSIG,M
VVTS,2/19/2021 17:30,106.6667,10.8167,75.2,66.2,73.61,M,3,0,29.91,M,6.21,M,FEW,M,M,M,2000,M,M,M,M,M,M,M,M,M,M,75.2,VVTS 191730Z VRB03KT 9999 FEW020 24/19 Q1013 NOSIG,M
VVTS,2/19/2021 18:00,106.6667,10.8167,75.2,68,78.34,70,3,0,29.91,M,6.21,M,FEW,M,M,M,2000,M,M,M,M,M,M,M,M,M,M,75.2,VVTS 191800Z 07003KT 9999 FEW020 24/20 Q1013 NOSIG,M
VVTS,2/19/2021 18:30,106.6667,10.8167,77,64.4,65.12,M,3,0,29.88,M,6.21,M,FEW,M,M,M,2000,M,M,M,M,M,M,M,M,M,M,77,VVTS 191830Z VRB03KT 9999 FEW020 25/18 Q1012 NOSIG,M
VVTS,2/19/2021 19:00,106.6667,10.8167,75.2,62.6,64.91,M,3,0,29.88,M,6.21,M,FEW,M,M,M,2000,M,M,M,M,M,M,M,M,M,M,75.2,VVTS 191900Z VRB03KT 9999 FEW020 24/17 Q1012 NOSIG,M
VVTS,2/19/2021 19:30,106.6667,10.8167,73.4,62.6,68.94,M,3,0,29.88,M,6.21,M,FEW,M,M,M,2000,M,M,M,M,M,M,M,M,M,M,73.4,VVTS 191930Z VRB03KT 9999 FEW020 23/17 Q1012 NOSIG,M
VVTS,2/19/2021 20:00,106.6667,10.8167,73.4,62.6,68.94,60,4,0,29.88,M,6.21,M,FEW,M,M,M,2000,M,M,M,M,M,M,M,M,M,M,73.4,VVTS 192000Z 06004KT 030V090 9999 FEW020 23/17 Q1012 NOSIG,M
VVTS,2/19/2021 20:30,106.6667,10.8167,73.4,64.4,73.44,70,4,0,29.88,M,6.21,M,FEW,M,M,M,2000,M,M,M,M,M,M,M,M,M,M,73.4,VVTS 192030Z 07004KT 9999 FEW020 23/18 Q1012 NOSIG,M
VVTS,2/19/2021 21:00,106.6667,10.8167,73.4,64.4,73.44,70,3,0,29.88,M,6.21,M,FEW,M,M,M,2000,M,M,M,M,M,M,M,M,M,M,73.4,VVTS 192100Z 07003KT 9999 FEW020 23/18 Q1012 NOSIG,M
VVTS,2/19/2021 21:30,106.6667,10.8167,73.4,64.4,73.44,50,3,0,29.91,M,6.21,M,FEW,M,M,M,2000,M,M,M,M,M,M,M,M,M,M,73.4,VVTS 192130Z 05003KT 9999 FEW020 23/18 Q1013 NOSIG,M
VVTS,2/19/2021 22:00,106.6667,10.8167,73.4,62.6,68.94,40,3,0,29.91,M,6.21,M,FEW,M,M,M,2000,M,M,M,M,M,M,M,M,M,M,73.4,VVTS 192200Z 04003KT 9999 FEW020 23/17 Q1013 NOSIG,M
VVTS,2/19/2021 22:30,106.6667,10.8167,71.6,62.6,73.27,M,2,0,29.91,M,6.21,M,FEW,M,M,M,2000,M,M,M,M,M,M,M,M,M,M,71.6,VVTS 192230Z VRB02KT 9999 FEW020 22/17 Q1013 NOSIG,M
VVTS,2/19/2021 23:00,106.6667,10.8167,71.6,60.8,68.75,100,5,0,29.94,M,6.21,M,FEW,M,M,M,2000,M,M,M,M,M,M,M,M,M,M,71.6,VVTS 192300Z 10005KT 9999 FEW020 22/16 Q1014 NOSIG,M
VVTS,2/19/2021 23:30,106.6667,10.8167,71.6,60.8,68.75,90,4,0,29.94,M,6.21,M,FEW,M,M,M,2000,M,M,M,M,M,M,M,M,M,M,71.6,VVTS 192330Z 09004KT 9999 FEW020 22/16 Q1014 NOSIG,M
VVTS,2/20/2021 0:00,106.6667,10.8167,73.4,62.6,68.94,50,3,0,29.97,M,6.21,M,M,M,M,M,M,M,M,M,M,M,M,M,M,M,M,73.4,VVTS 200000Z 05003KT CAVOK 23/17 Q1015 NOSIG,M
VVTS,2/20/2021 0:30,106.6667,10.8167,75.2,64.4,69.14,M,3,0,29.97,M,6.21,M,M,M,M,M,M,M,M,M,M,M,M,M,M,M,M,75.2,VVTS 200030Z VRB03KT CAVOK 24/18 Q1015 NOSIG,M
VVTS,2/20/2021 1:00,106.6667,10.8167,77,60.8,57.36,60,4,0,29.97,M,6.21,M,M,M,M,M,M,M,M,M,M,M,M,M,M,M,M,77,VVTS 200100Z 06004KT 030V110 CAVOK 25/16 Q1015 NOSIG,M
VVTS,2/20/2021 1:30,106.6667,10.8167,78.8,59,50.69,M,2,0,30,M,6.21,M,M,M,M,M,M,M,M,M,M,M,M,M,M,M,M,78.8,VVTS 200130Z VRB02KT CAVOK 26/15 Q1016 NOSIG,M
VVTS,2/20/2021 2:00,106.6667,10.8167,80.6,59,47.79,M,1,0,30,M,6.21,M,M,M,M,M,M,M,M,M,M,M,M,M,M,M,M,81.11,VVTS 200200Z VRB01KT CAVOK 27/15 Q1016 NOSIG,M
VVTS,2/20/2021 2:30,106.6667,10.8167,82.4,59,45.07,M,2,0,29.97,M,6.21,M,M,M,M,M,M,M,M,M,M,M,M,M,M,M,M,82.46,VVTS 200230Z VRB02KT CAVOK 28/15 Q1015 NOSIG,M
VVTS,2/20/2021 3:00,106.6667,10.8167,82.4,55.4,39.58,M,3,0,29.97,M,6.21,M,M,M,M,M,M,M,M,M,M,M,M,M,M,M,M,81.75,VVTS 200300Z VRB03KT CAVOK 28/13 Q1015 NOSIG,M
VVTS,2/20/2021 3:30,106.6667,10.8167,84.2,55.4,37.35,210,2,0,29.97,M,6.21,M,M,M,M,M,M,M,M,M,M,M,M,M,M,M,M,83.09,VVTS 200330Z 21002KT CAVOK 29/13 Q1015 NOSIG,M
VVTS,2/20/2021 4:00,106.6667,10.8167,84.2,57.2,39.86,M,3,0,29.94,M,6.21,M,M,M,M,M,M,M,M,M,M,M,M,M,M,M,M,83.47,VVTS 200400Z VRB03KT CAVOK 29/14 Q1014 NOSIG,M
VVTS,2/20/2021 4:30,106.6667,10.8167,86,57.2,37.62,330,4,0,29.94,M,6.21,M,M,M,M,M,M,M,M,M,M,M,M,M,M,M,M,84.97,VVTS 200430Z 33004KT 290V030 CAVOK 30/14 Q1014 NOSIG,M
VVTS,2/20/2021 5:00,106.6667,10.8167,87.8,51.8,29.18,M,2,0,29.91,M,6.21,M,M,M,M,M,M,M,M,M,M,M,M,M,M,M,M,85.39,VVTS 200500Z VRB02KT CAVOK 31/11 Q1013 NOSIG,M
VVTS,2/20/2021 5:30,106.6667,10.8167,89.6,51.8,27.56,180,4,0,29.88,M,6.21,M,FEW,M,M,M,2000,M,M,M,M,M,M,M,M,M,M,87,VVTS 200530Z 18004KT 100V260 9999 FEW020 32/11 Q1012 NOSIG,M
VVTS,2/20/2021 6:00,106.6667,10.8167,89.6,48.2,24.11,M,3,0,29.85,M,6.21,M,FEW,M,M,M,2000,M,M,M,M,M,M,M,M,M,M,86.44,VVTS 200600Z VRB03KT 9999 FEW020 32/09 Q1011 NOSIG,M
VVTS,2/20/2021 6:30,106.6667,10.8167,91.4,46.4,21.29,M,2,0,29.85,M,6.21,M,FEW,M,M,M,2000,M,M,M,M,M,M,M,M,M,M,87.86,VVTS 200630Z VRB02KT 9999 FEW020 33/08 Q1011 NOSIG,M
VVTS,2/20/2021 7:00,106.6667,10.8167,91.4,48.2,22.78,30,5,0,29.83,M,6.21,M,FEW,M,M,M,2000,M,M,M,M,M,M,M,M,M,M,88.09,VVTS 200700Z 03005KT 270V060 9999 FEW020 33/09 Q1010 NOSIG,M
VVTS,2/20/2021 7:30,106.6667,10.8167,91.4,48.2,22.78,M,3,0,29.83,M,6.21,M,FEW,M,M,M,2000,M,M,M,M,M,M,M,M,M,M,88.09,VVTS 200730Z VRB03KT 9999 FEW020 33/09 Q1010 NOSIG,M
VVTS,2/20/2021 8:00,106.6667,10.8167,91.4,50,24.37,M,1,0,29.8,M,6.21,M,FEW,M,M,M,2000,M,M,M,M,M,M,M,M,M,M,88.36,VVTS 200800Z VRB01KT 9999 FEW020 33/10 Q1009 NOSIG,M
VVTS,2/20/2021 8:30,106.6667,10.8167,91.4,57.2,31.72,M,2,0,29.8,M,6.21,M,FEW,M,M,M,2000,M,M,M,M,M,M,M,M,M,M,90.06,VVTS 200830Z VRB02KT 9999 FEW020 33/14 Q1009 NOSIG,M
VVTS,2/20/2021 9:00,106.6667,10.8167,89.6,55.4,31.45,M,3,0,29.8,M,6.21,M,FEW,M,M,M,2000,M,M,M,M,M,M,M,M,M,M,87.78,VVTS 200900Z VRB03KT 9999 FEW020 32/13 Q1009 NOSIG,M
VVTS,2/20/2021 9:30,106.6667,10.8167,86,60.8,42.8,190,8,0,29.8,M,6.21,M,FEW,M,M,M,2000,M,M,M,M,M,M,M,M,M,M,86.05,VVTS 200930Z 19008KT 160V230 9999 FEW020 30/16 Q1009 NOSIG,M
VVTS,2/20/2021 10:00,106.6667,10.8167,86,60.8,42.8,190,9,0,29.8,M,6.21,M,FEW,M,M,M,2000,M,M,M,M,M,M,M,M,M,M,86.05,VVTS 201000Z 19009KT 160V230 9999 FEW020 30/16 Q1009 NOSIG,M
VVTS,2/20/2021 10:30,106.6667,10.8167,84.2,62.6,48.32,190,8,0,29.83,M,6.21,M,FEW,M,M,M,2000,M,M,M,M,M,M,M,M,M,M,85.03,VVTS 201030Z 19008KT 150V220 9999 FEW020 29/17 Q1010 NOSIG,M
VVTS,2/20/2021 11:00,106.6667,10.8167,82.4,64.4,54.55,200,8,0,29.83,M,6.21,M,FEW,M,M,M,2000,M,M,M,M,M,M,M,M,M,M,83.98,VVTS 201100Z 20008KT 9999 FEW020 28/18 Q1010 NOSIG,M
VVTS,2/20/2021 11:30,106.6667,10.8167,82.4,66.2,58.08,190,6,0,29.83,M,6.21,M,FEW,M,M,M,2000,M,M,M,M,M,M,M,M,M,M,84.63,VVTS 201130Z 19006KT 160V230 9999 FEW020 28/19 Q1010 NOSIG,M
VVTS,2/20/2021 12:00,106.6667,10.8167,80.6,66.2,61.58,190,8,0,29.85,M,6.21,M,FEW,M,M,M,2000,M,M,M,M,M,M,M,M,M,M,82.75,VVTS 201200Z 19008KT 9999 FEW020 27/19 Q1011 NOSIG,M
VVTS,2/20/2021 12:30,106.6667,10.8167,80.6,64.4,57.84,180,5,0,29.85,M,6.21,M,FEW,M,M,M,2000,M,M,M,M,M,M,M,M,M,M,82.27,VVTS 201230Z 18005KT 150V210 9999 FEW020 27/18 Q1011 NOSIG,M
VVTS,2/20/2021 13:00,106.6667,10.8167,80.6,66.2,61.58,190,7,0,29.88,M,6.21,M,FEW,M,M,M,2000,M,M,M,M,M,M,M,M,M,M,82.75,VVTS 201300Z 19007KT 160V230 9999 FEW020 27/19 Q1012 NOSIG,M
VVTS,2/20/2021 13:30,106.6667,10.8167,78.8,68,69.52,170,6,0,29.88,M,6.21,M,FEW,M,M,M,2000,M,M,M,M,M,M,M,M,M,M,78.8,VVTS 201330Z 17006KT 9999 FEW020 26/20 Q1012 NOSIG,M
VVTS,2/20/2021 14:00,106.6667,10.8167,78.8,68,69.52,180,4,0,29.91,M,6.21,M,FEW,M,M,M,2000,M,M,M,M,M,M,M,M,M,M,78.8,VVTS 201400Z 18004KT 140V210 9999 FEW020 26/20 Q1013 NOSIG,M
VVTS,2/20/2021 14:30,106.6667,10.8167,78.8,66.2,65.33,140,7,0,29.91,M,6.21,M,FEW,M,M,M,2000,M,M,M,M,M,M,M,M,M,M,78.8,VVTS 201430Z 14007KT 110V190 9999 FEW020 26/19 Q1013 NOSIG,M
VVTS,2/20/2021 15:00,106.6667,10.8167,78.8,66.2,65.33,140,5,0,29.91,M,6.21,M,FEW,M,M,M,2000,M,M,M,M,M,M,M,M,M,M,78.8,VVTS 201500Z 14005KT 9999 FEW020 26/19 Q1013 NOSIG,M
VVTS,2/20/2021 15:30,106.6667,10.8167,78.8,64.4,61.36,130,8,0,29.91,M,6.21,M,FEW,M,M,M,2000,M,M,M,M,M,M,M,M,M,M,78.8,VVTS 201530Z 13008KT 090V160 9999 FEW020 26/18 Q1013 NOSIG,M
VVTS,2/20/2021 16:00,106.6667,10.8167,75.2,66.2,73.61,110,6,0,29.91,M,6.21,M,FEW,M,M,M,2000,M,M,M,M,M,M,M,M,M,M,75.2,VVTS 201600Z 11006KT 060V130 9999 FEW020 24/19 Q1013 NOSIG,M
VVTS,2/20/2021 16:30,106.6667,10.8167,75.2,66.2,73.61,70,4,0,29.91,M,6.21,M,FEW,M,M,M,2000,M,M,M,M,M,M,M,M,M,M,75.2,VVTS 201630Z 07004KT 020V100 9999 FEW020 24/19 Q1013 NOSIG,M
VVTS,2/20/2021 17:00,106.6667,10.8167,75.2,66.2,73.61,70,3,0,29.91,M,6.21,M,FEW,M,M,M,2000,M,M,M,M,M,M,M,M,M,M,75.2,VVTS 201700Z 07003KT 9999 FEW020 24/19 Q1013 NOSIG,M
VVTS,2/20/2021 17:30,106.6667,10.8167,75.2,66.2,73.61,M,1,0,29.91,M,6.21,M,FEW,M,M,M,2000,M,M,M,M,M,M,M,M,M,M,75.2,VVTS 201730Z VRB01KT 9999 FEW020 24/19 Q1013 NOSIG,M
VVTS,2/20/2021 18:00,106.6667,10.8167,75.2,66.2,73.61,M,2,0,29.88,M,6.21,M,FEW,M,M,M,1700,M,M,M,M,M,M,M,M,M,M,75.2,VVTS 201800Z VRB02KT 9999 FEW017 24/19 Q1012 NOSIG,M
VVTS,2/20/2021 18:30,106.6667,10.8167,73.4,68,83.21,310,1,0,29.88,M,6.21,M,FEW,M,M,M,1700,M,M,M,M,M,M,M,M,M,M,73.4,VVTS 201830Z 31001KT 9999 FEW017 23/20 Q1012 NOSIG,M
VVTS,2/20/2021 19:00,106.6667,10.8167,73.4,69.8,88.51,M,3,0,29.88,M,6.21,M,FEW,M,M,M,1700,M,M,M,M,M,M,M,M,M,M,73.4,VVTS 201900Z VRB03KT 9999 FEW017 23/21 Q1012 NOSIG,M
VVTS,2/20/2021 19:30,106.6667,10.8167,73.4,69.8,88.51,280,3,0,29.88,M,6.21,M,FEW,M,M,M,1700,M,M,M,M,M,M,M,M,M,M,73.4,VVTS 201930Z 28003KT 9999 FEW017 23/21 Q1012 NOSIG,M
VVTS,2/20/2021 20:00,106.6667,10.8167,71.6,69.8,94.06,260,1,0,29.88,M,6.21,M,FEW,M,M,M,1700,M,M,M,M,M,M,M,M,M,M,71.6,VVTS 202000Z 26001KT 9999 FEW017 22/21 Q1012 NOSIG,M
VVTS,2/20/2021 20:30,106.6667,10.8167,71.6,69.8,94.06,M,1,0,29.88,M,6.21,M,FEW,M,M,M,1700,M,M,M,M,M,M,M,M,M,M,71.6,VVTS 202030Z VRB01KT 9999 FEW017 22/21 Q1012 NOSIG,M
VVTS,2/20/2021 21:00,106.6667,10.8167,71.6,69.8,94.06,330,1,0,29.88,M,4.97,M,FEW,M,M,M,2000,M,M,M,M,M,M,M,M,M,M,71.6,VVTS 202100Z 33001KT 8000 FEW020 22/21 Q1012 NOSIG,M
VVTS,2/20/2021 21:30,106.6667,10.8167,71.6,69.8,94.06,320,2,0,29.88,M,4.97,M,FEW,M,M,M,2000,M,M,M,M,M,M,M,M,M,M,71.6,VVTS 202130Z 32002KT 8000 FEW020 22/21 Q1012 NOSIG,M
VVTS,2/20/2021 22:00,106.6667,10.8167,71.6,69.8,94.06,M,3,0,29.88,M,4.97,M,FEW,M,M,M,2000,M,M,M,M,M,M,M,M,M,M,71.6,VVTS 202200Z VRB03KT 8000 FEW020 22/21 Q1012 NOSIG,M
VVTS,2/20/2021 22:30,106.6667,10.8167,71.6,69.8,94.06,340,2,0,29.91,M,4.97,M,FEW,M,M,M,2000,M,M,M,M,M,M,M,M,M,M,71.6,VVTS 202230Z 34002KT 8000 FEW020 22/21 Q1013 NOSIG,M
VVTS,2/20/2021 23:00,106.6667,10.8167,71.6,69.8,94.06,340,2,0,29.91,M,4.97,M,FEW,M,M,M,2000,M,M,M,M,M,M,M,M,M,M,71.6,VVTS 202300Z 34002KT 8000 FEW020 22/21 Q1013 NOSIG,M
VVTS,2/20/2021 23:30,106.6667,10.8167,71.6,69.8,94.06,M,2,0,29.94,M,3.73,M,SCT,M,M,M,1700,M,M,M,M,M,M,M,M,M,M,71.6,VVTS 202330Z VRB02KT 6000 SCT017 22/21 Q1014 NOSIG,M
VVTS,2/21/2021 0:00,106.6667,10.8167,71.6,69.8,94.06,M,2,0,29.94,M,3.73,M,FEW,M,M,M,2000,M,M,M,M,M,M,M,M,M,M,71.6,VVTS 210000Z VRB02KT 6000 FEW020 22/21 Q1014 NOSIG,M
VVTS,2/21/2021 0:30,106.6667,10.8167,73.4,66.2,78.19,M,1,0,29.94,M,4.97,M,FEW,M,M,M,10000,M,M,M,M,M,M,M,M,M,M,73.4,VVTS 210030Z VRB01KT 8000 FEW100 23/19 Q1014 NOSIG,M
VVTS,2/21/2021 1:00,106.6667,10.8167,75.2,64.4,69.14,M,3,0,29.94,M,6.21,M,M,M,M,M,M,M,M,M,M,M,M,M,M,M,M,75.2,VVTS 210100Z VRB03KT CAVOK 24/18 Q1014 NOSIG,M
VVTS,2/21/2021 1:30,106.6667,10.8167,77,64.4,65.12,M,3,0,29.97,M,6.21,M,M,M,M,M,M,M,M,M,M,M,M,M,M,M,M,77,VVTS 210130Z VRB03KT CAVOK 25/18 Q1015 NOSIG,M
VVTS,2/21/2021 2:00,106.6667,10.8167,78.8,60.8,54.05,20,2,0,29.97,M,6.21,M,M,M,M,M,M,M,M,M,M,M,M,M,M,M,M,78.8,VVTS 210200Z 02002KT CAVOK 26/16 Q1015 NOSIG,M
VVTS,2/21/2021 2:30,106.6667,10.8167,78.8,60.8,54.05,M,2,0,29.97,M,6.21,M,M,M,M,M,M,M,M,M,M,M,M,M,M,M,M,78.8,VVTS 210230Z VRB02KT CAVOK 26/16 Q1015 NOSIG,M
VVTS,2/21/2021 3:00,106.6667,10.8167,80.6,60.8,50.95,M,2,0,29.94,M,6.21,M,M,M,M,M,M,M,M,M,M,M,M,M,M,M,M,81.46,VVTS 210300Z VRB02KT CAVOK 27/16 Q1014 NOSIG,M
VVTS,2/21/2021 3:30,106.6667,10.8167,82.4,60.8,48.05,M,3,0,29.94,M,6.21,M,M,M,M,M,M,M,M,M,M,M,M,M,M,M,M,82.9,VVTS 210330Z VRB03KT CAVOK 28/16 Q1014 NOSIG,M
VVTS,2/21/2021 4:00,106.6667,10.8167,84.2,60.8,45.34,M,3,0,29.94,M,6.21,M,M,M,M,M,M,M,M,M,M,M,M,M,M,M,M,84.43,VVTS 210400Z VRB03KT CAVOK 29/16 Q1014 NOSIG,M
VVTS,2/21/2021 4:30,106.6667,10.8167,86,62.6,45.61,M,3,0,29.91,M,6.21,M,FEW,M,M,M,2000,M,M,M,M,M,M,M,M,M,M,86.72,VVTS 210430Z VRB03KT 9999 FEW020 30/17 Q1013 NOSIG,M
VVTS,2/21/2021 5:00,106.6667,10.8167,87.8,62.6,43.07,M,1,0,29.88,M,6.21,M,FEW,M,M,M,2000,M,M,M,M,M,M,M,M,M,M,88.48,VVTS 210500Z VRB01KT 9999 FEW020 31/17 Q1012 NOSIG,M
VVTS,2/21/2021 5:30,106.6667,10.8167,86,60.8,42.8,260,4,0,29.88,M,6.21,M,FEW,M,M,M,2000,M,M,M,M,M,M,M,M,M,M,86.05,VVTS 210530Z 26004KT 170V300 9999 FEW020 30/16 Q1012 NOSIG,M
VVTS,2/21/2021 6:00,106.6667,10.8167,87.8,59,37.9,M,2,0,29.85,M,6.21,M,FEW,M,M,M,2000,M,M,M,M,M,M,M,M,M,M,87.12,VVTS 210600Z VRB02KT 9999 FEW020 31/15 Q1011 NOSIG,M
VVTS,2/21/2021 6:30,106.6667,10.8167,87.8,59,37.9,M,3,0,29.83,M,6.21,M,FEW,M,M,M,2000,M,M,M,M,M,M,M,M,M,M,87.12,VVTS 210630Z VRB03KT 9999 FEW020 31/15 Q1010 NOSIG,M
VVTS,2/21/2021 7:00,106.6667,10.8167,91.4,59,33.84,40,6,0,29.83,M,6.21,M,SCT,M,M,M,2000,M,M,M,M,M,M,M,M,M,M,90.68,VVTS 210700Z 04006KT 340V080 9999 SCT020 33/15 Q1010 NOSIG,M
VVTS,2/21/2021 7:30,106.6667,10.8167,91.4,57.2,31.72,M,3,0,29.8,M,6.21,M,SCT,M,M,M,2000,M,M,M,M,M,M,M,M,M,M,90.06,VVTS 210730Z VRB03KT 9999 SCT020 33/14 Q1009 NOSIG,M
VVTS,2/21/2021 8:00,106.6667,10.8167,89.6,57.2,33.56,M,3,0,29.8,M,6.21,M,SCT,M,M,M,2000,M,M,M,M,M,M,M,M,M,M,88.28,VVTS 210800Z VRB03KT 9999 SCT020 32/14 Q1009 NOSIG,M
VVTS,2/21/2021 8:30,106.6667,10.8167,87.8,60.8,40.41,170,5,0,29.8,M,6.21,M,SCT,M,M,M,2000,M,M,M,M,M,M,M,M,M,M,87.75,VVTS 210830Z 17005KT 120V200 9999 SCT020 31/16 Q1009 NOSIG,M
VVTS,2/21/2021 9:00,106.6667,10.8167,89.6,60.8,38.18,210,6,0,29.8,M,6.21,M,SCT,M,M,M,2000,M,M,M,M,M,M,M,M,M,M,89.54,VVTS 210900Z 21006KT 170V270 9999 SCT020 32/16 Q1009 NOSIG,M
VVTS,2/21/2021 9:30,106.6667,10.8167,87.8,64.4,45.88,190,8,0,29.8,M,6.21,M,FEW,M,M,M,2000,M,M,M,M,M,M,M,M,M,M,89.33,VVTS 210930Z 19008KT 9999 FEW020 31/18 Q1009 NOSIG,M
VVTS,2/21/2021 10:00,106.6667,10.8167,84.2,66.2,54.8,180,10,0,29.8,M,6.21,M,FEW,M,M,M,2000,M,M,M,M,M,M,M,M,M,M,86.5,VVTS 211000Z 18010KT 9999 FEW020 29/19 Q1009 NOSIG,M
VVTS,2/21/2021 10:30,106.6667,10.8167,82.4,66.2,58.08,190,10,0,29.83,M,6.21,M,FEW,M,M,M,2000,M,M,M,M,M,M,M,M,M,M,84.63,VVTS 211030Z 19010KT 9999 FEW020 28/19 Q1010 NOSIG,M
VVTS,2/21/2021 11:00,106.6667,10.8167,80.6,62.6,54.3,170,9,0,29.83,M,6.21,M,FEW,M,M,M,2000,M,M,M,M,M,M,M,M,M,M,81.84,VVTS 211100Z 17009KT 140V210 9999 FEW020 27/17 Q1010 NOSIG,M
VVTS,2/21/2021 11:30,106.6667,10.8167,80.6,60.8,50.95,160,10,0,29.83,M,6.21,M,FEW,M,M,M,2000,M,M,M,M,M,M,M,M,M,M,81.46,VVTS 211130Z 16010KT 140V200 9999 FEW020 27/16 Q1010 NOSIG,M
VVTS,2/21/2021 12:00,106.6667,10.8167,80.6,62.6,54.3,150,8,0,29.85,M,6.21,M,FEW,M,M,M,2000,M,M,M,M,M,M,M,M,M,M,81.84,VVTS 211200Z 15008KT 130V190 9999 FEW020 27/17 Q1011 NOSIG,M
VVTS,2/21/2021 12:30,106.6667,10.8167,80.6,59,47.79,140,9,0,29.85,M,6.21,M,FEW,M,M,M,1700,M,M,M,M,M,M,M,M,M,M,81.11,VVTS 211230Z 14009KT 9999 FEW017 27/15 Q1011 NOSIG,M
VVTS,2/21/2021 13:00,106.6667,10.8167,78.8,62.6,57.6,140,9,0,29.85,M,6.21,M,FEW,M,M,M,1700,M,M,M,M,M,M,M,M,M,M,78.8,VVTS 211300Z 14009KT 9999 FEW017 26/17 Q1011 NOSIG,M
VVTS,2/21/2021 13:30,106.6667,10.8167,78.8,59,50.69,130,8,0,29.88,M,6.21,M,FEW,M,M,M,1700,M,M,M,M,M,M,M,M,M,M,78.8,VVTS 211330Z 13008KT 110V170 9999 FEW017 26/15 Q1012 NOSIG,M
VVTS,2/21/2021 14:00,106.6667,10.8167,78.8,59,50.69,140,8,0,29.88,M,6.21,M,FEW,M,M,M,1700,M,M,M,M,M,M,M,M,M,M,78.8,VVTS 211400Z 14008KT 100V160 9999 FEW017 26/15 Q1012 NOSIG,M
VVTS,2/21/2021 14:30,106.6667,10.8167,78.8,59,50.69,140,7,0,29.88,M,6.21,M,FEW,M,M,M,1700,M,M,M,M,M,M,M,M,M,M,78.8,VVTS 211430Z 14007KT 9999 FEW017 26/15 Q1012 NOSIG,M
VVTS,2/21/2021 15:00,106.6667,10.8167,78.8,59,50.69,140,9,0,29.88,M,6.21,M,FEW,M,M,M,1700,M,M,M,M,M,M,M,M,M,M,78.8,VVTS 211500Z 14009KT 9999 FEW017 26/15 Q1012 NOSIG,M
VVTS,2/21/2021 15:30,106.6667,10.8167,77,59,53.8,140,7,0,29.88,M,6.21,M,FEW,M,M,M,1700,M,M,M,M,M,M,M,M,M,M,77,VVTS 211530Z 14007KT 120V190 9999 FEW017 25/15 Q1012 NOSIG,M
VVTS,2/21/2021 16:00,106.6667,10.8167,77,59,53.8,140,5,0,29.88,M,6.21,M,FEW,M,M,M,1700,M,M,M,M,M,M,M,M,M,M,77,VVTS 211600Z 14005KT 110V180 9999 FEW017 25/15 Q1012 NOSIG,M
VVTS,2/21/2021 16:30,106.6667,10.8167,75.2,60.8,60.9,150,4,0,29.88,M,6.21,M,FEW,M,M,M,1700,M,M,M,M,M,M,M,M,M,M,75.2,VVTS 211630Z 15004KT 130V190 9999 FEW017 24/16 Q1012 NOSIG,M
VVTS,2/21/2021 17:00,106.6667,10.8167,75.2,62.6,64.91,M,2,0,29.88,M,6.21,M,FEW,M,M,M,1700,M,M,M,M,M,M,M,M,M,M,75.2,VVTS 211700Z VRB02KT 9999 FEW017 24/17 Q1012 NOSIG,M
VVTS,2/21/2021 17:30,106.6667,10.8167,73.4,62.6,68.94,0,0,0,29.85,M,6.21,M,FEW,M,M,M,2000,M,M,M,M,M,M,M,M,M,M,73.4,VVTS 211730Z 00000KT 9999 FEW020 23/17 Q1011 NOSIG,M
VVTS,2/21/2021 18:00,106.6667,10.8167,73.4,64.4,73.44,M,1,0,29.85,M,6.21,M,FEW,M,M,M,2000,M,M,M,M,M,M,M,M,M,M,73.4,VVTS 211800Z VRB01KT 9999 FEW020 23/18 Q1011 NOSIG,M
VVTS,2/21/2021 18:30,106.6667,10.8167,73.4,66.2,78.19,M,2,0,29.85,M,6.21,M,FEW,M,M,M,2000,M,M,M,M,M,M,M,M,M,M,73.4,VVTS 211830Z VRB02KT 9999 FEW020 23/19 Q1011 NOSIG,M
VVTS,2/21/2021 19:00,106.6667,10.8167,75.2,68,78.34,M,3,0,29.85,M,6.21,M,FEW,M,M,M,2000,M,M,M,M,M,M,M,M,M,M,75.2,VVTS 211900Z VRB03KT 9999 FEW020 24/20 Q1011 NOSIG,M
VVTS,2/21/2021 19:30,106.6667,10.8167,73.4,68,83.21,180,4,0,29.85,M,6.21,M,FEW,M,M,M,2000,M,M,M,M,M,M,M,M,M,M,73.4,VVTS 211930Z 18004KT 9999 FEW020 23/20 Q1011 NOSIG,M
VVTS,2/21/2021 20:00,106.6667,10.8167,73.4,68,83.21,160,5,0,29.85,M,6.21,M,FEW,M,M,M,2000,M,M,M,M,M,M,M,M,M,M,73.4,VVTS 212000Z 16005KT 9999 FEW020 23/20 Q1011 NOSIG,M
VVTS,2/21/2021 20:30,106.6667,10.8167,73.4,69.8,88.51,140,6,0,29.85,M,6.21,M,FEW,M,M,M,2000,M,M,M,M,M,M,M,M,M,M,73.4,VVTS 212030Z 14006KT 9999 FEW020 23/21 Q1011 NOSIG,M
VVTS,2/21/2021 21:00,106.6667,10.8167,73.4,69.8,88.51,120,5,0,29.85,M,6.21,M,FEW,M,M,M,2000,M,M,M,M,M,M,M,M,M,M,73.4,VVTS 212100Z 12005KT 9999 FEW020 23/21 Q1011 NOSIG,M
VVTS,2/21/2021 21:30,106.6667,10.8167,73.4,69.8,88.51,140,6,0,29.85,M,6.21,M,FEW,M,M,M,2000,M,M,M,M,M,M,M,M,M,M,73.4,VVTS 212130Z 14006KT 9999 FEW020 23/21 Q1011 NOSIG,M
VVTS,2/21/2021 22:00,106.6667,10.8167,73.4,69.8,88.51,120,7,0,29.85,M,6.21,M,FEW,M,M,M,2000,M,M,M,M,M,M,M,M,M,M,73.4,VVTS 212200Z 12007KT 9999 FEW020 23/21 Q1011 NOSIG,M
VVTS,2/21/2021 22:30,106.6667,10.8167,73.4,69.8,88.51,150,6,0,29.88,M,4.97,M,FEW,M,M,M,2000,M,M,M,M,M,M,M,M,M,M,73.4,VVTS 212230Z 15006KT 8000 FEW020 23/21 Q1012 NOSIG,M
VVTS,2/21/2021 23:00,106.6667,10.8167,73.4,69.8,88.51,150,4,0,29.88,M,4.97,M,FEW,M,M,M,2000,M,M,M,M,M,M,M,M,M,M,73.4,VVTS 212300Z 15004KT 8000 FEW020 23/21 Q1012 NOSIG,M
VVTS,2/21/2021 23:30,106.6667,10.8167,73.4,69.8,88.51,M,3,0,29.88,M,4.97,M,FEW,M,M,M,2000,M,M,M,M,M,M,M,M,M,M,73.4,VVTS 212330Z VRB03KT 8000 FEW020 23/21 Q1012 NOSIG,M
VVTS,2/22/2021 0:00,106.6667,10.8167,73.4,69.8,88.51,M,2,0,29.91,M,4.97,M,SCT,M,M,M,2000,M,M,M,M,M,M,M,M,M,M,73.4,VVTS 220000Z VRB02KT 8000 SCT020 23/21 Q1013 NOSIG,M
VVTS,2/22/2021 0:30,106.6667,10.8167,75.2,69.8,83.32,M,1,0,29.91,M,4.97,M,SCT,M,M,M,2000,M,M,M,M,M,M,M,M,M,M,75.2,VVTS 220030Z VRB01KT 8000 SCT020 24/21 Q1013 NOSIG,M
VVTS,2/22/2021 1:00,106.6667,10.8167,77,69.8,78.48,M,1,0,29.91,M,4.97,M,SCT,M,M,M,2000,M,M,M,M,M,M,M,M,M,M,77,VVTS 220100Z VRB01KT 8000 SCT020 25/21 Q1013 NOSIG,M
VVTS,2/22/2021 1:30,106.6667,10.8167,78.8,69.8,73.95,M,3,0,29.94,M,6.21,M,SCT,M,M,M,2000,M,M,M,M,M,M,M,M,M,M,78.8,VVTS 220130Z VRB03KT //// R25R/P2000N SCT020 26/21 Q1014 NOSIG,M
VVTS,2/22/2021 2:00,106.6667,10.8167,78.8,68,69.52,140,6,0,29.94,M,6.21,M,SCT,M,M,M,2000,M,M,M,M,M,M,M,M,M,M,78.8,VVTS 220200Z 14006KT 110V180 9999 SCT020 26/20 Q1014 NOSIG,M
VVTS,2/22/2021 2:30,106.6667,10.8167,80.6,68,65.54,150,5,0,29.94,M,6.21,M,SCT,M,M,M,2000,M,M,M,M,M,M,M,M,M,M,83.29,VVTS 220230Z 15005KT 090V240 9999 SCT020 27/20 Q1014 NOSIG,M
VVTS,2/22/2021 3:00,106.6667,10.8167,80.6,68,65.54,150,4,0,29.94,M,6.21,M,SCT,M,M,M,2000,M,M,M,M,M,M,M,M,M,M,83.29,VVTS 220300Z 15004KT 090V230 9999 SCT020 27/20 Q1014 NOSIG,M
VVTS,2/22/2021 3:30,106.6667,10.8167,82.4,66.2,58.08,180,5,0,29.94,M,6.21,M,SCT,M,M,M,2000,M,M,M,M,M,M,M,M,M,M,84.63,VVTS 220330Z 18005KT 130V250 9999 SCT020 28/19 Q1014 NOSIG,M
VVTS,2/22/2021 4:00,106.6667,10.8167,84.2,66.2,54.8,200,4,0,29.91,M,6.21,M,SCT,M,M,M,2000,M,M,M,M,M,M,M,M,M,M,86.5,VVTS 220400Z 20004KT 130V280 9999 SCT020 29/19 Q1013 NOSIG,M
VVTS,2/22/2021 4:30,106.6667,10.8167,84.2,66.2,54.8,240,2,0,29.88,M,6.21,M,SCT,M,M,M,2000,M,M,M,M,M,M,M,M,M,M,86.5,VVTS 220430Z 24002KT 9999 SCT020 29/19 Q1012 NOSIG,M
VVTS,2/22/2021 5:00,106.6667,10.8167,87.8,64.4,45.88,250,5,0,29.88,M,6.21,M,SCT,M,M,M,2000,M,M,M,M,M,M,M,M,M,M,89.33,VVTS 220500Z 25005KT 170V320 9999 R25R/1900VP2000N SCT020 31/18 Q1012 NOSIG,M
VVTS,2/22/2021 5:30,106.6667,10.8167,86,64.4,48.58,M,3,0,29.85,M,6.21,M,SCT,M,M,M,2000,M,M,M,M,M,M,M,M,M,M,87.49,VVTS 220530Z VRB03KT 9999 SCT020 30/18 Q1011 NOSIG,M
VVTS,2/22/2021 6:00,106.6667,10.8167,87.8,62.6,43.07,M,4,0,29.83,M,6.21,M,SCT,M,M,M,1700,M,M,M,M,M,M,M,M,M,M,88.48,VVTS 220600Z VRB04KT 9999 SCT017 31/17 Q1010 NOSIG,M
VVTS,2/22/2021 6:30,106.6667,10.8167,87.8,64.4,45.88,260,4,0,29.83,M,6.21,M,BKN,M,M,M,1700,M,M,M,M,M,M,M,M,M,M,89.33,VVTS 220630Z 26004KT 210V330 9999 BKN017 31/18 Q1010 NOSIG,M
VVTS,2/22/2021 7:00,106.6667,10.8167,87.8,64.4,45.88,250,9,0,29.8,M,6.21,M,BKN,M,M,M,1700,M,M,M,M,M,M,M,M,M,M,89.33,VVTS 220700Z 25009KT 180V290 9999 BKN017 31/18 Q1009 NOSIG,M
VVTS,2/22/2021 7:30,106.6667,10.8167,87.8,64.4,45.88,230,5,0,29.8,M,6.21,M,BKN,M,M,M,1700,M,M,M,M,M,M,M,M,M,M,89.33,VVTS 220730Z 23005KT 180V280 9999 BKN017 31/18 Q1009 NOSIG,M
VVTS,2/22/2021 8:00,106.6667,10.8167,87.8,64.4,45.88,200,7,0,29.77,M,6.21,M,BKN,M,M,M,1700,M,M,M,M,M,M,M,M,M,M,89.33,VVTS 220800Z 20007KT 170V230 9999 BKN017 31/18 Q1008 NOSIG,M
VVTS,2/22/2021 8:30,106.6667,10.8167,87.8,64.4,45.88,190,8,0,29.77,M,6.21,M,BKN,M,M,M,1700,M,M,M,M,M,M,M,M,M,M,89.33,VVTS 220830Z 19008KT 160V220 9999 BKN017 31/18 Q1008 NOSIG,M
VVTS,2/22/2021 9:00,106.6667,10.8167,86,64.4,48.58,180,8,0,29.77,M,6.21,M,SCT,M,M,M,1700,M,M,M,M,M,M,M,M,M,M,87.49,VVTS 220900Z 18008KT 150V210 9999 SCT017 30/18 Q1008 NOSIG,M
VVTS,2/22/2021 9:30,106.6667,10.8167,82.4,66.2,58.08,170,10,0,29.8,M,6.21,M,SCT,M,M,M,1700,M,M,M,M,M,M,M,M,M,M,84.63,VVTS 220930Z 17010KT 9999 SCT017 28/19 Q1009 NOSIG,M
VVTS,2/22/2021 10:00,106.6667,10.8167,80.6,66.2,61.58,170,11,0,29.8,M,6.21,M,SCT,M,M,M,1700,M,M,M,M,M,M,M,M,M,M,82.75,VVTS 221000Z 17011KT 9999 SCT017 27/19 Q1009 NOSIG,M
VVTS,2/22/2021 10:30,106.6667,10.8167,80.6,64.4,57.84,170,10,0,29.83,M,6.21,M,FEW,M,M,M,1700,M,M,M,M,M,M,M,M,M,M,82.27,VVTS 221030Z 17010KT 130V200 9999 FEW017 27/18 Q1010 NOSIG,M
VVTS,2/22/2021 11:00,106.6667,10.8167,78.8,64.4,61.36,170,11,0,29.83,M,6.21,M,FEW,M,M,M,1700,M,M,M,M,M,M,M,M,M,M,78.8,VVTS 221100Z 17011KT 130V190 9999 FEW017 26/18 Q1010 NOSIG,M
VVTS,2/22/2021 11:30,106.6667,10.8167,77,62.6,61.13,160,12,0,29.83,M,6.21,M,FEW,M,M,M,1700,M,M,M,M,M,M,M,M,M,M,77,VVTS 221130Z 16012KT 9999 FEW017 25/17 Q1010 NOSIG,M
VVTS,2/22/2021 12:00,106.6667,10.8167,77,66.2,69.33,160,10,0,29.85,M,6.21,M,FEW,M,M,M,1700,M,M,M,M,M,M,M,M,M,M,77,VVTS 221200Z 16010KT 9999 FEW017 25/19 Q1011 NOSIG,M
VVTS,2/22/2021 12:30,106.6667,10.8167,77,66.2,69.33,150,9,0,29.85,M,6.21,M,FEW,M,M,M,1700,M,M,M,M,M,M,M,M,M,M,77,VVTS 221230Z 15009KT 110V190 9999 FEW017 25/19 Q1011 NOSIG,M
VVTS,2/22/2021 13:00,106.6667,10.8167,77,66.2,69.33,150,9,0,29.88,M,6.21,M,FEW,M,M,M,1700,M,M,M,M,M,M,M,M,M,M,77,VVTS 221300Z 15009KT 130V200 9999 FEW017 25/19 Q1012 NOSIG,M
VVTS,2/22/2021 13:30,106.6667,10.8167,77,64.4,65.12,140,10,0,29.88,M,6.21,M,FEW,M,M,M,2000,M,M,M,M,M,M,M,M,M,M,77,VVTS 221330Z 14010KT 9999 FEW020 25/18 Q1012 NOSIG,M
VVTS,2/22/2021 14:00,106.6667,10.8167,77,64.4,65.12,140,10,0,29.88,M,6.21,M,FEW,M,M,M,2000,M,M,M,M,M,M,M,M,M,M,77,VVTS 221400Z 14010KT 110V170 9999 FEW020 25/18 Q1012 NOSIG,M
VVTS,2/22/2021 14:30,106.6667,10.8167,75.2,64.4,69.14,140,9,0,29.88,M,6.21,M,FEW,M,M,M,2000,M,M,M,M,M,M,M,M,M,M,75.2,VVTS 221430Z 14009KT 9999 FEW020 24/18 Q1012 NOSIG,M
VVTS,2/22/2021 15:00,106.6667,10.8167,75.2,66.2,73.61,130,6,0,29.88,M,6.21,M,FEW,M,M,M,2000,M,M,M,M,M,M,M,M,M,M,75.2,VVTS 221500Z 13006KT 9999 FEW020 24/19 Q1012 NOSIG,M
VVTS,2/22/2021 15:30,106.6667,10.8167,75.2,66.2,73.61,130,7,0,29.88,M,6.21,M,FEW,M,M,M,2000,M,M,M,M,M,M,M,M,M,M,75.2,VVTS 221530Z 13007KT 9999 FEW020 24/19 Q1012 NOSIG,M
VVTS,2/22/2021 16:00,106.6667,10.8167,75.2,66.2,73.61,130,6,0,29.88,M,6.21,M,FEW,M,M,M,2000,M,M,M,M,M,M,M,M,M,M,75.2,VVTS 221600Z 13006KT 9999 FEW020 24/19 Q1012 NOSIG,M
VVTS,2/22/2021 16:30,106.6667,10.8167,73.4,66.2,78.19,130,5,0,29.88,M,6.21,M,FEW,M,M,M,2000,M,M,M,M,M,M,M,M,M,M,73.4,VVTS 221630Z 13005KT 9999 FEW020 23/19 Q1012 NOSIG,M
VVTS,2/22/2021 17:00,106.6667,10.8167,73.4,68,83.21,140,6,0,29.88,M,6.21,M,FEW,M,M,M,2000,M,M,M,M,M,M,M,M,M,M,73.4,VVTS 221700Z 14006KT 9999 FEW020 23/20 Q1012 NOSIG,M
VVTS,2/22/2021 17:30,106.6667,10.8167,73.4,68,83.21,130,5,0,29.88,M,6.21,M,FEW,M,M,M,1700,M,M,M,M,M,M,M,M,M,M,73.4,VVTS 221730Z 13005KT 100V160 9999 FEW017 23/20 Q1012 NOSIG,M
VVTS,2/22/2021 18:00,106.6667,10.8167,73.4,68,83.21,130,4,0,29.85,M,6.21,M,FEW,M,M,M,1700,M,M,M,M,M,M,M,M,M,M,73.4,VVTS 221800Z 13004KT 9999 FEW017 23/20 Q1011 NOSIG,M
VVTS,2/22/2021 18:30,106.6667,10.8167,73.4,68,83.21,140,6,0,29.85,M,6.21,M,FEW,M,M,M,1700,M,M,M,M,M,M,M,M,M,M,73.4,VVTS 221830Z 14006KT 9999 FEW017 23/20 Q1011 NOSIG,M
VVTS,2/22/2021 19:00,106.6667,10.8167,73.4,69.8,88.51,140,7,0,29.85,M,6.21,M,FEW,M,M,M,1700,M,M,M,M,M,M,M,M,M,M,73.4,VVTS 221900Z 14007KT 9999 FEW017 23/21 Q1011 NOSIG,M
VVTS,2/22/2021 19:30,106.6667,10.8167,73.4,69.8,88.51,140,5,0,29.85,M,6.21,M,FEW,M,M,M,1700,M,M,M,M,M,M,M,M,M,M,73.4,VVTS 221930Z 14005KT 9999 FEW017 23/21 Q1011 NOSIG,M
VVTS,2/22/2021 20:00,106.6667,10.8167,73.4,69.8,88.51,130,4,0,29.83,M,6.21,M,FEW,M,M,M,1700,M,M,M,M,M,M,M,M,M,M,73.4,VVTS 222000Z 13004KT 9999 FEW017 23/21 Q1010 NOSIG,M
VVTS,2/22/2021 20:30,106.6667,10.8167,73.4,69.8,88.51,120,2,0,29.83,M,6.21,M,FEW,M,M,M,1700,M,M,M,M,M,M,M,M,M,M,73.4,VVTS 222030Z 12002KT 9999 FEW017 23/21 Q1010 NOSIG,M
VVTS,2/22/2021 21:00,106.6667,10.8167,73.4,68,83.21,160,2,0,29.83,M,6.21,M,FEW,M,M,M,1700,M,M,M,M,M,M,M,M,M,M,73.4,VVTS 222100Z 16002KT 9999 FEW017 23/20 Q1010 NOSIG,M
VVTS,2/22/2021 21:30,106.6667,10.8167,71.6,69.8,94.06,M,3,0,29.83,M,6.21,M,FEW,M,M,M,1700,M,M,M,M,M,M,M,M,M,M,71.6,VVTS 222130Z VRB03KT 9999 FEW017 22/21 Q1010 NOSIG,M
VVTS,2/22/2021 22:00,106.6667,10.8167,71.6,69.8,94.06,M,1,0,29.83,M,6.21,M,FEW,M,M,M,1700,M,M,M,M,M,M,M,M,M,M,71.6,VVTS 222200Z VRB01KT 9999 FEW017 22/21 Q1010 NOSIG,M
VVTS,2/22/2021 22:30,106.6667,10.8167,73.4,69.8,88.51,M,3,0,29.85,M,6.21,M,FEW,M,M,M,1700,M,M,M,M,M,M,M,M,M,M,73.4,VVTS 222230Z VRB03KT 9999 FEW017 23/21 Q1011 NOSIG,M
VVTS,2/22/2021 23:00,106.6667,10.8167,71.6,69.8,94.06,M,2,0,29.85,M,6.21,M,FEW,M,M,M,1700,M,M,M,M,M,M,M,M,M,M,71.6,VVTS 222300Z VRB02KT 9999 FEW017 22/21 Q1011 NOSIG,M
VVTS,2/22/2021 23:30,106.6667,10.8167,71.6,69.8,94.06,M,2,0,29.85,M,4.97,M,FEW,M,M,M,1700,M,M,M,M,M,M,M,M,M,M,71.6,VVTS 222330Z VRB02KT 8000 FEW017 22/21 Q1011,M
VVTS,2/23/2021 0:00,106.6667,10.8167,73.4,69.8,88.51,M,1,0,29.88,M,4.97,M,SCT,M,M,M,1700,M,M,M,M,M,M,M,M,M,M,73.4,VVTS 230000Z VRB01KT 8000 SCT017 23/21 Q1012 NOSIG,M
VVTS,2/23/2021 0:30,106.6667,10.8167,75.2,71.6,88.59,M,1,0,29.88,M,4.97,M,SCT,M,M,M,1700,M,M,M,M,M,M,M,M,M,M,75.2,VVTS 230030Z VRB01KT 8000 SCT017 24/22 Q1012 NOSIG,M
VVTS,2/23/2021 1:00,106.6667,10.8167,75.2,69.8,83.32,M,1,0,29.88,M,6.21,M,BKN,M,M,M,1700,M,M,M,M,M,M,M,M,M,M,75.2,VVTS 230100Z VRB01KT 9999 BKN017 24/21 Q1012 NOSIG,M
VVTS,2/23/2021 1:30,106.6667,10.8167,77,69.8,78.48,M,1,0,29.91,M,6.21,M,BKN,M,M,M,1700,M,M,M,M,M,M,M,M,M,M,77,VVTS 230130Z VRB01KT 9999 BKN017 25/21 Q1013 NOSIG,M
VVTS,2/23/2021 2:00,106.6667,10.8167,80.6,69.8,69.71,M,2,0,29.91,M,6.21,M,BKN,M,M,M,1700,M,M,M,M,M,M,M,M,M,M,83.9,VVTS 230200Z VRB02KT 9999 BKN017 27/21 Q1013 NOSIG,M
VVTS,2/23/2021 2:30,106.6667,10.8167,80.6,68,65.54,M,2,0,29.91,M,6.21,M,BKN,M,M,M,1700,M,M,M,M,M,M,M,M,M,M,83.29,VVTS 230230Z VRB02KT 9999 BKN017 27/20 Q1013 NOSIG,M
VVTS,2/23/2021 3:00,106.6667,10.8167,82.4,68,61.81,M,2,0,29.91,M,6.21,M,BKN,M,M,M,1700,M,M,M,M,M,M,M,M,M,M,85.38,VVTS 230300Z VRB02KT 9999 BKN017 28/20 Q1013 NOSIG,M
VVTS,2/23/2021 3:30,106.6667,10.8167,84.2,68,58.32,M,2,0,29.91,M,6.21,M,SCT,M,M,M,1700,M,M,M,M,M,M,M,M,M,M,87.4,VVTS 230330Z VRB02KT 9999 SCT017 29/20 Q1013 NOSIG,M
VVTS,2/23/2021 4:00,106.6667,10.8167,84.2,68,58.32,10,1,0,29.88,M,6.21,M,SCT,M,M,M,1700,M,M,M,M,M,M,M,M,M,M,87.4,VVTS 230400Z 01001KT 9999 SCT017 29/20 Q1012 NOSIG,M
VVTS,2/23/2021 4:30,106.6667,10.8167,86,66.2,51.72,M,2,0,29.85,M,6.21,M,SCT,M,M,M,1700,M,M,M,M,M,M,M,M,M,M,88.39,VVTS 230430Z VRB02KT 9999 SCT017 30/19 Q1011 NOSIG,M
VVTS,2/23/2021 5:00,106.6667,10.8167,86,66.2,51.72,330,5,0,29.85,M,4.97,M,SCT,M,M,M,1700,M,M,M,M,M,M,M,M,M,M,88.39,VVTS 230500Z 33005KT 270V030 8000 SCT017 30/19 Q1011 NOSIG,M
VVTS,2/23/2021 5:30,106.6667,10.8167,86,64.4,48.58,M,2,0,29.83,M,4.97,M,SCT,M,M,M,1700,M,M,M,M,M,M,M,M,M,M,87.49,VVTS 230530Z VRB02KT 8000 SCT017 30/18 Q1010 NOSIG,M
VVTS,2/23/2021 6:00,106.6667,10.8167,87.8,62.6,43.07,290,4,0,29.8,M,4.97,M,FEW,M,M,M,2000,M,M,M,M,M,M,M,M,M,M,88.48,VVTS 230600Z 29004KT 230V020 8000 FEW020 31/17 Q1009 NOSIG,M
VVTS,2/23/2021 6:30,106.6667,10.8167,89.6,62.6,40.69,M,3,0,29.8,M,4.97,M,FEW,M,M,M,2000,M,M,M,M,M,M,M,M,M,M,90.32,VVTS 230630Z VRB03KT 8000 FEW020 32/17 Q1009 NOSIG,M
VVTS,2/23/2021 7:00,106.6667,10.8167,87.8,62.6,43.07,300,3,0,29.77,M,4.97,M,FEW,M,M,M,2000,M,M,M,M,M,M,M,M,M,M,88.48,VVTS 230700Z 30003KT 8000 FEW020 31/17 Q1008 NOSIG,M
VVTS,2/23/2021 7:30,106.6667,10.8167,91.4,60.8,36.08,M,3,0,29.74,M,4.97,M,FEW,M,M,M,2000,M,M,M,M,M,M,M,M,M,M,91.4,VVTS 230730Z VRB03KT 8000 FEW020 33/16 Q1007 NOSIG,M
VVTS,2/23/2021 8:00,106.6667,10.8167,89.6,60.8,38.18,350,6,0,29.74,M,4.97,M,FEW,M,M,M,2000,M,M,M,M,M,M,M,M,M,M,89.54,VVTS 230800Z 35006KT 270V050 8000 FEW020 32/16 Q1007 NOSIG,M
VVTS,2/23/2021 8:30,106.6667,10.8167,91.4,60.8,36.08,300,3,0,29.74,M,4.97,M,FEW,M,M,M,2000,M,M,M,M,M,M,M,M,M,M,91.4,VVTS 230830Z 30003KT 8000 FEW020 33/16 Q1007 NOSIG,M
VVTS,2/23/2021 9:00,106.6667,10.8167,89.6,66.2,46.14,190,8,0,29.74,M,4.97,M,FEW,M,M,M,2000,M,M,M,M,M,M,M,M,M,M,92.27,VVTS 230900Z 19008KT 140V210 8000 FEW020 32/19 Q1007 NOSIG,M
VVTS,2/23/2021 9:30,106.6667,10.8167,86,68,55.04,170,10,0,29.74,M,4.97,M,FEW,M,M,M,2000,M,M,M,M,M,M,M,M,M,M,89.41,VVTS 230930Z 17010KT 150V210 8000 FEW020 30/20 Q1007 NOSIG,M
VVTS,2/23/2021 10:00,106.6667,10.8167,82.4,68,61.81,170,12,0,29.74,M,6.21,M,FEW,M,M,M,2000,M,M,M,M,M,M,M,M,M,M,85.38,VVTS 231000Z 17012KT 9999 FEW020 28/20 Q1007 NOSIG,M
VVTS,2/23/2021 10:30,106.6667,10.8167,80.6,68,65.54,170,12,0,29.77,M,6.21,M,FEW,M,M,M,2000,M,M,M,M,M,M,M,M,M,M,83.29,VVTS 231030Z 17012KT 9999 FEW020 27/20 Q1008 NOSIG,M
VVTS,2/23/2021 11:00,106.6667,10.8167,78.8,69.8,73.95,180,10,0,29.77,M,6.21,M,M,M,M,M,M,M,M,M,M,M,M,M,M,M,M,78.8,VVTS 231100Z 18010KT CAVOK 26/21 Q1008 NOSIG,M
VVTS,2/23/2021 11:30,106.6667,10.8167,78.8,68,69.52,180,7,0,29.8,M,6.21,M,M,M,M,M,M,M,M,M,M,M,M,M,M,M,M,78.8,VVTS 231130Z 18007KT 150V210 CAVOK 26/20 Q1009 NOSIG,M
VVTS,2/23/2021 12:00,106.6667,10.8167,78.8,66.2,65.33,160,5,0,29.8,M,6.21,M,M,M,M,M,M,M,M,M,M,M,M,M,M,M,M,78.8,VVTS 231200Z 16005KT 130V220 CAVOK 26/19 Q1009 NOSIG,M
VVTS,2/23/2021 12:30,106.6667,10.8167,78.8,66.2,65.33,160,7,0,29.8,M,6.21,M,M,M,M,M,M,M,M,M,M,M,M,M,M,M,M,78.8,VVTS 231230Z 16007KT 130V190 CAVOK 26/19 Q1009 NOSIG,M
VVTS,2/23/2021 13:00,106.6667,10.8167,78.8,68,69.52,140,9,0,29.8,M,6.21,M,M,M,M,M,M,M,M,M,M,M,M,M,M,M,M,78.8,VVTS 231300Z 14009KT CAVOK 26/20 Q1009 NOSIG,M
VVTS,2/23/2021 13:30,106.6667,10.8167,78.8,66.2,65.33,150,9,0,29.83,M,6.21,M,M,M,M,M,M,M,M,M,M,M,M,M,M,M,M,78.8,VVTS 231330Z 15009KT CAVOK 26/19 Q1010 NOSIG,M
VVTS,2/23/2021 14:00,106.6667,10.8167,77,68,73.78,140,8,0,29.83,M,6.21,M,FEW,M,M,M,2000,M,M,M,M,M,M,M,M,M,M,77,VVTS 231400Z 14008KT 110V170 9999 FEW020 25/20 Q1010 NOSIG,M
VVTS,2/23/2021 14:30,106.6667,10.8167,77,68,73.78,140,7,0,29.83,M,6.21,M,FEW,M,M,M,2000,M,M,M,M,M,M,M,M,M,M,77,VVTS 231430Z 14007KT 110V180 9999 FEW020 25/20 Q1010 NOSIG,M
VVTS,2/23/2021 15:00,106.6667,10.8167,77,68,73.78,140,6,0,29.83,M,6.21,M,FEW,M,M,M,2000,M,M,M,M,M,M,M,M,M,M,77,VVTS 231500Z 14006KT 110V170 9999 FEW020 25/20 Q1010 NOSIG,M
VVTS,2/23/2021 15:30,106.6667,10.8167,77,69.8,78.48,130,6,0,29.83,M,6.21,M,FEW,M,M,M,2000,M,M,M,M,M,M,M,M,M,M,77,VVTS 231530Z 13006KT 9999 FEW020 25/21 Q1010 NOSIG,M
VVTS,2/23/2021 16:00,106.6667,10.8167,77,69.8,78.48,140,7,0,29.83,M,6.21,M,FEW,M,M,M,2000,M,M,M,M,M,M,M,M,M,M,77,VVTS 231600Z 14007KT 100V160 9999 FEW020 25/21 Q1010 NOSIG,M
VVTS,2/23/2021 16:30,106.6667,10.8167,77,69.8,78.48,130,7,0,29.83,M,6.21,M,FEW,M,M,M,2000,M,M,M,M,M,M,M,M,M,M,77,VVTS 231630Z 13007KT 9999 FEW020 25/21 Q1010 NOSIG,M
VVTS,2/23/2021 17:00,106.6667,10.8167,75.2,69.8,83.32,150,5,0,29.83,M,6.21,M,FEW,M,M,M,1700,M,M,M,M,M,M,M,M,M,M,75.2,VVTS 231700Z 15005KT 120V190 9999 FEW017 24/21 Q1010 NOSIG,M
VVTS,2/23/2021 17:30,106.6667,10.8167,75.2,69.8,83.32,150,7,0,29.83,M,6.21,M,FEW,M,M,M,1700,M,M,M,M,M,M,M,M,M,M,75.2,VVTS 231730Z 15007KT 120V190 9999 FEW017 24/21 Q1010 NOSIG,M
VVTS,2/23/2021 18:00,106.6667,10.8167,75.2,69.8,83.32,150,7,0,29.83,M,6.21,M,FEW,M,M,M,1700,M,M,M,M,M,M,M,M,M,M,75.2,VVTS 231800Z 15007KT 9999 FEW017 24/21 Q1010 NOSIG,M
VVTS,2/23/2021 18:30,106.6667,10.8167,75.2,69.8,83.32,160,6,0,29.83,M,6.21,M,FEW,M,M,M,1700,M,M,M,M,M,M,M,M,M,M,75.2,VVTS 231830Z 16006KT 110V200 9999 FEW017 24/21 Q1010 NOSIG,M
VVTS,2/23/2021 19:00,106.6667,10.8167,75.2,69.8,83.32,160,5,0,29.8,M,6.21,M,FEW,M,M,M,2000,M,M,M,M,M,M,M,M,M,M,75.2,VVTS 231900Z 16005KT 140V220 9999 FEW020 24/21 Q1009 NOSIG,M
VVTS,2/23/2021 19:30,106.6667,10.8167,75.2,69.8,83.32,160,6,0,29.8,M,6.21,M,FEW,M,M,M,2000,M,M,M,M,M,M,M,M,M,M,75.2,VVTS 231930Z 16006KT 140V200 9999 FEW020 24/21 Q1009 NOSIG,M
VVTS,2/23/2021 20:00,106.6667,10.8167,75.2,71.6,88.59,180,5,0,29.8,M,6.21,M,FEW,M,M,M,2000,M,M,M,M,M,M,M,M,M,M,75.2,VVTS 232000Z 18005KT 150V220 9999 FEW020 24/22 Q1009 NOSIG,M
VVTS,2/23/2021 20:30,106.6667,10.8167,75.2,71.6,88.59,170,5,0,29.8,M,6.21,M,FEW,M,M,M,2000,M,M,M,M,M,M,M,M,M,M,75.2,VVTS 232030Z 17005KT 130V210 9999 FEW020 24/22 Q1009 NOSIG,M
VVTS,2/23/2021 21:00,106.6667,10.8167,75.2,71.6,88.59,170,4,0,29.8,M,6.21,M,FEW,M,M,M,2000,M,M,M,M,M,M,M,M,M,M,75.2,VVTS 232100Z 17004KT 140V210 9999 FEW020 24/22 Q1009 NOSIG,M
VVTS,2/23/2021 21:30,106.6667,10.8167,75.2,69.8,83.32,160,5,0,29.8,M,6.21,M,FEW,M,M,M,2000,M,M,M,M,M,M,M,M,M,M,75.2,VVTS 232130Z 16005KT 130V190 9999 FEW020 24/21 Q1009 NOSIG,M
VVTS,2/23/2021 22:00,106.6667,10.8167,75.2,69.8,83.32,160,4,0,29.8,M,6.21,M,FEW,M,M,M,1700,M,M,M,M,M,M,M,M,M,M,75.2,VVTS 232200Z 16004KT 9999 FEW017 24/21 Q1009 NOSIG,M
VVTS,2/23/2021 22:30,106.6667,10.8167,75.2,69.8,83.32,170,6,0,29.8,M,6.21,M,FEW,M,M,M,1700,M,M,M,M,M,M,M,M,M,M,75.2,VVTS 232230Z 17006KT 9999 FEW017 24/21 Q1009 NOSIG,M
VVTS,2/23/2021 23:00,106.6667,10.8167,75.2,71.6,88.59,160,4,0,29.83,M,6.21,M,FEW,M,M,M,1700,M,M,M,M,M,M,M,M,M,M,75.2,VVTS 232300Z 16004KT 140V200 9999 FEW017 24/22 Q1010 NOSIG,M
VVTS,2/23/2021 23:30,106.6667,10.8167,75.2,71.6,88.59,M,3,0,29.83,M,6.21,M,FEW,M,M,M,1700,M,M,M,M,M,M,M,M,M,M,75.2,VVTS 232330Z VRB03KT 9999 FEW017 24/22 Q1010 NOSIG,M
VVTS,2/24/2021 0:00,106.6667,10.8167,75.2,71.6,88.59,160,5,0,29.85,M,6.21,M,FEW,M,M,M,1700,M,M,M,M,M,M,M,M,M,M,75.2,VVTS 240000Z 16005KT 9999 FEW017 24/22 Q1011 NOSIG,M
VVTS,2/24/2021 0:30,106.6667,10.8167,77,71.6,83.44,160,5,0,29.85,M,6.21,M,SCT,M,M,M,1700,M,M,M,M,M,M,M,M,M,M,77,VVTS 240030Z 16005KT 120V190 9999 SCT017 25/22 Q1011 NOSIG,M
VVTS,2/24/2021 1:00,106.6667,10.8167,78.8,71.6,78.62,150,5,0,29.85,M,6.21,M,BKN,M,M,M,1700,M,M,M,M,M,M,M,M,M,M,78.8,VVTS 240100Z 15005KT 110V190 9999 BKN017 26/22 Q1011 NOSIG,M
VVTS,2/24/2021 1:30,106.6667,10.8167,80.6,69.8,69.71,M,3,0,29.88,M,6.21,M,BKN,M,M,M,1700,M,M,M,M,M,M,M,M,M,M,83.9,VVTS 240130Z VRB03KT 9999 BKN017 27/21 Q1012 NOSIG,M
VVTS,2/24/2021 2:00,106.6667,10.8167,80.6,69.8,69.71,180,4,0,29.88,M,6.21,M,BKN,M,M,M,1700,M,M,M,M,M,M,M,M,M,M,83.9,VVTS 240200Z 18004KT 130V230 9999 BKN017 27/21 Q1012 NOSIG,M
VVTS,2/24/2021 2:30,106.6667,10.8167,80.6,69.8,69.71,180,5,0,29.88,M,6.21,M,BKN,M,M,M,1700,M,M,M,M,M,M,M,M,M,M,83.9,VVTS 240230Z 18005KT 120V240 9999 BKN017 27/21 Q1012 NOSIG,M
VVTS,2/24/2021 3:00,106.6667,10.8167,82.4,71.6,69.9,130,4,0,29.88,M,6.21,M,BKN,M,M,M,1700,M,M,M,M,M,M,M,M,M,M,87.18,VVTS 240300Z 13004KT 050V190 9999 BKN017 28/22 Q1012 NOSIG,M
VVTS,2/24/2021 3:30,106.6667,10.8167,84.2,71.6,65.95,M,3,0,29.88,M,6.21,M,BKN,M,M,M,1700,M,M,M,M,M,M,M,M,M,M,89.6,VVTS 240330Z VRB03KT 9999 BKN017 29/22 Q1012 NOSIG,M
VVTS,2/24/2021 4:00,106.6667,10.8167,84.2,69.8,62.03,M,3,0,29.85,M,6.21,M,BKN,M,M,M,1700,M,M,M,M,M,M,M,M,M,M,88.43,VVTS 240400Z VRB03KT 9999 BKN017 29/21 Q1011 NOSIG,M
VVTS,2/24/2021 4:30,106.6667,10.8167,86,69.8,58.55,M,3,0,29.85,M,6.21,M,BKN,M,M,M,1700,M,M,M,M,M,M,M,M,M,M,90.58,VVTS 240430Z VRB03KT 9999 BKN017 30/21 Q1011 NOSIG,M
VVTS,2/24/2021 5:00,106.6667,10.8167,86,68,55.04,320,4,0,29.83,M,6.21,M,BKN,M,M,M,1700,M,M,M,M,M,M,M,M,M,M,89.41,VVTS 240500Z 32004KT 280V010 9999 BKN017 30/20 Q1010 NOSIG,M
VVTS,2/24/2021 5:30,106.6667,10.8167,86,68,55.04,M,3,0,29.83,M,6.21,M,BKN,M,M,M,1700,M,M,M,M,M,M,M,M,M,M,89.41,VVTS 240530Z VRB03KT 9999 BKN017 30/20 Q1010 NOSIG,M
VVTS,2/24/2021 6:00,106.6667,10.8167,87.8,68,51.98,210,5,0,29.8,M,6.21,M,BKN,M,M,M,1700,M,M,M,M,M,M,M,M,M,M,91.43,VVTS 240600Z 21005KT 160V300 9999 BKN017 31/20 Q1009 NOSIG,M
VVTS,2/24/2021 6:30,106.6667,10.8167,89.6,69.8,52.23,230,7,0,29.77,M,6.21,M,BKN,M,M,M,1700,M,M,M,M,M,M,M,M,M,M,94.85,VVTS 240630Z 23007KT 200V270 9999 BKN017 32/21 Q1008 NOSIG,M
VVTS,2/24/2021 7:00,106.6667,10.8167,87.8,68,51.98,210,6,0,29.77,M,6.21,M,BKN,M,M,M,1700,M,M,M,M,M,M,M,M,M,M,91.43,VVTS 240700Z 21006KT 150V260 9999 BKN017 31/20 Q1008 NOSIG,M
VVTS,2/24/2021 7:30,106.6667,10.8167,89.6,68,49.1,M,5,0,29.74,M,6.21,M,BKN,M,M,M,1700,M,M,M,M,M,M,M,M,M,M,93.47,VVTS 240730Z VRB05KT 9999 BKN017 32/20 Q1007 NOSIG,M
VVTS,2/24/2021 8:00,106.6667,10.8167,89.6,69.8,52.23,270,6,0,29.74,M,6.21,M,SCT,M,M,M,1700,M,M,M,M,M,M,M,M,M,M,94.85,VVTS 240800Z 27006KT 230V330 9999 SCT017 32/21 Q1007 NOSIG,M
VVTS,2/24/2021 8:30,106.6667,10.8167,87.8,68,51.98,240,6,0,29.74,M,6.21,M,SCT,M,M,M,1700,M,M,M,M,M,M,M,M,M,M,91.43,VVTS 240830Z 24006KT 190V290 9999 SCT017 31/20 Q1007 NOSIG,M
VVTS,2/24/2021 9:00,106.6667,10.8167,87.8,68,51.98,250,6,0,29.74,M,6.21,M,SCT,M,M,M,1700,M,M,M,M,M,M,M,M,M,M,91.43,VVTS 240900Z 25006KT 220V280 9999 SCT017 31/20 Q1007 NOSIG,M
VVTS,2/24/2021 9:30,106.6667,10.8167,86,68,55.04,210,8,0,29.74,M,6.21,M,SCT,M,M,M,1700,M,M,M,M,M,M,M,M,M,M,89.41,VVTS 240930Z 21008KT 170V250 9999 SCT017 30/20 Q1007 NOSIG,M
VVTS,2/24/2021 10:00,106.6667,10.8167,84.2,69.8,62.03,180,10,0,29.74,M,6.21,M,SCT,M,M,M,1700,M,M,M,M,M,M,M,M,M,M,88.43,VVTS 241000Z 18010KT 9999 SCT017 29/21 Q1007 NOSIG,M
VVTS,2/24/2021 10:30,106.6667,10.8167,82.4,69.8,65.74,180,10,0,29.74,M,6.21,M,SCT,M,M,M,1700,M,M,M,M,M,M,M,M,M,M,86.22,VVTS 241030Z 18010KT 9999 SCT017 28/21 Q1007 NOSIG,M
VVTS,2/24/2021 11:00,106.6667,10.8167,80.6,69.8,69.71,180,11,0,29.74,M,6.21,M,FEW,M,M,M,1700,M,M,M,M,M,M,M,M,M,M,83.9,VVTS 241100Z 18011KT 150V210 9999 FEW017 27/21 Q1007 NOSIG,M
VVTS,2/24/2021 11:30,106.6667,10.8167,78.8,69.8,73.95,170,10,0,29.74,M,6.21,M,FEW,M,M,M,1700,M,M,M,M,M,M,M,M,M,M,78.8,VVTS 241130Z 17010KT 9999 FEW017 26/21 Q1007 NOSIG,M
VVTS,2/24/2021 12:00,106.6667,10.8167,78.8,69.8,73.95,160,8,0,29.77,M,6.21,M,FEW,M,M,M,1700,M,M,M,M,M,M,M,M,M,M,78.8,VVTS 241200Z 16008KT 140V210 9999 FEW017 26/21 Q1008 NOSIG,M
VVTS,2/24/2021 12:30,106.6667,10.8167,77,69.8,78.48,180,9,0,29.77,M,6.21,M,FEW,M,M,M,1700,M,M,M,M,M,M,M,M,M,M,77,VVTS 241230Z 18009KT 9999 FEW017 25/21 Q1008 NOSIG,M
VVTS,2/24/2021 13:00,106.6667,10.8167,77,69.8,78.48,150,7,0,29.77,M,6.21,M,FEW,M,M,M,1700,M,M,M,M,M,M,M,M,M,M,77,VVTS 241300Z 15007KT 9999 FEW017 25/21 Q1008 NOSIG,M
VVTS,2/24/2021 13:30,106.6667,10.8167,77,69.8,78.48,180,7,0,29.8,M,6.21,M,FEW,M,M,M,1700,M,M,M,M,M,M,M,M,M,M,77,VVTS 241330Z 18007KT 150V210 9999 FEW017 25/21 Q1009 NOSIG,M
VVTS,2/24/2021 14:00,106.6667,10.8167,77,69.8,78.48,170,4,0,29.8,M,6.21,M,FEW,M,M,M,2000,M,M,M,M,M,M,M,M,M,M,77,VVTS 241400Z 17004KT 130V200 9999 FEW020 25/21 Q1009 NOSIG,M
VVTS,2/24/2021 14:30,106.6667,10.8167,77,69.8,78.48,150,6,0,29.8,M,6.21,M,FEW,M,M,M,2000,M,M,M,M,M,M,M,M,M,M,77,VVTS 241430Z 15006KT 120V180 9999 FEW020 25/21 Q1009 NOSIG,M
VVTS,2/24/2021 15:00,106.6667,10.8167,77,69.8,78.48,160,4,0,29.8,M,6.21,M,FEW,M,M,M,2000,M,M,M,M,M,M,M,M,M,M,77,VVTS 241500Z 16004KT 130V200 9999 FEW020 25/21 Q1009 NOSIG,M
VVTS,2/24/2021 15:30,106.6667,10.8167,77,69.8,78.48,170,6,0,29.8,M,6.21,M,FEW,M,M,M,2000,M,M,M,M,M,M,M,M,M,M,77,VVTS 241530Z 17006KT 9999 FEW020 25/21 Q1009 NOSIG,M
VVTS,2/24/2021 16:00,106.6667,10.8167,77,69.8,78.48,160,6,0,29.8,M,6.21,M,FEW,M,M,M,2000,M,M,M,M,M,M,M,M,M,M,77,VVTS 241600Z 16006KT 9999 FEW020 25/21 Q1009 NOSIG,M
VVTS,2/24/2021 16:30,106.6667,10.8167,77,69.8,78.48,170,5,0,29.8,M,6.21,M,FEW,M,M,M,2000,M,M,M,M,M,M,M,M,M,M,77,VVTS 241630Z 17005KT 140V220 9999 FEW020 25/21 Q1009 NOSIG,M
VVTS,2/24/2021 17:00,106.6667,10.8167,77,69.8,78.48,150,4,0,29.8,M,6.21,M,FEW,M,M,M,2000,M,M,M,M,M,M,M,M,M,M,77,VVTS 241700Z 15004KT 130V190 9999 FEW020 25/21 Q1009 NOSIG,M
VVTS,2/24/2021 17:30,106.6667,10.8167,77,69.8,78.48,M,3,0,29.8,M,6.21,M,FEW,M,M,M,2000,M,M,M,M,M,M,M,M,M,M,77,VVTS 241730Z VRB03KT 9999 FEW020 25/21 Q1009 NOSIG,M
VVTS,2/24/2021 18:00,106.6667,10.8167,77,69.8,78.48,140,6,0,29.8,M,6.21,M,FEW,M,M,M,2000,M,M,M,M,M,M,M,M,M,M,77,VVTS 241800Z 14006KT 9999 FEW020 25/21 Q1009 NOSIG,M
VVTS,2/24/2021 18:30,106.6667,10.8167,77,69.8,78.48,150,6,0,29.8,M,6.21,M,FEW,M,M,M,2000,M,M,M,M,M,M,M,M,M,M,77,VVTS 241830Z 15006KT 9999 FEW020 25/21 Q1009 NOSIG,M
VVTS,2/24/2021 19:00,106.6667,10.8167,77,69.8,78.48,140,5,0,29.77,M,6.21,M,FEW,M,M,M,2000,M,M,M,M,M,M,M,M,M,M,77,VVTS 241900Z 14005KT 9999 FEW020 25/21 Q1008 NOSIG,M
VVTS,2/24/2021 19:30,106.6667,10.8167,77,69.8,78.48,130,5,0,29.77,M,6.21,M,M,M,M,M,M,M,M,M,M,M,M,M,M,M,M,77,VVTS 241930Z 13005KT 110V170 CAVOK 25/21 Q1008 NOSIG,M
VVTS,2/24/2021 20:00,106.6667,10.8167,75.2,69.8,83.32,130,5,0,29.77,M,6.21,M,FEW,M,M,M,2000,M,M,M,M,M,M,M,M,M,M,75.2,VVTS 242000Z 13005KT 100V170 9999 FEW020 24/21 Q1008 NOSIG,M
VVTS,2/24/2021 20:30,106.6667,10.8167,75.2,69.8,83.32,M,3,0,29.77,M,6.21,M,FEW,M,M,M,2000,M,M,M,M,M,M,M,M,M,M,75.2,VVTS 242030Z VRB03KT 9999 FEW020 24/21 Q1008 NOSIG,M
VVTS,2/24/2021 21:00,106.6667,10.8167,75.2,69.8,83.32,M,3,0,29.77,M,6.21,M,FEW,M,M,M,2000,M,M,M,M,M,M,M,M,M,M,75.2,VVTS 242100Z VRB03KT 9999 FEW020 24/21 Q1008,M
VVTS,2/24/2021 21:30,106.6667,10.8167,75.2,69.8,83.32,130,4,0,29.77,M,6.21,M,FEW,M,M,M,2000,M,M,M,M,M,M,M,M,M,M,75.2,VVTS 242130Z 13004KT 9999 FEW020 24/21 Q1008,M
VVTS,2/24/2021 22:00,106.6667,10.8167,75.2,69.8,83.32,120,2,0,29.77,M,6.21,M,FEW,M,M,M,2000,M,M,M,M,M,M,M,M,M,M,75.2,VVTS 242200Z 12002KT 9999 FEW020 24/21 Q1008,M
VVTS,2/24/2021 22:30,106.6667,10.8167,73.4,69.8,88.51,M,2,0,29.77,M,6.21,M,FEW,M,M,M,2000,M,M,M,M,M,M,M,M,M,M,73.4,VVTS 242230Z VRB02KT 9999 FEW020 23/21 Q1008 NOSIG,M
VVTS,2/24/2021 23:00,106.6667,10.8167,73.4,69.8,88.51,60,1,0,29.8,M,6.21,M,FEW,M,M,M,2000,M,M,M,M,M,M,M,M,M,M,73.4,VVTS 242300Z 06001KT 9999 FEW020 23/21 Q1009 NOSIG,M
VVTS,2/24/2021 23:30,106.6667,10.8167,73.4,69.8,88.51,90,1,0,29.8,M,6.21,M,M,M,M,M,M,M,M,M,M,M,M,M,M,M,M,73.4,VVTS 242330Z 09001KT CAVOK 23/21 Q1009 NOSIG,M
VVTS,2/25/2021 0:00,106.6667,10.8167,77,71.6,83.44,M,2,0,29.8,M,6.21,M,M,M,M,M,M,M,M,M,M,M,M,M,M,M,M,77,VVTS 250000Z VRB02KT CAVOK 25/22 Q1009 NOSIG,M
VVTS,2/25/2021 0:30,106.6667,10.8167,75.2,71.6,88.59,M,2,0,29.8,M,6.21,M,M,M,M,M,M,M,M,M,M,M,M,M,M,M,M,75.2,VVTS 250030Z VRB02KT CAVOK 24/22 Q1009 NOSIG,M
VVTS,2/25/2021 1:00,106.6667,10.8167,78.8,69.8,73.95,M,1,0,29.83,M,6.21,M,M,M,M,M,M,M,M,M,M,M,M,M,M,M,M,78.8,VVTS 250100Z VRB01KT CAVOK 26/21 Q1010 NOSIG,M
VVTS,2/25/2021 1:30,106.6667,10.8167,80.6,69.8,69.71,M,2,0,29.83,M,6.21,M,M,M,M,M,M,M,M,M,M,M,M,M,M,M,M,83.9,VVTS 250130Z VRB02KT CAVOK 27/21 Q1010 NOSIG,M
VVTS,2/25/2021 2:00,106.6667,10.8167,82.4,69.8,65.74,M,3,0,29.83,M,6.21,M,FEW,M,M,M,2000,M,M,M,M,M,M,M,M,M,M,86.22,VVTS 250200Z VRB03KT 9999 FEW020 28/21 Q1010 NOSIG,M
VVTS,2/25/2021 2:30,106.6667,10.8167,82.4,69.8,65.74,M,3,0,29.85,M,6.21,M,FEW,M,M,M,2000,M,M,M,M,M,M,M,M,M,M,86.22,VVTS 250230Z VRB03KT 9999 FEW020 28/21 Q1011 NOSIG,M
VVTS,2/25/2021 3:00,106.6667,10.8167,84.2,71.6,65.95,M,2,0,29.85,M,6.21,M,SCT,M,M,M,2000,M,M,M,M,M,M,M,M,M,M,89.6,VVTS 250300Z VRB02KT 9999 SCT020 29/22 Q1011 NOSIG,M
VVTS,2/25/2021 3:30,106.6667,10.8167,82.4,69.8,65.74,240,4,0,29.83,M,6.21,M,SCT,M,M,M,2000,M,M,M,M,M,M,M,M,M,M,86.22,VVTS 250330Z 24004KT 200V350 9999 SCT020 28/21 Q1010 NOSIG,M
VVTS,2/25/2021 4:00,106.6667,10.8167,86,71.6,62.25,M,3,0,29.83,M,6.21,M,BKN,M,M,M,2000,M,M,M,M,M,M,M,M,M,M,91.92,VVTS 250400Z VRB03KT 9999 BKN020 30/22 Q1010 NOSIG,M
VVTS,2/25/2021 4:30,106.6667,10.8167,87.8,69.8,55.29,230,4,0,29.8,M,6.21,M,BKN,M,M,M,2000,M,M,M,M,M,M,M,M,M,M,92.71,VVTS 250430Z 23004KT 180V260 9999 BKN020 31/21 Q1009 NOSIG,M
VVTS,2/25/2021 5:00,106.6667,10.8167,86,69.8,58.55,280,5,0,29.8,M,6.21,M,BKN,M,M,M,2000,M,M,M,M,M,M,M,M,M,M,90.58,VVTS 250500Z 28005KT 230V320 9999 BKN020 30/21 Q1009 NOSIG,M
VVTS,2/25/2021 5:30,106.6667,10.8167,86,69.8,58.55,M,4,0,29.77,M,6.21,M,BKN,M,M,M,2000,M,M,M,M,M,M,M,M,M,M,90.58,VVTS 250530Z VRB04KT 9999 BKN020 30/21 Q1008 NOSIG,M
VVTS,2/25/2021 6:00,106.6667,10.8167,87.8,69.8,55.29,270,6,0,29.74,M,6.21,M,BKN,M,M,M,2000,M,M,M,M,M,M,M,M,M,M,92.71,VVTS 250600Z 27006KT 230V320 9999 BKN020 31/21 Q1007 NOSIG,M
VVTS,2/25/2021 6:30,106.6667,10.8167,87.8,69.8,55.29,250,6,0,29.74,M,6.21,M,BKN,M,M,M,2000,M,M,M,M,M,M,M,M,M,M,92.71,VVTS 250630Z 25006KT 220V310 9999 BKN020 31/21 Q1007 NOSIG,M
VVTS,2/25/2021 7:00,106.6667,10.8167,89.6,69.8,52.23,250,5,0,29.71,M,6.21,M,BKN,M,M,M,2000,M,M,M,M,M,M,M,M,M,M,94.85,VVTS 250700Z 25005KT 180V340 9999 BKN020 32/21 Q1006 NOSIG,M
VVTS,2/25/2021 7:30,106.6667,10.8167,89.6,69.8,52.23,M,4,0,29.71,M,6.21,M,BKN,M,M,M,2000,M,M,M,M,M,M,M,M,M,M,94.85,VVTS 250730Z VRB04KT 9999 BKN020 32/21 Q1006 NOSIG,M
VVTS,2/25/2021 8:00,106.6667,10.8167,89.6,69.8,52.23,300,6,0,29.68,M,6.21,M,BKN,M,M,M,2000,M,M,M,M,M,M,M,M,M,M,94.85,VVTS 250800Z 30006KT 9999 BKN020 32/21 Q1005 NOSIG,M
VVTS,2/25/2021 8:30,106.6667,10.8167,87.8,69.8,55.29,260,6,0,29.68,M,6.21,M,SCT,M,M,M,2000,M,M,M,M,M,M,M,M,M,M,92.71,VVTS 250830Z 26006KT 210V300 9999 SCT020 31/21 Q1005 NOSIG,M
VVTS,2/25/2021 9:00,106.6667,10.8167,87.8,69.8,55.29,260,7,0,29.68,M,6.21,M,SCT,M,M,M,2000,M,M,M,M,M,M,M,M,M,M,92.71,VVTS 250900Z 26007KT 210V290 9999 SCT020 31/21 Q1005 NOSIG,M
VVTS,2/25/2021 9:30,106.6667,10.8167,87.8,71.6,58.78,240,8,0,29.68,M,6.21,M,FEW,M,M,M,2000,M,M,M,M,M,M,M,M,M,M,94.18,VVTS 250930Z 24008KT 210V290 9999 FEW020 31/22 Q1005 NOSIG,M
VVTS,2/25/2021 10:00,106.6667,10.8167,87.8,71.6,58.78,240,7,0,29.68,M,6.21,M,FEW,M,M,M,2000,M,M,M,M,M,M,M,M,M,M,94.18,VVTS 251000Z 24007KT 210V270 9999 FEW020 31/22 Q1005,M
VVTS,2/25/2021 10:30,106.6667,10.8167,86,71.6,62.25,240,7,0,29.68,M,6.21,M,M,M,M,M,M,M,M,M,M,M,M,M,M,M,M,91.92,VVTS 251030Z 24007KT CAVOK 30/22 Q1005 NOSIG,M
VVTS,2/25/2021 11:00,106.6667,10.8167,84.2,71.6,65.95,240,7,0,29.68,M,6.21,M,M,M,M,M,M,M,M,M,M,M,M,M,M,M,M,89.6,VVTS 251100Z 24007KT CAVOK 29/22 Q1005 NOSIG,M
VVTS,2/25/2021 11:30,106.6667,10.8167,84.2,71.6,65.95,210,7,0,29.68,M,6.21,M,M,M,M,M,M,M,M,M,M,M,M,M,M,M,M,89.6,VVTS 251130Z 21007KT 160V250 CAVOK 29/22 Q1005 NOSIG,M
VVTS,2/25/2021 12:00,106.6667,10.8167,80.6,73.4,78.76,180,8,0,29.71,M,6.21,M,M,M,M,M,M,M,M,M,M,M,M,M,M,M,M,85.32,VVTS 251200Z 18008KT CAVOK 27/23 Q1006 NOSIG,M
VVTS,2/25/2021 12:30,106.6667,10.8167,80.6,73.4,78.76,170,9,0,29.71,M,6.21,M,M,M,M,M,M,M,M,M,M,M,M,M,M,M,M,85.32,VVTS 251230Z 17009KT CAVOK 27/23 Q1006 NOSIG,M
VVTS,2/25/2021 13:00,106.6667,10.8167,78.8,73.4,83.55,160,8,0,29.71,M,6.21,M,M,M,M,M,M,M,M,M,M,M,M,M,M,M,M,78.8,VVTS 251300Z 16008KT 130V190 CAVOK 26/23 Q1006 NOSIG,M
VVTS,2/25/2021 13:30,106.6667,10.8167,78.8,73.4,83.55,160,6,0,29.74,M,6.21,M,FEW,M,M,M,2000,M,M,M,M,M,M,M,M,M,M,78.8,VVTS 251330Z 16006KT 130V200 9999 FEW020 26/23 Q1007 NOSIG,M
VVTS,2/25/2021 14:00,106.6667,10.8167,77,73.4,88.67,160,7,0,29.74,M,6.21,M,FEW,M,M,M,2000,M,M,M,M,M,M,M,M,M,M,77,VVTS 251400Z 16007KT 9999 FEW020 25/23 Q1007 NOSIG,M
VVTS,2/25/2021 14:30,106.6667,10.8167,77,73.4,88.67,140,8,0,29.77,M,6.21,M,FEW,M,M,M,2000,M,M,M,M,M,M,M,M,M,M,77,VVTS 251430Z 14008KT 110V180 9999 FEW020 25/23 Q1008 NOSIG,M
VVTS,2/25/2021 15:00,106.6667,10.8167,77,73.4,88.67,150,7,0,29.77,M,6.21,M,FEW,M,M,M,2000,M,M,M,M,M,M,M,M,M,M,77,VVTS 251500Z 15007KT 9999 FEW020 25/23 Q1008 NOSIG,M
VVTS,2/25/2021 15:30,106.6667,10.8167,77,73.4,88.67,130,8,0,29.77,M,6.21,M,FEW,M,M,M,2000,M,M,M,M,M,M,M,M,M,M,77,VVTS 251530Z 13008KT 9999 FEW020 25/23 Q1008 NOSIG,M
VVTS,2/25/2021 16:00,106.6667,10.8167,77,71.6,83.44,140,6,0,29.77,M,6.21,M,FEW,M,M,M,2000,M,M,M,M,M,M,M,M,M,M,77,VVTS 251600Z 14006KT 110V180 9999 FEW020 25/22 Q1008 NOSIG,M
VVTS,2/25/2021 16:30,106.6667,10.8167,77,73.4,88.67,150,8,0,29.77,M,6.21,M,FEW,M,M,M,2000,M,M,M,M,M,M,M,M,M,M,77,VVTS 251630Z 15008KT 130V190 9999 FEW020 25/23 Q1008 NOSIG,M
VVTS,2/25/2021 17:00,106.6667,10.8167,77,73.4,88.67,150,6,0,29.77,M,6.21,M,FEW,M,M,M,2000,M,M,M,M,M,M,M,M,M,M,77,VVTS 251700Z 15006KT 120V180 9999 FEW020 25/23 Q1008 NOSIG,M
VVTS,2/25/2021 17:30,106.6667,10.8167,77,73.4,88.67,160,5,0,29.74,M,6.21,M,FEW,M,M,M,2000,M,M,M,M,M,M,M,M,M,M,77,VVTS 251730Z 16005KT 130V210 9999 FEW020 25/23 Q1007 NOSIG,M
VVTS,2/25/2021 18:00,106.6667,10.8167,77,73.4,88.67,150,6,0,29.74,M,6.21,M,FEW,M,M,M,2000,M,M,M,M,M,M,M,M,M,M,77,VVTS 251800Z 15006KT 9999 FEW020 25/23 Q1007 NOSIG,M
VVTS,2/25/2021 18:30,106.6667,10.8167,77,71.6,83.44,170,6,0,29.74,M,6.21,M,FEW,M,M,M,2000,M,M,M,M,M,M,M,M,M,M,77,VVTS 251830Z 17006KT 140V200 9999 FEW020 25/22 Q1007 NOSIG,M
VVTS,2/25/2021 19:00,106.6667,10.8167,77,71.6,83.44,180,6,0,29.74,M,6.21,M,FEW,M,M,M,2000,M,M,M,M,M,M,M,M,M,M,77,VVTS 251900Z 18006KT 150V220 9999 FEW020 25/22 Q1007 NOSIG,M
VVTS,2/25/2021 19:30,106.6667,10.8167,77,73.4,88.67,170,6,0,29.71,M,6.21,M,FEW,M,M,M,2000,M,M,M,M,M,M,M,M,M,M,77,VVTS 251930Z 17006KT 140V200 9999 FEW020 25/23 Q1006 NOSIG,M
VVTS,2/25/2021 20:00,106.6667,10.8167,77,73.4,88.67,170,6,0,29.71,M,6.21,M,FEW,M,M,M,2000,M,M,M,M,M,M,M,M,M,M,77,VVTS 252000Z 17006KT 9999 FEW020 25/23 Q1006 NOSIG,M
VVTS,2/25/2021 20:30,106.6667,10.8167,77,73.4,88.67,180,6,0,29.71,M,6.21,M,FEW,M,M,M,2000,M,M,M,M,M,M,M,M,M,M,77,VVTS 252030Z 18006KT 9999 FEW020 25/23 Q1006 NOSIG,M
VVTS,2/25/2021 21:00,106.6667,10.8167,77,73.4,88.67,160,6,0,29.71,M,6.21,M,FEW,M,M,M,2000,M,M,M,M,M,M,M,M,M,M,77,VVTS 252100Z 16006KT 9999 FEW020 25/23 Q1006 NOSIG,M
VVTS,2/25/2021 21:30,106.6667,10.8167,77,73.4,88.67,170,5,0,29.71,M,4.97,M,FEW,M,M,M,2000,M,M,M,M,M,M,M,M,M,M,77,VVTS 252130Z 17005KT 130V210 8000 FEW020 25/23 Q1006 NOSIG,M
VVTS,2/25/2021 22:00,106.6667,10.8167,77,73.4,88.67,140,4,0,29.71,M,4.97,M,FEW,M,M,M,2000,M,M,M,M,M,M,M,M,M,M,77,VVTS 252200Z 14004KT 100V170 8000 FEW020 25/23 Q1006 NOSIG,M
VVTS,2/25/2021 22:30,106.6667,10.8167,77,73.4,88.67,130,4,0,29.74,M,4.97,M,FEW,M,M,M,2000,M,M,M,M,M,M,M,M,M,M,77,VVTS 252230Z 13004KT 110V190 8000 FEW020 25/23 Q1007 NOSIG,M
VVTS,2/25/2021 23:00,106.6667,10.8167,77,73.4,88.67,M,3,0,29.74,M,4.97,M,FEW,M,M,M,2000,M,M,M,M,M,M,M,M,M,M,77,VVTS 252300Z VRB03KT 8000 FEW020 25/23 Q1007 NOSIG,M
VVTS,2/25/2021 23:30,106.6667,10.8167,77,73.4,88.67,M,2,0,29.77,M,4.97,M,FEW,M,M,M,2000,M,M,M,M,M,M,M,M,M,M,77,VVTS 252330Z VRB02KT 8000 FEW020 25/23 Q1008 NOSIG,M
VVTS,2/26/2021 0:00,106.6667,10.8167,78.8,73.4,83.55,120,5,0,29.77,M,6.21,M,FEW,SCT,M,M,2000,5000,M,M,M,M,M,M,M,M,M,78.8,VVTS 260000Z 12005KT 9999 FEW020 SCT050 26/23 Q1008 NOSIG,M
VVTS,2/26/2021 0:30,106.6667,10.8167,78.8,73.4,83.55,130,4,0,29.77,M,6.21,M,SCT,SCT,M,M,1700,5000,M,M,M,M,M,M,M,M,M,78.8,VVTS 260030Z 13004KT 090V160 9999 SCT017 SCT050 26/23 Q1008 NOSIG,M
VVTS,2/26/2021 1:00,106.6667,10.8167,78.8,73.4,83.55,120,4,0,29.8,M,6.21,M,SCT,SCT,M,M,1700,5000,M,M,M,M,M,M,M,M,M,78.8,VVTS 260100Z 12004KT 090V170 9999 SCT017 SCT050 26/23 Q1009 NOSIG,M
VVTS,2/26/2021 1:30,106.6667,10.8167,80.6,73.4,78.76,130,5,0,29.8,M,6.21,M,SCT,SCT,M,M,1700,5000,M,M,M,M,M,M,M,M,M,85.32,VVTS 260130Z 13005KT 9999 SCT017 SCT050 27/23 Q1009 NOSIG,M
VVTS,2/26/2021 2:00,106.6667,10.8167,80.6,73.4,78.76,120,5,0,29.8,M,6.21,M,SCT,SCT,M,M,1700,5000,M,M,M,M,M,M,M,M,M,85.32,VVTS 260200Z 12005KT 070V150 9999 SCT017 SCT050 27/23 Q1009 NOSIG,M
VVTS,2/26/2021 2:30,106.6667,10.8167,82.4,73.4,74.28,180,4,0,29.8,M,4.97,M,SCT,SCT,M,M,1700,5000,M,M,M,M,M,M,M,M,M,88.26,VVTS 260230Z 18004KT 140V220 8000 SCT017 SCT050 28/23 Q1009 NOSIG,M
VVTS,2/26/2021 3:00,106.6667,10.8167,84.2,73.4,70.08,M,2,0,29.8,M,4.97,M,BKN,M,M,M,1700,M,M,M,M,M,M,M,M,M,M,90.94,VVTS 260300Z VRB02KT 8000 BKN017 29/23 Q1009 NOSIG,M
VVTS,2/26/2021 3:30,106.6667,10.8167,84.2,73.4,70.08,M,2,0,29.8,M,4.97,M,BKN,M,M,M,1700,M,M,M,M,M,M,M,M,M,M,90.94,VVTS 260330Z VRB02KT 8000 BKN017 29/23 Q1009 NOSIG,M
VVTS,2/26/2021 4:00,106.6667,10.8167,86,71.6,62.25,M,3,0,29.8,M,4.97,M,BKN,M,M,M,1700,M,M,M,M,M,M,M,M,M,M,91.92,VVTS 260400Z VRB03KT 8000 BKN017 30/22 Q1009 NOSIG,M
VVTS,2/26/2021 4:30,106.6667,10.8167,86,73.4,66.15,160,4,0,29.77,M,4.97,M,BKN,M,M,M,1700,M,M,M,M,M,M,M,M,M,M,93.45,VVTS 260430Z 16004KT 110V230 8000 BKN017 30/23 Q1008 NOSIG,M
VVTS,2/26/2021 5:00,106.6667,10.8167,86,71.6,62.25,M,3,0,29.77,M,4.97,M,BKN,M,M,M,1700,M,M,M,M,M,M,M,M,M,M,91.92,VVTS 260500Z VRB03KT 8000 BKN017 30/22 Q1008 NOSIG,M
VVTS,2/26/2021 5:30,106.6667,10.8167,89.6,71.6,55.53,M,2,0,29.74,M,6.21,M,SCT,M,M,M,1700,M,M,M,M,M,M,M,M,M,M,96.41,VVTS 260530Z VRB02KT 9999 SCT017 32/22 Q1007 NOSIG,M
VVTS,2/26/2021 6:00,106.6667,10.8167,89.6,71.6,55.53,170,4,0,29.74,M,6.21,M,SCT,M,M,M,1700,M,M,M,M,M,M,M,M,M,M,96.41,VVTS 260600Z 17004KT 360V090 9999 SCT017 32/22 Q1007 NOSIG,M
VVTS,2/26/2021 6:30,106.6667,10.8167,91.4,69.8,49.36,M,5,0,29.71,M,6.21,M,SCT,M,M,M,1700,M,M,M,M,M,M,M,M,M,M,96.99,VVTS 260630Z VRB05KT 9999 SCT017 33/21 Q1006 NOSIG,M
VVTS,2/26/2021 7:00,106.6667,10.8167,89.6,71.6,55.53,210,5,0,29.68,M,4.97,M,SCT,M,M,M,1700,M,M,M,M,M,M,M,M,M,M,96.41,VVTS 260700Z 21005KT 130V250 8000 SCT017 32/22 Q1005 NOSIG,M
VVTS,2/26/2021 7:30,106.6667,10.8167,89.6,71.6,55.53,M,3,0,29.68,M,4.97,M,SCT,M,M,M,1700,M,M,M,M,M,M,M,M,M,M,96.41,VVTS 260730Z VRB03KT 8000 SCT017 32/22 Q1005 NOSIG,M
VVTS,2/26/2021 8:00,106.6667,10.8167,91.4,71.6,52.48,210,5,0,29.65,M,4.97,M,SCT,M,M,M,1700,M,M,M,M,M,M,M,M,M,M,98.64,VVTS 260800Z 21005KT 150V260 8000 SCT017 33/22 Q1004 NOSIG,M
VVTS,2/26/2021 8:30,106.6667,10.8167,89.6,73.4,59.01,200,7,0,29.65,M,4.97,M,SCT,M,M,M,1700,M,M,M,M,M,M,M,M,M,M,98.2,VVTS 260830Z 20007KT 150V240 8000 SCT017 32/23 Q1004 NOSIG,M
VVTS,2/26/2021 9:00,106.6667,10.8167,89.6,73.4,59.01,210,9,0,29.65,M,4.97,M,SCT,M,M,M,1700,M,M,M,M,M,M,M,M,M,M,98.2,VVTS 260900Z 21009KT 170V240 8000 SCT017 32/23 Q1004 NOSIG,M
VVTS,2/26/2021 9:30,106.6667,10.8167,87.8,73.4,62.47,190,6,0,29.65,M,4.97,M,SCT,M,M,M,2000,M,M,M,M,M,M,M,M,M,M,95.86,VVTS 260930Z 19006KT 160V220 8000 SCT020 31/23 Q1004 NOSIG,M
VVTS,2/26/2021 10:00,106.6667,10.8167,87.8,75.2,66.35,180,8,0,29.65,M,4.97,M,NSC,M,M,M,M,M,M,M,M,M,M,M,M,M,M,97.76,VVTS 261000Z 18008KT 150V220 8000 NSC 31/24 Q1004 NOSIG,M
VVTS,2/26/2021 10:30,106.6667,10.8167,86,75.2,70.27,170,8,0,29.65,M,4.97,M,NSC,M,M,M,M,M,M,M,M,M,M,M,M,M,M,95.19,VVTS 261030Z 17008KT 150V220 8000 NSC 30/24 Q1004 NOSIG,M
VVTS,2/26/2021 11:00,106.6667,10.8167,84.2,75.2,74.44,180,9,0,29.68,M,4.97,M,NSC,M,M,M,M,M,M,M,M,M,M,M,M,M,M,92.45,VVTS 261100Z 18009KT 8000 NSC 29/24 Q1005 NOSIG,M
VVTS,2/26/2021 11:30,106.6667,10.8167,82.4,73.4,74.28,180,9,0,29.68,M,4.97,M,NSC,M,M,M,M,M,M,M,M,M,M,M,M,M,M,88.26,VVTS 261130Z 18009KT 8000 NSC 28/23 Q1005 NOSIG,M
VVTS,2/26/2021 12:00,106.6667,10.8167,82.4,73.4,74.28,180,9,0,29.71,M,4.97,M,NSC,M,M,M,M,M,M,M,M,M,M,M,M,M,M,88.26,VVTS 261200Z 18009KT 8000 NSC 28/23 Q1006 NOSIG,M
VVTS,2/26/2021 12:30,106.6667,10.8167,80.6,75.2,83.66,160,9,0,29.71,M,4.97,M,NSC,M,M,M,M,M,M,M,M,M,M,M,M,M,M,86.17,VVTS 261230Z 16009KT 8000 NSC 27/24 Q1006 NOSIG,M
VVTS,2/26/2021 13:00,106.6667,10.8167,80.6,75.2,83.66,160,9,0,29.71,M,6.21,M,FEW,M,M,M,2000,M,M,M,M,M,M,M,M,M,M,86.17,VVTS 261300Z 16009KT 130V190 9999 FEW020 27/24 Q1006 NOSIG,M
VVTS,2/26/2021 13:30,106.6667,10.8167,80.6,75.2,83.66,150,6,0,29.74,M,6.21,M,FEW,M,M,M,2000,M,M,M,M,M,M,M,M,M,M,86.17,VVTS 261330Z 15006KT 9999 FEW020 27/24 Q1007 NOSIG,M
VVTS,2/26/2021 14:00,106.6667,10.8167,78.8,75.2,88.75,180,5,0,29.74,M,6.21,M,FEW,M,M,M,2000,M,M,M,M,M,M,M,M,M,M,78.8,VVTS 261400Z 18005KT 140V210 9999 FEW020 26/24 Q1007 NOSIG,M
VVTS,2/26/2021 14:30,106.6667,10.8167,78.8,73.4,83.55,170,9,0,29.77,M,6.21,M,FEW,M,M,M,2000,M,M,M,M,M,M,M,M,M,M,78.8,VVTS 261430Z 17009KT 9999 FEW020 26/23 Q1008 NOSIG,M
VVTS,2/26/2021 15:00,106.6667,10.8167,78.8,73.4,83.55,180,9,0,29.74,M,6.21,M,FEW,M,M,M,2000,M,M,M,M,M,M,M,M,M,M,78.8,VVTS 261500Z 18009KT 150V210 9999 FEW020 26/23 Q1007 NOSIG,M
VVTS,2/26/2021 15:30,106.6667,10.8167,78.8,73.4,83.55,180,9,0,29.74,M,6.21,M,FEW,M,M,M,2000,M,M,M,M,M,M,M,M,M,M,78.8,VVTS 261530Z 18009KT 9999 FEW020 26/23 Q1007 NOSIG,M
VVTS,2/26/2021 16:00,106.6667,10.8167,78.8,73.4,83.55,170,6,0,29.77,M,6.21,M,FEW,M,M,M,2000,M,M,M,M,M,M,M,M,M,M,78.8,VVTS 261600Z 17006KT 150V210 9999 FEW020 26/23 Q1008 NOSIG,M
VVTS,2/26/2021 16:30,106.6667,10.8167,78.8,73.4,83.55,180,7,0,29.74,M,6.21,M,FEW,M,M,M,2000,M,M,M,M,M,M,M,M,M,M,78.8,VVTS 261630Z 18007KT 140V210 9999 FEW020 26/23 Q1007 NOSIG,M
VVTS,2/26/2021 17:00,106.6667,10.8167,78.8,73.4,83.55,160,7,0,29.74,M,6.21,M,FEW,M,M,M,2000,M,M,M,M,M,M,M,M,M,M,78.8,VVTS 261700Z 16007KT 140V200 9999 FEW020 26/23 Q1007 NOSIG,M
VVTS,2/26/2021 17:30,106.6667,10.8167,78.8,73.4,83.55,170,4,0,29.74,M,6.21,M,FEW,M,M,M,1700,M,M,M,M,M,M,M,M,M,M,78.8,VVTS 261730Z 17004KT 9999 FEW017 26/23 Q1007 NOSIG,M
VVTS,2/26/2021 18:00,106.6667,10.8167,78.8,73.4,83.55,190,6,0,29.74,M,6.21,M,FEW,M,M,M,1700,M,M,M,M,M,M,M,M,M,M,78.8,VVTS 261800Z 19006KT 150V220 9999 FEW017 26/23 Q1007 NOSIG,M
VVTS,2/26/2021 18:30,106.6667,10.8167,78.8,73.4,83.55,180,6,0,29.74,M,6.21,M,FEW,M,M,M,1700,M,M,M,M,M,M,M,M,M,M,78.8,VVTS 261830Z 18006KT 150V210 9999 FEW017 26/23 Q1007 NOSIG,M
VVTS,2/26/2021 19:00,106.6667,10.8167,78.8,73.4,83.55,180,5,0,29.74,M,6.21,M,FEW,M,M,M,1700,M,M,M,M,M,M,M,M,M,M,78.8,VVTS 261900Z 18005KT 9999 FEW017 26/23 Q1007 NOSIG,M
VVTS,2/26/2021 19:30,106.6667,10.8167,78.8,73.4,83.55,190,5,0,29.71,M,6.21,M,FEW,M,M,M,1700,M,M,M,M,M,M,M,M,M,M,78.8,VVTS 261930Z 19005KT 9999 FEW017 26/23 Q1006 NOSIG,M
VVTS,2/26/2021 20:00,106.6667,10.8167,78.8,73.4,83.55,190,5,0,29.71,M,6.21,M,FEW,M,M,M,1700,M,M,M,M,M,M,M,M,M,M,78.8,VVTS 262000Z 19005KT 9999 FEW017 26/23 Q1006 NOSIG,M
VVTS,2/26/2021 20:30,106.6667,10.8167,78.8,73.4,83.55,210,5,0,29.71,M,6.21,M,FEW,M,M,M,2000,M,M,M,M,M,M,M,M,M,M,78.8,VVTS 262030Z 21005KT 170V230 9999 FEW020 26/23 Q1006 NOSIG,M
VVTS,2/26/2021 21:00,106.6667,10.8167,78.8,73.4,83.55,160,4,0,29.71,M,6.21,M,FEW,M,M,M,2000,M,M,M,M,M,M,M,M,M,M,78.8,VVTS 262100Z 16004KT 130V200 9999 FEW020 26/23 Q1006 NOSIG,M
VVTS,2/26/2021 21:30,106.6667,10.8167,78.8,75.2,88.75,M,3,0,29.74,M,6.21,M,FEW,M,M,M,2000,M,M,M,M,M,M,M,M,M,M,78.8,VVTS 262130Z VRB03KT 9999 FEW020 26/24 Q1007 NOSIG,M
VVTS,2/26/2021 22:00,106.6667,10.8167,78.8,75.2,88.75,140,4,0,29.74,M,6.21,M,FEW,M,M,M,2000,M,M,M,M,M,M,M,M,M,M,78.8,VVTS 262200Z 14004KT 9999 FEW020 26/24 Q1007 NOSIG,M
VVTS,2/26/2021 22:30,106.6667,10.8167,78.8,75.2,88.75,M,3,0,29.74,M,6.21,M,FEW,M,M,M,2000,M,M,M,M,M,M,M,M,M,M,78.8,VVTS 262230Z VRB03KT 9999 FEW020 26/24 Q1007 NOSIG,M
VVTS,2/26/2021 23:00,106.6667,10.8167,78.8,75.2,88.75,120,4,0,29.77,M,6.21,M,FEW,M,M,M,2000,M,M,M,M,M,M,M,M,M,M,78.8,VVTS 262300Z 12004KT 9999 FEW020 26/24 Q1008 NOSIG,M
VVTS,2/26/2021 23:30,106.6667,10.8167,78.8,75.2,88.75,M,2,0,29.77,M,4.97,M,SCT,M,M,M,2000,M,M,M,M,M,M,M,M,M,M,78.8,VVTS 262330Z VRB02KT 8000 SCT020 26/24 Q1008 NOSIG,M
VVTS,2/27/2021 0:00,106.6667,10.8167,78.8,75.2,88.75,130,4,0,29.77,M,4.97,M,SCT,M,M,M,2000,M,M,M,M,M,M,M,M,M,M,78.8,VVTS 270000Z 13004KT 8000 SCT020 26/24 Q1008 NOSIG,M
VVTS,2/27/2021 0:30,106.6667,10.8167,78.8,75.2,88.75,130,4,0,29.8,M,4.97,M,SCT,M,M,M,2000,M,M,M,M,M,M,M,M,M,M,78.8,VVTS 270030Z 13004KT 8000 SCT020 26/24 Q1009 NOSIG,M
VVTS,2/27/2021 1:00,106.6667,10.8167,80.6,75.2,83.66,M,3,0,29.8,M,4.97,M,SCT,M,M,M,2000,M,M,M,M,M,M,M,M,M,M,86.17,VVTS 270100Z VRB03KT 8000 SCT020 27/24 Q1009 NOSIG,M
VVTS,2/27/2021 1:30,106.6667,10.8167,82.4,75.2,78.9,M,3,0,29.8,M,4.97,M,SCT,M,M,M,2000,M,M,M,M,M,M,M,M,M,M,89.48,VVTS 270130Z VRB03KT 8000 SCT020 28/24 Q1009 NOSIG,M
VVTS,2/27/2021 2:00,106.6667,10.8167,82.4,75.2,78.9,M,3,0,29.83,M,4.97,M,BKN,M,M,M,2000,M,M,M,M,M,M,M,M,M,M,89.48,VVTS 270200Z VRB03KT 8000 BKN020 28/24 Q1010 NOSIG,M
VVTS,2/27/2021 2:30,106.6667,10.8167,84.2,75.2,74.44,160,5,0,29.83,M,6.21,M,BKN,M,M,M,2000,M,M,M,M,M,M,M,M,M,M,92.45,VVTS 270230Z 16005KT 120V190 9999 BKN020 29/24 Q1010 NOSIG,M
VVTS,2/27/2021 3:00,106.6667,10.8167,84.2,75.2,74.44,140,4,0,29.83,M,6.21,M,BKN,M,M,M,2000,M,M,M,M,M,M,M,M,M,M,92.45,VVTS 270300Z 14004KT 100V190 9999 BKN020 29/24 Q1010 NOSIG,M
VVTS,2/27/2021 3:30,106.6667,10.8167,86,75.2,70.27,120,4,0,29.8,M,6.21,M,BKN,M,M,M,2000,M,M,M,M,M,M,M,M,M,M,95.19,VVTS 270330Z 12004KT 070V180 9999 BKN020 30/24 Q1009 NOSIG,M
VVTS,2/27/2021 4:00,106.6667,10.8167,86,75.2,70.27,170,4,0,29.8,M,6.21,M,BKN,M,M,M,2000,M,M,M,M,M,M,M,M,M,M,95.19,VVTS 270400Z 17004KT 120V240 9999 BKN020 30/24 Q1009 NOSIG,M
VVTS,2/27/2021 4:30,106.6667,10.8167,86,75.2,70.27,200,5,0,29.8,M,6.21,M,BKN,M,M,M,2000,M,M,M,M,M,M,M,M,M,M,95.19,VVTS 270430Z 20005KT 130V240 9999 BKN020 30/24 Q1009 NOSIG,M
VVTS,2/27/2021 5:00,106.6667,10.8167,89.6,75.2,62.68,180,4,0,29.77,M,6.21,M,BKN,M,M,M,2000,M,M,M,M,M,M,M,M,M,M,100.23,VVTS 270500Z 18004KT 140V230 9999 BKN020 32/24 Q1008 NOSIG,M
VVTS,2/27/2021 5:30,106.6667,10.8167,89.6,73.4,59.01,160,4,0,29.77,M,4.97,M,BKN,M,M,M,2000,M,M,M,M,M,M,M,M,M,M,98.2,VVTS 270530Z 16004KT 120V280 8000 BKN020 32/23 Q1008 NOSIG,M
VVTS,2/27/2021 6:30,106.6667,10.8167,91.4,71.6,52.48,130,6,0,29.74,M,4.97,M,BKN,M,M,M,2000,M,M,M,M,M,M,M,M,M,M,98.64,VVTS 270630Z 13006KT 060V190 8000 BKN020 33/22 Q1007 NOSIG,M
VVTS,2/27/2021 7:00,106.6667,10.8167,91.4,71.6,52.48,M,5,0,29.71,M,4.97,M,BKN,M,M,M,2000,M,M,M,M,M,M,M,M,M,M,98.64,VVTS 270700Z VRB05KT 8000 BKN020 33/22 Q1006 NOSIG,M
VVTS,2/27/2021 7:30,106.6667,10.8167,91.4,69.8,49.36,M,4,0,29.68,M,4.97,M,BKN,M,M,M,2000,M,M,M,M,M,M,M,M,M,M,96.99,VVTS 270730Z VRB04KT 8000 BKN020 33/21 Q1005 NOSIG,M
VVTS,2/27/2021 8:00,106.6667,10.8167,89.6,71.6,55.53,180,5,0,29.68,M,4.97,M,BKN,M,M,M,2000,M,M,M,M,M,M,M,M,M,M,96.41,VVTS 270800Z 18005KT 110V210 8000 BKN020 32/22 Q1005 NOSIG,M
VVTS,2/27/2021 8:30,106.6667,10.8167,89.6,71.6,55.53,150,4,0,29.68,M,4.97,M,BKN,M,M,M,2000,M,M,M,M,M,M,M,M,M,M,96.41,VVTS 270830Z 15004KT 080V220 8000 BKN020 32/22 Q1005 NOSIG,M
VVTS,2/27/2021 9:00,106.6667,10.8167,89.6,71.6,55.53,170,7,0,29.68,M,4.97,M,SCT,M,M,M,2000,M,M,M,M,M,M,M,M,M,M,96.41,VVTS 270900Z 17007KT 130V200 8000 SCT020 32/22 Q1005 NOSIG,M
VVTS,2/27/2021 9:30,106.6667,10.8167,89.6,71.6,55.53,170,8,0,29.68,M,4.97,M,SCT,M,M,M,2000,M,M,M,M,M,M,M,M,M,M,96.41,VVTS 270930Z 17008KT 140V200 8000 SCT020 32/22 Q1005 NOSIG,M
VVTS,2/27/2021 10:00,106.6667,10.8167,87.8,73.4,62.47,180,8,0,29.68,M,4.97,M,FEW,M,M,M,2000,M,M,M,M,M,M,M,M,M,M,95.86,VVTS 271000Z 18008KT 150V210 8000 FEW020 31/23 Q1005 NOSIG,M
VVTS,2/27/2021 10:30,106.6667,10.8167,86,73.4,66.15,190,7,0,29.68,M,4.97,M,NSC,M,M,M,M,M,M,M,M,M,M,M,M,M,M,93.45,VVTS 271030Z 19007KT 8000 NSC 30/23 Q1005 NOSIG,M
VVTS,2/27/2021 11:00,106.6667,10.8167,84.2,73.4,70.08,180,5,0,29.71,M,4.97,M,NSC,M,M,M,M,M,M,M,M,M,M,M,M,M,M,90.94,VVTS 271100Z 18005KT 140V210 8000 NSC 29/23 Q1006 NOSIG,M
VVTS,2/27/2021 11:30,106.6667,10.8167,84.2,73.4,70.08,170,7,0,29.71,M,4.97,M,NSC,M,M,M,M,M,M,M,M,M,M,M,M,M,M,90.94,VVTS 271130Z 17007KT 140V200 8000 NSC 29/23 Q1006 NOSIG,M
VVTS,2/27/2021 12:00,106.6667,10.8167,82.4,71.6,69.9,150,7,0,29.71,M,4.97,M,NSC,M,M,M,M,M,M,M,M,M,M,M,M,M,M,87.18,VVTS 271200Z 15007KT 8000 NSC 28/22 Q1006 NOSIG,M
VVTS,2/27/2021 12:30,106.6667,10.8167,82.4,73.4,74.28,130,9,0,29.74,M,4.97,M,NSC,M,M,M,M,M,M,M,M,M,M,M,M,M,M,88.26,VVTS 271230Z 13009KT 8000 NSC 28/23 Q1007 NOSIG,M
VVTS,2/27/2021 13:00,106.6667,10.8167,80.6,71.6,74.11,140,9,0,29.74,M,4.97,M,NSC,M,M,M,M,M,M,M,M,M,M,M,M,M,M,84.57,VVTS 271300Z 14009KT 8000 NSC 27/22 Q1007 NOSIG,M
VVTS,2/27/2021 13:30,106.6667,10.8167,80.6,73.4,78.76,130,9,0,29.77,M,4.97,M,FEW,M,M,M,1700,M,M,M,M,M,M,M,M,M,M,85.32,VVTS 271330Z 13009KT 8000 FEW017 27/23 Q1008 NOSIG,M
VVTS,2/27/2021 14:30,106.6667,10.8167,80.6,71.6,74.11,130,8,0,29.8,M,4.97,M,FEW,M,M,M,1700,M,M,M,M,M,M,M,M,M,M,84.57,VVTS 271430Z 13008KT 8000 FEW017 27/22 Q1009 NOSIG,M
VVTS,2/27/2021 15:00,106.6667,10.8167,80.6,71.6,74.11,140,5,0,29.8,M,4.97,M,FEW,M,M,M,1700,M,M,M,M,M,M,M,M,M,M,84.57,VVTS 271500Z 14005KT 110V170 8000 FEW017 27/22 Q1009 NOSIG,M
VVTS,2/27/2021 15:30,106.6667,10.8167,80.6,71.6,74.11,130,9,0,29.8,M,4.97,M,FEW,M,M,M,1700,M,M,M,M,M,M,M,M,M,M,84.57,VVTS 271530Z 13009KT 8000 FEW017 27/22 Q1009 NOSIG,M
VVTS,2/27/2021 16:00,106.6667,10.8167,78.8,71.6,78.62,140,7,0,29.8,M,4.97,M,FEW,M,M,M,1700,M,M,M,M,M,M,M,M,M,M,78.8,VVTS 271600Z 14007KT 110V180 8000 FEW017 26/22 Q1009 NOSIG,M
VVTS,2/27/2021 16:30,106.6667,10.8167,78.8,71.6,78.62,140,5,0,29.8,M,4.97,M,FEW,M,M,M,1700,M,M,M,M,M,M,M,M,M,M,78.8,VVTS 271630Z 14005KT 8000 FEW017 26/22 Q1009 NOSIG,M
VVTS,2/27/2021 17:00,106.6667,10.8167,78.8,71.6,78.62,140,8,0,29.8,M,4.97,M,FEW,M,M,M,1700,M,M,M,M,M,M,M,M,M,M,78.8,VVTS 271700Z 14008KT 8000 FEW017 26/22 Q1009 NOSIG,M
VVTS,2/27/2021 17:30,106.6667,10.8167,77,69.8,78.48,130,7,0,29.8,M,4.97,M,FEW,M,M,M,1700,M,M,M,M,M,M,M,M,M,M,77,VVTS 271730Z 13007KT 8000 FEW017 25/21 Q1009 NOSIG,M
VVTS,2/27/2021 18:00,106.6667,10.8167,77,69.8,78.48,140,6,0,29.8,M,4.97,M,FEW,M,M,M,1700,M,M,M,M,M,M,M,M,M,M,77,VVTS 271800Z 14006KT 8000 FEW017 25/21 Q1009 NOSIG,M
VVTS,2/27/2021 18:30,106.6667,10.8167,77,69.8,78.48,130,4,0,29.77,M,6.21,M,SCT,M,M,M,1700,M,M,M,M,M,M,M,M,M,M,77,VVTS 271830Z 13004KT 100V170 9999 SCT017 25/21 Q1008 NOSIG,M
VVTS,2/27/2021 19:00,106.6667,10.8167,77,69.8,78.48,130,7,0,29.77,M,6.21,M,SCT,M,M,M,1700,M,M,M,M,M,M,M,M,M,M,77,VVTS 271900Z 13007KT 9999 SCT017 25/21 Q1008 NOSIG,M
VVTS,2/27/2021 19:30,106.6667,10.8167,77,69.8,78.48,150,5,0,29.77,M,6.21,M,SCT,M,M,M,1700,M,M,M,M,M,M,M,M,M,M,77,VVTS 271930Z 15005KT 100V170 9999 SCT017 25/21 Q1008 NOSIG,M
VVTS,2/27/2021 20:00,106.6667,10.8167,77,69.8,78.48,150,5,0,29.77,M,6.21,M,SCT,M,M,M,1700,M,M,M,M,M,M,M,M,M,M,77,VVTS 272000Z 15005KT 130V210 9999 SCT017 25/21 Q1008 NOSIG,M
VVTS,2/27/2021 20:30,106.6667,10.8167,77,71.6,83.44,140,5,0,29.77,M,6.21,M,SCT,M,M,M,1700,M,M,M,M,M,M,M,M,M,M,77,VVTS 272030Z 14005KT 120V180 9999 SCT017 25/22 Q1008 NOSIG,M
VVTS,2/27/2021 21:00,106.6667,10.8167,77,71.6,83.44,150,6,0,29.77,M,6.21,M,SCT,M,M,M,1700,M,M,M,M,M,M,M,M,M,M,77,VVTS 272100Z 15006KT 9999 SCT017 25/22 Q1008 NOSIG,M
VVTS,2/27/2021 21:30,106.6667,10.8167,77,73.4,88.67,170,5,0,29.77,M,6.21,M,SCT,M,M,M,1700,M,M,M,M,M,M,M,M,M,M,77,VVTS 272130Z 17005KT 140V200 9999 SCT017 25/23 Q1008 NOSIG,M
VVTS,2/27/2021 22:00,106.6667,10.8167,77,73.4,88.67,150,5,0,29.77,M,6.21,M,SCT,M,M,M,1700,M,M,M,M,M,M,M,M,M,M,77,VVTS 272200Z 15005KT 9999 SCT017 25/23 Q1008 NOSIG,M
VVTS,2/27/2021 22:30,106.6667,10.8167,77,73.4,88.67,150,7,0,29.8,M,6.21,M,FEW,M,M,M,1700,M,M,M,M,M,M,M,M,M,M,77,VVTS 272230Z 15007KT 9999 FEW017 25/23 Q1009 NOSIG,M
VVTS,2/27/2021 23:00,106.6667,10.8167,77,73.4,88.67,150,5,0,29.8,M,6.21,M,FEW,M,M,M,1700,M,M,M,M,M,M,M,M,M,M,77,VVTS 272300Z 15005KT 9999 FEW017 25/23 Q1009 NOSIG,M
VVTS,2/27/2021 23:30,106.6667,10.8167,77,73.4,88.67,140,6,0,29.8,M,6.21,M,M,M,M,M,M,M,M,M,M,M,M,M,M,M,M,77,VVTS 272330Z 14006KT 120V180 CAVOK 25/23 Q1009 NOSIG,M
VVTS,2/28/2021 0:00,106.6667,10.8167,78.8,73.4,83.55,140,5,0,29.83,M,6.21,M,M,M,M,M,M,M,M,M,M,M,M,M,M,M,M,78.8,VVTS 280000Z 14005KT 110V170 CAVOK 26/23 Q1010 NOSIG,M
VVTS,2/28/2021 0:30,106.6667,10.8167,80.6,73.4,78.76,140,7,0,29.83,M,6.21,M,M,M,M,M,M,M,M,M,M,M,M,M,M,M,M,85.32,VVTS 280030Z 14007KT CAVOK 27/23 Q1010 NOSIG,M
VVTS,2/28/2021 1:00,106.6667,10.8167,82.4,73.4,74.28,140,7,0,29.85,M,6.21,M,M,M,M,M,M,M,M,M,M,M,M,M,M,M,M,88.26,VVTS 280100Z 14007KT CAVOK 28/23 Q1011 NOSIG,M
VVTS,2/28/2021 1:30,106.6667,10.8167,82.4,73.4,74.28,140,6,0,29.85,M,6.21,M,M,M,M,M,M,M,M,M,M,M,M,M,M,M,M,88.26,VVTS 280130Z 14006KT 110V190 CAVOK 28/23 Q1011 NOSIG,M
VVTS,2/28/2021 2:00,106.6667,10.8167,84.2,73.4,70.08,110,6,0,29.85,M,6.21,M,M,M,M,M,M,M,M,M,M,M,M,M,M,M,M,90.94,VVTS 280200Z 11006KT 080V170 CAVOK 29/23 Q1011 NOSIG,M
VVTS,2/28/2021 2:30,106.6667,10.8167,87.8,73.4,62.47,130,8,0,29.85,M,6.21,M,FEW,M,M,M,2000,M,M,M,M,M,M,M,M,M,M,95.86,VVTS 280230Z 13008KT 060V150 9999 FEW020 31/23 Q1011 NOSIG,M
VVTS,2/28/2021 3:00,106.6667,10.8167,89.6,71.6,55.53,100,9,0,29.85,M,6.21,M,FEW,M,M,M,2000,M,M,M,M,M,M,M,M,M,M,96.41,VVTS 280300Z 10009KT 070V130 9999 FEW020 32/22 Q1011 NOSIG,M
VVTS,2/28/2021 3:30,106.6667,10.8167,89.6,71.6,55.53,110,7,0,29.85,M,6.21,M,SCT,M,M,M,2000,M,M,M,M,M,M,M,M,M,M,96.41,VVTS 280330Z 11007KT 070V160 9999 SCT020 32/22 Q1011 NOSIG,M
VVTS,2/28/2021 4:00,106.6667,10.8167,89.6,69.8,52.23,110,8,0,29.85,M,6.21,M,SCT,M,M,M,2000,M,M,M,M,M,M,M,M,M,M,94.85,VVTS 280400Z 11008KT 070V140 9999 SCT020 32/21 Q1011 NOSIG,M
VVTS,2/28/2021 4:30,106.6667,10.8167,89.6,71.6,55.53,130,4,0,29.83,M,6.21,M,BKN,M,M,M,2000,M,M,M,M,M,M,M,M,M,M,96.41,VVTS 280430Z 13004KT 080V200 9999 BKN020 32/22 Q1010 NOSIG,M
VVTS,2/28/2021 5:00,106.6667,10.8167,93.2,69.8,46.67,90,9,0,29.83,M,6.21,M,BKN,M,M,M,2000,M,M,M,M,M,M,M,M,M,M,99.17,VVTS 280500Z 09009KT 040V150 9999 BKN020 34/21 Q1010 NOSIG,M
VVTS,2/28/2021 5:30,106.6667,10.8167,89.6,69.8,52.23,140,8,0,29.8,M,6.21,M,BKN,M,M,M,2000,M,M,M,M,M,M,M,M,M,M,94.85,VVTS 280530Z 14008KT 110V190 9999 BKN020 32/21 Q1009 NOSIG,M
VVTS,2/28/2021 6:00,106.6667,10.8167,91.4,71.6,52.48,140,7,0,29.8,M,6.21,M,BKN,M,M,M,2000,M,M,M,M,M,M,M,M,M,M,98.64,VVTS 280600Z 14007KT 090V200 9999 BKN020 33/22 Q1009 NOSIG,M
VVTS,2/28/2021 6:30,106.6667,10.8167,91.4,69.8,49.36,130,7,0,29.77,M,6.21,M,BKN,M,M,M,2000,M,M,M,M,M,M,M,M,M,M,96.99,VVTS 280630Z 13007KT 100V190 9999 BKN020 33/21 Q1008 NOSIG,M
VVTS,2/28/2021 7:00,106.6667,10.8167,91.4,69.8,49.36,90,8,0,29.77,M,6.21,M,SCT,M,M,M,1700,M,M,M,M,M,M,M,M,M,M,96.99,VVTS 280700Z 09008KT 060V140 9999 SCT017 33/21 Q1008 NOSIG RMK TCU/SE,M
VVTS,2/28/2021 7:30,106.6667,10.8167,89.6,69.8,52.23,140,8,0,29.74,M,6.21,M,SCT,FEW,M,M,1700,2000,M,M,#NAME?,M,M,M,M,M,M,94.85,VVTS 280730Z 14008KT 100V180 9999 -SHRA SCT017 FEW020CB 32/21 Q1007 NOSIG RMK CB OVER RWY,M
VVTS,2/28/2021 8:00,106.6667,10.8167,89.6,69.8,52.23,150,7,0,29.74,M,6.21,M,BKN,M,M,M,1700,M,M,M,M,M,M,M,M,M,M,94.85,VVTS 280800Z 15007KT 100V200 9999 BKN017 32/21 Q1007 NOSIG,M
VVTS,2/28/2021 8:30,106.6667,10.8167,91.4,69.8,49.36,160,8,0,29.71,M,6.21,M,SCT,FEW,M,M,1500,1700,M,M,M,M,M,M,M,M,M,96.99,VVTS 280830Z 16008KT 110V190 9999 SCT015 FEW017TCU 33/21 Q1006 NOSIG RMK TCU/NE/NW,M
VVTS,2/28/2021 9:00,106.6667,10.8167,89.6,68,49.1,150,10,0,29.71,M,6.21,M,SCT,FEW,M,M,1700,2000,M,M,M,M,M,M,M,M,M,93.47,VVTS 280900Z 15010KT 110V190 9999 SCT017 FEW020TCU 32/20 Q1006 NOSIG RMK TCU/N,M
VVTS,2/28/2021 9:30,106.6667,10.8167,89.6,69.8,52.23,140,13,0,29.74,M,6.21,M,SCT,M,M,M,1700,M,M,M,M,M,M,M,M,M,M,94.85,VVTS 280930Z 14013KT 9999 SCT017 32/21 Q1007 NOSIG,M
VVTS,2/28/2021 10:00,106.6667,10.8167,87.8,71.6,58.78,150,11,0,29.74,M,6.21,M,SCT,M,M,M,1700,M,M,M,M,M,M,M,M,M,M,94.18,VVTS 281000Z 15011KT 120V180 9999 SCT017 31/22 Q1007 NOSIG,M
VVTS,2/28/2021 10:30,106.6667,10.8167,86,71.6,62.25,150,12,0,29.74,M,6.21,M,FEW,M,M,M,2000,M,M,M,M,M,M,M,M,M,M,91.92,VVTS 281030Z 15012KT 9999 FEW020 30/22 Q1007 NOSIG,M
VVTS,2/28/2021 11:00,106.6667,10.8167,86,69.8,58.55,150,12,0,29.74,M,6.21,M,FEW,M,M,M,2000,M,M,M,M,M,M,M,M,M,M,90.58,VVTS 281100Z 15012KT 9999 FEW020 30/21 Q1007 NOSIG,M
VVTS,2/28/2021 11:30,106.6667,10.8167,84.2,71.6,65.95,140,11,0,29.77,M,6.21,M,FEW,M,M,M,2000,M,M,M,M,M,M,M,M,M,M,89.6,VVTS 281130Z 14011KT 110V170 9999 FEW020 29/22 Q1008 NOSIG,M
VVTS,2/28/2021 12:00,106.6667,10.8167,84.2,73.4,70.08,140,10,0,29.77,M,6.21,M,FEW,M,M,M,2000,M,M,M,M,M,M,M,M,M,M,90.94,VVTS 281200Z 14010KT 9999 FEW020 29/23 Q1008 NOSIG,M
VVTS,2/28/2021 12:30,106.6667,10.8167,82.4,71.6,69.9,130,11,0,29.77,M,6.21,M,M,M,M,M,M,M,M,M,M,M,M,M,M,M,M,87.18,VVTS 281230Z 13011KT CAVOK 28/22 Q1008 NOSIG,M
VVTS,2/28/2021 13:00,106.6667,10.8167,82.4,71.6,69.9,130,9,0,29.8,M,6.21,M,M,M,M,M,M,M,M,M,M,M,M,M,M,M,M,87.18,VVTS 281300Z 13009KT CAVOK 28/22 Q1009 NOSIG,M
VVTS,2/28/2021 13:30,106.6667,10.8167,82.4,73.4,74.28,150,10,0,29.8,M,6.21,M,M,M,M,M,M,M,M,M,M,M,M,M,M,M,M,88.26,VVTS 281330Z 15010KT 120V180 CAVOK 28/23 Q1009 NOSIG,M
VVTS,2/28/2021 14:00,106.6667,10.8167,80.6,73.4,78.76,140,9,0,29.83,M,6.21,M,M,M,M,M,M,M,M,M,M,M,M,M,M,M,M,85.32,VVTS 281400Z 14009KT CAVOK 27/23 Q1010 NOSIG,M
VVTS,2/28/2021 14:30,106.6667,10.8167,80.6,73.4,78.76,130,10,0,29.83,M,6.21,M,FEW,M,M,M,2000,M,M,M,M,M,M,M,M,M,M,85.32,VVTS 281430Z 13010KT 9999 FEW020 27/23 Q1010 NOSIG,M
VVTS,2/28/2021 15:00,106.6667,10.8167,78.8,73.4,83.55,140,11,0,29.85,M,6.21,M,FEW,M,M,M,2000,M,M,M,M,M,M,M,M,M,M,78.8,VVTS 281500Z 14011KT 9999 FEW020 26/23 Q1011 NOSIG,M
VVTS,2/28/2021 15:30,106.6667,10.8167,78.8,75.2,88.75,130,8,0,29.85,M,6.21,M,FEW,M,M,M,2000,M,M,M,M,M,M,M,M,M,M,78.8,VVTS 281530Z 13008KT 100V160 9999 FEW020 26/24 Q1011 NOSIG,M
VVTS,2/28/2021 16:00,106.6667,10.8167,78.8,75.2,88.75,130,10,0,29.85,M,6.21,M,FEW,M,M,M,2000,M,M,M,M,M,M,M,M,M,M,78.8,VVTS 281600Z 13010KT 9999 FEW020 26/24 Q1011 NOSIG,M
VVTS,2/28/2021 16:30,106.6667,10.8167,78.8,73.4,83.55,130,11,0,29.85,M,6.21,M,FEW,M,M,M,2000,M,M,M,M,M,M,M,M,M,M,78.8,VVTS 281630Z 13011KT 9999 FEW020 26/23 Q1011 NOSIG,M
VVTS,2/28/2021 17:00,106.6667,10.8167,78.8,73.4,83.55,130,11,0,29.85,M,6.21,M,FEW,M,M,M,2000,M,M,M,M,M,M,M,M,M,M,78.8,VVTS 281700Z 13011KT 9999 FEW020 26/23 Q1011 NOSIG,M
VVTS,2/28/2021 17:30,106.6667,10.8167,78.8,73.4,83.55,130,10,0,29.85,M,6.21,M,FEW,M,M,M,2000,M,M,M,M,M,M,M,M,M,M,78.8,VVTS 281730Z 13010KT 9999 FEW020 26/23 Q1011 NOSIG,M
VVTS,2/28/2021 18:00,106.6667,10.8167,78.8,73.4,83.55,130,9,0,29.85,M,6.21,M,FEW,M,M,M,2000,M,M,M,M,M,M,M,M,M,M,78.8,VVTS 281800Z 13009KT 9999 FEW020 26/23 Q1011 NOSIG,M
VVTS,2/28/2021 18:30,106.6667,10.8167,78.8,73.4,83.55,130,9,0,29.83,M,6.21,M,FEW,M,M,M,2000,M,M,M,M,M,M,M,M,M,M,78.8,VVTS 281830Z 13009KT 9999 FEW020 26/23 Q1010 NOSIG,M
VVTS,2/28/2021 19:00,106.6667,10.8167,78.8,73.4,83.55,140,8,0,29.83,M,6.21,M,FEW,M,M,M,2000,M,M,M,M,M,M,M,M,M,M,78.8,VVTS 281900Z 14008KT 9999 FEW020 26/23 Q1010 NOSIG,M
VVTS,2/28/2021 19:30,106.6667,10.8167,78.8,73.4,83.55,140,8,0,29.83,M,6.21,M,FEW,M,M,M,2000,M,M,M,M,M,M,M,M,M,M,78.8,VVTS 281930Z 14008KT 110V180 9999 FEW020 26/23 Q1010 NOSIG,M
VVTS,2/28/2021 20:00,106.6667,10.8167,78.8,73.4,83.55,140,7,0,29.83,M,6.21,M,FEW,M,M,M,2000,M,M,M,M,M,M,M,M,M,M,78.8,VVTS 282000Z 14007KT 9999 FEW020 26/23 Q1010 NOSIG,M
VVTS,2/28/2021 20:30,106.6667,10.8167,78.8,73.4,83.55,140,6,0,29.83,M,6.21,M,FEW,M,M,M,2000,M,M,M,M,M,M,M,M,M,M,78.8,VVTS 282030Z 14006KT 9999 FEW020 26/23 Q1010 NOSIG,M
VVTS,2/28/2021 21:00,106.6667,10.8167,77,73.4,88.67,140,7,0,29.85,M,6.21,M,FEW,M,M,M,2000,M,M,M,M,M,M,M,M,M,M,77,VVTS 282100Z 14007KT 100V170 9999 FEW020 25/23 Q1011 NOSIG,M
VVTS,2/28/2021 21:30,106.6667,10.8167,77,73.4,88.67,130,7,0,29.85,M,6.21,M,M,M,M,M,M,M,M,M,M,M,M,M,M,M,M,77,VVTS 282130Z 13007KT CAVOK 25/23 Q1011 NOSIG,M
VVTS,2/28/2021 22:00,106.6667,10.8167,77,73.4,88.67,130,7,0,29.85,M,6.21,M,FEW,M,M,M,2000,M,M,M,M,M,M,M,M,M,M,77,VVTS 282200Z 13007KT 9999 FEW020 25/23 Q1011 NOSIG,M
VVTS,2/28/2021 22:30,106.6667,10.8167,77,73.4,88.67,130,6,0,29.85,M,6.21,M,FEW,M,M,M,2000,M,M,M,M,M,M,M,M,M,M,77,VVTS 282230Z 13006KT 100V160 9999 FEW020 25/23 Q1011 NOSIG,M
VVTS,2/28/2021 23:00,106.6667,10.8167,77,73.4,88.67,140,6,0,29.85,M,6.21,M,FEW,M,M,M,2000,M,M,M,M,M,M,M,M,M,M,77,VVTS 282300Z 14006KT 9999 FEW020 25/23 Q1011 NOSIG,M
VVTS,2/28/2021 23:30,106.6667,10.8167,78.8,73.4,83.55,140,7,0,29.88,M,6.21,M,M,M,M,M,M,M,M,M,M,M,M,M,M,M,M,78.8,VVTS 282330Z 14007KT CAVOK 26/23 Q1012 NOSIG,M
VVTS,3/1/2021 0:00,106.6667,10.8167,80.6,73.4,78.76,130,7,0,29.88,M,6.21,M,M,M,M,M,M,M,M,M,M,M,M,M,M,M,M,85.32,VVTS 010000Z 13007KT CAVOK 27/23 Q1012 NOSIG,M
VVTS,3/1/2021 0:30,106.6667,10.8167,80.6,71.6,74.11,140,9,0,29.91,M,6.21,M,M,M,M,M,M,M,M,M,M,M,M,M,M,M,M,84.57,VVTS 010030Z 14009KT CAVOK 27/22 Q1013 NOSIG,M
VVTS,3/1/2021 1:00,106.6667,10.8167,82.4,71.6,69.9,130,8,0,29.91,M,6.21,M,M,M,M,M,M,M,M,M,M,M,M,M,M,M,M,87.18,VVTS 010100Z 13008KT CAVOK 28/22 Q1013 NOSIG,M
VVTS,3/1/2021 2:00,106.6667,10.8167,86,71.6,62.25,130,7,0,29.94,M,6.21,M,FEW,M,M,M,2000,M,M,M,M,M,M,M,M,M,M,91.92,VVTS 010200Z 13007KT 110V180 9999 FEW020 30/22 Q1014 NOSIG,M
VVTS,3/1/2021 3:00,106.6667,10.8167,87.8,71.6,58.78,110,8,0,29.94,M,6.21,M,FEW,SCT,M,M,2000,5000,M,M,M,M,M,M,M,M,M,94.18,VVTS 010300Z 11008KT 090V160 9999 FEW020 SCT050 31/22 Q1014 NOSIG,M
VVTS,3/1/2021 3:30,106.6667,10.8167,89.6,71.6,55.53,140,8,0,29.94,M,6.21,M,FEW,SCT,M,M,2000,5000,M,M,M,M,M,M,M,M,M,96.41,VVTS 010330Z 14008KT 100V190 9999 FEW020 SCT050 32/22 Q1014 NOSIG,M
VVTS,3/1/2021 4:00,106.6667,10.8167,89.6,71.6,55.53,M,7,0,29.91,M,6.21,M,FEW,M,M,M,2000,M,M,M,M,M,M,M,M,M,M,96.41,VVTS 010400Z VRB07KT 9999 FEW020 32/22 Q1013 NOSIG,M
VVTS,3/1/2021 5:00,106.6667,10.8167,93.2,69.8,46.67,130,9,0,29.88,M,6.21,M,FEW,M,M,M,2000,M,M,M,M,M,M,M,M,M,M,99.17,VVTS 010500Z 13009KT 090V200 9999 FEW020 34/21 Q1012 NOSIG,M
VVTS,3/1/2021 5:30,106.6667,10.8167,91.4,69.8,49.36,150,7,0,29.88,M,6.21,M,FEW,M,M,M,2000,M,M,M,M,M,M,M,M,M,M,96.99,VVTS 010530Z 15007KT 130V200 9999 FEW020 33/21 Q1012 NOSIG,M
VVTS,3/1/2021 6:00,106.6667,10.8167,93.2,69.8,46.67,120,7,0,29.85,M,6.21,M,SCT,M,M,M,2000,M,M,M,M,M,M,M,M,M,M,99.17,VVTS 010600Z 12007KT 050V140 9999 SCT020 34/21 Q1011 NOSIG,M
VVTS,3/1/2021 6:30,106.6667,10.8167,93.2,69.8,46.67,140,7,0,29.83,M,6.21,M,SCT,M,M,M,2000,M,M,M,M,M,M,M,M,M,M,99.17,VVTS 010630Z 14007KT 100V190 9999 SCT020 34/21 Q1010 NOSIG,M
VVTS,3/1/2021 7:00,106.6667,10.8167,93.2,71.6,49.62,170,4,0,29.83,M,6.21,M,SCT,M,M,M,2000,M,M,M,M,M,M,M,M,M,M,100.88,VVTS 010700Z 17004KT 100V250 9999 SCT020 34/22 Q1010 NOSIG,M
VVTS,3/1/2021 8:00,106.6667,10.8167,93.2,69.8,46.67,190,6,0,29.8,M,6.21,M,FEW,M,M,M,2000,M,M,M,M,M,M,M,M,M,M,99.17,VVTS 010800Z 19006KT 120V240 9999 FEW020 34/21 Q1009 NOSIG,M
VVTS,3/1/2021 8:30,106.6667,10.8167,91.4,69.8,49.36,140,10,0,29.8,M,6.21,M,FEW,M,M,M,2000,M,M,M,M,M,M,M,M,M,M,96.99,VVTS 010830Z 14010KT 110V180 9999 FEW020 33/21 Q1009,M
VVTS,3/1/2021 9:00,106.6667,10.8167,91.4,71.6,52.48,170,8,0,29.8,M,6.21,M,FEW,M,M,M,2000,M,M,M,M,M,M,M,M,M,M,98.64,VVTS 010900Z 17008KT 140V200 9999 FEW020 33/22 Q1009,M
VVTS,3/1/2021 9:30,106.6667,10.8167,89.6,69.8,52.23,160,10,0,29.8,M,6.21,M,FEW,M,M,M,2000,M,M,M,M,M,M,M,M,M,M,94.85,VVTS 010930Z 16010KT 140V200 9999 FEW020 32/21 Q1009 NOSIG,M
VVTS,3/1/2021 10:00,106.6667,10.8167,87.8,69.8,55.29,160,9,0,29.83,M,6.21,M,FEW,M,M,M,2000,M,M,M,M,M,M,M,M,M,M,92.71,VVTS 011000Z 16009KT 130V200 9999 FEW020 31/21 Q1010 NOSIG,M
VVTS,3/1/2021 10:30,106.6667,10.8167,86,69.8,58.55,150,10,0,29.83,M,6.21,M,FEW,M,M,M,2000,M,M,M,M,M,M,M,M,M,M,90.58,VVTS 011030Z 15010KT 110V190 9999 FEW020 30/21 Q1010 NOSIG,M
VVTS,3/1/2021 11:00,106.6667,10.8167,84.2,71.6,65.95,150,10,0,29.83,M,6.21,M,FEW,M,M,M,2000,M,M,M,M,M,M,M,M,M,M,89.6,VVTS 011100Z 15010KT 130V200 9999 FEW020 29/22 Q1010 NOSIG,M
VVTS,3/1/2021 11:30,106.6667,10.8167,84.2,71.6,65.95,150,9,0,29.83,M,6.21,M,FEW,M,M,M,2000,M,M,M,M,M,M,M,M,M,M,89.6,VVTS 011130Z 15009KT 130V200 9999 FEW020 29/22 Q1010 NOSIG,M
VVTS,3/1/2021 12:00,106.6667,10.8167,82.4,73.4,74.28,140,9,0,29.85,M,6.21,M,M,M,M,M,M,M,M,M,M,M,M,M,M,M,M,88.26,VVTS 011200Z 14009KT 120V190 CAVOK 28/23 Q1011 NOSIG,M
VVTS,3/1/2021 12:30,106.6667,10.8167,82.4,73.4,74.28,140,8,0,29.85,M,6.21,M,M,M,M,M,M,M,M,M,M,M,M,M,M,M,M,88.26,VVTS 011230Z 14008KT 120V180 CAVOK 28/23 Q1011 NOSIG,M
VVTS,3/1/2021 13:00,106.6667,10.8167,82.4,73.4,74.28,140,9,0,29.88,M,6.21,M,M,M,M,M,M,M,M,M,M,M,M,M,M,M,M,88.26,VVTS 011300Z 14009KT CAVOK 28/23 Q1012 NOSIG,M
VVTS,3/1/2021 13:30,106.6667,10.8167,82.4,73.4,74.28,140,9,0,29.88,M,6.21,M,M,M,M,M,M,M,M,M,M,M,M,M,M,M,M,88.26,VVTS 011330Z 14009KT CAVOK 28/23 Q1012 NOSIG,M
VVTS,3/1/2021 14:00,106.6667,10.8167,80.6,73.4,78.76,130,10,0,29.91,M,6.21,M,M,M,M,M,M,M,M,M,M,M,M,M,M,M,M,85.32,VVTS 011400Z 13010KT CAVOK 27/23 Q1013 NOSIG,M
VVTS,3/1/2021 14:30,106.6667,10.8167,80.6,75.2,83.66,140,7,0,29.91,M,6.21,M,FEW,M,M,M,2000,M,M,M,M,M,M,M,M,M,M,86.17,VVTS 011430Z 14007KT 110V190 9999 FEW020 27/24 Q1013 NOSIG,M
VVTS,3/1/2021 15:00,106.6667,10.8167,80.6,75.2,83.66,150,8,0,29.91,M,6.21,M,FEW,M,M,M,2000,M,M,M,M,M,M,M,M,M,M,86.17,VVTS 011500Z 15008KT 9999 FEW020 27/24 Q1013 NOSIG,M
VVTS,3/1/2021 15:30,106.6667,10.8167,80.6,75.2,83.66,140,7,0,29.91,M,6.21,M,FEW,M,M,M,2000,M,M,M,M,M,M,M,M,M,M,86.17,VVTS 011530Z 14007KT 110V170 9999 FEW020 27/24 Q1013 NOSIG,M
VVTS,3/1/2021 16:00,106.6667,10.8167,80.6,73.4,78.76,140,5,0,29.91,M,6.21,M,FEW,M,M,M,2000,M,M,M,M,M,M,M,M,M,M,85.32,VVTS 011600Z 14005KT 110V180 9999 FEW020 27/23 Q1013 NOSIG,M
VVTS,3/1/2021 16:30,106.6667,10.8167,78.8,73.4,83.55,130,5,0,29.91,M,6.21,M,FEW,M,M,M,2000,M,M,M,M,M,M,M,M,M,M,78.8,VVTS 011630Z 13005KT 100V160 9999 FEW020 26/23 Q1013 NOSIG,M
VVTS,3/1/2021 17:00,106.6667,10.8167,78.8,73.4,83.55,130,8,0,29.91,M,6.21,M,FEW,M,M,M,2000,M,M,M,M,M,M,M,M,M,M,78.8,VVTS 011700Z 13008KT 110V170 9999 FEW020 26/23 Q1013 NOSIG,M
VVTS,3/1/2021 17:30,106.6667,10.8167,78.8,73.4,83.55,150,8,0,29.91,M,6.21,M,FEW,M,M,M,2000,M,M,M,M,M,M,M,M,M,M,78.8,VVTS 011730Z 15008KT 120V190 9999 FEW020 26/23 Q1013 NOSIG,M
VVTS,3/1/2021 18:00,106.6667,10.8167,78.8,73.4,83.55,130,7,0,29.88,M,6.21,M,FEW,M,M,M,2000,M,M,M,M,M,M,M,M,M,M,78.8,VVTS 011800Z 13007KT 9999 FEW020 26/23 Q1012 NOSIG,M
VVTS,3/1/2021 18:30,106.6667,10.8167,78.8,75.2,88.75,130,8,0,29.88,M,6.21,M,FEW,M,M,M,2000,M,M,M,M,M,M,M,M,M,M,78.8,VVTS 011830Z 13008KT 9999 FEW020 26/24 Q1012 NOSIG,M
VVTS,3/1/2021 19:00,106.6667,10.8167,78.8,73.4,83.55,130,8,0,29.88,M,6.21,M,FEW,M,M,M,2000,M,M,M,M,M,M,M,M,M,M,78.8,VVTS 011900Z 13008KT 100V160 9999 FEW020 26/23 Q1012 NOSIG,M
VVTS,3/1/2021 19:30,106.6667,10.8167,78.8,75.2,88.75,130,6,0,29.88,M,6.21,M,FEW,M,M,M,2000,M,M,M,M,M,M,M,M,M,M,78.8,VVTS 011930Z 13006KT 9999 FEW020 26/24 Q1012 NOSIG,M
VVTS,3/1/2021 20:00,106.6667,10.8167,78.8,75.2,88.75,120,6,0,29.88,M,6.21,M,FEW,M,M,M,2000,M,M,M,M,M,M,M,M,M,M,78.8,VVTS 012000Z 12006KT 9999 FEW020 26/24 Q1012 NOSIG,M
VVTS,3/1/2021 20:30,106.6667,10.8167,78.8,75.2,88.75,120,7,0,29.85,M,6.21,M,FEW,M,M,M,2000,M,M,M,M,M,M,M,M,M,M,78.8,VVTS 012030Z 12007KT 9999 FEW020 26/24 Q1011 NOSIG,M
VVTS,3/1/2021 21:00,106.6667,10.8167,78.8,75.2,88.75,110,7,0,29.85,M,6.21,M,FEW,M,M,M,2000,M,M,M,M,M,M,M,M,M,M,78.8,VVTS 012100Z 11007KT 9999 FEW020 26/24 Q1011 NOSIG,M
VVTS,3/1/2021 21:30,106.6667,10.8167,78.8,73.4,83.55,80,6,0,29.88,M,6.21,M,FEW,M,M,M,2000,M,M,M,M,M,M,M,M,M,M,78.8,VVTS 012130Z 08006KT 9999 FEW020 26/23 Q1012 NOSIG,M
VVTS,3/1/2021 22:00,106.6667,10.8167,77,73.4,88.67,90,4,0,29.88,M,6.21,M,FEW,M,M,M,2000,M,M,M,M,M,M,M,M,M,M,77,VVTS 012200Z 09004KT 9999 FEW020 25/23 Q1012 NOSIG,M
VVTS,3/1/2021 22:30,106.6667,10.8167,77,73.4,88.67,140,6,0,29.88,M,6.21,M,FEW,M,M,M,2000,M,M,M,M,M,M,M,M,M,M,77,VVTS 012230Z 14006KT 120V180 9999 FEW020 25/23 Q1012 NOSIG,M
VVTS,3/1/2021 23:00,106.6667,10.8167,77,73.4,88.67,140,5,0,29.88,M,6.21,M,M,M,M,M,M,M,M,M,M,M,M,M,M,M,M,77,VVTS 012300Z 14005KT 110V180 CAVOK 25/23 Q1012 NOSIG,M
VVTS,3/1/2021 23:30,106.6667,10.8167,78.8,75.2,88.75,140,5,0,29.88,M,6.21,M,FEW,M,M,M,2000,M,M,M,M,M,M,M,M,M,M,78.8,VVTS 012330Z 14005KT 110V170 9999 FEW020 26/24 Q1012 NOSIG,M
VVTS,3/2/2021 0:00,106.6667,10.8167,78.8,75.2,88.75,120,7,0,29.91,M,6.21,M,FEW,M,M,M,1700,M,M,M,M,M,M,M,M,M,M,78.8,VVTS 020000Z 12007KT 080V150 9999 FEW017 26/24 Q1013 NOSIG,M
VVTS,3/2/2021 0:30,106.6667,10.8167,80.6,75.2,83.66,150,6,0,29.91,M,6.21,M,FEW,M,M,M,1700,M,M,M,M,M,M,M,M,M,M,86.17,VVTS 020030Z 15006KT 9999 FEW017 27/24 Q1013 NOSIG,M
VVTS,3/2/2021 1:00,106.6667,10.8167,80.6,73.4,78.76,130,5,0,29.91,M,6.21,M,FEW,M,M,M,1700,M,M,M,M,M,M,M,M,M,M,85.32,VVTS 020100Z 13005KT 090V170 9999 FEW017 27/23 Q1013 NOSIG,M
VVTS,3/2/2021 1:30,106.6667,10.8167,82.4,73.4,74.28,130,7,0,29.94,M,6.21,M,FEW,SCT,M,M,1700,5000,M,M,M,M,M,M,M,M,M,88.26,VVTS 020130Z 13007KT 090V200 9999 FEW017 SCT050 28/23 Q1014 NOSIG,M
VVTS,3/2/2021 2:00,106.6667,10.8167,84.2,75.2,74.44,140,5,0,29.94,M,6.21,M,FEW,SCT,M,M,1700,5000,M,M,M,M,M,M,M,M,M,92.45,VVTS 020200Z 14005KT 9999 FEW017 SCT050 29/24 Q1014 NOSIG,M
VVTS,3/2/2021 2:30,106.6667,10.8167,84.2,73.4,70.08,120,6,0,29.94,M,6.21,M,FEW,SCT,M,M,1700,5000,M,M,M,M,M,M,M,M,M,90.94,VVTS 020230Z 12006KT 050V150 9999 FEW017 SCT050 29/23 Q1014 NOSIG,M
VVTS,3/2/2021 3:00,106.6667,10.8167,87.8,73.4,62.47,140,5,0,29.94,M,6.21,M,FEW,M,M,M,1700,M,M,M,M,M,M,M,M,M,M,95.86,VVTS 020300Z 14005KT 080V180 9999 FEW017 31/23 Q1014 NOSIG,M
VVTS,3/2/2021 3:30,106.6667,10.8167,89.6,71.6,55.53,100,7,0,29.91,M,6.21,M,FEW,M,M,M,1700,M,M,M,M,M,M,M,M,M,M,96.41,VVTS 020330Z 10007KT 060V140 9999 FEW017 32/22 Q1013 NOSIG,M
VVTS,3/2/2021 4:00,106.6667,10.8167,89.6,69.8,52.23,120,6,0,29.91,M,6.21,M,FEW,M,M,M,1700,M,M,M,M,M,M,M,M,M,M,94.85,VVTS 020400Z 12006KT 050V150 9999 FEW017 32/21 Q1013 NOSIG,M
VVTS,3/2/2021 4:30,106.6667,10.8167,89.6,69.8,52.23,110,7,0,29.88,M,6.21,M,FEW,M,M,M,1700,M,M,M,M,M,M,M,M,M,M,94.85,VVTS 020430Z 11007KT 020V160 9999 FEW017 32/21 Q1012 NOSIG,M
VVTS,3/2/2021 5:00,106.6667,10.8167,91.4,69.8,49.36,150,5,0,29.88,M,6.21,M,FEW,M,M,M,1700,M,M,M,M,M,M,M,M,M,M,96.99,VVTS 020500Z 15005KT 080V230 9999 FEW017 33/21 Q1012 NOSIG,M
VVTS,3/2/2021 5:30,106.6667,10.8167,89.6,69.8,52.23,160,6,0,29.85,M,6.21,M,SCT,M,M,M,1700,M,M,M,M,M,M,M,M,M,M,94.85,VVTS 020530Z 16006KT 110V220 9999 SCT017 32/21 Q1011 NOSIG,M
VVTS,3/2/2021 6:00,106.6667,10.8167,91.4,69.8,49.36,160,7,0,29.85,M,6.21,M,SCT,M,M,M,1700,M,M,M,M,M,M,M,M,M,M,96.99,VVTS 020600Z 16007KT 100V210 9999 SCT017 33/21 Q1011 NOSIG,M
VVTS,3/2/2021 6:30,106.6667,10.8167,93.2,71.6,49.62,M,5,0,29.83,M,6.21,M,SCT,M,M,M,1700,M,M,M,M,M,M,M,M,M,M,100.88,VVTS 020630Z VRB05KT 9999 SCT017 34/22 Q1010 NOSIG,M
VVTS,3/2/2021 7:00,106.6667,10.8167,93.2,71.6,49.62,150,5,0,29.83,M,6.21,M,SCT,M,M,M,1700,M,M,M,M,M,M,M,M,M,M,100.88,VVTS 020700Z 15005KT 080V210 9999 SCT017 34/22 Q1010 NOSIG,M
VVTS,3/2/2021 7:30,106.6667,10.8167,93.2,71.6,49.62,170,7,0,29.8,M,6.21,M,SCT,M,M,M,1700,M,M,M,M,M,M,M,M,M,M,100.88,VVTS 020730Z 17007KT 120V220 9999 SCT017 34/22 Q1009 NOSIG,M
VVTS,3/2/2021 8:00,106.6667,10.8167,91.4,73.4,55.77,180,10,0,29.8,M,6.21,M,SCT,M,M,M,1700,M,M,M,M,M,M,M,M,M,M,100.52,VVTS 020800Z 18010KT 130V210 9999 SCT017 33/23 Q1009 NOSIG,M
VVTS,3/2/2021 8:30,106.6667,10.8167,91.4,71.6,52.48,190,12,0,29.8,M,6.21,M,FEW,M,M,M,2000,M,M,M,M,M,M,M,M,M,M,98.64,VVTS 020830Z 19012KT 9999 FEW020 33/22 Q1009,M
VVTS,3/2/2021 9:00,106.6667,10.8167,89.6,71.6,55.53,160,10,0,29.8,M,6.21,M,FEW,M,M,M,2000,M,M,M,M,M,M,M,M,M,M,96.41,VVTS 020900Z 16010KT 130V200 9999 FEW020 32/22 Q1009 NOSIG,M
VVTS,3/2/2021 9:30,106.6667,10.8167,89.6,69.8,52.23,160,9,0,29.8,M,6.21,M,FEW,M,M,M,2000,M,M,M,M,M,M,M,M,M,M,94.85,VVTS 020930Z 16009KT 100V200 9999 FEW020 32/21 Q1009 NOSIG,M
VVTS,3/2/2021 10:00,106.6667,10.8167,87.8,69.8,55.29,170,11,0,29.8,M,6.21,M,FEW,M,M,M,2000,M,M,M,M,M,M,M,M,M,M,92.71,VVTS 021000Z 17011KT 140V210 9999 FEW020 31/21 Q1009 NOSIG,M
VVTS,3/2/2021 10:30,106.6667,10.8167,86,71.6,62.25,150,9,0,29.8,M,6.21,M,FEW,M,M,M,2000,M,M,M,M,M,M,M,M,M,M,91.92,VVTS 021030Z 15009KT 120V210 9999 FEW020 30/22 Q1009 NOSIG,M
VVTS,3/2/2021 11:00,106.6667,10.8167,84.2,71.6,65.95,170,8,0,29.83,M,6.21,M,FEW,M,M,M,2000,M,M,M,M,M,M,M,M,M,M,89.6,VVTS 021100Z 17008KT 140V200 9999 FEW020 29/22 Q1010 NOSIG,M
VVTS,3/2/2021 11:30,106.6667,10.8167,84.2,71.6,65.95,160,8,0,29.83,M,6.21,M,FEW,M,M,M,2000,M,M,M,M,M,M,M,M,M,M,89.6,VVTS 021130Z 16008KT 9999 FEW020 29/22 Q1010 NOSIG,M
VVTS,3/2/2021 12:00,106.6667,10.8167,84.2,71.6,65.95,140,10,0,29.83,M,6.21,M,FEW,M,M,M,2000,M,M,M,M,M,M,M,M,M,M,89.6,VVTS 021200Z 14010KT 110V180 9999 FEW020 29/22 Q1010 NOSIG,M
VVTS,3/2/2021 12:30,106.6667,10.8167,84.2,71.6,65.95,140,9,0,29.83,M,6.21,M,FEW,M,M,M,2000,M,M,M,M,M,M,M,M,M,M,89.6,VVTS 021230Z 14009KT 110V170 9999 FEW020 29/22 Q1010 NOSIG,M
VVTS,3/2/2021 13:00,106.6667,10.8167,82.4,71.6,69.9,130,8,0,29.83,M,6.21,M,FEW,M,M,M,2000,M,M,M,M,M,M,M,M,M,M,87.18,VVTS 021300Z 13008KT 9999 FEW020 28/22 Q1010 NOSIG,M
VVTS,3/2/2021 13:30,106.6667,10.8167,82.4,71.6,69.9,140,9,0,29.85,M,6.21,M,FEW,M,M,M,2000,M,M,M,M,M,M,M,M,M,M,87.18,VVTS 021330Z 14009KT 110V180 9999 FEW020 28/22 Q1011 NOSIG,M
VVTS,3/2/2021 14:00,106.6667,10.8167,80.6,73.4,78.76,140,8,0,29.85,M,6.21,M,FEW,M,M,M,2000,M,M,M,M,M,M,M,M,M,M,85.32,VVTS 021400Z 14008KT 110V170 9999 FEW020 27/23 Q1011 NOSIG,M
VVTS,3/2/2021 14:30,106.6667,10.8167,80.6,73.4,78.76,130,10,0,29.85,M,6.21,M,FEW,M,M,M,2000,M,M,M,M,M,M,M,M,M,M,85.32,VVTS 021430Z 13010KT 9999 FEW020 27/23 Q1011 NOSIG,M
VVTS,3/2/2021 15:00,106.6667,10.8167,80.6,73.4,78.76,130,9,0,29.85,M,6.21,M,FEW,M,M,M,2000,M,M,M,M,M,M,M,M,M,M,85.32,VVTS 021500Z 13009KT 9999 FEW020 27/23 Q1011 NOSIG,M
VVTS,3/2/2021 15:30,106.6667,10.8167,80.6,73.4,78.76,140,7,0,29.85,M,6.21,M,FEW,M,M,M,2000,M,M,M,M,M,M,M,M,M,M,85.32,VVTS 021530Z 14007KT 9999 FEW020 27/23 Q1011 NOSIG,M
VVTS,3/2/2021 16:00,106.6667,10.8167,80.6,73.4,78.76,140,6,0,29.85,M,6.21,M,FEW,M,M,M,2000,M,M,M,M,M,M,M,M,M,M,85.32,VVTS 021600Z 14006KT 9999 FEW020 27/23 Q1011 NOSIG,M
VVTS,3/2/2021 16:30,106.6667,10.8167,80.6,73.4,78.76,140,7,0,29.85,M,6.21,M,FEW,M,M,M,2000,M,M,M,M,M,M,M,M,M,M,85.32,VVTS 021630Z 14007KT 110V170 9999 FEW020 27/23 Q1011 NOSIG,M
VVTS,3/2/2021 17:00,106.6667,10.8167,78.8,73.4,83.55,130,5,0,29.85,M,6.21,M,FEW,M,M,M,2000,M,M,M,M,M,M,M,M,M,M,78.8,VVTS 021700Z 13005KT 100V170 9999 FEW020 26/23 Q1011 NOSIG,M
VVTS,3/2/2021 17:30,106.6667,10.8167,78.8,73.4,83.55,130,5,0,29.85,M,6.21,M,FEW,M,M,M,2000,M,M,M,M,M,M,M,M,M,M,78.8,VVTS 021730Z 13005KT 9999 FEW020 26/23 Q1011 NOSIG,M
VVTS,3/2/2021 18:00,106.6667,10.8167,78.8,73.4,83.55,120,5,0,29.83,M,6.21,M,FEW,M,M,M,2000,M,M,M,M,M,M,M,M,M,M,78.8,VVTS 021800Z 12005KT 9999 FEW020 26/23 Q1010 NOSIG,M
VVTS,3/2/2021 18:30,106.6667,10.8167,78.8,73.4,83.55,120,6,0,29.83,M,6.21,M,FEW,M,M,M,1700,M,M,M,M,M,M,M,M,M,M,78.8,VVTS 021830Z 12006KT 090V150 9999 FEW017 26/23 Q1010 NOSIG,M
VVTS,3/2/2021 19:00,106.6667,10.8167,78.8,73.4,83.55,140,5,0,29.83,M,6.21,M,FEW,M,M,M,1700,M,M,M,M,M,M,M,M,M,M,78.8,VVTS 021900Z 14005KT 110V170 9999 FEW017 26/23 Q1010 NOSIG,M
VVTS,3/2/2021 19:30,106.6667,10.8167,78.8,73.4,83.55,140,7,0,29.83,M,6.21,M,FEW,M,M,M,1700,M,M,M,M,M,M,M,M,M,M,78.8,VVTS 021930Z 14007KT 9999 FEW017 26/23 Q1010 NOSIG,M
VVTS,3/2/2021 20:00,106.6667,10.8167,78.8,73.4,83.55,130,5,0,29.83,M,6.21,M,FEW,M,M,M,1700,M,M,M,M,M,M,M,M,M,M,78.8,VVTS 022000Z 13005KT 110V180 9999 FEW017 26/23 Q1010 NOSIG,M
VVTS,3/2/2021 20:30,106.6667,10.8167,77,73.4,88.67,110,6,0,29.83,M,6.21,M,FEW,M,M,M,1700,M,M,M,M,M,M,M,M,M,M,77,VVTS 022030Z 11006KT 9999 FEW017 25/23 Q1010 NOSIG,M
VVTS,3/2/2021 21:00,106.6667,10.8167,77,73.4,88.67,110,7,0,29.83,M,6.21,M,FEW,M,M,M,1700,M,M,M,M,M,M,M,M,M,M,77,VVTS 022100Z 11007KT 9999 FEW017 25/23 Q1010 NOSIG,M
VVTS,3/2/2021 21:30,106.6667,10.8167,77,73.4,88.67,110,5,0,29.83,M,6.21,M,FEW,M,M,M,2000,M,M,M,M,M,M,M,M,M,M,77,VVTS 022130Z 11005KT 9999 FEW020 25/23 Q1010 NOSIG,M
VVTS,3/2/2021 22:00,106.6667,10.8167,77,73.4,88.67,110,6,0,29.85,M,6.21,M,FEW,M,M,M,2000,M,M,M,M,M,M,M,M,M,M,77,VVTS 022200Z 11006KT 9999 FEW020 25/23 Q1011 NOSIG,M
VVTS,3/2/2021 22:30,106.6667,10.8167,77,73.4,88.67,100,6,0,29.85,M,6.21,M,FEW,M,M,M,2000,M,M,M,M,M,M,M,M,M,M,77,VVTS 022230Z 10006KT 9999 FEW020 25/23 Q1011 NOSIG,M
VVTS,3/2/2021 23:00,106.6667,10.8167,77,73.4,88.67,100,6,0,29.85,M,6.21,M,FEW,M,M,M,2000,M,M,M,M,M,M,M,M,M,M,77,VVTS 022300Z 10006KT 9999 FEW020 25/23 Q1011 NOSIG,M
VVTS,3/2/2021 23:30,106.6667,10.8167,77,73.4,88.67,100,6,0,29.88,M,6.21,M,FEW,M,M,M,2000,M,M,M,M,M,M,M,M,M,M,77,VVTS 022330Z 10006KT 9999 FEW020 25/23 Q1012 NOSIG,M
VVTS,3/3/2021 0:00,106.6667,10.8167,78.8,73.4,83.55,120,6,0,29.88,M,6.21,M,FEW,M,M,M,1700,M,M,M,M,M,M,M,M,M,M,78.8,VVTS 030000Z 12006KT 9999 FEW017 26/23 Q1012 NOSIG,M
VVTS,3/3/2021 0:30,106.6667,10.8167,80.6,73.4,78.76,120,5,0,29.91,M,6.21,M,FEW,M,M,M,2000,M,M,M,M,M,M,M,M,M,M,85.32,VVTS 030030Z 12005KT 080V150 9999 FEW020 27/23 Q1013 NOSIG,M
VVTS,3/3/2021 1:00,106.6667,10.8167,82.4,73.4,74.28,M,3,0,29.91,M,6.21,M,FEW,M,M,M,2000,M,M,M,M,M,M,M,M,M,M,88.26,VVTS 030100Z VRB03KT 9999 FEW020 28/23 Q1013 NOSIG,M
VVTS,3/3/2021 1:30,106.6667,10.8167,82.4,73.4,74.28,M,3,0,29.91,M,6.21,M,FEW,M,M,M,2000,M,M,M,M,M,M,M,M,M,M,88.26,VVTS 030130Z VRB03KT 9999 FEW020 28/23 Q1013 NOSIG,M
VVTS,3/3/2021 2:00,106.6667,10.8167,84.2,73.4,70.08,M,3,0,29.94,M,6.21,M,SCT,M,M,M,2000,M,M,M,M,M,M,M,M,M,M,90.94,VVTS 030200Z VRB03KT 9999 SCT020 29/23 Q1014 NOSIG,M
VVTS,3/3/2021 2:30,106.6667,10.8167,86,71.6,62.25,80,4,0,29.94,M,6.21,M,SCT,M,M,M,2000,M,M,M,M,M,M,M,M,M,M,91.92,VVTS 030230Z 08004KT 010V140 9999 SCT020 30/22 Q1014 NOSIG,M
VVTS,3/3/2021 3:00,106.6667,10.8167,86,71.6,62.25,120,5,0,29.91,M,6.21,M,SCT,M,M,M,2000,M,M,M,M,M,M,M,M,M,M,91.92,VVTS 030300Z 12005KT 070V160 9999 SCT020 30/22 Q1013 NOSIG,M
VVTS,3/3/2021 3:30,106.6667,10.8167,87.8,71.6,58.78,70,5,0,29.91,M,6.21,M,SCT,M,M,M,2000,M,M,M,M,M,M,M,M,M,M,94.18,VVTS 030330Z 07005KT 340V140 9999 SCT020 31/22 Q1013 NOSIG,M
VVTS,3/3/2021 4:00,106.6667,10.8167,87.8,69.8,55.29,M,4,0,29.91,M,6.21,M,SCT,M,M,M,2000,M,M,M,M,M,M,M,M,M,M,92.71,VVTS 030400Z VRB04KT 9999 SCT020 31/21 Q1013 NOSIG,M
VVTS,3/3/2021 4:30,106.6667,10.8167,89.6,69.8,52.23,90,4,0,29.88,M,6.21,M,BKN,M,M,M,2000,M,M,M,M,M,M,M,M,M,M,94.85,VVTS 030430Z 09004KT 350V160 9999 BKN020 32/21 Q1012 NOSIG,M
VVTS,3/3/2021 5:00,106.6667,10.8167,93.2,68,43.88,M,5,0,29.88,M,6.21,M,BKN,M,M,M,2000,M,M,M,M,M,M,M,M,M,M,97.67,VVTS 030500Z VRB05KT 9999 BKN020 34/20 Q1012 NOSIG,M
VVTS,3/3/2021 5:30,106.6667,10.8167,91.4,68,46.41,30,5,0,29.85,M,6.21,M,BKN,M,M,M,2000,M,M,M,M,M,M,M,M,M,M,95.55,VVTS 030530Z 03005KT 320V080 9999 BKN020 33/20 Q1011 NOSIG,M
VVTS,3/3/2021 6:00,106.6667,10.8167,91.4,68,46.41,10,5,0,29.85,M,6.21,M,BKN,M,M,M,2000,M,M,M,M,M,M,M,M,M,M,95.55,VVTS 030600Z 01005KT 300V100 9999 BKN020 33/20 Q1011 NOSIG,M
VVTS,3/3/2021 6:30,106.6667,10.8167,95,64.4,36.63,150,2,0,29.83,M,6.21,M,BKN,M,M,M,2000,M,M,M,M,M,M,M,M,M,M,97.26,VVTS 030630Z 15002KT 9999 BKN020 35/18 Q1010 NOSIG,M
VVTS,3/3/2021 7:00,106.6667,10.8167,91.4,66.2,43.61,M,4,0,29.83,M,6.21,M,BKN,M,M,M,2000,M,M,M,M,M,M,M,M,M,M,94.29,VVTS 030700Z VRB04KT 9999 BKN020 33/19 Q1010 NOSIG,M
VVTS,3/3/2021 7:30,106.6667,10.8167,91.4,66.2,43.61,330,4,0,29.83,M,6.21,M,BKN,M,M,M,2000,M,M,M,M,M,M,M,M,M,M,94.29,VVTS 030730Z 33004KT 280V010 9999 BKN020 33/19 Q1010 NOSIG,M
VVTS,3/3/2021 8:00,106.6667,10.8167,93.2,66.2,41.23,M,2,0,29.8,M,6.21,M,BKN,M,M,M,2000,M,M,M,M,M,M,M,M,M,M,96.35,VVTS 030800Z VRB02KT 9999 BKN020 34/19 Q1009 NOSIG,M
VVTS,3/3/2021 8:30,106.6667,10.8167,91.4,64.4,40.96,M,2,0,29.8,M,6.21,M,BKN,M,M,M,2000,M,M,M,M,M,M,M,M,M,M,93.19,VVTS 030830Z VRB02KT 9999 BKN020 33/18 Q1009 NOSIG,M
VVTS,3/3/2021 9:00,106.6667,10.8167,91.4,66.2,43.61,M,3,0,29.8,M,6.21,M,BKN,M,M,M,2000,M,M,M,M,M,M,M,M,M,M,94.29,VVTS 030900Z VRB03KT 9999 BKN020 33/19 Q1009 NOSIG,M
VVTS,3/3/2021 9:30,106.6667,10.8167,91.4,66.2,43.61,190,7,0,29.8,M,6.21,M,BKN,M,M,M,2000,M,M,M,M,M,M,M,M,M,M,94.29,VVTS 030930Z 19007KT 140V230 9999 BKN020 33/19 Q1009 NOSIG,M
VVTS,3/3/2021 10:00,106.6667,10.8167,91.4,66.2,43.61,170,8,0,29.8,M,6.21,M,BKN,M,M,M,2000,M,M,M,M,M,M,M,M,M,M,94.29,VVTS 031000Z 17008KT 140V200 9999 BKN020 33/19 Q1009 NOSIG,M
VVTS,3/3/2021 10:30,106.6667,10.8167,89.6,66.2,46.14,170,9,0,29.8,M,6.21,M,SCT,M,M,M,2000,M,M,M,M,M,M,M,M,M,M,92.27,VVTS 031030Z 17009KT 140V200 9999 SCT020 32/19 Q1009 NOSIG,M
VVTS,3/3/2021 11:00,106.6667,10.8167,87.8,66.2,48.84,170,8,0,29.83,M,6.21,M,SCT,M,M,M,2000,M,M,M,M,M,M,M,M,M,M,90.31,VVTS 031100Z 17008KT 9999 SCT020 31/19 Q1010 NOSIG,M
VVTS,3/3/2021 11:30,106.6667,10.8167,86,69.8,58.55,160,9,0,29.83,M,6.21,M,SCT,M,M,M,2000,M,M,M,M,M,M,M,M,M,M,90.58,VVTS 031130Z 16009KT 140V210 9999 SCT020 30/21 Q1010 NOSIG,M
VVTS,3/3/2021 12:00,106.6667,10.8167,84.2,71.6,65.95,160,9,0,29.83,M,6.21,M,SCT,M,M,M,2000,M,M,M,M,M,M,M,M,M,M,89.6,VVTS 031200Z 16009KT 130V190 9999 SCT020 29/22 Q1010 NOSIG,M
VVTS,3/3/2021 12:30,106.6667,10.8167,82.4,71.6,69.9,170,8,0,29.85,M,6.21,M,FEW,M,M,M,2000,M,M,M,M,M,M,M,M,M,M,87.18,VVTS 031230Z 17008KT 9999 FEW020 28/22 Q1011 NOSIG,M
VVTS,3/3/2021 13:00,106.6667,10.8167,82.4,71.6,69.9,130,10,0,29.85,M,6.21,M,FEW,M,M,M,2000,M,M,M,M,M,M,M,M,M,M,87.18,VVTS 031300Z 13010KT 110V180 9999 FEW020 28/22 Q1011 NOSIG,M
VVTS,3/3/2021 13:30,106.6667,10.8167,82.4,71.6,69.9,150,6,0,29.85,M,6.21,M,FEW,M,M,M,2000,M,M,M,M,M,M,M,M,M,M,87.18,VVTS 031330Z 15006KT 110V180 9999 FEW020 28/22 Q1011 NOSIG,M
VVTS,3/3/2021 14:00,106.6667,10.8167,82.4,71.6,69.9,140,6,0,29.88,M,6.21,M,FEW,M,M,M,2000,M,M,M,M,M,M,M,M,M,M,87.18,VVTS 031400Z 14006KT 110V180 9999 FEW020 28/22 Q1012 NOSIG,M
VVTS,3/3/2021 14:30,106.6667,10.8167,82.4,71.6,69.9,140,7,0,29.88,M,6.21,M,FEW,M,M,M,1700,M,M,M,M,M,M,M,M,M,M,87.18,VVTS 031430Z 14007KT 110V190 9999 FEW017 28/22 Q1012 NOSIG,M
VVTS,3/3/2021 15:00,106.6667,10.8167,82.4,71.6,69.9,140,7,0,29.88,M,6.21,M,FEW,M,M,M,1700,M,M,M,M,M,M,M,M,M,M,87.18,VVTS 031500Z 14007KT 120V180 9999 FEW017 28/22 Q1012 NOSIG,M
VVTS,3/3/2021 15:30,106.6667,10.8167,82.4,71.6,69.9,140,7,0,29.91,M,6.21,M,FEW,M,M,M,2000,M,M,M,M,M,M,M,M,M,M,87.18,VVTS 031530Z 14007KT 9999 FEW020 28/22 Q1013 NOSIG,M
VVTS,3/3/2021 16:00,106.6667,10.8167,80.6,71.6,74.11,140,8,0,29.91,M,6.21,M,FEW,M,M,M,2000,M,M,M,M,M,M,M,M,M,M,84.57,VVTS 031600Z 14008KT 9999 FEW020 27/22 Q1013 NOSIG,M
VVTS,3/3/2021 16:30,106.6667,10.8167,80.6,71.6,74.11,130,6,0,29.91,M,6.21,M,FEW,M,M,M,2000,M,M,M,M,M,M,M,M,M,M,84.57,VVTS 031630Z 13006KT 100V170 9999 FEW020 27/22 Q1013 NOSIG,M
VVTS,3/3/2021 17:00,106.6667,10.8167,80.6,71.6,74.11,130,10,0,29.91,M,6.21,M,FEW,M,M,M,2000,M,M,M,M,M,M,M,M,M,M,84.57,VVTS 031700Z 13010KT 100V160 9999 FEW020 27/22 Q1013 NOSIG,M
VVTS,3/3/2021 17:30,106.6667,10.8167,78.8,71.6,78.62,130,7,0,29.88,M,6.21,M,FEW,M,M,M,2000,M,M,M,M,M,M,M,M,M,M,78.8,VVTS 031730Z 13007KT 100V160 9999 FEW020 26/22 Q1012 NOSIG,M
VVTS,3/3/2021 18:00,106.6667,10.8167,78.8,71.6,78.62,130,8,0,29.88,M,6.21,M,FEW,M,M,M,2000,M,M,M,M,M,M,M,M,M,M,78.8,VVTS 031800Z 13008KT 110V190 9999 FEW020 26/22 Q1012 NOSIG,M
VVTS,3/3/2021 18:30,106.6667,10.8167,78.8,71.6,78.62,130,10,0,29.88,M,6.21,M,FEW,M,M,M,1700,M,M,M,M,M,M,M,M,M,M,78.8,VVTS 031830Z 13010KT 100V170 9999 FEW017 26/22 Q1012 NOSIG,M
VVTS,3/3/2021 19:00,106.6667,10.8167,78.8,71.6,78.62,130,8,0,29.85,M,6.21,M,FEW,M,M,M,1700,M,M,M,M,M,M,M,M,M,M,78.8,VVTS 031900Z 13008KT 100V160 9999 FEW017 26/22 Q1011 NOSIG,M
VVTS,3/3/2021 19:30,106.6667,10.8167,78.8,71.6,78.62,130,7,0,29.85,M,6.21,M,FEW,M,M,M,1700,M,M,M,M,M,M,M,M,M,M,78.8,VVTS 031930Z 13007KT 9999 FEW017 26/22 Q1011 NOSIG,M
VVTS,3/3/2021 20:00,106.6667,10.8167,78.8,71.6,78.62,110,6,0,29.85,M,6.21,M,FEW,M,M,M,1700,M,M,M,M,M,M,M,M,M,M,78.8,VVTS 032000Z 11006KT 090V150 9999 FEW017 26/22 Q1011 NOSIG,M
VVTS,3/3/2021 20:30,106.6667,10.8167,78.8,71.6,78.62,110,7,0,29.88,M,6.21,M,FEW,M,M,M,2000,M,M,M,M,M,M,M,M,M,M,78.8,VVTS 032030Z 11007KT 9999 FEW020 26/22 Q1012 NOSIG,M
VVTS,3/3/2021 21:00,106.6667,10.8167,78.8,71.6,78.62,120,5,0,29.85,M,6.21,M,FEW,M,M,M,2000,M,M,M,M,M,M,M,M,M,M,78.8,VVTS 032100Z 12005KT 9999 FEW020 26/22 Q1011 NOSIG,M
VVTS,3/3/2021 21:30,106.6667,10.8167,78.8,71.6,78.62,110,8,0,29.88,M,6.21,M,FEW,M,M,M,2000,M,M,M,M,M,M,M,M,M,M,78.8,VVTS 032130Z 11008KT 9999 FEW020 26/22 Q1012 NOSIG,M
VVTS,3/3/2021 22:00,106.6667,10.8167,77,71.6,83.44,110,6,0,29.88,M,6.21,M,FEW,M,M,M,2000,M,M,M,M,M,M,M,M,M,M,77,VVTS 032200Z 11006KT 9999 FEW020 25/22 Q1012 NOSIG,M
VVTS,3/3/2021 22:30,106.6667,10.8167,77,71.6,83.44,110,4,0,29.88,M,6.21,M,FEW,M,M,M,2000,M,M,M,M,M,M,M,M,M,M,77,VVTS 032230Z 11004KT 9999 FEW020 25/22 Q1012 NOSIG,M
VVTS,3/3/2021 23:00,106.6667,10.8167,77,71.6,83.44,100,5,0,29.91,M,6.21,M,FEW,M,M,M,2000,M,M,M,M,M,M,M,M,M,M,77,VVTS 032300Z 10005KT 9999 FEW020 25/22 Q1013 NOSIG,M
VVTS,3/3/2021 23:30,106.6667,10.8167,77,71.6,83.44,90,4,0,29.91,M,6.21,M,SCT,M,M,M,2000,M,M,M,M,M,M,M,M,M,M,77,VVTS 032330Z 09004KT 9999 SCT020 25/22 Q1013 NOSIG,M
VVTS,3/4/2021 0:00,106.6667,10.8167,78.8,71.6,78.62,80,5,0,29.91,M,6.21,M,FEW,M,M,M,2000,M,M,M,M,M,M,M,M,M,M,78.8,VVTS 040000Z 08005KT 9999 FEW020 26/22 Q1013 NOSIG,M
VVTS,3/4/2021 0:30,106.6667,10.8167,80.6,71.6,74.11,80,5,0,29.94,M,6.21,M,FEW,M,M,M,2000,M,M,M,M,M,M,M,M,M,M,84.57,VVTS 040030Z 08005KT 9999 FEW020 27/22 Q1014 NOSIG,M
VVTS,3/4/2021 1:00,106.6667,10.8167,82.4,71.6,69.9,100,6,0,29.94,M,6.21,M,FEW,M,M,M,2000,M,M,M,M,M,M,M,M,M,M,87.18,VVTS 040100Z 10006KT 070V130 9999 FEW020 28/22 Q1014 NOSIG,M
VVTS,3/4/2021 1:30,106.6667,10.8167,82.4,69.8,65.74,90,8,0,29.94,M,6.21,M,FEW,M,M,M,2000,M,M,M,M,M,M,M,M,M,M,86.22,VVTS 040130Z 09008KT 9999 FEW020 28/21 Q1014 NOSIG,M
VVTS,3/4/2021 2:00,106.6667,10.8167,86,69.8,58.55,90,7,0,29.94,M,6.21,M,FEW,M,M,M,2300,M,M,M,M,M,M,M,M,M,M,90.58,VVTS 040200Z 09007KT 060V120 9999 FEW023 30/21 Q1014 NOSIG,M
VVTS,3/4/2021 2:30,106.6667,10.8167,87.8,68,51.98,80,7,0,29.94,M,6.21,M,FEW,M,M,M,2300,M,M,M,M,M,M,M,M,M,M,91.43,VVTS 040230Z 08007KT 040V120 9999 FEW023 31/20 Q1014 NOSIG,M
VVTS,3/4/2021 3:00,106.6667,10.8167,89.6,69.8,52.23,80,6,0,29.94,M,6.21,M,FEW,M,M,M,2300,M,M,M,M,M,M,M,M,M,M,94.85,VVTS 040300Z 08006KT 050V140 9999 FEW023 32/21 Q1014 NOSIG,M
VVTS,3/4/2021 3:30,106.6667,10.8167,89.6,66.2,46.14,100,6,0,29.91,M,6.21,M,FEW,M,M,M,2300,M,M,M,M,M,M,M,M,M,M,92.27,VVTS 040330Z 10006KT 040V130 9999 FEW023 32/19 Q1013 NOSIG,M
VVTS,3/4/2021 4:00,106.6667,10.8167,91.4,66.2,43.61,70,4,0,29.91,M,6.21,M,SCT,M,M,M,2000,M,M,M,M,M,M,M,M,M,M,94.29,VVTS 040400Z 07004KT 020V130 9999 SCT020 33/19 Q1013 NOSIG,M
VVTS,3/4/2021 4:30,106.6667,10.8167,93.2,66.2,41.23,M,5,0,29.88,M,6.21,M,SCT,M,M,M,2000,M,M,M,M,M,M,M,M,M,M,96.35,VVTS 040430Z VRB05KT 9999 SCT020 34/19 Q1012 NOSIG,M
VVTS,3/4/2021 5:00,106.6667,10.8167,93.2,66.2,41.23,M,5,0,29.88,M,6.21,M,SCT,M,M,M,2000,M,M,M,M,M,M,M,M,M,M,96.35,VVTS 040500Z VRB05KT 9999 SCT020 34/19 Q1012 NOSIG,M
VVTS,3/4/2021 5:30,106.6667,10.8167,95,64.4,36.63,M,5,0,29.85,M,6.21,18,SCT,M,M,M,2000,M,M,M,M,M,M,M,M,M,M,97.26,VVTS 040530Z VRB05G18KT 9999 SCT020 35/18 Q1011 NOSIG,M
VVTS,3/4/2021 6:00,106.6667,10.8167,93.2,64.4,38.73,M,5,0,29.85,M,6.21,M,SCT,M,M,M,2000,M,M,M,M,M,M,M,M,M,M,95.2,VVTS 040600Z VRB05KT 9999 SCT020 34/18 Q1011 NOSIG,M
VVTS,3/4/2021 6:30,106.6667,10.8167,95,64.4,36.63,60,5,0,29.83,M,6.21,M,SCT,M,M,M,2000,M,M,M,M,M,M,M,M,M,M,97.26,VVTS 040630Z 06005KT 230V300 9999 SCT020 35/18 Q1010 NOSIG,M
VVTS,3/4/2021 7:00,106.6667,10.8167,96.8,64.4,34.66,130,6,0,29.83,M,6.21,M,SCT,M,M,M,2000,M,M,M,M,M,M,M,M,M,M,99.37,VVTS 040700Z 13006KT 060V200 9999 SCT020 36/18 Q1010 NOSIG,M
VVTS,3/4/2021 7:30,106.6667,10.8167,95,68,41.5,180,10,0,29.8,M,6.21,M,SCT,M,M,M,2000,M,M,M,M,M,M,M,M,M,M,99.82,VVTS 040730Z 18010KT 110V240 9999 SCT020 35/20 Q1009 NOSIG,M
VVTS,3/4/2021 8:00,106.6667,10.8167,93.2,66.2,41.23,190,10,0,29.8,M,6.21,M,SCT,M,M,M,2000,M,M,M,M,M,M,M,M,M,M,96.35,VVTS 040800Z 19010KT 160V220 9999 SCT020 34/19 Q1009 NOSIG,M
VVTS,3/4/2021 8:30,106.6667,10.8167,93.2,66.2,41.23,180,10,0,29.8,M,6.21,M,SCT,M,M,M,2000,M,M,M,M,M,M,M,M,M,M,96.35,VVTS 040830Z 18010KT 140V210 9999 SCT020 34/19 Q1009 NOSIG,M
VVTS,3/4/2021 9:00,106.6667,10.8167,93.2,66.2,41.23,160,11,0,29.8,M,6.21,M,SCT,M,M,M,2000,M,M,M,M,M,M,M,M,M,M,96.35,VVTS 040900Z 16011KT 9999 SCT020 34/19 Q1009 NOSIG,M
VVTS,3/4/2021 9:30,106.6667,10.8167,91.4,64.4,40.96,160,11,0,29.8,M,6.21,M,FEW,M,M,M,2000,M,M,M,M,M,M,M,M,M,M,93.19,VVTS 040930Z 16011KT 130V190 9999 FEW020 33/18 Q1009 NOSIG,M
VVTS,3/4/2021 10:00,106.6667,10.8167,89.6,66.2,46.14,170,10,0,29.8,M,6.21,M,FEW,M,M,M,2000,M,M,M,M,M,M,M,M,M,M,92.27,VVTS 041000Z 17010KT 130V210 9999 FEW020 32/19 Q1009 NOSIG,M
VVTS,3/4/2021 10:30,106.6667,10.8167,89.6,68,49.1,150,8,0,29.83,M,6.21,M,FEW,M,M,M,2000,M,M,M,M,M,M,M,M,M,M,93.47,VVTS 041030Z 15008KT 110V180 9999 FEW020 32/20 Q1010 NOSIG,M
VVTS,3/4/2021 11:00,106.6667,10.8167,87.8,66.2,48.84,140,8,0,29.83,M,6.21,M,FEW,M,M,M,2000,M,M,M,M,M,M,M,M,M,M,90.31,VVTS 041100Z 14008KT 120V180 9999 FEW020 31/19 Q1010 NOSIG,M
VVTS,3/4/2021 11:30,106.6667,10.8167,86,66.2,51.72,140,11,0,29.83,M,6.21,M,FEW,M,M,M,2000,M,M,M,M,M,M,M,M,M,M,88.39,VVTS 041130Z 14011KT 9999 FEW020 30/19 Q1010 NOSIG,M
VVTS,3/4/2021 12:00,106.6667,10.8167,84.2,66.2,54.8,140,11,0,29.83,M,6.21,M,FEW,M,M,M,2000,M,M,M,M,M,M,M,M,M,M,86.5,VVTS 041200Z 14011KT 110V170 9999 FEW020 29/19 Q1010 NOSIG,M
VVTS,3/4/2021 12:30,106.6667,10.8167,84.2,66.2,54.8,140,11,0,29.85,M,6.21,M,FEW,M,M,M,1700,M,M,M,M,M,M,M,M,M,M,86.5,VVTS 041230Z 14011KT 110V180 9999 FEW017 29/19 Q1011 NOSIG,M
VVTS,3/4/2021 13:00,106.6667,10.8167,82.4,66.2,58.08,130,12,0,29.85,M,6.21,M,FEW,M,M,M,1700,M,M,M,M,M,M,M,M,M,M,84.63,VVTS 041300Z 13012KT 9999 FEW017 28/19 Q1011 NOSIG,M
VVTS,3/4/2021 13:30,106.6667,10.8167,82.4,66.2,58.08,130,8,0,29.88,M,6.21,M,FEW,M,M,M,1700,M,M,M,M,M,M,M,M,M,M,84.63,VVTS 041330Z 13008KT 9999 FEW017 28/19 Q1012 NOSIG,M
VVTS,3/4/2021 14:00,106.6667,10.8167,82.4,66.2,58.08,140,11,0,29.88,M,6.21,M,FEW,M,M,M,1700,M,M,M,M,M,M,M,M,M,M,84.63,VVTS 041400Z 14011KT 9999 FEW017 28/19 Q1012 NOSIG,M
VVTS,3/4/2021 14:30,106.6667,10.8167,82.4,68,61.81,130,11,0,29.88,M,6.21,23,FEW,M,M,M,1700,M,M,M,M,M,M,M,M,M,M,85.38,VVTS 041430Z 13011G23KT 100V160 9999 FEW017 28/20 Q1012 NOSIG,M
VVTS,3/4/2021 15:00,106.6667,10.8167,80.6,68,65.54,130,10,0,29.88,M,6.21,M,FEW,M,M,M,1700,M,M,M,M,M,M,M,M,M,M,83.29,VVTS 041500Z 13010KT 9999 FEW017 27/20 Q1012 NOSIG,M
VVTS,3/4/2021 15:30,106.6667,10.8167,80.6,68,65.54,140,11,0,29.88,M,6.21,M,FEW,M,M,M,1500,M,M,M,M,M,M,M,M,M,M,83.29,VVTS 041530Z 14011KT 9999 FEW015 27/20 Q1012 NOSIG,M
VVTS,3/4/2021 16:00,106.6667,10.8167,80.6,69.8,69.71,140,11,0,29.88,M,6.21,M,FEW,M,M,M,1500,M,M,M,M,M,M,M,M,M,M,83.9,VVTS 041600Z 14011KT 9999 FEW015 27/21 Q1012 NOSIG,M
VVTS,3/4/2021 16:30,106.6667,10.8167,80.6,69.8,69.71,130,12,0,29.88,M,6.21,M,FEW,M,M,M,1500,M,M,M,M,M,M,M,M,M,M,83.9,VVTS 041630Z 13012KT 9999 FEW015 27/21 Q1012 NOSIG,M
VVTS,3/4/2021 17:00,106.6667,10.8167,80.6,69.8,69.71,130,10,0,29.88,M,6.21,M,FEW,M,M,M,1500,M,M,M,M,M,M,M,M,M,M,83.9,VVTS 041700Z 13010KT 9999 FEW015 27/21 Q1012 NOSIG,M
VVTS,3/4/2021 17:30,106.6667,10.8167,78.8,69.8,73.95,130,7,0,29.88,M,6.21,M,FEW,M,M,M,1500,M,M,M,M,M,M,M,M,M,M,78.8,VVTS 041730Z 13007KT 110V170 9999 FEW015 26/21 Q1012 NOSIG,M
VVTS,3/4/2021 18:00,106.6667,10.8167,78.8,71.6,78.62,130,12,0,29.88,M,6.21,M,FEW,M,M,M,1500,M,M,M,M,M,M,M,M,M,M,78.8,VVTS 041800Z 13012KT 9999 FEW015 26/22 Q1012 NOSIG,M
VVTS,3/4/2021 18:30,106.6667,10.8167,78.8,71.6,78.62,130,11,0,29.85,M,6.21,M,FEW,M,M,M,2000,M,M,M,M,M,M,M,M,M,M,78.8,VVTS 041830Z 13011KT 9999 FEW020 26/22 Q1011 NOSIG,M
VVTS,3/4/2021 19:00,106.6667,10.8167,77,71.6,83.44,130,8,0,29.85,M,6.21,M,FEW,M,M,M,2000,M,M,M,M,M,M,M,M,M,M,77,VVTS 041900Z 13008KT 080V150 9999 FEW020 25/22 Q1011 NOSIG,M
VVTS,3/4/2021 19:30,106.6667,10.8167,77,71.6,83.44,130,11,0,29.85,M,6.21,M,FEW,M,M,M,2000,M,M,M,M,M,M,M,M,M,M,77,VVTS 041930Z 13011KT 9999 FEW020 25/22 Q1011 NOSIG,M
VVTS,3/4/2021 20:00,106.6667,10.8167,77,71.6,83.44,130,9,0,29.85,M,6.21,M,FEW,M,M,M,2000,M,M,M,M,M,M,M,M,M,M,77,VVTS 042000Z 13009KT 9999 FEW020 25/22 Q1011 NOSIG,M
VVTS,3/4/2021 20:30,106.6667,10.8167,77,71.6,83.44,130,9,0,29.85,M,6.21,M,FEW,M,M,M,2000,M,M,M,M,M,M,M,M,M,M,77,VVTS 042030Z 13009KT 9999 FEW020 25/22 Q1011 NOSIG,M
VVTS,3/4/2021 21:00,106.6667,10.8167,77,71.6,83.44,130,8,0,29.85,M,6.21,M,FEW,M,M,M,2000,M,M,M,M,M,M,M,M,M,M,77,VVTS 042100Z 13008KT 9999 FEW020 25/22 Q1011 NOSIG,M
VVTS,3/4/2021 21:30,106.6667,10.8167,77,71.6,83.44,120,6,0,29.85,M,6.21,M,FEW,M,M,M,1700,M,M,M,M,M,M,M,M,M,M,77,VVTS 042130Z 12006KT 090V150 9999 FEW017 25/22 Q1011 NOSIG,M
VVTS,3/4/2021 22:00,106.6667,10.8167,77,71.6,83.44,120,7,0,29.85,M,6.21,M,FEW,M,M,M,1700,M,M,M,M,M,M,M,M,M,M,77,VVTS 042200Z 12007KT 9999 FEW017 25/22 Q1011 NOSIG,M
VVTS,3/4/2021 22:30,106.6667,10.8167,75.2,69.8,83.32,110,7,0,29.85,M,6.21,M,FEW,M,M,M,1700,M,M,M,M,M,M,M,M,M,M,75.2,VVTS 042230Z 11007KT 9999 FEW017 24/21 Q1011 NOSIG,M
VVTS,3/4/2021 23:00,106.6667,10.8167,75.2,69.8,83.32,120,6,0,29.85,M,6.21,M,FEW,M,M,M,1700,M,M,M,M,M,M,M,M,M,M,75.2,VVTS 042300Z 12006KT 9999 FEW017 24/21 Q1011 NOSIG,M
VVTS,3/4/2021 23:30,106.6667,10.8167,77,69.8,78.48,100,9,0,29.88,M,6.21,M,FEW,M,M,M,1700,M,M,M,M,M,M,M,M,M,M,77,VVTS 042330Z 10009KT 9999 FEW017 25/21 Q1012 NOSIG,M
VVTS,3/5/2021 0:00,106.6667,10.8167,78.8,69.8,73.95,110,9,0,29.88,M,6.21,M,FEW,M,M,M,1700,M,M,M,M,M,M,M,M,M,M,78.8,VVTS 050000Z 11009KT 9999 FEW017 26/21 Q1012 NOSIG,M
VVTS,3/5/2021 0:30,106.6667,10.8167,80.6,68,65.54,110,7,0,29.88,M,6.21,M,FEW,M,M,M,1700,M,M,M,M,M,M,M,M,M,M,83.29,VVTS 050030Z 11007KT 9999 FEW017 27/20 Q1012 NOSIG,M
VVTS,3/5/2021 1:00,106.6667,10.8167,82.4,68,61.81,110,9,0,29.91,M,6.21,M,FEW,M,M,M,1700,M,M,M,M,M,M,M,M,M,M,85.38,VVTS 050100Z 11009KT 080V150 9999 FEW017 28/20 Q1013 NOSIG,M
VVTS,3/5/2021 1:30,106.6667,10.8167,84.2,64.4,51.47,100,10,0,29.91,M,6.21,M,FEW,M,M,M,1700,M,M,M,M,M,M,M,M,M,M,85.71,VVTS 050130Z 10010KT 080V140 9999 FEW017 29/18 Q1013 NOSIG,M
VVTS,3/5/2021 2:00,106.6667,10.8167,86,62.6,45.61,120,10,0,29.91,M,6.21,M,FEW,M,M,M,1700,M,M,M,M,M,M,M,M,M,M,86.72,VVTS 050200Z 12010KT 080V150 9999 FEW017 30/17 Q1013 NOSIG,M
VVTS,3/5/2021 2:30,106.6667,10.8167,87.8,62.6,43.07,110,10,0,29.91,M,6.21,M,FEW,M,M,M,1700,M,M,M,M,M,M,M,M,M,M,88.48,VVTS 050230Z 11010KT 080V140 9999 FEW017 31/17 Q1013 NOSIG,M
VVTS,3/5/2021 3:00,106.6667,10.8167,89.6,60.8,38.18,90,11,0,29.91,M,6.21,M,FEW,M,M,M,1700,M,M,M,M,M,M,M,M,M,M,89.54,VVTS 050300Z 09011KT 9999 FEW017 32/16 Q1013 NOSIG,M
VVTS,3/5/2021 3:30,106.6667,10.8167,89.6,59,35.81,100,10,0,29.91,M,6.21,M,FEW,M,M,M,2000,M,M,M,M,M,M,M,M,M,M,88.86,VVTS 050330Z 10010KT 070V160 9999 FEW020 32/15 Q1013 NOSIG,M
VVTS,3/5/2021 4:00,106.6667,10.8167,91.4,59,33.84,80,8,0,29.88,M,6.21,M,FEW,M,M,M,2000,M,M,M,M,M,M,M,M,M,M,90.68,VVTS 050400Z 08008KT 050V130 9999 FEW020 33/15 Q1012 NOSIG,M
VVTS,3/5/2021 4:30,106.6667,10.8167,91.4,57.2,31.72,M,6,0,29.88,M,6.21,M,FEW,M,M,M,2000,M,M,M,M,M,M,M,M,M,M,90.06,VVTS 050430Z VRB06KT 9999 FEW020 33/14 Q1012 NOSIG,M
VVTS,3/5/2021 5:00,106.6667,10.8167,93.2,57.2,29.99,140,6,0,29.85,M,6.21,M,FEW,M,M,M,2000,M,M,M,M,M,M,M,M,M,M,91.91,VVTS 050500Z 14006KT 100V200 9999 FEW020 34/14 Q1011 NOSIG,M
VVTS,3/5/2021 5:30,106.6667,10.8167,95,53.6,24.89,110,8,0,29.85,M,6.21,M,FEW,M,M,M,2000,M,M,M,M,M,M,M,M,M,M,92.71,VVTS 050530Z 11008KT 080V150 9999 FEW020 35/12 Q1011 NOSIG,M
VVTS,3/5/2021 6:00,106.6667,10.8167,96.8,55.4,25.15,120,6,0,29.83,M,6.21,M,FEW,M,M,M,2000,M,M,M,M,M,M,M,M,M,M,95.14,VVTS 050600Z 12006KT 050V190 9999 FEW020 36/13 Q1010 NOSIG,M
VVTS,3/5/2021 6:30,106.6667,10.8167,96.8,53.6,23.55,160,9,0,29.83,M,6.21,M,M,M,M,M,M,M,M,M,M,M,M,M,M,M,M,94.59,VVTS 050630Z 16009KT 130V210 CAVOK 36/12 Q1010 NOSIG,M
VVTS,3/5/2021 7:00,106.6667,10.8167,93.2,60.8,34.11,160,11,0,29.83,M,6.21,M,M,M,M,M,M,M,M,M,M,M,M,M,M,M,M,93.32,VVTS 050700Z 16011KT 130V200 CAVOK 34/16 Q1010 NOSIG,M
VVTS,3/5/2021 7:30,106.6667,10.8167,93.2,62.6,36.35,180,10,0,29.8,M,6.21,M,M,M,M,M,M,M,M,M,M,M,M,M,M,M,M,94.2,VVTS 050730Z 18010KT 130V220 CAVOK 34/17 Q1009 NOSIG,M
VVTS,3/5/2021 8:00,106.6667,10.8167,91.4,62.6,38.45,190,12,0,29.8,M,6.21,M,M,M,M,M,M,M,M,M,M,M,M,M,M,M,M,92.23,VVTS 050800Z 19012KT 140V210 CAVOK 33/17 Q1009 NOSIG,M
VVTS,3/5/2021 8:30,106.6667,10.8167,91.4,62.6,38.45,170,12,0,29.8,M,6.21,M,M,M,M,M,M,M,M,M,M,M,M,M,M,M,M,92.23,VVTS 050830Z 17012KT 140V210 CAVOK 33/17 Q1009 NOSIG,M
VVTS,3/5/2021 9:00,106.6667,10.8167,91.4,60.8,36.08,170,11,0,29.8,M,6.21,M,M,M,M,M,M,M,M,M,M,M,M,M,M,M,M,91.4,VVTS 050900Z 17011KT 140V210 CAVOK 33/16 Q1009 NOSIG,M
VVTS,3/5/2021 9:30,106.6667,10.8167,87.8,62.6,43.07,140,14,0,29.83,M,6.21,M,M,M,M,M,M,M,M,M,M,M,M,M,M,M,M,88.48,VVTS 050930Z 14014KT CAVOK 31/17 Q1010 NOSIG,M
VVTS,3/5/2021 10:00,106.6667,10.8167,87.8,64.4,45.88,170,11,0,29.83,M,6.21,M,M,M,M,M,M,M,M,M,M,M,M,M,M,M,M,89.33,VVTS 051000Z 17011KT CAVOK 31/18 Q1010 NOSIG,M
VVTS,3/5/2021 10:30,106.6667,10.8167,86,64.4,48.58,150,11,0,29.83,M,6.21,M,M,M,M,M,M,M,M,M,M,M,M,M,M,M,M,87.49,VVTS 051030Z 15011KT 130V190 CAVOK 30/18 Q1010 NOSIG,M
VVTS,3/5/2021 11:00,106.6667,10.8167,84.2,66.2,54.8,150,12,0,29.83,M,6.21,M,FEW,M,M,M,2000,M,M,M,M,M,M,M,M,M,M,86.5,VVTS 051100Z 15012KT 120V180 9999 FEW020 29/19 Q1010 NOSIG,M
VVTS,3/5/2021 11:30,106.6667,10.8167,82.4,66.2,58.08,140,12,0,29.85,M,6.21,M,FEW,M,M,M,2000,M,M,M,M,M,M,M,M,M,M,84.63,VVTS 051130Z 14012KT 110V170 9999 FEW020 28/19 Q1011 NOSIG,M
VVTS,3/5/2021 12:00,106.6667,10.8167,82.4,68,61.81,140,13,0,29.85,M,6.21,M,FEW,M,M,M,2000,M,M,M,M,M,M,M,M,M,M,85.38,VVTS 051200Z 14013KT 9999 FEW020 28/20 Q1011 NOSIG,M
VVTS,3/5/2021 12:30,106.6667,10.8167,82.4,68,61.81,140,11,0,29.85,M,6.21,M,FEW,M,M,M,2000,M,M,M,M,M,M,M,M,M,M,85.38,VVTS 051230Z 14011KT 100V160 9999 FEW020 28/20 Q1011 NOSIG,M
VVTS,3/5/2021 13:00,106.6667,10.8167,80.6,68,65.54,130,10,0,29.88,M,6.21,M,FEW,M,M,M,2000,M,M,M,M,M,M,M,M,M,M,83.29,VVTS 051300Z 13010KT 9999 FEW020 27/20 Q1012 NOSIG,M
VVTS,3/5/2021 13:30,106.6667,10.8167,80.6,68,65.54,130,10,0,29.88,M,6.21,M,FEW,M,M,M,2000,M,M,M,M,M,M,M,M,M,M,83.29,VVTS 051330Z 13010KT 9999 FEW020 27/20 Q1012 NOSIG,M
VVTS,3/5/2021 14:00,106.6667,10.8167,80.6,68,65.54,130,10,0,29.88,M,6.21,M,FEW,M,M,M,2000,M,M,M,M,M,M,M,M,M,M,83.29,VVTS 051400Z 13010KT 090V150 9999 FEW020 27/20 Q1012 NOSIG,M
VVTS,3/5/2021 14:30,106.6667,10.8167,80.6,68,65.54,120,8,0,29.88,M,6.21,M,FEW,M,M,M,2000,M,M,M,M,M,M,M,M,M,M,83.29,VVTS 051430Z 12008KT 090V150 9999 FEW020 27/20 Q1012 NOSIG,M
VVTS,3/5/2021 15:00,106.6667,10.8167,78.8,69.8,73.95,130,6,0,29.88,M,6.21,M,FEW,M,M,M,2000,M,M,M,M,M,M,M,M,M,M,78.8,VVTS 051500Z 13006KT 090V160 9999 FEW020 26/21 Q1012 NOSIG,M
VVTS,3/5/2021 15:30,106.6667,10.8167,78.8,69.8,73.95,120,8,0,29.91,M,6.21,M,FEW,M,M,M,2000,M,M,M,M,M,M,M,M,M,M,78.8,VVTS 051530Z 12008KT 080V160 9999 FEW020 26/21 Q1013 NOSIG,M
VVTS,3/5/2021 16:00,106.6667,10.8167,78.8,69.8,73.95,140,4,0,29.91,M,6.21,M,FEW,M,M,M,2000,M,M,M,M,M,M,M,M,M,M,78.8,VVTS 051600Z 14004KT 090V180 9999 FEW020 26/21 Q1013 NOSIG,M
VVTS,3/5/2021 16:30,106.6667,10.8167,78.8,69.8,73.95,150,5,0,29.91,M,6.21,M,FEW,M,M,M,2000,M,M,M,M,M,M,M,M,M,M,78.8,VVTS 051630Z 15005KT 9999 FEW020 26/21 Q1013 NOSIG,M
VVTS,3/5/2021 17:00,106.6667,10.8167,78.8,69.8,73.95,140,6,0,29.91,M,6.21,M,FEW,M,M,M,2000,M,M,M,M,M,M,M,M,M,M,78.8,VVTS 051700Z 14006KT 110V180 9999 FEW020 26/21 Q1013 NOSIG,M
VVTS,3/5/2021 17:30,106.6667,10.8167,78.8,69.8,73.95,140,6,0,29.91,M,6.21,M,FEW,M,M,M,2000,M,M,M,M,M,M,M,M,M,M,78.8,VVTS 051730Z 14006KT 9999 FEW020 26/21 Q1013 NOSIG,M
VVTS,3/5/2021 18:00,106.6667,10.8167,78.8,69.8,73.95,130,5,0,29.88,M,6.21,M,FEW,M,M,M,2000,M,M,M,M,M,M,M,M,M,M,78.8,VVTS 051800Z 13005KT 100V180 9999 FEW020 26/21 Q1012 NOSIG,M
VVTS,3/5/2021 18:30,106.6667,10.8167,77,69.8,78.48,150,4,0,29.88,M,6.21,M,FEW,M,M,M,2000,M,M,M,M,M,M,M,M,M,M,77,VVTS 051830Z 15004KT 120V180 9999 FEW020 25/21 Q1012 NOSIG,M
VVTS,3/5/2021 19:00,106.6667,10.8167,77,68,73.78,130,4,0,29.88,M,6.21,M,FEW,M,M,M,2000,M,M,M,M,M,M,M,M,M,M,77,VVTS 051900Z 13004KT 9999 FEW020 25/20 Q1012 NOSIG,M
VVTS,3/5/2021 19:30,106.6667,10.8167,77,68,73.78,130,4,0,29.88,M,6.21,M,FEW,M,M,M,2000,M,M,M,M,M,M,M,M,M,M,77,VVTS 051930Z 13004KT 9999 FEW020 25/20 Q1012 NOSIG,M
VVTS,3/5/2021 20:00,106.6667,10.8167,77,68,73.78,M,3,0,29.88,M,6.21,M,FEW,M,M,M,2000,M,M,M,M,M,M,M,M,M,M,77,VVTS 052000Z VRB03KT 9999 FEW020 25/20 Q1012 NOSIG,M
VVTS,3/5/2021 20:30,106.6667,10.8167,77,68,73.78,90,5,0,29.88,M,6.21,M,FEW,M,M,M,2000,M,M,M,M,M,M,M,M,M,M,77,VVTS 052030Z 09005KT 060V120 9999 FEW020 25/20 Q1012 NOSIG,M
VVTS,3/5/2021 21:00,106.6667,10.8167,73.4,68,83.21,M,1,0,29.88,M,6.21,M,FEW,M,M,M,2000,M,M,M,M,M,M,M,M,M,M,73.4,VVTS 052100Z VRB01KT 9999 FEW020 23/20 Q1012 NOSIG,M
VVTS,3/5/2021 21:30,106.6667,10.8167,75.2,68,78.34,M,1,0,29.88,M,6.21,M,FEW,M,M,M,2000,M,M,M,M,M,M,M,M,M,M,75.2,VVTS 052130Z VRB01KT 9999 FEW020 24/20 Q1012 NOSIG,M
VVTS,3/5/2021 22:00,106.6667,10.8167,75.2,69.8,83.32,90,4,0,29.88,M,6.21,M,FEW,M,M,M,2000,M,M,M,M,M,M,M,M,M,M,75.2,VVTS 052200Z 09004KT 9999 FEW020 24/21 Q1012 NOSIG,M
VVTS,3/5/2021 22:30,106.6667,10.8167,73.4,69.8,88.51,M,3,0,29.91,M,6.21,M,FEW,M,M,M,2000,M,M,M,M,M,M,M,M,M,M,73.4,VVTS 052230Z VRB03KT 9999 FEW020 23/21 Q1013 NOSIG,M
VVTS,3/5/2021 23:00,106.6667,10.8167,75.2,69.8,83.32,90,3,0,29.91,M,4.97,M,FEW,M,M,M,2000,M,M,M,M,M,M,M,M,M,M,75.2,VVTS 052300Z 09003KT 8000 FEW020 24/21 Q1013 NOSIG,M
VVTS,3/5/2021 23:30,106.6667,10.8167,73.4,69.8,88.51,M,1,0,29.91,M,4.97,M,FEW,M,M,M,2000,M,M,M,M,M,M,M,M,M,M,73.4,VVTS 052330Z VRB01KT 8000 FEW020 23/21 Q1013 NOSIG,M
VVTS,3/6/2021 0:00,106.6667,10.8167,78.8,69.8,73.95,M,2,0,29.94,M,4.97,M,FEW,M,M,M,2000,M,M,M,M,M,M,M,M,M,M,78.8,VVTS 060000Z VRB02KT 8000 FEW020 26/21 Q1014 NOSIG,M
VVTS,3/6/2021 0:30,106.6667,10.8167,80.6,68,65.54,M,3,0,29.94,M,4.97,M,FEW,M,M,M,2000,M,M,M,M,M,M,M,M,M,M,83.29,VVTS 060030Z VRB03KT 8000 FEW020 27/20 Q1014 NOSIG,M
VVTS,3/6/2021 1:00,106.6667,10.8167,82.4,68,61.81,110,6,0,29.94,M,6.21,M,M,M,M,M,M,M,M,M,M,M,M,M,M,M,M,85.38,VVTS 060100Z 11006KT 080V150 CAVOK 28/20 Q1014 NOSIG,M
VVTS,3/6/2021 1:30,106.6667,10.8167,84.2,68,58.32,110,8,0,29.94,M,6.21,M,M,M,M,M,M,M,M,M,M,M,M,M,M,M,M,87.4,VVTS 060130Z 11008KT 070V150 CAVOK 29/20 Q1014 NOSIG,M
VVTS,3/6/2021 2:00,106.6667,10.8167,84.2,66.2,54.8,100,7,0,29.97,M,6.21,M,M,M,M,M,M,M,M,M,M,M,M,M,M,M,M,86.5,VVTS 060200Z 10007KT 070V140 CAVOK 29/19 Q1015 NOSIG,M
VVTS,3/6/2021 2:30,106.6667,10.8167,86,66.2,51.72,110,9,0,29.97,M,6.21,M,M,M,M,M,M,M,M,M,M,M,M,M,M,M,M,88.39,VVTS 060230Z 11009KT 070V140 CAVOK 30/19 Q1015 NOSIG,M
VVTS,3/6/2021 3:00,106.6667,10.8167,87.8,66.2,48.84,130,7,0,29.94,M,6.21,M,M,M,M,M,M,M,M,M,M,M,M,M,M,M,M,90.31,VVTS 060300Z 13007KT 090V160 CAVOK 31/19 Q1014 NOSIG,M
VVTS,3/6/2021 3:30,106.6667,10.8167,87.8,66.2,48.84,90,9,0,29.94,M,6.21,M,M,M,M,M,M,M,M,M,M,M,M,M,M,M,M,90.31,VVTS 060330Z 09009KT 060V140 CAVOK 31/19 Q1014 NOSIG,M
VVTS,3/6/2021 4:00,106.6667,10.8167,89.6,66.2,46.14,100,7,0,29.94,M,6.21,M,M,M,M,M,M,M,M,M,M,M,M,M,M,M,M,92.27,VVTS 060400Z 10007KT 040V150 CAVOK 32/19 Q1014 NOSIG,M
VVTS,3/6/2021 4:30,106.6667,10.8167,89.6,64.4,43.34,60,7,0,29.91,M,6.21,M,M,M,M,M,M,M,M,M,M,M,M,M,M,M,M,91.23,VVTS 060430Z 06007KT 020V130 CAVOK 32/18 Q1013 NOSIG,M
VVTS,3/6/2021 5:00,106.6667,10.8167,93.2,64.4,38.73,90,4,0,29.91,M,6.21,M,M,M,M,M,M,M,M,M,M,M,M,M,M,M,M,95.2,VVTS 060500Z 09004KT CAVOK 34/18 Q1013 NOSIG,M
VVTS,3/6/2021 5:30,106.6667,10.8167,93.2,64.4,38.73,90,5,0,29.88,M,6.21,M,FEW,M,M,M,2000,M,M,M,M,M,M,M,M,M,M,95.2,VVTS 060530Z 09005KT 350V140 9999 FEW020 34/18 Q1012 NOSIG,M
VVTS,3/6/2021 6:00,106.6667,10.8167,93.2,62.6,36.35,290,4,0,29.85,M,6.21,M,SCT,M,M,M,2000,M,M,M,M,M,M,M,M,M,M,94.2,VVTS 060600Z 29004KT 9999 SCT020 34/17 Q1011 NOSIG,M
VVTS,3/6/2021 6:30,106.6667,10.8167,93.2,62.6,36.35,40,5,0,29.85,M,6.21,M,SCT,M,M,M,2000,M,M,M,M,M,M,M,M,M,M,94.2,VVTS 060630Z 04005KT 350V110 9999 SCT020 34/17 Q1011 NOSIG,M
VVTS,3/6/2021 7:00,106.6667,10.8167,95,62.6,34.39,210,2,0,29.83,M,6.21,M,SCT,M,M,M,2000,M,M,M,M,M,M,M,M,M,M,96.22,VVTS 060700Z 21002KT 9999 SCT020 35/17 Q1010 NOSIG,M
VVTS,3/6/2021 7:30,106.6667,10.8167,95,60.8,32.27,M,5,0,29.83,M,6.21,M,SCT,M,M,M,2000,M,M,M,M,M,M,M,M,M,M,95.3,VVTS 060730Z VRB05KT 9999 SCT020 35/16 Q1010 NOSIG,M
VVTS,3/6/2021 8:00,106.6667,10.8167,93.2,66.2,41.23,160,7,0,29.8,M,6.21,M,SCT,M,M,M,2000,M,M,M,M,M,M,M,M,M,M,96.35,VVTS 060800Z 16007KT 110V190 9999 SCT020 34/19 Q1009 NOSIG,M
VVTS,3/6/2021 8:30,106.6667,10.8167,95,64.4,36.63,150,9,0,29.8,M,6.21,M,SCT,M,M,M,2000,M,M,M,M,M,M,M,M,M,M,97.26,VVTS 060830Z 15009KT 130V190 9999 SCT020 35/18 Q1009 NOSIG,M
VVTS,3/6/2021 9:00,106.6667,10.8167,93.2,66.2,41.23,160,8,0,29.8,M,6.21,M,FEW,M,M,M,2000,M,M,M,M,M,M,M,M,M,M,96.35,VVTS 060900Z 16008KT 120V210 9999 FEW020 34/19 Q1009 NOSIG,M
VVTS,3/6/2021 9:30,106.6667,10.8167,91.4,66.2,43.61,170,8,0,29.8,M,6.21,M,FEW,M,M,M,2000,M,M,M,M,M,M,M,M,M,M,94.29,VVTS 060930Z 17008KT 140V210 9999 FEW020 33/19 Q1009 NOSIG,M
VVTS,3/6/2021 10:00,106.6667,10.8167,89.6,64.4,43.34,180,10,0,29.8,M,6.21,M,M,M,M,M,M,M,M,M,M,M,M,M,M,M,M,91.23,VVTS 061000Z 18010KT 140V210 CAVOK 32/18 Q1009 NOSIG,M
VVTS,3/6/2021 10:30,106.6667,10.8167,87.8,64.4,45.88,150,11,0,29.83,M,6.21,M,M,M,M,M,M,M,M,M,M,M,M,M,M,M,M,89.33,VVTS 061030Z 15011KT CAVOK 31/18 Q1010 NOSIG,M
VVTS,3/6/2021 11:00,106.6667,10.8167,86,64.4,48.58,170,9,0,29.83,M,6.21,M,M,M,M,M,M,M,M,M,M,M,M,M,M,M,M,87.49,VVTS 061100Z 17009KT 140V200 CAVOK 30/18 Q1010 NOSIG,M
VVTS,3/6/2021 11:30,106.6667,10.8167,84.2,64.4,51.47,160,8,0,29.83,M,6.21,M,M,M,M,M,M,M,M,M,M,M,M,M,M,M,M,85.71,VVTS 061130Z 16008KT 130V190 CAVOK 29/18 Q1010 NOSIG,M
VVTS,3/6/2021 12:00,106.6667,10.8167,84.2,68,58.32,160,9,0,29.83,M,6.21,M,M,M,M,M,M,M,M,M,M,M,M,M,M,M,M,87.4,VVTS 061200Z 16009KT 130V190 CAVOK 29/20 Q1010 NOSIG,M
VVTS,3/6/2021 12:30,106.6667,10.8167,84.2,68,58.32,150,6,0,29.85,M,6.21,M,FEW,M,M,M,2000,M,M,M,M,M,M,M,M,M,M,87.4,VVTS 061230Z 15006KT 120V200 9999 FEW020 29/20 Q1011 NOSIG,M
VVTS,3/6/2021 13:00,106.6667,10.8167,82.4,68,61.81,150,5,0,29.85,M,6.21,M,FEW,M,M,M,2000,M,M,M,M,M,M,M,M,M,M,85.38,VVTS 061300Z 15005KT 120V190 9999 FEW020 28/20 Q1011 NOSIG,M
VVTS,3/6/2021 13:30,106.6667,10.8167,82.4,69.8,65.74,150,7,0,29.85,M,6.21,M,FEW,M,M,M,2000,M,M,M,M,M,M,M,M,M,M,86.22,VVTS 061330Z 15007KT 110V170 9999 FEW020 28/21 Q1011 NOSIG,M
VVTS,3/6/2021 14:00,106.6667,10.8167,82.4,71.6,69.9,140,8,0,29.88,M,6.21,M,FEW,M,M,M,2000,M,M,M,M,M,M,M,M,M,M,87.18,VVTS 061400Z 14008KT 9999 FEW020 28/22 Q1012 NOSIG,M
VVTS,3/6/2021 14:30,106.6667,10.8167,80.6,71.6,74.11,120,7,0,29.88,M,6.21,M,FEW,M,M,M,2000,M,M,M,M,M,M,M,M,M,M,84.57,VVTS 061430Z 12007KT 090V150 9999 FEW020 27/22 Q1012 NOSIG,M
VVTS,3/6/2021 15:00,106.6667,10.8167,80.6,73.4,78.76,120,5,0,29.88,M,6.21,M,FEW,M,M,M,2000,M,M,M,M,M,M,M,M,M,M,85.32,VVTS 061500Z 12005KT 9999 FEW020 27/23 Q1012 NOSIG,M
VVTS,3/6/2021 15:30,106.6667,10.8167,80.6,71.6,74.11,130,5,0,29.88,M,6.21,M,FEW,M,M,M,2000,M,M,M,M,M,M,M,M,M,M,84.57,VVTS 061530Z 13005KT 090V190 9999 FEW020 27/22 Q1012 NOSIG,M
VVTS,3/6/2021 16:00,106.6667,10.8167,80.6,71.6,74.11,130,8,0,29.88,M,6.21,M,FEW,M,M,M,2000,M,M,M,M,M,M,M,M,M,M,84.57,VVTS 061600Z 13008KT 9999 FEW020 27/22 Q1012 NOSIG,M
VVTS,3/6/2021 16:30,106.6667,10.8167,80.6,71.6,74.11,140,9,0,29.88,M,6.21,M,FEW,M,M,M,2000,M,M,M,M,M,M,M,M,M,M,84.57,VVTS 061630Z 14009KT 9999 FEW020 27/22 Q1012 NOSIG,M
VVTS,3/6/2021 17:00,106.6667,10.8167,80.6,71.6,74.11,140,8,0,29.88,M,6.21,M,FEW,M,M,M,2000,M,M,M,M,M,M,M,M,M,M,84.57,VVTS 061700Z 14008KT 110V170 9999 FEW020 27/22 Q1012 NOSIG,M
VVTS,3/6/2021 17:30,106.6667,10.8167,78.8,71.6,78.62,140,7,0,29.85,M,6.21,M,FEW,M,M,M,2000,M,M,M,M,M,M,M,M,M,M,78.8,VVTS 061730Z 14007KT 110V180 9999 FEW020 26/22 Q1011 NOSIG,M
VVTS,3/6/2021 18:00,106.6667,10.8167,80.6,71.6,74.11,140,5,0,29.85,M,6.21,M,FEW,M,M,M,2000,M,M,M,M,M,M,M,M,M,M,84.57,VVTS 061800Z 14005KT 110V180 9999 FEW020 27/22 Q1011 NOSIG,M
VVTS,3/6/2021 18:30,106.6667,10.8167,78.8,73.4,83.55,120,6,0,29.85,M,6.21,M,FEW,M,M,M,2000,M,M,M,M,M,M,M,M,M,M,78.8,VVTS 061830Z 12006KT 9999 FEW020 26/23 Q1011 NOSIG,M
VVTS,3/6/2021 19:00,106.6667,10.8167,78.8,73.4,83.55,130,5,0,29.83,M,6.21,M,FEW,M,M,M,2000,M,M,M,M,M,M,M,M,M,M,78.8,VVTS 061900Z 13005KT 9999 FEW020 26/23 Q1010 NOSIG,M
VVTS,3/6/2021 19:30,106.6667,10.8167,78.8,71.6,78.62,130,6,0,29.83,M,6.21,M,FEW,M,M,M,2000,M,M,M,M,M,M,M,M,M,M,78.8,VVTS 061930Z 13006KT 9999 FEW020 26/22 Q1010 NOSIG,M
VVTS,3/6/2021 20:00,106.6667,10.8167,78.8,71.6,78.62,140,10,0,29.83,M,6.21,M,FEW,M,M,M,2000,M,M,M,M,M,M,M,M,M,M,78.8,VVTS 062000Z 14010KT 9999 FEW020 26/22 Q1010 NOSIG,M
VVTS,3/6/2021 20:30,106.6667,10.8167,78.8,71.6,78.62,130,8,0,29.83,M,6.21,M,FEW,M,M,M,2000,M,M,M,M,M,M,M,M,M,M,78.8,VVTS 062030Z 13008KT 9999 FEW020 26/22 Q1010 NOSIG,M
VVTS,3/6/2021 21:00,106.6667,10.8167,77,73.4,88.67,140,10,0,29.83,M,6.21,M,FEW,M,M,M,1700,M,M,M,M,M,M,M,M,M,M,77,VVTS 062100Z 14010KT 9999 FEW017 25/23 Q1010 NOSIG,M
VVTS,3/6/2021 21:30,106.6667,10.8167,77,73.4,88.67,120,7,0,29.83,M,6.21,M,FEW,M,M,M,1700,M,M,M,M,M,M,M,M,M,M,77,VVTS 062130Z 12007KT 9999 FEW017 25/23 Q1010 NOSIG,M
VVTS,3/6/2021 22:00,106.6667,10.8167,77,73.4,88.67,130,8,0,29.85,M,6.21,M,FEW,M,M,M,1700,M,M,M,M,M,M,M,M,M,M,77,VVTS 062200Z 13008KT 9999 FEW017 25/23 Q1011 NOSIG,M
VVTS,3/6/2021 22:30,106.6667,10.8167,77,73.4,88.67,130,9,0,29.85,M,6.21,M,FEW,M,M,M,1700,M,M,M,M,M,M,M,M,M,M,77,VVTS 062230Z 13009KT 9999 FEW017 25/23 Q1011 NOSIG,M
VVTS,3/6/2021 23:00,106.6667,10.8167,77,73.4,88.67,130,7,0,29.85,M,6.21,M,FEW,M,M,M,1700,M,M,M,M,M,M,M,M,M,M,77,VVTS 062300Z 13007KT 110V170 9999 FEW017 25/23 Q1011 NOSIG,M
VVTS,3/6/2021 23:30,106.6667,10.8167,77,73.4,88.67,120,8,0,29.85,M,6.21,M,FEW,M,M,M,1700,M,M,M,M,M,M,M,M,M,M,77,VVTS 062330Z 12008KT 090V150 9999 FEW017 25/23 Q1011 NOSIG,M
VVTS,3/7/2021 0:00,106.6667,10.8167,78.8,73.4,83.55,110,9,0,29.88,M,6.21,M,FEW,M,M,M,1700,M,M,M,M,M,M,M,M,M,M,78.8,VVTS 070000Z 11009KT 9999 FEW017 26/23 Q1012 NOSIG,M
VVTS,3/7/2021 0:30,106.6667,10.8167,78.8,73.4,83.55,110,12,0,29.88,M,6.21,M,FEW,M,M,M,2000,M,M,M,M,M,M,M,M,M,M,78.8,VVTS 070030Z 11012KT 9999 FEW020 26/23 Q1012 NOSIG,M
VVTS,3/7/2021 1:00,106.6667,10.8167,82.4,71.6,69.9,110,11,0,29.88,M,6.21,M,FEW,M,M,M,2000,M,M,M,M,M,M,M,M,M,M,87.18,VVTS 070100Z 11011KT 9999 FEW020 28/22 Q1012 NOSIG,M
VVTS,3/7/2021 1:30,106.6667,10.8167,82.4,71.6,69.9,130,10,0,29.91,M,6.21,M,FEW,M,M,M,2000,M,M,M,M,M,M,M,M,M,M,87.18,VVTS 070130Z 13010KT 090V150 9999 FEW020 28/22 Q1013 NOSIG,M
VVTS,3/7/2021 2:00,106.6667,10.8167,84.2,71.6,65.95,120,7,0,29.91,M,6.21,M,FEW,M,M,M,2000,M,M,M,M,M,M,M,M,M,M,89.6,VVTS 070200Z 12007KT 080V170 9999 FEW020 29/22 Q1013 NOSIG,M
VVTS,3/7/2021 2:30,106.6667,10.8167,87.8,71.6,58.78,120,7,0,29.91,M,6.21,M,FEW,M,M,M,2000,M,M,M,M,M,M,M,M,M,M,94.18,VVTS 070230Z 12007KT 080V160 9999 FEW020 31/22 Q1013 NOSIG,M
VVTS,3/7/2021 3:00,106.6667,10.8167,87.8,71.6,58.78,110,6,0,29.91,M,6.21,M,FEW,M,M,M,2300,M,M,M,M,M,M,M,M,M,M,94.18,VVTS 070300Z 11006KT 070V140 9999 FEW023 31/22 Q1013 NOSIG,M
VVTS,3/7/2021 3:30,106.6667,10.8167,89.6,69.8,52.23,100,4,0,29.91,M,6.21,M,FEW,M,M,M,2300,M,M,M,M,M,M,M,M,M,M,94.85,VVTS 070330Z 10004KT 090V220 9999 FEW023 32/21 Q1013 NOSIG,M
VVTS,3/7/2021 4:00,106.6667,10.8167,89.6,69.8,52.23,M,2,0,29.91,M,6.21,M,FEW,M,M,M,2300,M,M,M,M,M,M,M,M,M,M,94.85,VVTS 070400Z VRB02KT 9999 FEW023 32/21 Q1013 NOSIG,M
VVTS,3/7/2021 4:30,106.6667,10.8167,91.4,69.8,49.36,180,5,0,29.88,M,6.21,M,FEW,M,M,M,2300,M,M,M,M,M,M,M,M,M,M,96.99,VVTS 070430Z 18005KT 120V250 9999 FEW023 33/21 Q1012 NOSIG,M
VVTS,3/7/2021 5:00,106.6667,10.8167,91.4,68,46.41,170,5,0,29.85,M,6.21,M,FEW,M,M,M,2300,M,M,M,M,M,M,M,M,M,M,95.55,VVTS 070500Z 17005KT 080V220 9999 FEW023 33/20 Q1011 NOSIG,M
VVTS,3/7/2021 5:30,106.6667,10.8167,93.2,66.2,41.23,M,2,0,29.85,M,6.21,M,FEW,M,M,M,2300,M,M,M,M,M,M,M,M,M,M,96.35,VVTS 070530Z VRB02KT 9999 FEW023 34/19 Q1011 NOSIG,M
VVTS,3/7/2021 6:00,106.6667,10.8167,95,68,41.5,M,3,0,29.85,M,6.21,M,FEW,M,M,M,2000,M,M,M,M,M,M,M,M,M,M,99.82,VVTS 070600Z VRB03KT 9999 FEW020 35/20 Q1011 NOSIG,M
VVTS,3/7/2021 6:30,106.6667,10.8167,93.2,66.2,41.23,200,6,0,29.83,M,6.21,M,FEW,M,M,M,2000,M,M,M,M,M,M,M,M,M,M,96.35,VVTS 070630Z 20006KT 140V230 9999 FEW020 34/19 Q1010 NOSIG,M
VVTS,3/7/2021 7:00,106.6667,10.8167,95,68,41.5,170,6,0,29.83,M,6.21,M,FEW,M,M,M,2000,M,M,M,M,M,M,M,M,M,M,99.82,VVTS 070700Z 17006KT 110V220 9999 FEW020 35/20 Q1010 NOSIG,M
VVTS,3/7/2021 7:30,106.6667,10.8167,93.2,69.8,46.67,170,8,0,29.8,M,6.21,M,FEW,M,M,M,2000,M,M,M,M,M,M,M,M,M,M,99.17,VVTS 070730Z 17008KT 140V220 9999 FEW020 34/21 Q1009 NOSIG,M
VVTS,3/7/2021 8:00,106.6667,10.8167,91.4,71.6,52.48,170,10,0,29.8,M,6.21,M,FEW,M,M,M,2000,M,M,M,M,M,M,M,M,M,M,98.64,VVTS 070800Z 17010KT 130V210 9999 FEW020 33/22 Q1009 NOSIG,M
VVTS,3/7/2021 8:30,106.6667,10.8167,91.4,69.8,49.36,180,10,0,29.8,M,6.21,M,FEW,M,M,M,2000,M,M,M,M,M,M,M,M,M,M,96.99,VVTS 070830Z 18010KT 160V220 9999 FEW020 33/21 Q1009 NOSIG,M
VVTS,3/7/2021 9:00,106.6667,10.8167,89.6,69.8,52.23,170,10,0,29.8,M,3.73,M,FEW,M,M,M,2000,M,M,M,M,M,M,M,M,M,M,94.85,VVTS 070900Z 17010KT 140V210 6000 R25R/1700VP2000N FEW020 32/21 Q1009 NOSIG,M
VVTS,3/7/2021 9:30,106.6667,10.8167,87.8,69.8,55.29,190,10,0,29.8,M,6.21,M,FEW,M,M,M,2000,M,M,M,M,M,M,M,M,M,M,92.71,VVTS 070930Z 19010KT 150V230 9999 FEW020 31/21 Q1009 NOSIG,M
VVTS,3/7/2021 10:00,106.6667,10.8167,86,71.6,62.25,180,9,0,29.8,M,6.21,M,FEW,M,M,M,2000,M,M,M,M,M,M,M,M,M,M,91.92,VVTS 071000Z 18009KT 150V210 9999 FEW020 30/22 Q1009 NOSIG,M
VVTS,3/7/2021 10:30,106.6667,10.8167,86,71.6,62.25,180,10,0,29.83,M,6.21,M,FEW,M,M,M,2000,M,M,M,M,M,M,M,M,M,M,91.92,VVTS 071030Z 18010KT 150V220 9999 FEW020 30/22 Q1010 NOSIG,M
VVTS,3/7/2021 11:00,106.6667,10.8167,84.2,69.8,62.03,160,10,0,29.83,M,6.21,M,FEW,M,M,M,2000,M,M,M,M,M,M,M,M,M,M,88.43,VVTS 071100Z 16010KT 140V200 9999 FEW020 29/21 Q1010 NOSIG,M
VVTS,3/7/2021 11:30,106.6667,10.8167,84.2,68,58.32,150,8,0,29.83,M,6.21,M,FEW,M,M,M,2000,M,M,M,M,M,M,M,M,M,M,87.4,VVTS 071130Z 15008KT 110V180 9999 FEW020 29/20 Q1010 NOSIG,M
VVTS,3/7/2021 12:00,106.6667,10.8167,84.2,68,58.32,140,9,0,29.83,M,6.21,M,FEW,M,M,M,2000,M,M,M,M,M,M,M,M,M,M,87.4,VVTS 071200Z 14009KT 9999 FEW020 29/20 Q1010 NOSIG,M
VVTS,3/7/2021 12:30,106.6667,10.8167,84.2,66.2,54.8,140,13,0,29.85,M,6.21,M,FEW,M,M,M,2000,M,M,M,M,M,M,M,M,M,M,86.5,VVTS 071230Z 14013KT 110V170 9999 FEW020 29/19 Q1011 NOSIG,M
VVTS,3/7/2021 13:00,106.6667,10.8167,82.4,66.2,58.08,140,11,0,29.85,M,6.21,M,FEW,M,M,M,2000,M,M,M,M,M,M,M,M,M,M,84.63,VVTS 071300Z 14011KT 110V170 9999 FEW020 28/19 Q1011 NOSIG,M
VVTS,3/7/2021 13:30,106.6667,10.8167,82.4,68,61.81,130,11,0,29.85,M,6.21,M,FEW,M,M,M,2000,M,M,M,M,M,M,M,M,M,M,85.38,VVTS 071330Z 13011KT 9999 FEW020 28/20 Q1011 NOSIG,M
VVTS,3/7/2021 14:00,106.6667,10.8167,82.4,68,61.81,130,10,0,29.88,M,6.21,M,FEW,M,M,M,2000,M,M,M,M,M,M,M,M,M,M,85.38,VVTS 071400Z 13010KT 9999 FEW020 28/20 Q1012 NOSIG,M
VVTS,3/7/2021 14:30,106.6667,10.8167,82.4,68,61.81,130,9,0,29.88,M,6.21,M,FEW,M,M,M,2000,M,M,M,M,M,M,M,M,M,M,85.38,VVTS 071430Z 13009KT 100V160 9999 FEW020 28/20 Q1012 NOSIG,M
VVTS,3/7/2021 15:00,106.6667,10.8167,80.6,68,65.54,140,6,0,29.88,M,6.21,M,FEW,M,M,M,2000,M,M,M,M,M,M,M,M,M,M,83.29,VVTS 071500Z 14006KT 110V180 9999 FEW020 27/20 Q1012 NOSIG,M
VVTS,3/7/2021 15:30,106.6667,10.8167,80.6,68,65.54,130,6,0,29.88,M,6.21,M,FEW,M,M,M,1700,M,M,M,M,M,M,M,M,M,M,83.29,VVTS 071530Z 13006KT 9999 FEW017 27/20 Q1012 NOSIG,M
VVTS,3/7/2021 16:00,106.6667,10.8167,80.6,68,65.54,150,6,0,29.88,M,6.21,M,FEW,M,M,M,1700,M,M,M,M,M,M,M,M,M,M,83.29,VVTS 071600Z 15006KT 120V180 9999 FEW017 27/20 Q1012 NOSIG,M
VVTS,3/7/2021 16:30,106.6667,10.8167,80.6,68,65.54,150,6,0,29.88,M,6.21,M,FEW,M,M,M,1700,M,M,M,M,M,M,M,M,M,M,83.29,VVTS 071630Z 15006KT 130V200 9999 FEW017 27/20 Q1012 NOSIG,M
VVTS,3/7/2021 17:00,106.6667,10.8167,80.6,68,65.54,150,5,0,29.88,M,6.21,M,FEW,M,M,M,1700,M,M,M,M,M,M,M,M,M,M,83.29,VVTS 071700Z 15005KT 120V180 9999 FEW017 27/20 Q1012 NOSIG,M
VVTS,3/7/2021 17:30,106.6667,10.8167,80.6,68,65.54,150,5,0,29.88,M,6.21,M,FEW,M,M,M,1700,M,M,M,M,M,M,M,M,M,M,83.29,VVTS 071730Z 15005KT 110V190 9999 FEW017 27/20 Q1012 NOSIG,M
VVTS,3/7/2021 18:00,106.6667,10.8167,80.6,68,65.54,150,4,0,29.88,M,6.21,M,FEW,M,M,M,1700,M,M,M,M,M,M,M,M,M,M,83.29,VVTS 071800Z 15004KT 120V200 9999 FEW017 27/20 Q1012 NOSIG,M
VVTS,3/7/2021 18:30,106.6667,10.8167,80.6,68,65.54,140,5,0,29.85,M,6.21,M,FEW,M,M,M,1700,M,M,M,M,M,M,M,M,M,M,83.29,VVTS 071830Z 14005KT 9999 FEW017 27/20 Q1011 NOSIG,M
VVTS,3/7/2021 19:00,106.6667,10.8167,80.6,68,65.54,M,3,0,29.85,M,6.21,M,FEW,M,M,M,1700,M,M,M,M,M,M,M,M,M,M,83.29,VVTS 071900Z VRB03KT 9999 FEW017 27/20 Q1011 NOSIG,M
VVTS,3/7/2021 19:30,106.6667,10.8167,78.8,68,69.52,M,1,0,29.85,M,6.21,M,FEW,M,M,M,1700,M,M,M,M,M,M,M,M,M,M,78.8,VVTS 071930Z VRB01KT 9999 FEW017 26/20 Q1011 NOSIG,M
VVTS,3/7/2021 20:00,106.6667,10.8167,78.8,68,69.52,M,1,0,29.85,M,6.21,M,FEW,M,M,M,1700,M,M,M,M,M,M,M,M,M,M,78.8,VVTS 072000Z VRB01KT 9999 FEW017 26/20 Q1011 NOSIG,M
VVTS,3/7/2021 20:30,106.6667,10.8167,78.8,68,69.52,150,3,0,29.85,M,6.21,M,FEW,SCT,M,M,1700,5000,M,M,M,M,M,M,M,M,M,78.8,VVTS 072030Z 15003KT 9999 FEW017 SCT050 26/20 Q1011 NOSIG,M
VVTS,3/7/2021 21:00,106.6667,10.8167,78.8,68,69.52,M,2,0,29.88,M,6.21,M,FEW,SCT,M,M,1700,5000,M,M,M,M,M,M,M,M,M,78.8,VVTS 072100Z VRB02KT 9999 FEW017 SCT050 26/20 Q1012 NOSIG,M
VVTS,3/7/2021 21:30,106.6667,10.8167,77,68,73.78,M,2,0,29.88,M,6.21,M,FEW,SCT,M,M,1700,5000,M,M,M,M,M,M,M,M,M,77,VVTS 072130Z VRB02KT 9999 FEW017 SCT050 25/20 Q1012 NOSIG,M
VVTS,3/7/2021 22:00,106.6667,10.8167,77,68,73.78,70,5,0,29.88,M,6.21,M,FEW,SCT,M,M,1700,5000,M,M,M,M,M,M,M,M,M,77,VVTS 072200Z 07005KT 040V100 9999 FEW017 SCT050 25/20 Q1012 NOSIG,M
VVTS,3/7/2021 22:30,106.6667,10.8167,78.8,68,69.52,60,4,0,29.88,M,6.21,M,FEW,SCT,M,M,1700,5000,M,M,M,M,M,M,M,M,M,78.8,VVTS 072230Z 06004KT 9999 FEW017 SCT050 26/20 Q1012 NOSIG,M
VVTS,3/7/2021 23:00,106.6667,10.8167,77,68,73.78,70,5,0,29.88,M,6.21,M,FEW,SCT,M,M,1700,5000,M,M,M,M,M,M,M,M,M,77,VVTS 072300Z 07005KT 9999 FEW017 SCT050 25/20 Q1012 NOSIG,M
VVTS,3/7/2021 23:30,106.6667,10.8167,77,71.6,83.44,10,4,0,29.91,M,6.21,M,FEW,SCT,M,M,1700,5000,M,M,M,M,M,M,M,M,M,77,VVTS 072330Z 01004KT 9999 FEW017 SCT050 25/22 Q1013 NOSIG,M
VVTS,3/8/2021 0:00,106.6667,10.8167,77,73.4,88.67,M,3,0,29.91,M,4.97,M,FEW,SCT,M,M,1700,5000,M,M,M,M,M,M,M,M,M,77,VVTS 080000Z VRB03KT 8000 FEW017 SCT050 25/23 Q1013 NOSIG,M
VVTS,3/8/2021 0:30,106.6667,10.8167,78.8,73.4,83.55,20,4,0,29.94,M,4.97,M,FEW,SCT,M,M,1700,5000,M,M,M,M,M,M,M,M,M,78.8,VVTS 080030Z 02004KT 340V050 8000 FEW017 SCT050 26/23 Q1014 NOSIG,M
VVTS,3/8/2021 1:00,106.6667,10.8167,80.6,73.4,78.76,40,4,0,29.94,M,4.97,M,FEW,M,M,M,2000,M,M,M,M,M,M,M,M,M,M,85.32,VVTS 080100Z 04004KT 360V070 8000 FEW020 27/23 Q1014 NOSIG,M
VVTS,3/8/2021 1:30,106.6667,10.8167,82.4,73.4,74.28,30,5,0,29.94,M,4.97,M,FEW,M,M,M,2000,M,M,M,M,M,M,M,M,M,M,88.26,VVTS 080130Z 03005KT 350V090 8000 FEW020 28/23 Q1014 NOSIG,M
VVTS,3/8/2021 2:00,106.6667,10.8167,84.2,71.6,65.95,40,4,0,29.94,M,4.97,M,FEW,M,M,M,2000,M,M,M,M,M,M,M,M,M,M,89.6,VVTS 080200Z 04004KT 290V080 8000 FEW020 29/22 Q1014 NOSIG,M
VVTS,3/8/2021 2:30,106.6667,10.8167,86,71.6,62.25,M,3,0,29.97,M,4.97,M,FEW,M,M,M,2000,M,M,M,M,M,M,M,M,M,M,91.92,VVTS 080230Z VRB03KT 8000 FEW020 30/22 Q1015 NOSIG,M
VVTS,3/8/2021 3:00,106.6667,10.8167,87.8,66.2,48.84,30,4,0,29.97,M,4.97,M,FEW,M,M,M,2000,M,M,M,M,M,M,M,M,M,M,90.31,VVTS 080300Z 03004KT 320V090 8000 FEW020 31/19 Q1015 NOSIG,M
VVTS,3/8/2021 3:30,106.6667,10.8167,89.6,64.4,43.34,50,6,0,29.94,M,6.21,M,FEW,M,M,M,2000,M,M,M,M,M,M,M,M,M,M,91.23,VVTS 080330Z 05006KT 340V120 9999 FEW020 32/18 Q1014 NOSIG,M
VVTS,3/8/2021 4:00,106.6667,10.8167,89.6,66.2,46.14,50,7,0,29.94,M,6.21,M,FEW,M,M,M,2000,M,M,M,M,M,M,M,M,M,M,92.27,VVTS 080400Z 05007KT 010V100 9999 FEW020 32/19 Q1014 NOSIG,M
VVTS,3/8/2021 4:30,106.6667,10.8167,91.4,62.6,38.45,80,5,0,29.91,M,6.21,M,FEW,M,M,M,2000,M,M,M,M,M,M,M,M,M,M,92.23,VVTS 080430Z 08005KT 290V060 9999 FEW020 33/17 Q1013 NOSIG,M
VVTS,3/8/2021 5:00,106.6667,10.8167,91.4,62.6,38.45,100,6,0,29.91,M,6.21,M,FEW,M,M,M,2000,M,M,M,M,M,M,M,M,M,M,92.23,VVTS 080500Z 10006KT 350V160 9999 FEW020 33/17 Q1013 NOSIG,M
VVTS,3/8/2021 5:30,106.6667,10.8167,93.2,60.8,34.11,60,7,0,29.88,M,6.21,M,SCT,M,M,M,2000,M,M,M,M,M,M,M,M,M,M,93.32,VVTS 080530Z 06007KT 350V140 9999 SCT020 34/16 Q1012 NOSIG,M
VVTS,3/8/2021 6:00,106.6667,10.8167,93.2,60.8,34.11,30,7,0,29.85,M,6.21,M,SCT,M,M,M,2000,M,M,M,M,M,M,M,M,M,M,93.32,VVTS 080600Z 03007KT 320V080 9999 SCT020 34/16 Q1011 NOSIG,M
VVTS,3/8/2021 6:30,106.6667,10.8167,93.2,60.8,34.11,60,5,0,29.83,M,6.21,M,SCT,M,M,M,2000,M,M,M,M,M,M,M,M,M,M,93.32,VVTS 080630Z 06005KT 350V130 9999 SCT020 34/16 Q1010 NOSIG,M
VVTS,3/8/2021 7:00,106.6667,10.8167,95,60.8,32.27,M,4,0,29.83,M,6.21,M,SCT,M,M,M,2000,M,M,M,M,M,M,M,M,M,M,95.3,VVTS 080700Z VRB04KT 9999 SCT020 35/16 Q1010 NOSIG,M
VVTS,3/8/2021 7:30,106.6667,10.8167,95,59,30.26,80,5,0,29.8,M,6.21,M,SCT,M,M,M,2000,M,M,M,M,M,M,M,M,M,M,94.51,VVTS 080730Z 08005KT 010V150 9999 SCT020 35/15 Q1009 NOSIG,M
VVTS,3/8/2021 8:00,106.6667,10.8167,95,57.2,28.37,M,4,0,29.8,M,6.21,M,SCT,M,M,M,2000,M,M,M,M,M,M,M,M,M,M,93.82,VVTS 080800Z VRB04KT 9999 SCT020 35/14 Q1009 NOSIG,M
VVTS,3/8/2021 8:30,106.6667,10.8167,95,60.8,32.27,M,6,0,29.77,M,6.21,M,SCT,M,M,M,2000,M,M,M,M,M,M,M,M,M,M,95.3,VVTS 080830Z VRB06KT 9999 SCT020 35/16 Q1008 NOSIG,M
VVTS,3/8/2021 9:00,106.6667,10.8167,91.4,68,46.41,170,10,0,29.77,M,6.21,M,SCT,M,M,M,2000,M,M,M,M,M,M,M,M,M,M,95.55,VVTS 080900Z 17010KT 150V220 9999 SCT020 33/20 Q1008 NOSIG,M
VVTS,3/8/2021 9:30,106.6667,10.8167,91.4,66.2,43.61,190,11,0,29.8,M,6.21,M,SCT,M,M,M,2000,M,M,M,M,M,M,M,M,M,M,94.29,VVTS 080930Z 19011KT 140V220 9999 SCT020 33/19 Q1009 NOSIG,M
VVTS,3/8/2021 10:00,106.6667,10.8167,89.6,66.2,46.14,190,9,0,29.8,M,6.21,M,SCT,M,M,M,2000,M,M,M,M,M,M,M,M,M,M,92.27,VVTS 081000Z 19009KT 150V210 9999 SCT020 32/19 Q1009 NOSIG,M
VVTS,3/8/2021 10:30,106.6667,10.8167,87.8,68,51.98,170,9,0,29.8,M,6.21,M,FEW,M,M,M,2000,M,M,M,M,M,M,M,M,M,M,91.43,VVTS 081030Z 17009KT 150V210 9999 FEW020 31/20 Q1009 NOSIG,M
VVTS,3/8/2021 11:00,106.6667,10.8167,87.8,68,51.98,160,7,0,29.83,M,6.21,M,FEW,M,M,M,2000,M,M,M,M,M,M,M,M,M,M,91.43,VVTS 081100Z 16007KT 130V190 9999 FEW020 31/20 Q1010 NOSIG,M
VVTS,3/8/2021 11:30,106.6667,10.8167,86,68,55.04,160,7,0,29.83,M,6.21,M,FEW,M,M,M,2000,M,M,M,M,M,M,M,M,M,M,89.41,VVTS 081130Z 16007KT 9999 FEW020 30/20 Q1010 NOSIG,M
VVTS,3/8/2021 12:00,106.6667,10.8167,86,66.2,51.72,150,7,0,29.83,M,6.21,M,FEW,M,M,M,2000,M,M,M,M,M,M,M,M,M,M,88.39,VVTS 081200Z 15007KT 120V200 9999 FEW020 30/19 Q1010 NOSIG,M
VVTS,3/8/2021 12:30,106.6667,10.8167,84.2,66.2,54.8,140,6,0,29.85,M,6.21,M,FEW,M,M,M,2300,M,M,M,M,M,M,M,M,M,M,86.5,VVTS 081230Z 14006KT 110V190 9999 FEW023 29/19 Q1011 NOSIG,M
VVTS,3/8/2021 13:00,106.6667,10.8167,84.2,66.2,54.8,160,7,0,29.85,M,6.21,M,FEW,M,M,M,2300,M,M,M,M,M,M,M,M,M,M,86.5,VVTS 081300Z 16007KT 130V190 9999 FEW023 29/19 Q1011 NOSIG,M
VVTS,3/8/2021 13:30,106.6667,10.8167,84.2,69.8,62.03,140,8,0,29.88,M,6.21,M,FEW,M,M,M,2300,M,M,M,M,M,M,M,M,M,M,88.43,VVTS 081330Z 14008KT 9999 FEW023 29/21 Q1012 NOSIG,M
VVTS,3/8/2021 14:00,106.6667,10.8167,82.4,69.8,65.74,150,7,0,29.88,M,6.21,M,FEW,M,M,M,2000,M,M,M,M,M,M,M,M,M,M,86.22,VVTS 081400Z 15007KT 120V180 9999 FEW020 28/21 Q1012 NOSIG,M
VVTS,3/8/2021 14:30,106.6667,10.8167,82.4,69.8,65.74,140,10,0,29.88,M,6.21,M,FEW,M,M,M,2000,M,M,M,M,M,M,M,M,M,M,86.22,VVTS 081430Z 14010KT 110V170 9999 FEW020 28/21 Q1012 NOSIG,M
VVTS,3/8/2021 15:00,106.6667,10.8167,82.4,69.8,65.74,140,9,0,29.88,M,6.21,M,FEW,M,M,M,2000,M,M,M,M,M,M,M,M,M,M,86.22,VVTS 081500Z 14009KT 9999 FEW020 28/21 Q1012 NOSIG,M
VVTS,3/8/2021 15:30,106.6667,10.8167,80.6,71.6,74.11,140,6,0,29.88,M,6.21,M,FEW,M,M,M,2000,M,M,M,M,M,M,M,M,M,M,84.57,VVTS 081530Z 14006KT 110V170 9999 FEW020 27/22 Q1012 NOSIG,M
VVTS,3/8/2021 16:00,106.6667,10.8167,80.6,71.6,74.11,140,7,0,29.88,M,6.21,M,FEW,M,M,M,2000,M,M,M,M,M,M,M,M,M,M,84.57,VVTS 081600Z 14007KT 9999 FEW020 27/22 Q1012 NOSIG,M
VVTS,3/8/2021 16:30,106.6667,10.8167,80.6,71.6,74.11,140,8,0,29.88,M,6.21,M,FEW,M,M,M,2000,M,M,M,M,M,M,M,M,M,M,84.57,VVTS 081630Z 14008KT 9999 FEW020 27/22 Q1012 NOSIG,M
VVTS,3/8/2021 17:00,106.6667,10.8167,80.6,71.6,74.11,130,7,0,29.85,M,6.21,M,FEW,M,M,M,2000,M,M,M,M,M,M,M,M,M,M,84.57,VVTS 081700Z 13007KT 9999 FEW020 27/22 Q1011 NOSIG,M
VVTS,3/8/2021 17:30,106.6667,10.8167,78.8,73.4,83.55,130,9,0,29.85,M,6.21,M,FEW,M,M,M,2000,M,M,M,M,M,M,M,M,M,M,78.8,VVTS 081730Z 13009KT 9999 FEW020 26/23 Q1011 NOSIG,M
VVTS,3/8/2021 18:00,106.6667,10.8167,78.8,73.4,83.55,130,9,0,29.85,M,6.21,M,FEW,M,M,M,2000,M,M,M,M,M,M,M,M,M,M,78.8,VVTS 081800Z 13009KT 9999 FEW020 26/23 Q1011 NOSIG,M
VVTS,3/8/2021 18:30,106.6667,10.8167,78.8,73.4,83.55,130,7,0,29.85,M,6.21,M,FEW,M,M,M,2000,M,M,M,M,M,M,M,M,M,M,78.8,VVTS 081830Z 13007KT 9999 FEW020 26/23 Q1011 NOSIG,M
VVTS,3/8/2021 19:00,106.6667,10.8167,78.8,73.4,83.55,130,7,0,29.85,M,6.21,M,FEW,M,M,M,1700,M,M,M,M,M,M,M,M,M,M,78.8,VVTS 081900Z 13007KT 9999 FEW017 26/23 Q1011 NOSIG,M
VVTS,3/8/2021 19:30,106.6667,10.8167,78.8,73.4,83.55,130,6,0,29.83,M,6.21,M,FEW,M,M,M,1700,M,M,M,M,M,M,M,M,M,M,78.8,VVTS 081930Z 13006KT 9999 FEW017 26/23 Q1010 NOSIG,M
VVTS,3/8/2021 20:00,106.6667,10.8167,78.8,71.6,78.62,130,3,0,29.85,M,6.21,M,FEW,M,M,M,1700,M,M,M,M,M,M,M,M,M,M,78.8,VVTS 082000Z 13003KT 9999 FEW017 26/22 Q1011 NOSIG,M
VVTS,3/8/2021 20:30,106.6667,10.8167,78.8,71.6,78.62,M,3,0,29.85,M,6.21,M,FEW,M,M,M,1700,M,M,M,M,M,M,M,M,M,M,78.8,VVTS 082030Z VRB03KT 9999 FEW017 26/22 Q1011 NOSIG,M
VVTS,3/8/2021 21:00,106.6667,10.8167,78.8,71.6,78.62,120,4,0,29.85,M,6.21,M,FEW,M,M,M,1700,M,M,M,M,M,M,M,M,M,M,78.8,VVTS 082100Z 12004KT 080V140 9999 FEW017 26/22 Q1011 NOSIG,M
VVTS,3/8/2021 21:30,106.6667,10.8167,77,71.6,83.44,100,5,0,29.85,M,6.21,M,FEW,M,M,M,1700,M,M,M,M,M,M,M,M,M,M,77,VVTS 082130Z 10005KT 9999 FEW017 25/22 Q1011 NOSIG,M
VVTS,3/8/2021 22:00,106.6667,10.8167,77,71.6,83.44,80,4,0,29.85,M,6.21,M,FEW,M,M,M,2000,M,M,M,M,M,M,M,M,M,M,77,VVTS 082200Z 08004KT 060V130 9999 FEW020 25/22 Q1011 NOSIG,M
VVTS,3/8/2021 22:30,106.6667,10.8167,77,71.6,83.44,70,4,0,29.88,M,6.21,M,FEW,M,M,M,2000,M,M,M,M,M,M,M,M,M,M,77,VVTS 082230Z 07004KT 9999 FEW020 25/22 Q1012 NOSIG,M
VVTS,3/8/2021 23:00,106.6667,10.8167,77,71.6,83.44,100,5,0,29.88,M,6.21,M,FEW,M,M,M,2000,M,M,M,M,M,M,M,M,M,M,77,VVTS 082300Z 10005KT 9999 FEW020 25/22 Q1012 NOSIG,M
VVTS,3/8/2021 23:30,106.6667,10.8167,77,71.6,83.44,70,4,0,29.91,M,6.21,M,FEW,SCT,M,M,1700,5000,M,M,M,M,M,M,M,M,M,77,VVTS 082330Z 07004KT 030V130 9999 FEW017 SCT050 25/22 Q1013 NOSIG,M
VVTS,3/9/2021 0:00,106.6667,10.8167,77,71.6,83.44,60,4,0,29.91,M,6.21,M,SCT,M,M,M,1700,M,M,M,M,M,M,M,M,M,M,77,VVTS 090000Z 06004KT 9999 SCT017 25/22 Q1013 NOSIG,M
VVTS,3/9/2021 0:30,106.6667,10.8167,80.6,71.6,74.11,M,3,0,29.94,M,6.21,M,SCT,M,M,M,1700,M,M,M,M,M,M,M,M,M,M,84.57,VVTS 090030Z VRB03KT 9999 SCT017 27/22 Q1014 NOSIG,M
VVTS,3/9/2021 1:00,106.6667,10.8167,80.6,69.8,69.71,40,4,0,29.94,M,4.97,M,BKN,M,M,M,1700,M,M,M,M,M,M,M,M,M,M,83.9,VVTS 090100Z 04004KT 350V080 8000 BKN017 27/21 Q1014 NOSIG,M
VVTS,3/9/2021 1:30,106.6667,10.8167,82.4,69.8,65.74,60,5,0,29.94,M,4.97,M,SCT,M,M,M,1700,M,M,M,M,M,M,M,M,M,M,86.22,VVTS 090130Z 06005KT 020V090 8000 SCT017 28/21 Q1014 NOSIG,M
VVTS,3/9/2021 2:00,106.6667,10.8167,86,68,55.04,60,6,0,29.97,M,4.97,M,SCT,M,M,M,1700,M,M,M,M,M,M,M,M,M,M,89.41,VVTS 090200Z 06006KT 030V100 8000 SCT017 30/20 Q1015 NOSIG,M
VVTS,3/9/2021 2:30,106.6667,10.8167,86,71.6,62.25,70,5,0,29.94,M,4.97,M,SCT,M,M,M,1700,M,M,M,M,M,M,M,M,M,M,91.92,VVTS 090230Z 07005KT 360V110 8000 SCT017 30/22 Q1014 NOSIG,M
VVTS,3/9/2021 3:00,106.6667,10.8167,86,68,55.04,50,5,0,29.94,M,4.97,M,SCT,M,M,M,1700,M,M,M,M,M,M,M,M,M,M,89.41,VVTS 090300Z 05005KT 350V110 8000 SCT017 30/20 Q1014 NOSIG,M
VVTS,3/9/2021 3:30,106.6667,10.8167,89.6,68,49.1,60,5,0,29.94,M,4.97,M,SCT,M,M,M,1700,M,M,M,M,M,M,M,M,M,M,93.47,VVTS 090330Z 06005KT 010V110 8000 SCT017 32/20 Q1014 NOSIG,M
VVTS,3/9/2021 4:00,106.6667,10.8167,89.6,68,49.1,50,4,0,29.94,M,6.21,M,SCT,M,M,M,1700,M,M,M,M,M,M,M,M,M,M,93.47,VVTS 090400Z 05004KT 360V130 9999 SCT017 32/20 Q1014 NOSIG,M
VVTS,3/9/2021 4:30,106.6667,10.8167,89.6,68,49.1,50,6,0,29.91,M,6.21,M,SCT,M,M,M,2000,M,M,M,M,M,M,M,M,M,M,93.47,VVTS 090430Z 05006KT 350V110 9999 SCT020 32/20 Q1013 NOSIG,M
VVTS,3/9/2021 5:00,106.6667,10.8167,91.4,66.2,43.61,80,5,0,29.88,M,6.21,M,SCT,M,M,M,2000,M,M,M,M,M,M,M,M,M,M,94.29,VVTS 090500Z 08005KT 010V180 9999 SCT020 33/19 Q1012 NOSIG,M
VVTS,3/9/2021 5:30,106.6667,10.8167,91.4,66.2,43.61,M,5,0,29.88,M,6.21,M,SCT,M,M,M,2000,M,M,M,M,M,M,M,M,M,M,94.29,VVTS 090530Z VRB05KT 9999 SCT020 33/19 Q1012 NOSIG,M
VVTS,3/9/2021 6:00,106.6667,10.8167,91.4,66.2,43.61,340,5,0,29.85,M,6.21,M,BKN,M,M,M,2000,M,M,M,M,M,M,M,M,M,M,94.29,VVTS 090600Z 34005KT 9999 BKN020 33/19 Q1011 NOSIG,M
VVTS,3/9/2021 6:30,106.6667,10.8167,93.2,66.2,41.23,40,5,0,29.85,M,6.21,M,BKN,M,M,M,2000,M,M,M,M,M,M,M,M,M,M,96.35,VVTS 090630Z 04005KT 310V120 9999 BKN020 34/19 Q1011 NOSIG,M
VVTS,3/9/2021 7:00,106.6667,10.8167,95,64.4,36.63,M,4,0,29.83,M,6.21,M,BKN,M,M,M,2000,M,M,M,M,M,M,M,M,M,M,97.26,VVTS 090700Z VRB04KT 9999 BKN020 35/18 Q1010 NOSIG,M
VVTS,3/9/2021 7:30,106.6667,10.8167,93.2,62.6,36.35,M,4,0,29.8,M,6.21,M,BKN,M,M,M,1700,M,M,M,M,M,M,M,M,M,M,94.2,VVTS 090730Z VRB04KT 9999 BKN017 34/17 Q1009 NOSIG,M
VVTS,3/9/2021 8:00,106.6667,10.8167,93.2,62.6,36.35,110,5,0,29.8,M,6.21,M,BKN,M,M,M,1700,M,M,M,M,M,M,M,M,M,M,94.2,VVTS 090800Z 11005KT 060V150 9999 BKN017 34/17 Q1009 NOSIG,M
VVTS,3/9/2021 8:30,106.6667,10.8167,93.2,60.8,34.11,M,4,0,29.77,M,6.21,M,BKN,M,M,M,1700,M,M,M,M,M,M,M,M,M,M,93.32,VVTS 090830Z VRB04KT 9999 BKN017 34/16 Q1008 NOSIG,M
VVTS,3/9/2021 9:00,106.6667,10.8167,95,60.8,32.27,110,2,0,29.77,M,6.21,M,BKN,M,M,M,1700,M,M,M,M,M,M,M,M,M,M,95.3,VVTS 090900Z 11002KT 9999 BKN017 35/16 Q1008 NOSIG,M
VVTS,3/9/2021 9:30,106.6667,10.8167,91.4,64.4,40.96,180,9,0,29.8,M,6.21,M,SCT,M,M,M,1700,M,M,M,M,M,M,M,M,M,M,93.19,VVTS 090930Z 18009KT 150V220 9999 SCT017 33/18 Q1009 NOSIG,M
VVTS,3/9/2021 10:00,106.6667,10.8167,89.6,66.2,46.14,180,9,0,29.8,M,6.21,M,SCT,M,M,M,1700,M,M,M,M,M,M,M,M,M,M,92.27,VVTS 091000Z 18009KT 150V210 9999 SCT017 32/19 Q1009 NOSIG,M
VVTS,3/9/2021 10:30,106.6667,10.8167,87.8,66.2,48.84,180,9,0,29.8,M,6.21,M,SCT,M,M,M,1700,M,M,M,M,M,M,M,M,M,M,90.31,VVTS 091030Z 18009KT 150V210 9999 SCT017 31/19 Q1009 NOSIG,M
VVTS,3/9/2021 11:00,106.6667,10.8167,87.8,66.2,48.84,160,7,0,29.83,M,6.21,M,SCT,M,M,M,1700,M,M,M,M,M,M,M,M,M,M,90.31,VVTS 091100Z 16007KT 130V200 9999 SCT017 31/19 Q1010 NOSIG,M
VVTS,3/9/2021 11:30,106.6667,10.8167,86,66.2,51.72,150,7,0,29.83,M,6.21,M,SCT,M,M,M,1700,M,M,M,M,M,M,M,M,M,M,88.39,VVTS 091130Z 15007KT 120V180 9999 R25R/1900VP2000N SCT017 30/19 Q1010 NOSIG,M
VVTS,3/9/2021 12:00,106.6667,10.8167,86,66.2,51.72,150,8,0,29.83,M,6.21,M,SCT,M,M,M,1700,M,M,M,M,M,M,M,M,M,M,88.39,VVTS 091200Z 15008KT 9999 SCT017 30/19 Q1010 NOSIG,M
VVTS,3/9/2021 12:30,106.6667,10.8167,84.2,66.2,54.8,140,11,0,29.85,M,6.21,M,SCT,M,M,M,1700,M,M,M,M,M,M,M,M,M,M,86.5,VVTS 091230Z 14011KT 9999 SCT017 29/19 Q1011 NOSIG,M
VVTS,3/9/2021 13:00,106.6667,10.8167,84.2,66.2,54.8,130,12,0,29.85,M,6.21,M,SCT,M,M,M,1700,M,M,M,M,M,M,M,M,M,M,86.5,VVTS 091300Z 13012KT 9999 SCT017 29/19 Q1011 NOSIG,M
VVTS,3/9/2021 13:30,106.6667,10.8167,82.4,68,61.81,140,8,0,29.88,M,6.21,M,SCT,M,M,M,1700,M,M,M,M,M,M,M,M,M,M,85.38,VVTS 091330Z 14008KT 9999 SCT017 28/20 Q1012 NOSIG,M
VVTS,3/9/2021 14:00,106.6667,10.8167,82.4,68,61.81,140,11,0,29.88,M,6.21,M,SCT,M,M,M,1700,M,M,M,M,M,M,M,M,M,M,85.38,VVTS 091400Z 14011KT 9999 SCT017 28/20 Q1012 NOSIG,M
VVTS,3/9/2021 14:30,106.6667,10.8167,82.4,69.8,65.74,140,10,0,29.88,M,6.21,M,SCT,M,M,M,1700,M,M,M,M,M,M,M,M,M,M,86.22,VVTS 091430Z 14010KT 9999 SCT017 28/21 Q1012 NOSIG,M
VVTS,3/9/2021 15:00,106.6667,10.8167,80.6,69.8,69.71,130,11,0,29.88,M,6.21,M,SCT,M,M,M,1700,M,M,M,M,M,M,M,M,M,M,83.9,VVTS 091500Z 13011KT 9999 SCT017 27/21 Q1012 NOSIG,M
VVTS,3/9/2021 15:30,106.6667,10.8167,80.6,69.8,69.71,140,8,0,29.88,M,6.21,M,SCT,M,M,M,1700,M,M,M,M,M,M,M,M,M,M,83.9,VVTS 091530Z 14008KT 110V170 9999 SCT017 27/21 Q1012 NOSIG,M
VVTS,3/9/2021 16:00,106.6667,10.8167,80.6,69.8,69.71,130,6,0,29.88,M,6.21,M,SCT,M,M,M,1700,M,M,M,M,M,M,M,M,M,M,83.9,VVTS 091600Z 13006KT 100V160 9999 SCT017 27/21 Q1012 NOSIG,M
VVTS,3/9/2021 16:30,106.6667,10.8167,80.6,69.8,69.71,130,5,0,29.88,M,6.21,M,SCT,M,M,M,1700,M,M,M,M,M,M,M,M,M,M,83.9,VVTS 091630Z 13005KT 9999 SCT017 27/21 Q1012 NOSIG,M
VVTS,3/9/2021 17:00,106.6667,10.8167,80.6,68,65.54,140,5,0,29.85,M,6.21,M,SCT,M,M,M,1700,M,M,M,M,M,M,M,M,M,M,83.29,VVTS 091700Z 14005KT 110V180 9999 SCT017 27/20 Q1011 NOSIG,M
VVTS,3/9/2021 17:30,106.6667,10.8167,80.6,68,65.54,140,5,0,29.85,M,6.21,M,SCT,M,M,M,1700,M,M,M,M,M,M,M,M,M,M,83.29,VVTS 091730Z 14005KT 110V170 9999 SCT017 27/20 Q1011 NOSIG,M
VVTS,3/9/2021 18:00,106.6667,10.8167,80.6,68,65.54,M,2,0,29.85,M,6.21,M,SCT,M,M,M,1700,M,M,M,M,M,M,M,M,M,M,83.29,VVTS 091800Z VRB02KT 9999 SCT017 27/20 Q1011 NOSIG,M
VVTS,3/9/2021 18:30,106.6667,10.8167,80.6,69.8,69.71,60,4,0,29.85,M,6.21,M,M,M,M,M,M,M,M,M,M,M,M,M,M,M,M,83.9,VVTS 091830Z 06004KT CAVOK 27/21 Q1011 NOSIG,M
VVTS,3/9/2021 19:00,106.6667,10.8167,78.8,69.8,73.95,M,2,0,29.83,M,6.21,M,M,M,M,M,M,M,M,M,M,M,M,M,M,M,M,78.8,VVTS 091900Z VRB02KT CAVOK 26/21 Q1010 NOSIG,M
VVTS,3/9/2021 19:30,106.6667,10.8167,78.8,69.8,73.95,80,5,0,29.83,M,6.21,M,SCT,M,M,M,1700,M,M,M,M,M,M,M,M,M,M,78.8,VVTS 091930Z 08005KT 9999 SCT017 26/21 Q1010 NOSIG,M
VVTS,3/9/2021 20:00,106.6667,10.8167,77,71.6,83.44,80,4,0,29.83,M,6.21,M,SCT,M,M,M,1700,M,M,M,M,M,M,M,M,M,M,77,VVTS 092000Z 08004KT 9999 SCT017 25/22 Q1010 NOSIG,M
VVTS,3/9/2021 20:30,106.6667,10.8167,78.8,69.8,73.95,80,3,0,29.83,M,6.21,M,FEW,M,M,M,1700,M,M,M,M,M,M,M,M,M,M,78.8,VVTS 092030Z 08003KT 9999 FEW017 26/21 Q1010 NOSIG,M
VVTS,3/9/2021 21:00,106.6667,10.8167,78.8,71.6,78.62,80,4,0,29.85,M,6.21,M,FEW,M,M,M,1700,M,M,M,M,M,M,M,M,M,M,78.8,VVTS 092100Z 08004KT 9999 FEW017 26/22 Q1011 NOSIG,M
VVTS,3/9/2021 21:30,106.6667,10.8167,77,71.6,83.44,90,3,0,29.85,M,6.21,M,FEW,M,M,M,1700,M,M,M,M,M,M,M,M,M,M,77,VVTS 092130Z 09003KT 9999 FEW017 25/22 Q1011 NOSIG,M
VVTS,3/9/2021 22:00,106.6667,10.8167,77,71.6,83.44,M,2,0,29.85,M,6.21,M,FEW,M,M,M,1700,M,M,M,M,M,M,M,M,M,M,77,VVTS 092200Z VRB02KT 9999 FEW017 25/22 Q1011 NOSIG,M
VVTS,3/9/2021 22:30,106.6667,10.8167,77,71.6,83.44,80,2,0,29.85,M,6.21,M,FEW,M,M,M,1700,M,M,M,M,M,M,M,M,M,M,77,VVTS 092230Z 08002KT 9999 FEW017 25/22 Q1011 NOSIG,M
VVTS,3/9/2021 23:00,106.6667,10.8167,77,71.6,83.44,60,3,0,29.88,M,6.21,M,FEW,M,M,M,1700,M,M,M,M,M,M,M,M,M,M,77,VVTS 092300Z 06003KT 9999 FEW017 25/22 Q1012 NOSIG,M
VVTS,3/9/2021 23:30,106.6667,10.8167,77,71.6,83.44,M,3,0,29.88,M,6.21,M,FEW,SCT,M,M,1700,5000,M,M,M,M,M,M,M,M,M,77,VVTS 092330Z VRB03KT 9999 FEW017 SCT050 25/22 Q1012 NOSIG,M
VVTS,3/10/2021 0:00,106.6667,10.8167,78.8,71.6,78.62,M,2,0,29.91,M,6.21,M,SCT,M,M,M,1700,M,M,M,M,M,M,M,M,M,M,78.8,VVTS 100000Z VRB02KT 9999 SCT017 26/22 Q1013 NOSIG,M
VVTS,3/10/2021 0:30,106.6667,10.8167,80.6,71.6,74.11,M,3,0,29.91,M,4.97,M,SCT,M,M,M,1700,M,M,M,M,M,M,M,M,M,M,84.57,VVTS 100030Z VRB03KT 8000 SCT017 27/22 Q1013 NOSIG,M
VVTS,3/10/2021 1:00,106.6667,10.8167,82.4,69.8,65.74,30,4,0,29.94,M,4.97,M,SCT,M,M,M,1700,M,M,M,M,M,M,M,M,M,M,86.22,VVTS 100100Z 03004KT 350V060 8000 SCT017 28/21 Q1014 NOSIG,M
VVTS,3/10/2021 1:30,106.6667,10.8167,82.4,71.6,69.9,M,2,0,29.94,M,4.97,M,FEW,M,M,M,1700,M,M,M,M,M,M,M,M,M,M,87.18,VVTS 100130Z VRB02KT 8000 FEW017 28/22 Q1014 NOSIG,M
VVTS,3/10/2021 2:00,106.6667,10.8167,84.2,69.8,62.03,M,2,0,29.94,M,4.97,M,FEW,M,M,M,1700,M,M,M,M,M,M,M,M,M,M,88.43,VVTS 100200Z VRB02KT 8000 FEW017 29/21 Q1014 NOSIG,M
VVTS,3/10/2021 2:30,106.6667,10.8167,86,69.8,58.55,350,5,0,29.94,M,4.97,M,FEW,M,M,M,1700,M,M,M,M,M,M,M,M,M,M,90.58,VVTS 100230Z 35005KT 280V030 8000 FEW017 30/21 Q1014 NOSIG,M
VVTS,3/10/2021 3:00,106.6667,10.8167,86,68,55.04,10,4,0,29.94,M,4.97,M,FEW,M,M,M,1700,M,M,M,M,M,M,M,M,M,M,89.41,VVTS 100300Z 01004KT 320V130 8000 FEW017 30/20 Q1014 NOSIG,M
VVTS,3/10/2021 3:30,106.6667,10.8167,87.8,66.2,48.84,M,3,0,29.91,M,6.21,M,FEW,M,M,M,1700,M,M,M,M,M,M,M,M,M,M,90.31,VVTS 100330Z VRB03KT 9999 FEW017 31/19 Q1013 NOSIG,M
VVTS,3/10/2021 4:00,106.6667,10.8167,91.4,64.4,40.96,M,2,0,29.91,M,6.21,M,FEW,M,M,M,1700,M,M,M,M,M,M,M,M,M,M,93.19,VVTS 100400Z VRB02KT 9999 FEW017 33/18 Q1013 NOSIG,M
VVTS,3/10/2021 4:30,106.6667,10.8167,91.4,62.6,38.45,M,3,0,29.88,M,6.21,M,FEW,M,M,M,2000,M,M,M,M,M,M,M,M,M,M,92.23,VVTS 100430Z VRB03KT 9999 FEW020 33/17 Q1012 NOSIG,M
VVTS,3/10/2021 5:00,106.6667,10.8167,93.2,62.6,36.35,M,5,0,29.85,M,6.21,M,FEW,M,M,M,2000,M,M,M,M,M,M,M,M,M,M,94.2,VVTS 100500Z VRB05KT 9999 FEW020 34/17 Q1011 NOSIG,M
VVTS,3/10/2021 5:30,106.6667,10.8167,93.2,60.8,34.11,340,5,0,29.85,M,6.21,M,SCT,M,M,M,1700,M,M,M,M,M,M,M,M,M,M,93.32,VVTS 100530Z 34005KT 270V040 9999 SCT017 34/16 Q1011 NOSIG,M
VVTS,3/10/2021 6:00,106.6667,10.8167,95,59,30.26,M,2,0,29.83,M,6.21,M,SCT,M,M,M,1700,M,M,M,M,M,M,M,M,M,M,94.51,VVTS 100600Z VRB02KT 9999 SCT017 35/15 Q1010 NOSIG,M
VVTS,3/10/2021 6:30,106.6667,10.8167,95,59,30.26,M,3,0,29.83,M,6.21,M,SCT,M,M,M,1700,M,M,M,M,M,M,M,M,M,M,94.51,VVTS 100630Z VRB03KT 9999 SCT017 35/15 Q1010 NOSIG,M
VVTS,3/10/2021 7:00,106.6667,10.8167,93.2,60.8,34.11,310,5,0,29.8,M,6.21,M,BKN,M,M,M,1700,M,M,M,M,M,M,M,M,M,M,93.32,VVTS 100700Z 31005KT 260V340 9999 BKN017 34/16 Q1009 NOSIG,M
VVTS,3/10/2021 7:30,106.6667,10.8167,93.2,60.8,34.11,260,4,0,29.8,M,6.21,M,BKN,M,M,M,1700,M,M,M,M,M,M,M,M,M,M,93.32,VVTS 100730Z 26004KT 230V310 9999 R25R/750VP2000 BKN017 34/16 Q1009 NOSIG,M
VVTS,3/10/2021 8:00,106.6667,10.8167,93.2,68,43.88,230,7,0,29.77,M,6.21,M,BKN,M,M,M,1700,M,M,M,M,M,M,M,M,M,M,97.67,VVTS 100800Z 23007KT 9999 R25R/1200VP2000U BKN017 34/20 Q1008 NOSIG,M
VVTS,3/10/2021 8:30,106.6667,10.8167,93.2,68,43.88,190,10,0,29.77,M,6.21,M,BKN,M,M,M,1700,M,M,M,M,M,M,M,M,M,M,97.67,VVTS 100830Z 19010KT 150V220 9999 BKN017 34/20 Q1008 NOSIG,M
VVTS,3/10/2021 9:00,106.6667,10.8167,91.4,68,46.41,180,10,0,29.77,M,6.21,M,SCT,M,M,M,2000,M,M,M,M,M,M,M,M,M,M,95.55,VVTS 100900Z 18010KT 150V210 9999 SCT020 33/20 Q1008 NOSIG,M
VVTS,3/10/2021 9:30,106.6667,10.8167,91.4,68,46.41,200,10,0,29.77,M,6.21,M,SCT,M,M,M,2000,M,M,M,M,M,M,M,M,M,M,95.55,COR VVTS 100930Z 20010KT 9999 SCT020 33/20 Q1008 NOSIG,M
VVTS,3/10/2021 10:00,106.6667,10.8167,89.6,69.8,52.23,160,9,0,29.8,M,6.21,M,SCT,M,M,M,2000,M,M,M,M,M,M,M,M,M,M,94.85,VVTS 101000Z 16009KT 130V210 9999 SCT020 32/21 Q1009 NOSIG,M
VVTS,3/10/2021 10:30,106.6667,10.8167,87.8,69.8,55.29,160,9,0,29.8,M,6.21,M,SCT,M,M,M,2000,M,M,M,M,M,M,M,M,M,M,92.71,VVTS 101030Z 16009KT 130V190 9999 SCT020 31/21 Q1009 NOSIG,M
VVTS,3/10/2021 11:00,106.6667,10.8167,86,68,55.04,160,7,0,29.8,M,6.21,M,SCT,M,M,M,2000,M,M,M,M,M,M,M,M,M,M,89.41,VVTS 101100Z 16007KT 9999 SCT020 30/20 Q1009 NOSIG,M
VVTS,3/10/2021 11:30,106.6667,10.8167,86,71.6,62.25,140,7,0,29.8,M,6.21,M,SCT,M,M,M,2000,M,M,M,M,M,M,M,M,M,M,91.92,VVTS 101130Z 14007KT 110V180 9999 SCT020 30/22 Q1009 NOSIG,M
VVTS,3/10/2021 12:00,106.6667,10.8167,86,69.8,58.55,130,8,0,29.83,M,6.21,M,FEW,M,M,M,2000,M,M,M,M,M,M,M,M,M,M,90.58,VVTS 101200Z 13008KT 9999 FEW020 30/21 Q1010 NOSIG,M
VVTS,3/10/2021 12:30,106.6667,10.8167,84.2,68,58.32,140,10,0,29.85,M,6.21,M,FEW,M,M,M,2000,M,M,M,M,M,M,M,M,M,M,87.4,VVTS 101230Z 14010KT 9999 FEW020 29/20 Q1011 NOSIG,M
VVTS,3/10/2021 13:00,106.6667,10.8167,84.2,68,58.32,130,11,0,29.85,M,6.21,M,FEW,M,M,M,2000,M,M,M,M,M,M,M,M,M,M,87.4,VVTS 101300Z 13011KT 9999 FEW020 29/20 Q1011 NOSIG,M
VVTS,3/10/2021 13:30,106.6667,10.8167,82.4,68,61.81,130,11,0,29.85,M,6.21,M,FEW,M,M,M,2000,M,M,M,M,M,M,M,M,M,M,85.38,VVTS 101330Z 13011KT 9999 FEW020 28/20 Q1011 NOSIG,M
VVTS,3/10/2021 14:00,106.6667,10.8167,82.4,68,61.81,130,9,0,29.85,M,6.21,M,FEW,M,M,M,2000,M,M,M,M,M,M,M,M,M,M,85.38,VVTS 101400Z 13009KT 100V160 9999 FEW020 28/20 Q1011 NOSIG,M
VVTS,3/10/2021 14:30,106.6667,10.8167,82.4,68,61.81,150,5,0,29.88,M,6.21,M,FEW,M,M,M,2000,M,M,M,M,M,M,M,M,M,M,85.38,VVTS 101430Z 15005KT 110V180 9999 FEW020 28/20 Q1012 NOSIG,M
VVTS,3/10/2021 15:00,106.6667,10.8167,82.4,68,61.81,140,6,0,29.88,M,6.21,M,FEW,M,M,M,1700,M,M,M,M,M,M,M,M,M,M,85.38,VVTS 101500Z 14006KT 9999 FEW017 28/20 Q1012 NOSIG,M
VVTS,3/10/2021 15:30,106.6667,10.8167,82.4,68,61.81,150,5,0,29.88,M,6.21,M,FEW,M,M,M,1700,M,M,M,M,M,M,M,M,M,M,85.38,VVTS 101530Z 15005KT 130V190 9999 FEW017 28/20 Q1012 NOSIG,M
VVTS,3/10/2021 16:00,106.6667,10.8167,80.6,69.8,69.71,140,5,0,29.88,M,6.21,M,FEW,M,M,M,1700,M,M,M,M,M,M,M,M,M,M,83.9,VVTS 101600Z 14005KT 9999 FEW017 27/21 Q1012 NOSIG,M
VVTS,3/10/2021 16:30,106.6667,10.8167,80.6,69.8,69.71,140,4,0,29.88,M,6.21,M,FEW,M,M,M,2000,M,M,M,M,M,M,M,M,M,M,83.9,VVTS 101630Z 14004KT 9999 FEW020 27/21 Q1012 NOSIG,M
VVTS,3/10/2021 17:00,106.6667,10.8167,80.6,69.8,69.71,150,4,0,29.88,M,6.21,M,FEW,M,M,M,2000,M,M,M,M,M,M,M,M,M,M,83.9,VVTS 101700Z 15004KT 100V190 9999 FEW020 27/21 Q1012 NOSIG,M
VVTS,3/10/2021 17:30,106.6667,10.8167,80.6,69.8,69.71,140,5,0,29.88,M,6.21,M,FEW,M,M,M,2000,M,M,M,M,M,M,M,M,M,M,83.9,VVTS 101730Z 14005KT 110V200 9999 FEW020 27/21 Q1012 NOSIG,M
VVTS,3/10/2021 18:00,106.6667,10.8167,80.6,69.8,69.71,140,5,0,29.85,M,6.21,M,FEW,M,M,M,2000,M,M,M,M,M,M,M,M,M,M,83.9,VVTS 101800Z 14005KT 9999 FEW020 27/21 Q1011 NOSIG,M
VVTS,3/10/2021 18:30,106.6667,10.8167,80.6,69.8,69.71,130,5,0,29.85,M,6.21,M,FEW,M,M,M,2000,M,M,M,M,M,M,M,M,M,M,83.9,VVTS 101830Z 13005KT 090V160 9999 FEW020 27/21 Q1011 NOSIG,M
VVTS,3/10/2021 19:00,106.6667,10.8167,80.6,69.8,69.71,100,5,0,29.85,M,6.21,M,FEW,M,M,M,2000,M,M,M,M,M,M,M,M,M,M,83.9,VVTS 101900Z 10005KT 9999 FEW020 27/21 Q1011 NOSIG,M
VVTS,3/10/2021 19:30,106.6667,10.8167,80.6,69.8,69.71,110,4,0,29.83,M,6.21,M,M,M,M,M,M,M,M,M,M,M,M,M,M,M,M,83.9,VVTS 101930Z 11004KT CAVOK 27/21 Q1010 NOSIG,M
VVTS,3/10/2021 20:00,106.6667,10.8167,78.8,71.6,78.62,90,3,0,29.83,M,6.21,M,FEW,M,M,M,1700,M,M,M,M,M,M,M,M,M,M,78.8,VVTS 102000Z 09003KT 9999 FEW017 26/22 Q1010 NOSIG,M
VVTS,3/10/2021 20:30,106.6667,10.8167,78.8,71.6,78.62,110,4,0,29.85,M,6.21,M,FEW,M,M,M,1700,M,M,M,M,M,M,M,M,M,M,78.8,VVTS 102030Z 11004KT 070V140 9999 FEW017 26/22 Q1011 NOSIG,M
VVTS,3/10/2021 21:00,106.6667,10.8167,78.8,71.6,78.62,110,5,0,29.85,M,6.21,M,FEW,M,M,M,1700,M,M,M,M,M,M,M,M,M,M,78.8,VVTS 102100Z 11005KT 9999 FEW017 26/22 Q1011 NOSIG,M
VVTS,3/10/2021 21:30,106.6667,10.8167,78.8,71.6,78.62,M,3,0,29.85,M,6.21,M,FEW,M,M,M,1700,M,M,M,M,M,M,M,M,M,M,78.8,VVTS 102130Z VRB03KT 9999 FEW017 26/22 Q1011 NOSIG,M
VVTS,3/10/2021 22:00,106.6667,10.8167,77,71.6,83.44,70,3,0,29.85,M,6.21,M,FEW,M,M,M,1700,M,M,M,M,M,M,M,M,M,M,77,VVTS 102200Z 07003KT 9999 FEW017 25/22 Q1011 NOSIG,M
VVTS,3/10/2021 22:30,106.6667,10.8167,77,71.6,83.44,80,2,0,29.85,M,6.21,M,FEW,M,M,M,2000,M,M,M,M,M,M,M,M,M,M,77,VVTS 102230Z 08002KT 9999 FEW020 25/22 Q1011 NOSIG,M
VVTS,3/10/2021 23:00,106.6667,10.8167,77,71.6,83.44,70,3,0,29.85,M,6.21,M,FEW,M,M,M,2000,M,M,M,M,M,M,M,M,M,M,77,VVTS 102300Z 07003KT 9999 FEW020 25/22 Q1011 NOSIG,M
VVTS,3/10/2021 23:30,106.6667,10.8167,77,71.6,83.44,M,3,0,29.88,M,4.97,M,FEW,M,M,M,2000,M,M,M,M,M,M,M,M,M,M,77,VVTS 102330Z VRB03KT 8000 FEW020 25/22 Q1012 NOSIG,M
VVTS,3/11/2021 0:00,106.6667,10.8167,78.8,71.6,78.62,10,4,0,29.91,M,4.97,M,SCT,M,M,M,1700,M,M,M,M,M,M,M,M,M,M,78.8,VVTS 110000Z 01004KT 8000 SCT017 26/22 Q1013 NOSIG,M
VVTS,3/11/2021 0:30,106.6667,10.8167,78.8,71.6,78.62,20,5,0,29.91,M,4.97,M,SCT,M,M,M,1700,M,M,M,M,M,M,M,M,M,M,78.8,VVTS 110030Z 02005KT 350V050 8000 SCT017 26/22 Q1013 NOSIG,M
VVTS,3/11/2021 1:00,106.6667,10.8167,82.4,71.6,69.9,40,4,0,29.91,M,4.97,M,FEW,M,M,M,2000,M,M,M,M,M,M,M,M,M,M,87.18,VVTS 110100Z 04004KT 350V070 8000 FEW020 28/22 Q1013 NOSIG,M
VVTS,3/11/2021 1:30,106.6667,10.8167,84.2,69.8,62.03,50,5,0,29.91,M,4.97,M,NSC,M,M,M,M,M,M,M,M,M,M,M,M,M,M,88.43,VVTS 110130Z 05005KT 340V090 8000 NSC 29/21 Q1013 NOSIG,M
VVTS,3/11/2021 2:00,106.6667,10.8167,86,69.8,58.55,50,6,0,29.91,M,4.97,M,NSC,M,M,M,M,M,M,M,M,M,M,M,M,M,M,90.58,VVTS 110200Z 05006KT 020V090 8000 NSC 30/21 Q1013 NOSIG,M
VVTS,3/11/2021 2:30,106.6667,10.8167,87.8,68,51.98,50,5,0,29.91,M,4.97,M,NSC,M,M,M,M,M,M,M,M,M,M,M,M,M,M,91.43,VVTS 110230Z 05005KT 010V090 8000 NSC 31/20 Q1013 NOSIG,M
VVTS,3/11/2021 3:00,106.6667,10.8167,89.6,68,49.1,50,5,0,29.91,M,6.21,M,M,M,M,M,M,M,M,M,M,M,M,M,M,M,M,93.47,VVTS 110300Z 05005KT 350V110 CAVOK 32/20 Q1013 NOSIG,M
VVTS,3/11/2021 3:30,106.6667,10.8167,91.4,66.2,43.61,70,5,0,29.91,M,6.21,M,FEW,M,M,M,2000,M,M,M,M,M,M,M,M,M,M,94.29,VVTS 110330Z 07005KT 330V140 9999 FEW020 33/19 Q1013 NOSIG,M
VVTS,3/11/2021 4:00,106.6667,10.8167,93.2,64.4,38.73,M,4,0,29.91,M,6.21,M,FEW,M,M,M,2000,M,M,M,M,M,M,M,M,M,M,95.2,VVTS 110400Z VRB04KT 9999 FEW020 34/18 Q1013 NOSIG,M
VVTS,3/11/2021 4:30,106.6667,10.8167,93.2,62.6,36.35,80,5,0,29.88,M,6.21,M,FEW,M,M,M,2000,M,M,M,M,M,M,M,M,M,M,94.2,VVTS 110430Z 08005KT 010V130 9999 FEW020 34/17 Q1012 NOSIG,M
VVTS,3/11/2021 5:00,106.6667,10.8167,95,62.6,34.39,80,6,0,29.85,M,6.21,M,SCT,M,M,M,2000,M,M,M,M,M,M,M,M,M,M,96.22,VVTS 110500Z 08006KT 340V150 9999 SCT020 35/17 Q1011 NOSIG,M
VVTS,3/11/2021 5:30,106.6667,10.8167,93.2,62.6,36.35,M,4,0,29.85,M,6.21,M,SCT,M,M,M,2000,M,M,M,M,M,M,M,M,M,M,94.2,VVTS 110530Z VRB04KT 9999 SCT020 34/17 Q1011 NOSIG,M
VVTS,3/11/2021 6:00,106.6667,10.8167,93.2,62.6,36.35,350,5,0,29.83,M,6.21,M,SCT,M,M,M,2000,M,M,M,M,M,M,M,M,M,M,94.2,VVTS 110600Z 35005KT 280V040 9999 SCT020 34/17 Q1010 NOSIG,M
VVTS,3/11/2021 6:30,106.6667,10.8167,95,62.6,34.39,340,4,0,29.83,M,6.21,M,BKN,M,M,M,2000,M,M,M,M,M,M,M,M,M,M,96.22,VVTS 110630Z 34004KT 290V050 9999 BKN020 35/17 Q1010 NOSIG,M
VVTS,3/11/2021 7:00,106.6667,10.8167,95,62.6,34.39,M,2,0,29.8,M,6.21,M,BKN,M,M,M,2000,M,M,M,M,M,M,M,M,M,M,96.22,VVTS 110700Z VRB02KT 9999 BKN020 35/17 Q1009 NOSIG,M
VVTS,3/11/2021 7:30,106.6667,10.8167,95,60.8,32.27,70,5,0,29.77,M,6.21,M,BKN,M,M,M,2000,M,M,M,M,M,M,M,M,M,M,95.3,VVTS 110730Z 07005KT 340V150 9999 BKN020 35/16 Q1008 NOSIG,M
VVTS,3/11/2021 8:00,106.6667,10.8167,93.2,62.6,36.35,M,5,0,29.77,M,6.21,M,BKN,M,M,M,2000,M,M,M,M,M,M,M,M,M,M,94.2,VVTS 110800Z VRB05KT 9999 R25R/650VP2000 BKN020 34/17 Q1008 NOSIG,M
VVTS,3/11/2021 8:30,106.6667,10.8167,93.2,69.8,46.67,210,11,0,29.77,M,6.21,M,BKN,M,M,M,2000,M,M,M,M,M,M,M,M,M,M,99.17,VVTS 110830Z 21011KT 9999 BKN020 34/21 Q1008 NOSIG,M
VVTS,3/11/2021 9:00,106.6667,10.8167,91.4,69.8,49.36,170,11,0,29.77,M,6.21,M,SCT,M,M,M,2000,M,M,M,M,M,M,M,M,M,M,96.99,VVTS 110900Z 17011KT 140V210 9999 SCT020 33/21 Q1008 NOSIG,M
VVTS,3/11/2021 9:30,106.6667,10.8167,91.4,68,46.41,180,10,0,29.77,M,6.21,M,SCT,M,M,M,2000,M,M,M,M,M,M,M,M,M,M,95.55,VVTS 110930Z 18010KT 9999 R25R/1900VP2000N SCT020 33/20 Q1008,M
VVTS,3/11/2021 10:00,106.6667,10.8167,89.6,71.6,55.53,170,11,0,29.77,M,6.21,M,FEW,M,M,M,2000,M,M,M,M,M,M,M,M,M,M,96.41,VVTS 111000Z 17011KT 140V210 9999 FEW020 32/22 Q1008 NOSIG,M
VVTS,3/11/2021 10:30,106.6667,10.8167,87.8,69.8,55.29,150,7,0,29.8,M,6.21,M,FEW,M,M,M,2000,M,M,M,M,M,M,M,M,M,M,92.71,VVTS 111030Z 15007KT 120V200 9999 FEW020 31/21 Q1009 NOSIG,M
VVTS,3/11/2021 11:00,106.6667,10.8167,86,73.4,66.15,150,9,0,29.8,M,6.21,M,FEW,M,M,M,2000,M,M,M,M,M,M,M,M,M,M,93.45,VVTS 111100Z 15009KT 120V190 9999 FEW020 30/23 Q1009 NOSIG,M
VVTS,3/11/2021 11:30,106.6667,10.8167,86,71.6,62.25,140,7,0,29.8,M,6.21,M,FEW,M,M,M,2000,M,M,M,M,M,M,M,M,M,M,91.92,VVTS 111130Z 14007KT 110V180 9999 FEW020 30/22 Q1009 NOSIG,M
VVTS,3/11/2021 12:00,106.6667,10.8167,84.2,68,58.32,140,12,0,29.83,M,6.21,M,FEW,M,M,M,2000,M,M,M,M,M,M,M,M,M,M,87.4,VVTS 111200Z 14012KT 9999 FEW020 29/20 Q1010 NOSIG,M
VVTS,3/11/2021 12:30,106.6667,10.8167,84.2,64.4,51.47,140,14,0,29.83,M,6.21,M,FEW,M,M,M,2000,M,M,M,M,M,M,M,M,M,M,85.71,VVTS 111230Z 14014KT 9999 FEW020 29/18 Q1010 NOSIG,M
VVTS,3/11/2021 13:00,106.6667,10.8167,84.2,66.2,54.8,130,15,0,29.85,M,6.21,M,FEW,M,M,M,2000,M,M,M,M,M,M,M,M,M,M,86.5,VVTS 111300Z 13015KT 9999 FEW020 29/19 Q1011 NOSIG,M
VVTS,3/11/2021 13:30,106.6667,10.8167,84.2,64.4,51.47,130,11,0,29.85,M,6.21,M,FEW,M,M,M,2000,M,M,M,M,M,M,M,M,M,M,85.71,VVTS 111330Z 13011KT 9999 FEW020 29/18 Q1011 NOSIG,M
VVTS,3/11/2021 14:00,106.6667,10.8167,82.4,66.2,58.08,130,12,0,29.88,M,6.21,M,FEW,M,M,M,2000,M,M,M,M,M,M,M,M,M,M,84.63,VVTS 111400Z 13012KT 9999 FEW020 28/19 Q1012 NOSIG,M
VVTS,3/11/2021 14:30,106.6667,10.8167,82.4,66.2,58.08,130,15,0,29.88,M,6.21,M,FEW,M,M,M,2000,M,M,M,M,M,M,M,M,M,M,84.63,VVTS 111430Z 13015KT 9999 FEW020 28/19 Q1012 NOSIG,M
VVTS,3/11/2021 15:00,106.6667,10.8167,82.4,68,61.81,120,10,0,29.88,M,6.21,M,FEW,M,M,M,2000,M,M,M,M,M,M,M,M,M,M,85.38,VVTS 111500Z 12010KT 9999 FEW020 28/20 Q1012 NOSIG,M
VVTS,3/11/2021 15:30,106.6667,10.8167,82.4,68,61.81,110,10,0,29.88,M,6.21,M,FEW,M,M,M,1700,M,M,M,M,M,M,M,M,M,M,85.38,VVTS 111530Z 11010KT 9999 FEW017 28/20 Q1012 NOSIG,M
VVTS,3/11/2021 16:00,106.6667,10.8167,82.4,68,61.81,100,8,0,29.88,M,6.21,M,FEW,M,M,M,1700,M,M,M,M,M,M,M,M,M,M,85.38,VVTS 111600Z 10008KT 070V130 9999 FEW017 28/20 Q1012 NOSIG,M
VVTS,3/11/2021 16:30,106.6667,10.8167,80.6,69.8,69.71,90,9,0,29.88,M,6.21,M,FEW,M,M,M,1700,M,M,M,M,M,M,M,M,M,M,83.9,VVTS 111630Z 09009KT 9999 FEW017 27/21 Q1012 NOSIG,M
VVTS,3/11/2021 17:00,106.6667,10.8167,80.6,69.8,69.71,100,7,0,29.88,M,6.21,M,FEW,M,M,M,1700,M,M,M,M,M,M,M,M,M,M,83.9,VVTS 111700Z 10007KT 070V130 9999 FEW017 27/21 Q1012 NOSIG,M
VVTS,3/11/2021 17:30,106.6667,10.8167,80.6,69.8,69.71,100,7,0,29.88,M,6.21,M,FEW,M,M,M,1700,M,M,M,M,M,M,M,M,M,M,83.9,VVTS 111730Z 10007KT 080V140 9999 FEW017 27/21 Q1012 NOSIG,M
VVTS,3/11/2021 18:00,106.6667,10.8167,80.6,69.8,69.71,110,7,0,29.85,M,6.21,M,FEW,M,M,M,1700,M,M,M,M,M,M,M,M,M,M,83.9,VVTS 111800Z 11007KT 9999 FEW017 27/21 Q1011 NOSIG,M
VVTS,3/11/2021 18:30,106.6667,10.8167,80.6,69.8,69.71,100,5,0,29.85,M,6.21,M,FEW,M,M,M,1700,M,M,M,M,M,M,M,M,M,M,83.9,VVTS 111830Z 10005KT 060V130 9999 FEW017 27/21 Q1011 NOSIG,M
VVTS,3/11/2021 19:00,106.6667,10.8167,80.6,69.8,69.71,90,4,0,29.85,M,6.21,M,FEW,M,M,M,1700,M,M,M,M,M,M,M,M,M,M,83.9,VVTS 111900Z 09004KT 060V120 9999 FEW017 27/21 Q1011 NOSIG,M
VVTS,3/11/2021 19:30,106.6667,10.8167,80.6,69.8,69.71,M,3,0,29.85,M,6.21,M,FEW,M,M,M,1700,M,M,M,M,M,M,M,M,M,M,83.9,VVTS 111930Z VRB03KT 9999 FEW017 27/21 Q1011 NOSIG,M
VVTS,3/11/2021 20:00,106.6667,10.8167,80.6,69.8,69.71,M,3,0,29.85,M,6.21,M,FEW,M,M,M,1700,M,M,M,M,M,M,M,M,M,M,83.9,VVTS 112000Z VRB03KT 9999 FEW017 27/21 Q1011 NOSIG,M
VVTS,3/11/2021 20:30,106.6667,10.8167,80.6,69.8,69.71,M,3,0,29.85,M,6.21,M,FEW,M,M,M,1700,M,M,M,M,M,M,M,M,M,M,83.9,VVTS 112030Z VRB03KT 9999 FEW017 27/21 Q1011 NOSIG,M
VVTS,3/11/2021 21:00,106.6667,10.8167,80.6,69.8,69.71,100,4,0,29.85,M,6.21,M,FEW,M,M,M,1700,M,M,M,M,M,M,M,M,M,M,83.9,VVTS 112100Z 10004KT 070V130 9999 FEW017 27/21 Q1011 NOSIG,M
VVTS,3/11/2021 21:30,106.6667,10.8167,78.8,69.8,73.95,80,5,0,29.85,M,6.21,M,FEW,M,M,M,1700,M,M,M,M,M,M,M,M,M,M,78.8,VVTS 112130Z 08005KT 9999 FEW017 26/21 Q1011 NOSIG,M
VVTS,3/11/2021 22:00,106.6667,10.8167,80.6,69.8,69.71,90,6,0,29.85,M,6.21,M,FEW,M,M,M,1700,M,M,M,M,M,M,M,M,M,M,83.9,VVTS 112200Z 09006KT 9999 FEW017 27/21 Q1011 NOSIG,M
VVTS,3/11/2021 22:30,106.6667,10.8167,78.8,68,69.52,90,5,0,29.88,M,6.21,M,FEW,M,M,M,1700,M,M,M,M,M,M,M,M,M,M,78.8,VVTS 112230Z 09005KT 9999 FEW017 26/20 Q1012 NOSIG,M
VVTS,3/11/2021 23:00,106.6667,10.8167,78.8,68,69.52,80,4,0,29.88,M,6.21,M,FEW,M,M,M,1700,M,M,M,M,M,M,M,M,M,M,78.8,VVTS 112300Z 08004KT 9999 FEW017 26/20 Q1012 NOSIG,M
VVTS,3/11/2021 23:30,106.6667,10.8167,80.6,69.8,69.71,70,2,0,29.88,M,6.21,M,FEW,SCT,M,M,1700,5000,M,M,M,M,M,M,M,M,M,83.9,VVTS 112330Z 07002KT 9999 FEW017 SCT050 27/21 Q1012 NOSIG,M
VVTS,3/12/2021 0:00,106.6667,10.8167,80.6,68,65.54,M,1,0,29.91,M,6.21,M,FEW,SCT,M,M,1700,5000,M,M,M,M,M,M,M,M,M,83.29,VVTS 120000Z VRB01KT 9999 FEW017 SCT050 27/20 Q1013 NOSIG,M
VVTS,3/12/2021 0:30,106.6667,10.8167,82.4,66.2,58.08,M,2,0,29.91,M,6.21,M,FEW,SCT,M,M,1700,5000,M,M,M,M,M,M,M,M,M,84.63,VVTS 120030Z VRB02KT 9999 FEW017 SCT050 28/19 Q1013 NOSIG,M
VVTS,3/12/2021 1:00,106.6667,10.8167,84.2,66.2,54.8,M,1,0,29.91,M,6.21,M,FEW,SCT,M,M,1700,5000,M,M,M,M,M,M,M,M,M,86.5,VVTS 120100Z VRB01KT 9999 FEW017 SCT050 29/19 Q1013 NOSIG,M
VVTS,3/12/2021 1:30,106.6667,10.8167,84.2,66.2,54.8,M,1,0,29.91,M,6.21,M,FEW,SCT,M,M,1700,5000,M,M,M,M,M,M,M,M,M,86.5,VVTS 120130Z VRB01KT 9999 FEW017 SCT050 29/19 Q1013 NOSIG,M
VVTS,3/12/2021 2:00,106.6667,10.8167,84.2,66.2,54.8,M,2,0,29.94,M,6.21,M,FEW,SCT,M,M,1700,5000,M,M,M,M,M,M,M,M,M,86.5,VVTS 120200Z VRB02KT 9999 FEW017 SCT050 29/19 Q1014 NOSIG,M
VVTS,3/12/2021 2:30,106.6667,10.8167,87.8,68,51.98,M,3,0,29.94,M,6.21,M,SCT,M,M,M,2000,M,M,M,M,M,M,M,M,M,M,91.43,VVTS 120230Z VRB03KT 9999 SCT020 31/20 Q1014 NOSIG,M
VVTS,3/12/2021 3:00,106.6667,10.8167,89.6,62.6,40.69,M,2,0,29.94,M,6.21,M,SCT,M,M,M,2000,M,M,M,M,M,M,M,M,M,M,90.32,VVTS 120300Z VRB02KT 9999 SCT020 32/17 Q1014 NOSIG,M
VVTS,3/12/2021 3:30,106.6667,10.8167,89.6,64.4,43.34,M,4,0,29.91,M,6.21,M,SCT,M,M,M,2000,M,M,M,M,M,M,M,M,M,M,91.23,VVTS 120330Z VRB04KT 9999 SCT020 32/18 Q1013 NOSIG,M
VVTS,3/12/2021 4:00,106.6667,10.8167,89.6,64.4,43.34,M,3,0,29.91,M,6.21,M,SCT,M,M,M,2000,M,M,M,M,M,M,M,M,M,M,91.23,VVTS 120400Z VRB03KT 9999 SCT020 32/18 Q1013 NOSIG,M
VVTS,3/12/2021 4:30,106.6667,10.8167,91.4,66.2,43.61,M,4,0,29.88,M,6.21,M,SCT,M,M,M,2000,M,M,M,M,M,M,M,M,M,M,94.29,VVTS 120430Z VRB04KT 9999 SCT020 33/19 Q1012 NOSIG,M
VVTS,3/12/2021 5:00,106.6667,10.8167,91.4,64.4,40.96,M,3,0,29.88,M,6.21,M,SCT,M,M,M,2000,M,M,M,M,M,M,M,M,M,M,93.19,VVTS 120500Z VRB03KT 9999 SCT020 33/18 Q1012 NOSIG,M
VVTS,3/12/2021 5:30,106.6667,10.8167,95,60.8,32.27,150,5,0,29.85,M,6.21,M,SCT,M,M,M,2000,M,M,M,M,M,M,M,M,M,M,95.3,VVTS 120530Z 15005KT 010V090 9999 SCT020 35/16 Q1011 NOSIG,M
VVTS,3/12/2021 6:00,106.6667,10.8167,95,57.2,28.37,M,4,0,29.85,M,6.21,M,SCT,M,M,M,2000,M,M,M,M,M,M,M,M,M,M,93.82,VVTS 120600Z VRB04KT 9999 SCT020 35/14 Q1011 NOSIG,M
VVTS,3/12/2021 6:30,106.6667,10.8167,95,57.2,28.37,120,6,0,29.83,M,6.21,M,SCT,M,M,M,2000,M,M,M,M,M,M,M,M,M,M,93.82,VVTS 120630Z 12006KT 060V190 9999 SCT020 35/14 Q1010 NOSIG,M
VVTS,3/12/2021 7:00,106.6667,10.8167,95,57.2,28.37,130,6,0,29.8,M,6.21,M,SCT,M,M,M,2000,M,M,M,M,M,M,M,M,M,M,93.82,VVTS 120700Z 13006KT 070V190 9999 SCT020 35/14 Q1009 NOSIG,M
VVTS,3/12/2021 7:30,106.6667,10.8167,95,59,30.26,M,6,0,29.8,M,6.21,M,SCT,M,M,M,2000,M,M,M,M,M,M,M,M,M,M,94.51,VVTS 120730Z VRB06KT 9999 SCT020 35/15 Q1009 NOSIG,M
VVTS,3/12/2021 8:00,106.6667,10.8167,93.2,64.4,38.73,190,10,0,29.8,M,6.21,M,SCT,M,M,M,2000,M,M,M,M,M,M,M,M,M,M,95.2,VVTS 120800Z 19010KT 140V210 9999 SCT020 34/18 Q1009 NOSIG,M
VVTS,3/12/2021 8:30,106.6667,10.8167,95,66.2,39,200,10,0,29.77,M,6.21,M,SCT,M,M,M,1700,M,M,M,M,M,M,M,M,M,M,98.46,VVTS 120830Z 20010KT 160V230 9999 SCT017 35/19 Q1008 NOSIG,M
VVTS,3/12/2021 9:00,106.6667,10.8167,93.2,66.2,41.23,190,10,0,29.8,M,6.21,M,SCT,M,M,M,1700,M,M,M,M,M,M,M,M,M,M,96.35,VVTS 120900Z 19010KT 9999 R25R/800VP2000D SCT017 34/19 Q1009 NOSIG,M
VVTS,3/12/2021 9:30,106.6667,10.8167,89.6,68,49.1,180,10,0,29.8,M,6.21,M,SCT,M,M,M,1700,M,M,M,M,M,M,M,M,M,M,93.47,VVTS 120930Z 18010KT 9999 R25R/1200VP2000D SCT017 32/20 Q1009 NOSIG,M
VVTS,3/12/2021 10:00,106.6667,10.8167,89.6,66.2,46.14,170,10,0,29.8,M,6.21,M,FEW,M,M,M,1700,M,M,M,M,M,M,M,M,M,M,92.27,VVTS 121000Z 17010KT 140V210 9999 FEW017 32/19 Q1009 NOSIG,M
VVTS,3/12/2021 10:30,106.6667,10.8167,87.8,64.4,45.88,180,8,0,29.8,M,6.21,M,FEW,M,M,M,1700,M,M,M,M,M,M,M,M,M,M,89.33,VVTS 121030Z 18008KT 150V210 9999 FEW017 31/18 Q1009 NOSIG,M
VVTS,3/12/2021 11:00,106.6667,10.8167,87.8,66.2,48.84,160,8,0,29.83,M,6.21,M,FEW,M,M,M,1700,M,M,M,M,M,M,M,M,M,M,90.31,VVTS 121100Z 16008KT 120V190 9999 FEW017 31/19 Q1010 NOSIG,M
VVTS,3/12/2021 11:30,106.6667,10.8167,86,64.4,48.58,170,7,0,29.83,M,6.21,M,SCT,FEW,M,M,1700,2000,M,M,M,M,M,M,M,M,M,87.49,VVTS 121130Z 17007KT 140V210 9999 SCT017 FEW020TCU 30/18 Q1010 NOSIG RMK TCU/E,M
VVTS,3/12/2021 12:00,106.6667,10.8167,86,64.4,48.58,150,7,0,29.83,M,6.21,M,SCT,FEW,M,M,1700,2000,M,M,M,M,M,M,M,M,M,87.49,VVTS 121200Z 15007KT 9999 SCT017 FEW020TCU 30/18 Q1010 NOSIG RMK CB/E,M
VVTS,3/12/2021 12:30,106.6667,10.8167,86,64.4,48.58,150,7,0,29.83,M,6.21,M,SCT,FEW,M,M,1700,2000,M,M,M,M,M,M,M,M,M,87.49,VVTS 121230Z 15007KT 9999 SCT017 FEW020TCU 30/18 Q1010 NOSIG RMK TCU/E,M
VVTS,3/12/2021 13:00,106.6667,10.8167,86,62.6,45.61,140,10,0,29.85,M,6.21,M,SCT,M,M,M,1700,M,M,M,M,M,M,M,M,M,M,86.72,VVTS 121300Z 14010KT 9999 SCT017 30/17 Q1011 NOSIG,M
VVTS,3/12/2021 13:30,106.6667,10.8167,86,62.6,45.61,140,10,0,29.88,M,6.21,M,SCT,M,M,M,1700,M,M,M,M,M,M,M,M,M,M,86.72,VVTS 121330Z 14010KT 9999 SCT017 30/17 Q1012 NOSIG,M
VVTS,3/12/2021 14:00,106.6667,10.8167,86,62.6,45.61,140,8,0,29.88,M,6.21,M,SCT,M,M,M,1700,M,M,M,M,M,M,M,M,M,M,86.72,VVTS 121400Z 14008KT 9999 SCT017 30/17 Q1012 NOSIG,M
VVTS,3/12/2021 14:30,106.6667,10.8167,86,62.6,45.61,140,7,0,29.88,M,6.21,M,SCT,M,M,M,1700,M,M,M,M,M,M,M,M,M,M,86.72,VVTS 121430Z 14007KT 100V180 9999 SCT017 30/17 Q1012 NOSIG,M
VVTS,3/12/2021 15:00,106.6667,10.8167,84.2,64.4,51.47,160,8,0,29.88,M,6.21,M,SCT,M,M,M,1700,M,M,M,M,M,M,M,M,M,M,85.71,VVTS 121500Z 16008KT 9999 SCT017 29/18 Q1012 NOSIG,M
VVTS,3/12/2021 15:30,106.6667,10.8167,84.2,64.4,51.47,150,6,0,29.88,M,6.21,M,SCT,M,M,M,1700,M,M,M,M,M,M,M,M,M,M,85.71,VVTS 121530Z 15006KT 130V190 9999 SCT017 29/18 Q1012 NOSIG,M
VVTS,3/12/2021 16:00,106.6667,10.8167,82.4,64.4,54.55,150,6,0,29.88,M,6.21,M,SCT,M,M,M,1700,M,M,M,M,M,M,M,M,M,M,83.98,VVTS 121600Z 15006KT 110V190 9999 SCT017 28/18 Q1012 NOSIG,M
VVTS,3/12/2021 16:30,106.6667,10.8167,82.4,66.2,58.08,140,6,0,29.88,M,6.21,M,SCT,M,M,M,1700,M,M,M,M,M,M,M,M,M,M,84.63,VVTS 121630Z 14006KT 110V180 9999 SCT017 28/19 Q1012 NOSIG,M
VVTS,3/12/2021 17:00,106.6667,10.8167,82.4,66.2,58.08,130,6,0,29.88,M,6.21,M,SCT,M,M,M,1700,M,M,M,M,M,M,M,M,M,M,84.63,VVTS 121700Z 13006KT 090V180 9999 SCT017 28/19 Q1012 NOSIG,M
VVTS,3/12/2021 17:30,106.6667,10.8167,82.4,66.2,58.08,130,7,0,29.88,M,6.21,M,SCT,M,M,M,1700,M,M,M,M,M,M,M,M,M,M,84.63,VVTS 121730Z 13007KT 100V160 9999 SCT017 28/19 Q1012 NOSIG,M
VVTS,3/12/2021 18:00,106.6667,10.8167,82.4,68,61.81,130,6,0,29.85,M,6.21,M,SCT,M,M,M,1700,M,M,M,M,M,M,M,M,M,M,85.38,VVTS 121800Z 13006KT 9999 SCT017 28/20 Q1011 NOSIG,M
VVTS,3/12/2021 18:30,106.6667,10.8167,80.6,68,65.54,140,5,0,29.85,M,6.21,M,FEW,M,M,M,2000,M,M,M,M,M,M,M,M,M,M,83.29,VVTS 121830Z 14005KT 9999 FEW020 27/20 Q1011 NOSIG,M
VVTS,3/12/2021 19:00,106.6667,10.8167,80.6,69.8,69.71,M,3,0,29.85,M,6.21,M,FEW,M,M,M,2000,M,M,M,M,M,M,M,M,M,M,83.9,VVTS 121900Z VRB03KT 9999 FEW020 27/21 Q1011 NOSIG,M
VVTS,3/12/2021 19:30,106.6667,10.8167,80.6,68,65.54,110,6,0,29.85,M,6.21,M,FEW,M,M,M,2000,M,M,M,M,M,M,M,M,M,M,83.29,VVTS 121930Z 11006KT 9999 FEW020 27/20 Q1011 NOSIG,M
VVTS,3/12/2021 20:00,106.6667,10.8167,80.6,68,65.54,110,6,0,29.85,M,6.21,M,FEW,M,M,M,2000,M,M,M,M,M,M,M,M,M,M,83.29,VVTS 122000Z 11006KT 9999 FEW020 27/20 Q1011 NOSIG,M
VVTS,3/12/2021 20:30,106.6667,10.8167,80.6,68,65.54,100,5,0,29.85,M,6.21,M,FEW,M,M,M,2000,M,M,M,M,M,M,M,M,M,M,83.29,VVTS 122030Z 10005KT 9999 FEW020 27/20 Q1011 NOSIG,M
VVTS,3/12/2021 21:00,106.6667,10.8167,78.8,68,69.52,80,5,0,29.85,M,6.21,M,FEW,M,M,M,2000,M,M,M,M,M,M,M,M,M,M,78.8,VVTS 122100Z 08005KT 9999 FEW020 26/20 Q1011 NOSIG,M
VVTS,3/12/2021 21:30,106.6667,10.8167,78.8,69.8,73.95,110,5,0,29.85,M,6.21,M,FEW,M,M,M,1700,M,M,M,M,M,M,M,M,M,M,78.8,VVTS 122130Z 11005KT 9999 FEW017 26/21 Q1011 NOSIG,M
VVTS,3/12/2021 22:00,106.6667,10.8167,80.6,69.8,69.71,90,5,0,29.85,M,6.21,M,FEW,M,M,M,1700,M,M,M,M,M,M,M,M,M,M,83.9,VVTS 122200Z 09005KT 9999 FEW017 27/21 Q1011 NOSIG,M
VVTS,3/12/2021 22:30,106.6667,10.8167,78.8,69.8,73.95,70,4,0,29.88,M,6.21,M,FEW,M,M,M,1700,M,M,M,M,M,M,M,M,M,M,78.8,VVTS 122230Z 07004KT 9999 FEW017 26/21 Q1012 NOSIG,M
VVTS,3/12/2021 23:00,106.6667,10.8167,78.8,69.8,73.95,80,4,0,29.88,M,6.21,M,SCT,M,M,M,1700,M,M,M,M,M,M,M,M,M,M,78.8,VVTS 122300Z 08004KT 9999 SCT017 26/21 Q1012 NOSIG,M
VVTS,3/12/2021 23:30,106.6667,10.8167,78.8,69.8,73.95,M,2,0,29.91,M,4.97,M,SCT,M,M,M,1700,M,M,M,M,M,M,M,M,M,M,78.8,VVTS 122330Z VRB02KT 8000 SCT017 26/21 Q1013 NOSIG,M
VVTS,3/13/2021 0:00,106.6667,10.8167,78.8,71.6,78.62,M,1,0,29.91,M,4.97,M,SCT,FEW,M,M,1700,2000,M,M,M,M,M,M,M,M,M,78.8,VVTS 130000Z VRB01KT 8000 SCT017 FEW020TCU 26/22 Q1013 NOSIG RMK TCU/E/SE,M
VVTS,3/13/2021 0:30,106.6667,10.8167,78.8,71.6,78.62,M,3,0,29.94,M,4.97,M,SCT,FEW,M,M,1700,2000,M,M,M,M,M,M,M,M,M,78.8,VVTS 130030Z VRB03KT 8000 SCT017 FEW020TCU 26/22 Q1014 NOSIG RMK TCU/E,M
VVTS,3/13/2021 1:00,106.6667,10.8167,80.6,71.6,74.11,M,2,0,29.94,M,4.97,M,SCT,FEW,M,M,1700,2000,M,M,M,M,M,M,M,M,M,84.57,VVTS 130100Z VRB02KT 8000 SCT017 FEW020TCU 27/22 Q1014 NOSIG RMK TCU/E,M
VVTS,3/13/2021 1:30,106.6667,10.8167,80.6,71.6,74.11,M,3,0,29.94,M,4.97,M,SCT,FEW,M,M,1700,2000,M,M,M,M,M,M,M,M,M,84.57,VVTS 130130Z VRB03KT 8000 SCT017 FEW020TCU 27/22 Q1014 NOSIG RMK TCU/SE,M
VVTS,3/13/2021 2:00,106.6667,10.8167,84.2,69.8,62.03,340,4,0,29.94,M,4.97,M,SCT,M,M,M,1700,M,M,M,M,M,M,M,M,M,M,88.43,VVTS 130200Z 34004KT 290V030 8000 SCT017 29/21 Q1014 NOSIG,M
VVTS,3/13/2021 2:30,106.6667,10.8167,86,68,55.04,M,3,0,29.94,M,4.97,M,FEW,M,M,M,1700,M,M,M,M,M,M,M,M,M,M,89.41,VVTS 130230Z VRB03KT 8000 FEW017 30/20 Q1014 NOSIG,M
VVTS,3/13/2021 3:00,106.6667,10.8167,86,68,55.04,360,4,0,29.94,M,4.97,M,FEW,M,M,M,1700,M,M,M,M,M,M,M,M,M,M,89.41,VVTS 130300Z 36004KT 270V080 8000 FEW017 30/20 Q1014 NOSIG,M
VVTS,3/13/2021 3:30,106.6667,10.8167,89.6,64.4,43.34,10,5,0,29.94,M,4.97,M,FEW,M,M,M,1700,M,M,M,M,M,M,M,M,M,M,91.23,VVTS 130330Z 01005KT 280V060 8000 FEW017 32/18 Q1014 NOSIG,M
VVTS,3/13/2021 4:00,106.6667,10.8167,91.4,62.6,38.45,40,6,0,29.91,M,6.21,M,FEW,M,M,M,1700,M,M,M,M,M,M,M,M,M,M,92.23,VVTS 130400Z 04006KT 350V100 9999 FEW017 33/17 Q1013 NOSIG,M
VVTS,3/13/2021 4:30,106.6667,10.8167,93.2,64.4,38.73,70,5,0,29.88,M,6.21,M,FEW,M,M,M,1700,M,M,M,M,M,M,M,M,M,M,95.2,VVTS 130430Z 07005KT 010V140 9999 FEW017 34/18 Q1012 NOSIG,M
VVTS,3/13/2021 5:00,106.6667,10.8167,93.2,66.2,41.23,M,2,0,29.88,M,6.21,M,SCT,M,M,M,2000,M,M,M,M,M,M,M,M,M,M,96.35,VVTS 130500Z VRB02KT 9999 SCT020 34/19 Q1012 NOSIG,M
VVTS,3/13/2021 5:30,106.6667,10.8167,95,64.4,36.63,M,4,0,29.85,M,6.21,M,SCT,M,M,M,2000,M,M,M,M,M,M,M,M,M,M,97.26,VVTS 130530Z VRB04KT 9999 SCT020 35/18 Q1011 NOSIG,M
VVTS,3/13/2021 6:00,106.6667,10.8167,95,64.4,36.63,M,2,0,29.83,M,6.21,M,SCT,M,M,M,2000,M,M,M,M,M,M,M,M,M,M,97.26,VVTS 130600Z VRB02KT 9999 SCT020 35/18 Q1010 NOSIG,M
VVTS,3/13/2021 6:30,106.6667,10.8167,95,62.6,34.39,M,3,0,29.83,M,6.21,M,SCT,M,M,M,2000,M,M,M,M,M,M,M,M,M,M,96.22,VVTS 130630Z VRB03KT 9999 SCT020 35/17 Q1010 NOSIG,M
VVTS,3/13/2021 7:00,106.6667,10.8167,95,60.8,32.27,M,2,0,29.8,M,6.21,M,SCT,M,M,M,2000,M,M,M,M,M,M,M,M,M,M,95.3,VVTS 130700Z VRB02KT 9999 SCT020 35/16 Q1009 NOSIG,M
VVTS,3/13/2021 7:30,106.6667,10.8167,95,60.8,32.27,150,5,0,29.8,M,6.21,M,BKN,M,M,M,2000,M,M,M,M,M,M,M,M,M,M,95.3,VVTS 130730Z 15005KT 9999 BKN020 35/16 Q1009 NOSIG,M
VVTS,3/13/2021 8:00,106.6667,10.8167,95,60.8,32.27,M,2,0,29.77,M,6.21,M,BKN,M,M,M,2000,M,M,M,M,M,M,M,M,M,M,95.3,VVTS 130800Z VRB02KT 9999 BKN020 35/16 Q1008 NOSIG,M
VVTS,3/13/2021 8:30,106.6667,10.8167,95,60.8,32.27,M,1,0,29.77,M,6.21,M,SCT,M,M,M,2000,M,M,M,M,M,M,M,M,M,M,95.3,VVTS 130830Z VRB01KT 9999 SCT020 35/16 Q1008 NOSIG,M
VVTS,3/13/2021 9:00,106.6667,10.8167,91.4,64.4,40.96,190,12,0,29.77,M,6.21,M,SCT,M,M,M,2000,M,M,M,M,M,M,M,M,M,M,93.19,VVTS 130900Z 19012KT 150V210 9999 R25R/1200VP2000U SCT020 33/18 Q1008 NOSIG,M
VVTS,3/13/2021 9:30,106.6667,10.8167,89.6,64.4,43.34,180,9,0,29.77,M,6.21,M,SCT,M,M,M,2000,M,M,M,M,M,M,M,M,M,M,91.23,VVTS 130930Z 18009KT 9999 SCT020 32/18 Q1008 NOSIG,M
VVTS,3/13/2021 10:00,106.6667,10.8167,89.6,60.8,38.18,170,10,0,29.77,M,6.21,M,SCT,M,M,M,2000,M,M,M,M,M,M,M,M,M,M,89.54,VVTS 131000Z 17010KT 140V200 9999 SCT020 32/16 Q1008 NOSIG,M
VVTS,3/13/2021 10:30,106.6667,10.8167,87.8,60.8,40.41,170,9,0,29.77,M,6.21,M,FEW,M,M,M,2000,M,M,M,M,M,M,M,M,M,M,87.75,VVTS 131030Z 17009KT 140V200 9999 FEW020 31/16 Q1008 NOSIG,M
VVTS,3/13/2021 11:00,106.6667,10.8167,86,62.6,45.61,160,10,0,29.8,M,6.21,M,FEW,M,M,M,2000,M,M,M,M,M,M,M,M,M,M,86.72,VVTS 131100Z 16010KT 9999 FEW020 30/17 Q1009 NOSIG,M
VVTS,3/13/2021 11:30,106.6667,10.8167,86,62.6,45.61,160,9,0,29.8,M,6.21,M,FEW,M,M,M,1700,M,M,M,M,M,M,M,M,M,M,86.72,VVTS 131130Z 16009KT 120V200 9999 FEW017 30/17 Q1009 NOSIG,M
VVTS,3/13/2021 12:00,106.6667,10.8167,84.2,64.4,51.47,150,9,0,29.8,M,6.21,M,FEW,M,M,M,1700,M,M,M,M,M,M,M,M,M,M,85.71,VVTS 131200Z 15009KT 9999 FEW017 29/18 Q1009 NOSIG,M
VVTS,3/13/2021 12:30,106.6667,10.8167,84.2,64.4,51.47,150,8,0,29.83,M,6.21,M,FEW,M,M,M,1700,M,M,M,M,M,M,M,M,M,M,85.71,VVTS 131230Z 15008KT 130V190 9999 FEW017 29/18 Q1010 NOSIG,M
VVTS,3/13/2021 13:00,106.6667,10.8167,84.2,64.4,51.47,150,7,0,29.83,M,6.21,M,FEW,M,M,M,1700,M,M,M,M,M,M,M,M,M,M,85.71,VVTS 131300Z 15007KT 120V180 9999 FEW017 29/18 Q1010 NOSIG,M
VVTS,3/13/2021 13:30,106.6667,10.8167,82.4,66.2,58.08,150,6,0,29.83,M,6.21,M,FEW,M,M,M,1700,M,M,M,M,M,M,M,M,M,M,84.63,VVTS 131330Z 15006KT 120V200 9999 FEW017 28/19 Q1010 NOSIG,M
VVTS,3/13/2021 14:00,106.6667,10.8167,82.4,66.2,58.08,140,8,0,29.83,M,6.21,M,FEW,M,M,M,1700,M,M,M,M,M,M,M,M,M,M,84.63,VVTS 131400Z 14008KT 9999 FEW017 28/19 Q1010 NOSIG,M
VVTS,3/13/2021 14:30,106.6667,10.8167,82.4,66.2,58.08,140,10,0,29.83,M,6.21,M,FEW,M,M,M,2000,M,M,M,M,M,M,M,M,M,M,84.63,VVTS 131430Z 14010KT 9999 FEW020 28/19 Q1010 NOSIG,M
VVTS,3/13/2021 15:00,106.6667,10.8167,82.4,66.2,58.08,140,8,0,29.85,M,6.21,M,FEW,M,M,M,2000,M,M,M,M,M,M,M,M,M,M,84.63,VVTS 131500Z 14008KT 9999 FEW020 28/19 Q1011 NOSIG,M
VVTS,3/13/2021 15:30,106.6667,10.8167,80.6,68,65.54,140,9,0,29.85,M,6.21,M,FEW,M,M,M,2000,M,M,M,M,M,M,M,M,M,M,83.29,VVTS 131530Z 14009KT 110V170 9999 FEW020 27/20 Q1011 NOSIG,M
VVTS,3/13/2021 16:00,106.6667,10.8167,80.6,69.8,69.71,130,7,0,29.85,M,6.21,M,FEW,M,M,M,2000,M,M,M,M,M,M,M,M,M,M,83.9,VVTS 131600Z 13007KT 9999 FEW020 27/21 Q1011 NOSIG,M
VVTS,3/13/2021 16:30,106.6667,10.8167,80.6,69.8,69.71,130,6,0,29.83,M,6.21,M,FEW,M,M,M,2000,M,M,M,M,M,M,M,M,M,M,83.9,VVTS 131630Z 13006KT 9999 FEW020 27/21 Q1010 NOSIG,M
VVTS,3/13/2021 17:00,106.6667,10.8167,78.8,71.6,78.62,110,6,0,29.83,M,6.21,M,FEW,M,M,M,2000,M,M,M,M,M,M,M,M,M,M,78.8,VVTS 131700Z 11006KT 080V140 9999 FEW020 26/22 Q1010 NOSIG,M
VVTS,3/13/2021 17:30,106.6667,10.8167,78.8,71.6,78.62,150,6,0,29.83,M,6.21,M,FEW,M,M,M,2000,M,M,M,M,M,M,M,M,M,M,78.8,VVTS 131730Z 15006KT 9999 FEW020 26/22 Q1010 NOSIG,M
VVTS,3/13/2021 18:00,106.6667,10.8167,78.8,71.6,78.62,130,5,0,29.83,M,6.21,M,SCT,M,M,M,2000,M,M,M,M,M,M,M,M,M,M,78.8,VVTS 131800Z 13005KT 110V170 9999 SCT020 26/22 Q1010 NOSIG,M
VVTS,3/13/2021 18:30,106.6667,10.8167,78.8,71.6,78.62,140,6,0,29.8,M,6.21,M,SCT,M,M,M,2000,M,M,M,M,M,M,M,M,M,M,78.8,VVTS 131830Z 14006KT 9999 SCT020 26/22 Q1009 NOSIG,M
VVTS,3/13/2021 19:00,106.6667,10.8167,78.8,71.6,78.62,130,4,0,29.8,M,6.21,M,SCT,M,M,M,2000,M,M,M,M,M,M,M,M,M,M,78.8,VVTS 131900Z 13004KT 9999 SCT020 26/22 Q1009 NOSIG,M
VVTS,3/13/2021 19:30,106.6667,10.8167,78.8,71.6,78.62,130,6,0,29.8,M,6.21,M,SCT,M,M,M,2000,M,M,M,M,M,M,M,M,M,M,78.8,VVTS 131930Z 13006KT 9999 SCT020 26/22 Q1009 NOSIG,M
VVTS,3/13/2021 20:00,106.6667,10.8167,77,71.6,83.44,M,2,0,29.8,M,6.21,M,SCT,M,M,M,2000,M,M,M,M,M,M,M,M,M,M,77,VVTS 132000Z VRB02KT 9999 SCT020 25/22 Q1009 NOSIG,M
VVTS,3/13/2021 20:30,106.6667,10.8167,77,71.6,83.44,M,1,0,29.8,M,6.21,M,SCT,M,M,M,2000,M,M,M,M,M,M,M,M,M,M,77,VVTS 132030Z VRB01KT 9999 SCT020 25/22 Q1009 NOSIG,M
VVTS,3/13/2021 21:00,106.6667,10.8167,77,71.6,83.44,M,1,0,29.8,M,6.21,M,M,M,M,M,M,M,M,M,M,M,M,M,M,M,M,77,VVTS 132100Z VRB01KT CAVOK 25/22 Q1009 NOSIG,M
VVTS,3/13/2021 21:30,106.6667,10.8167,77,71.6,83.44,M,2,0,29.8,M,6.21,M,M,M,M,M,M,M,M,M,M,M,M,M,M,M,M,77,VVTS 132130Z VRB02KT CAVOK 25/22 Q1009 NOSIG,M
VVTS,3/13/2021 22:00,106.6667,10.8167,77,71.6,83.44,140,2,0,29.8,M,6.21,M,M,M,M,M,M,M,M,M,M,M,M,M,M,M,M,77,VVTS 132200Z 14002KT CAVOK 25/22 Q1009 NOSIG,M
VVTS,3/13/2021 22:30,106.6667,10.8167,77,73.4,88.67,M,1,0,29.83,M,6.21,M,FEW,M,M,M,2000,M,M,M,M,M,M,M,M,M,M,77,VVTS 132230Z VRB01KT 9999 FEW020 25/23 Q1010 NOSIG,M
VVTS,3/13/2021 23:00,106.6667,10.8167,77,73.4,88.67,320,4,0,29.83,M,6.21,M,FEW,M,M,M,2000,M,M,M,M,M,M,M,M,M,M,77,VVTS 132300Z 32004KT 9999 FEW020 25/23 Q1010 NOSIG,M
VVTS,3/13/2021 23:30,106.6667,10.8167,75.2,73.4,94.14,340,6,0,29.85,M,3.11,M,FEW,M,M,M,2000,M,M,M,BR,M,M,M,M,M,M,75.2,VVTS 132330Z 34006KT 5000 BR FEW020 24/23 Q1011 NOSIG,M
VVTS,3/14/2021 0:00,106.6667,10.8167,75.2,73.4,94.14,350,4,0,29.85,M,3.11,M,FEW,M,M,M,2000,M,M,M,BR,M,M,M,M,M,M,75.2,VVTS 140000Z 35004KT 330V030 5000 BR FEW020 24/23 Q1011 NOSIG,M
VVTS,3/14/2021 0:30,106.6667,10.8167,77,73.4,88.67,340,5,0,29.88,M,3.73,M,FEW,M,M,M,2000,M,M,M,M,M,M,M,M,M,M,77,VVTS 140030Z 34005KT 300V030 6000 FEW020 25/23 Q1012 NOSIG,M
VVTS,3/14/2021 1:00,106.6667,10.8167,78.8,73.4,83.55,350,6,0,29.88,M,3.73,M,FEW,M,M,M,2000,M,M,M,M,M,M,M,M,M,M,78.8,VVTS 140100Z 35006KT 6000 FEW020 26/23 Q1012 NOSIG,M
VVTS,3/14/2021 1:30,106.6667,10.8167,78.8,73.4,83.55,360,5,0,29.88,M,4.35,M,FEW,M,M,M,2000,M,M,M,M,M,M,M,M,M,M,78.8,VVTS 140130Z 36005KT 330V050 7000 FEW020 26/23 Q1012 NOSIG,M
VVTS,3/14/2021 2:00,106.6667,10.8167,80.6,73.4,78.76,350,6,0,29.91,M,4.97,M,SCT,M,M,M,2000,M,M,M,M,M,M,M,M,M,M,85.32,VVTS 140200Z 35006KT 300V030 8000 SCT020 27/23 Q1013 NOSIG,M
VVTS,3/14/2021 2:30,106.6667,10.8167,82.4,69.8,65.74,350,7,0,29.88,M,4.97,M,SCT,M,M,M,2000,M,M,M,M,M,M,M,M,M,M,86.22,VVTS 140230Z 35007KT 320V070 8000 SCT020 28/21 Q1012 NOSIG,M
VVTS,3/14/2021 3:00,106.6667,10.8167,84.2,71.6,65.95,M,5,0,29.88,M,6.21,M,SCT,M,M,M,2000,M,M,M,M,M,M,M,M,M,M,89.6,VVTS 140300Z VRB05KT 9999 SCT020 29/22 Q1012 NOSIG,M
VVTS,3/14/2021 3:30,106.6667,10.8167,86,69.8,58.55,330,4,0,29.88,M,6.21,M,FEW,M,M,M,2000,M,M,M,M,M,M,M,M,M,M,90.58,VVTS 140330Z 33004KT 280V060 9999 FEW020 30/21 Q1012 NOSIG,M
VVTS,3/14/2021 4:00,106.6667,10.8167,87.8,68,51.98,360,5,0,29.85,M,6.21,M,FEW,M,M,M,2000,M,M,M,M,M,M,M,M,M,M,91.43,VVTS 140400Z 36005KT 300V070 9999 FEW020 31/20 Q1011 NOSIG,M
VVTS,3/14/2021 4:30,106.6667,10.8167,89.6,68,49.1,360,5,0,29.85,M,6.21,M,FEW,M,M,M,2000,M,M,M,M,M,M,M,M,M,M,93.47,VVTS 140430Z 36005KT 270V060 9999 FEW020 32/20 Q1011 NOSIG,M
VVTS,3/14/2021 5:00,106.6667,10.8167,89.6,64.4,43.34,300,4,0,29.83,M,6.21,M,FEW,M,M,M,2000,M,M,M,M,M,M,M,M,M,M,91.23,VVTS 140500Z 30004KT 240V020 9999 FEW020 32/18 Q1010 NOSIG,M
VVTS,3/14/2021 5:30,106.6667,10.8167,93.2,64.4,38.73,350,4,0,29.8,M,6.21,M,FEW,M,M,M,2000,M,M,M,M,M,M,M,M,M,M,95.2,VVTS 140530Z 35004KT 260V070 9999 FEW020 34/18 Q1009 NOSIG,M
VVTS,3/14/2021 6:00,106.6667,10.8167,93.2,62.6,36.35,M,7,0,29.8,M,6.21,M,FEW,M,M,M,1700,M,M,M,M,M,M,M,M,M,M,94.2,VVTS 140600Z VRB07KT 9999 FEW017 34/17 Q1009 NOSIG,M
VVTS,3/14/2021 6:30,106.6667,10.8167,95,59,30.26,350,5,0,29.77,M,6.21,M,FEW,M,M,M,1700,M,M,M,M,M,M,M,M,M,M,94.51,VVTS 140630Z 35005KT 250V050 9999 FEW017 35/15 Q1008 NOSIG,M
VVTS,3/14/2021 7:00,106.6667,10.8167,95,57.2,28.37,10,4,0,29.77,M,6.21,M,FEW,M,M,M,1700,M,M,M,M,M,M,M,M,M,M,93.82,VVTS 140700Z 01004KT 320V080 9999 FEW017 35/14 Q1008 NOSIG,M
VVTS,3/14/2021 7:30,106.6667,10.8167,95,57.2,28.37,M,5,0,29.74,M,6.21,M,FEW,M,M,M,1700,M,M,M,M,M,M,M,M,M,M,93.82,VVTS 140730Z VRB05KT 9999 FEW017 35/14 Q1007 NOSIG,M
VVTS,3/14/2021 8:00,106.6667,10.8167,95,62.6,34.39,M,3,0,29.74,M,6.21,M,FEW,M,M,M,1700,M,M,M,M,M,M,M,M,M,M,96.22,VVTS 140800Z VRB03KT 9999 FEW017 35/17 Q1007 NOSIG,M
VVTS,3/14/2021 8:30,106.6667,10.8167,89.6,68,49.1,200,15,0,29.74,M,6.21,M,FEW,M,M,M,1700,M,M,M,M,M,M,M,M,M,M,93.47,VVTS 140830Z 20015KT 9999 R25R/400VP2000 FEW017 32/20 Q1007 NOSIG,M
VVTS,3/14/2021 9:00,106.6667,10.8167,89.6,66.2,46.14,180,13,0,29.74,M,6.21,M,FEW,M,M,M,1700,M,M,M,M,M,M,M,M,M,M,92.27,VVTS 140900Z 18013KT 150V210 9999 R25R/900VP2000U FEW017 32/19 Q1007 NOSIG,M
VVTS,3/14/2021 9:30,106.6667,10.8167,87.8,66.2,48.84,180,9,0,29.74,M,6.21,M,FEW,M,M,M,1700,M,M,M,M,M,M,M,M,M,M,90.31,VVTS 140930Z 18009KT 150V220 9999 FEW017 31/19 Q1007 NOSIG,M
VVTS,3/14/2021 10:00,106.6667,10.8167,87.8,66.2,48.84,170,8,0,29.77,M,6.21,M,FEW,M,M,M,1700,M,M,M,M,M,M,M,M,M,M,90.31,VVTS 141000Z 17008KT 120V220 9999 FEW017 31/19 Q1008 NOSIG,M
VVTS,3/14/2021 10:30,106.6667,10.8167,86,66.2,51.72,170,9,0,29.77,M,6.21,M,FEW,M,M,M,1700,M,M,M,M,M,M,M,M,M,M,88.39,VVTS 141030Z 17009KT 130V220 9999 FEW017 30/19 Q1008 NOSIG,M
VVTS,3/14/2021 11:00,106.6667,10.8167,84.2,69.8,62.03,150,8,0,29.77,M,6.21,M,FEW,M,M,M,1700,M,M,M,M,M,M,M,M,M,M,88.43,VVTS 141100Z 15008KT 9999 FEW017 29/21 Q1008 NOSIG,M
VVTS,3/14/2021 11:30,106.6667,10.8167,84.2,69.8,62.03,140,10,0,29.77,M,6.21,M,FEW,M,M,M,1700,M,M,M,M,M,M,M,M,M,M,88.43,VVTS 141130Z 14010KT 120V180 9999 FEW017 29/21 Q1008 NOSIG,M
VVTS,3/14/2021 12:00,106.6667,10.8167,82.4,68,61.81,140,7,0,29.77,M,6.21,M,FEW,M,M,M,1700,M,M,M,M,M,M,M,M,M,M,85.38,VVTS 141200Z 14007KT 9999 FEW017 28/20 Q1008 NOSIG,M
VVTS,3/14/2021 12:30,106.6667,10.8167,82.4,69.8,65.74,140,8,0,29.8,M,6.21,M,FEW,M,M,M,1700,M,M,M,M,M,M,M,M,M,M,86.22,VVTS 141230Z 14008KT 9999 FEW017 28/21 Q1009 NOSIG,M
VVTS,3/14/2021 13:00,106.6667,10.8167,82.4,69.8,65.74,130,7,0,29.8,M,6.21,M,FEW,M,M,M,1700,M,M,M,M,M,M,M,M,M,M,86.22,VVTS 141300Z 13007KT 100V170 9999 FEW017 28/21 Q1009 NOSIG,M
VVTS,3/14/2021 13:30,106.6667,10.8167,82.4,69.8,65.74,130,7,0,29.8,M,6.21,M,FEW,M,M,M,1700,M,M,M,M,M,M,M,M,M,M,86.22,VVTS 141330Z 13007KT 100V160 9999 FEW017 28/21 Q1009 NOSIG,M
VVTS,3/14/2021 14:00,106.6667,10.8167,80.6,69.8,69.71,130,9,0,29.83,M,6.21,M,FEW,M,M,M,1700,M,M,M,M,M,M,M,M,M,M,83.9,VVTS 141400Z 13009KT 9999 FEW017 27/21 Q1010 NOSIG,M
VVTS,3/14/2021 14:30,106.6667,10.8167,80.6,69.8,69.71,130,6,0,29.83,M,6.21,M,FEW,M,M,M,1700,M,M,M,M,M,M,M,M,M,M,83.9,VVTS 141430Z 13006KT 9999 FEW017 27/21 Q1010 NOSIG,M
VVTS,3/14/2021 15:00,106.6667,10.8167,80.6,69.8,69.71,130,8,0,29.83,M,6.21,M,FEW,M,M,M,1700,M,M,M,M,M,M,M,M,M,M,83.9,VVTS 141500Z 13008KT 100V190 9999 FEW017 27/21 Q1010 NOSIG,M
VVTS,3/14/2021 15:30,106.6667,10.8167,78.8,69.8,73.95,140,7,0,29.83,M,6.21,M,FEW,M,M,M,2000,M,M,M,M,M,M,M,M,M,M,78.8,VVTS 141530Z 14007KT 100V170 9999 FEW020 26/21 Q1010 NOSIG,M
VVTS,3/14/2021 16:00,106.6667,10.8167,78.8,69.8,73.95,130,9,0,29.83,M,6.21,M,FEW,M,M,M,2000,M,M,M,M,M,M,M,M,M,M,78.8,VVTS 141600Z 13009KT 9999 FEW020 26/21 Q1010 NOSIG,M
VVTS,3/14/2021 16:30,106.6667,10.8167,78.8,69.8,73.95,130,5,0,29.83,M,6.21,M,FEW,M,M,M,2000,M,M,M,M,M,M,M,M,M,M,78.8,VVTS 141630Z 13005KT 100V160 9999 FEW020 26/21 Q1010 NOSIG,M
VVTS,3/14/2021 17:00,106.6667,10.8167,78.8,69.8,73.95,M,3,0,29.83,M,6.21,M,FEW,M,M,M,2000,M,M,M,M,M,M,M,M,M,M,78.8,VVTS 141700Z VRB03KT 9999 FEW020 26/21 Q1010 NOSIG,M
VVTS,3/14/2021 17:30,106.6667,10.8167,78.8,69.8,73.95,100,4,0,29.83,M,6.21,M,FEW,M,M,M,2000,M,M,M,M,M,M,M,M,M,M,78.8,VVTS 141730Z 10004KT 060V130 9999 FEW020 26/21 Q1010 NOSIG,M
VVTS,3/14/2021 18:00,106.6667,10.8167,78.8,69.8,73.95,140,7,0,29.8,M,6.21,M,FEW,M,M,M,2000,M,M,M,M,M,M,M,M,M,M,78.8,VVTS 141800Z 14007KT 100V170 9999 FEW020 26/21 Q1009 NOSIG,M
VVTS,3/14/2021 18:30,106.6667,10.8167,77,71.6,83.44,140,5,0,29.8,M,6.21,M,FEW,M,M,M,1700,M,M,M,M,M,M,M,M,M,M,77,VVTS 141830Z 14005KT 120V210 9999 FEW017 25/22 Q1009 NOSIG,M
VVTS,3/14/2021 19:00,106.6667,10.8167,77,71.6,83.44,140,5,0,29.8,M,6.21,M,FEW,M,M,M,1700,M,M,M,M,M,M,M,M,M,M,77,VVTS 141900Z 14005KT 110V170 9999 FEW017 25/22 Q1009 NOSIG,M
VVTS,3/14/2021 19:30,106.6667,10.8167,77,71.6,83.44,130,5,0,29.8,M,6.21,M,FEW,M,M,M,1700,M,M,M,M,M,M,M,M,M,M,77,VVTS 141930Z 13005KT 100V160 9999 FEW017 25/22 Q1009 NOSIG,M
VVTS,3/14/2021 20:00,106.6667,10.8167,77,71.6,83.44,130,5,0,29.8,M,6.21,M,FEW,M,M,M,1700,M,M,M,M,M,M,M,M,M,M,77,VVTS 142000Z 13005KT 9999 FEW017 25/22 Q1009 NOSIG,M
VVTS,3/14/2021 20:30,106.6667,10.8167,77,71.6,83.44,120,4,0,29.8,M,6.21,M,FEW,M,M,M,1700,M,M,M,M,M,M,M,M,M,M,77,VVTS 142030Z 12004KT 9999 FEW017 25/22 Q1009 NOSIG,M
VVTS,3/14/2021 21:00,106.6667,10.8167,77,71.6,83.44,130,4,0,29.8,M,6.21,M,FEW,M,M,M,1700,M,M,M,M,M,M,M,M,M,M,77,VVTS 142100Z 13004KT 9999 FEW017 25/22 Q1009 NOSIG,M
VVTS,3/14/2021 21:30,106.6667,10.8167,77,71.6,83.44,130,4,0,29.8,M,6.21,M,FEW,M,M,M,1700,M,M,M,M,M,M,M,M,M,M,77,VVTS 142130Z 13004KT 9999 FEW017 25/22 Q1009 NOSIG,M
VVTS,3/14/2021 22:00,106.6667,10.8167,77,71.6,83.44,100,4,0,29.8,M,6.21,M,FEW,M,M,M,1700,M,M,M,M,M,M,M,M,M,M,77,VVTS 142200Z 10004KT 9999 FEW017 25/22 Q1009 NOSIG,M
VVTS,3/14/2021 22:30,106.6667,10.8167,77,71.6,83.44,M,3,0,29.83,M,6.21,M,FEW,M,M,M,1700,M,M,M,M,M,M,M,M,M,M,77,VVTS 142230Z VRB03KT 9999 FEW017 25/22 Q1010 NOSIG,M
VVTS,3/14/2021 23:00,106.6667,10.8167,77,71.6,83.44,M,3,0,29.85,M,6.21,M,FEW,M,M,M,1700,M,M,M,M,M,M,M,M,M,M,77,VVTS 142300Z VRB03KT 9999 FEW017 25/22 Q1011 NOSIG,M
VVTS,3/14/2021 23:30,106.6667,10.8167,77,71.6,83.44,120,4,0,29.85,M,6.21,M,FEW,M,M,M,1700,M,M,M,M,M,M,M,M,M,M,77,VVTS 142330Z 12004KT 070V150 9999 FEW017 25/22 Q1011 NOSIG,M
VVTS,3/15/2021 0:00,106.6667,10.8167,78.8,71.6,78.62,120,6,0,29.85,M,6.21,M,FEW,M,M,M,1700,M,M,M,M,M,M,M,M,M,M,78.8,VVTS 150000Z 12006KT 9999 FEW017 26/22 Q1011 NOSIG,M
VVTS,3/15/2021 0:30,106.6667,10.8167,80.6,71.6,74.11,120,6,0,29.85,M,6.21,M,FEW,M,M,M,2000,M,M,M,M,M,M,M,M,M,M,84.57,VVTS 150030Z 12006KT 080V140 9999 FEW020 27/22 Q1011 NOSIG,M
VVTS,3/15/2021 1:00,106.6667,10.8167,80.6,69.8,69.71,110,5,0,29.88,M,6.21,M,FEW,M,M,M,2000,M,M,M,M,M,M,M,M,M,M,83.9,VVTS 150100Z 11005KT 070V160 9999 FEW020 27/21 Q1012 NOSIG,M
VVTS,3/15/2021 1:30,106.6667,10.8167,82.4,71.6,69.9,80,4,0,29.88,M,6.21,M,FEW,M,M,M,2000,M,M,M,M,M,M,M,M,M,M,87.18,VVTS 150130Z 08004KT 050V110 9999 FEW020 28/22 Q1012 NOSIG,M
VVTS,3/15/2021 2:00,106.6667,10.8167,84.2,69.8,62.03,M,3,0,29.88,M,6.21,M,FEW,M,M,M,2000,M,M,M,M,M,M,M,M,M,M,88.43,VVTS 150200Z VRB03KT 9999 FEW020 29/21 Q1012,M
VVTS,3/15/2021 2:30,106.6667,10.8167,84.2,69.8,62.03,120,2,0,29.88,M,6.21,M,FEW,M,M,M,2000,M,M,M,M,M,M,M,M,M,M,88.43,VVTS 150230Z 12002KT 9999 FEW020 29/21 Q1012 NOSIG,M
VVTS,3/15/2021 3:00,106.6667,10.8167,86,69.8,58.55,70,4,0,29.88,M,6.21,M,FEW,M,M,M,2000,M,M,M,M,M,M,M,M,M,M,90.58,VVTS 150300Z 07004KT 350V160 9999 FEW020 30/21 Q1012 NOSIG,M
VVTS,3/15/2021 3:30,106.6667,10.8167,87.8,69.8,55.29,M,2,0,29.88,M,4.97,M,FEW,M,M,M,1700,M,M,M,M,M,M,M,M,M,M,92.71,VVTS 150330Z VRB02KT 8000 FEW017 31/21 Q1012 NOSIG,M
VVTS,3/15/2021 4:00,106.6667,10.8167,87.8,69.8,55.29,M,2,0,29.85,M,4.97,M,FEW,M,M,M,1700,M,M,M,M,M,M,M,M,M,M,92.71,VVTS 150400Z VRB02KT 8000 FEW017 31/21 Q1011 NOSIG,M
VVTS,3/15/2021 4:30,106.6667,10.8167,89.6,68,49.1,M,2,0,29.85,M,4.97,M,SCT,M,M,M,1700,M,M,M,M,M,M,M,M,M,M,93.47,VVTS 150430Z VRB02KT 8000 SCT017 32/20 Q1011 NOSIG,M
VVTS,3/15/2021 5:00,106.6667,10.8167,91.4,68,46.41,M,2,0,29.83,M,4.97,M,SCT,M,M,M,1700,M,M,M,M,M,M,M,M,M,M,95.55,VVTS 150500Z VRB02KT 8000 SCT017 33/20 Q1010 NOSIG,M
VVTS,3/15/2021 5:30,106.6667,10.8167,93.2,66.2,41.23,M,3,0,29.8,M,4.97,M,SCT,M,M,M,1700,M,M,M,M,M,M,M,M,M,M,96.35,VVTS 150530Z VRB03KT 8000 SCT017 34/19 Q1009 NOSIG,M
VVTS,3/15/2021 6:00,106.6667,10.8167,91.4,66.2,43.61,M,3,0,29.77,M,4.35,M,SCT,M,M,M,1700,M,M,M,M,M,M,M,M,M,M,94.29,VVTS 150600Z VRB03KT 7000 SCT017 33/19 Q1008 NOSIG,M
VVTS,3/15/2021 6:30,106.6667,10.8167,91.4,66.2,43.61,220,4,0,29.77,M,4.35,M,SCT,M,M,M,1700,M,M,M,M,M,M,M,M,M,M,94.29,VVTS 150630Z 22004KT 170V300 7000 SCT017 33/19 Q1008 NOSIG,M
VVTS,3/15/2021 7:00,106.6667,10.8167,93.2,66.2,41.23,M,3,0,29.74,M,4.35,M,SCT,M,M,M,1700,M,M,M,M,M,M,M,M,M,M,96.35,VVTS 150700Z VRB03KT 7000 SCT017 34/19 Q1007 NOSIG,M
VVTS,3/15/2021 7:30,106.6667,10.8167,91.4,66.2,43.61,170,5,0,29.74,M,4.35,M,VV ,M,M,M,2900,M,M,M,M,M,M,M,M,M,M,94.29,VVTS 150730Z 17005KT 130V230 7000 VV029 33/19 Q1007 NOSIG,M
VVTS,3/15/2021 8:00,106.6667,10.8167,91.4,69.8,49.36,210,8,0,29.74,M,4.35,M,FEW,M,M,M,1700,M,M,M,M,M,M,M,M,M,M,96.99,VVTS 150800Z 21008KT 160V260 7000 R25R/300VP2000 FEW017 33/21 Q1007 NOSIG,M
VVTS,3/15/2021 8:30,106.6667,10.8167,89.6,69.8,52.23,190,11,0,29.74,M,4.97,M,FEW,M,M,M,1700,M,M,M,M,M,M,M,M,M,M,94.85,VVTS 150830Z 19011KT 160V220 8000 FEW017 32/21 Q1007 NOSIG,M
VVTS,3/15/2021 9:00,106.6667,10.8167,87.8,69.8,55.29,180,10,0,29.74,M,5.59,M,FEW,M,M,M,1700,M,M,M,M,M,M,M,M,M,M,92.71,VVTS 150900Z 18010KT 150V220 9000 R25R/500VP2000U FEW017 31/21 Q1007 NOSIG,M
VVTS,3/15/2021 9:30,106.6667,10.8167,87.8,68,51.98,180,11,0,29.74,M,5.59,M,FEW,M,M,M,1700,M,M,M,M,M,M,M,M,M,M,91.43,VVTS 150930Z 18011KT 150V220 9000 FEW017 31/20 Q1007 NOSIG,M
VVTS,3/15/2021 10:00,106.6667,10.8167,86,68,55.04,180,9,0,29.74,M,5.59,M,FEW,M,M,M,1700,M,M,M,M,M,M,M,M,M,M,89.41,VVTS 151000Z 18009KT 140V210 9000 FEW017 30/20 Q1007 NOSIG,M
VVTS,3/15/2021 10:30,106.6667,10.8167,84.2,68,58.32,160,9,0,29.74,M,6.21,M,FEW,M,M,M,1700,M,M,M,M,M,M,M,M,M,M,87.4,VVTS 151030Z 16009KT 130V200 9999 FEW017 29/20 Q1007 NOSIG,M
VVTS,3/15/2021 11:00,106.6667,10.8167,84.2,68,58.32,190,10,0,29.74,M,6.21,M,FEW,M,M,M,2000,M,M,M,M,M,M,M,M,M,M,87.4,VVTS 151100Z 19010KT 9999 FEW020 29/20 Q1007 NOSIG,M
VVTS,3/15/2021 11:30,106.6667,10.8167,82.4,68,61.81,170,6,0,29.77,M,6.21,M,FEW,M,M,M,2000,M,M,M,M,M,M,M,M,M,M,85.38,VVTS 151130Z 17006KT 140V220 9999 R25R/1800VP2000N FEW020 28/20 Q1008 NOSIG,M
VVTS,3/15/2021 12:00,106.6667,10.8167,82.4,69.8,65.74,170,6,0,29.77,M,6.21,M,FEW,M,M,M,2000,M,M,M,M,M,M,M,M,M,M,86.22,VVTS 151200Z 17006KT 130V210 9999 FEW020 28/21 Q1008 NOSIG,M
VVTS,3/15/2021 12:30,106.6667,10.8167,82.4,69.8,65.74,150,8,0,29.77,M,6.21,M,FEW,M,M,M,2000,M,M,M,M,M,M,M,M,M,M,86.22,VVTS 151230Z 15008KT 120V190 9999 FEW020 28/21 Q1008 NOSIG,M
VVTS,3/15/2021 13:00,106.6667,10.8167,80.6,69.8,69.71,160,7,0,29.8,M,6.21,M,FEW,M,M,M,2000,M,M,M,M,M,M,M,M,M,M,83.9,VVTS 151300Z 16007KT 130V200 9999 FEW020 27/21 Q1009 NOSIG,M
VVTS,3/15/2021 13:30,106.6667,10.8167,80.6,71.6,74.11,130,8,0,29.8,M,6.21,M,FEW,M,M,M,2000,M,M,M,M,M,M,M,M,M,M,84.57,VVTS 151330Z 13008KT 100V160 9999 FEW020 27/22 Q1009 NOSIG,M
VVTS,3/15/2021 14:00,106.6667,10.8167,80.6,69.8,69.71,140,9,0,29.8,M,6.21,M,FEW,M,M,M,2000,M,M,M,M,M,M,M,M,M,M,83.9,VVTS 151400Z 14009KT 9999 FEW020 27/21 Q1009 NOSIG,M
VVTS,3/15/2021 14:30,106.6667,10.8167,80.6,69.8,69.71,130,8,0,29.83,M,6.21,M,FEW,M,M,M,2000,M,M,M,M,M,M,M,M,M,M,83.9,VVTS 151430Z 13008KT 9999 FEW020 27/21 Q1010 NOSIG,M
VVTS,3/15/2021 15:00,106.6667,10.8167,80.6,71.6,74.11,140,7,0,29.83,M,6.21,M,FEW,M,M,M,2000,M,M,M,M,M,M,M,M,M,M,84.57,VVTS 151500Z 14007KT 9999 FEW020 27/22 Q1010 NOSIG,M
VVTS,3/15/2021 15:30,106.6667,10.8167,78.8,71.6,78.62,140,5,0,29.83,M,6.21,M,FEW,M,M,M,2000,M,M,M,M,M,M,M,M,M,M,78.8,VVTS 151530Z 14005KT 110V180 9999 FEW020 26/22 Q1010 NOSIG,M
VVTS,3/15/2021 16:00,106.6667,10.8167,78.8,71.6,78.62,150,6,0,29.83,M,6.21,M,FEW,M,M,M,2000,M,M,M,M,M,M,M,M,M,M,78.8,VVTS 151600Z 15006KT 9999 FEW020 26/22 Q1010 NOSIG,M
VVTS,3/15/2021 16:30,106.6667,10.8167,78.8,71.6,78.62,180,5,0,29.83,M,6.21,M,FEW,M,M,M,2000,M,M,M,M,M,M,M,M,M,M,78.8,VVTS 151630Z 18005KT 150V220 9999 FEW020 26/22 Q1010 NOSIG,M
VVTS,3/15/2021 17:00,106.6667,10.8167,78.8,73.4,83.55,170,4,0,29.8,M,6.21,M,FEW,M,M,M,2000,M,M,M,M,M,M,M,M,M,M,78.8,VVTS 151700Z 17004KT 130V210 9999 FEW020 26/23 Q1009 NOSIG,M
VVTS,3/15/2021 17:30,106.6667,10.8167,78.8,73.4,83.55,180,4,0,29.8,M,6.21,M,FEW,M,M,M,2000,M,M,M,M,M,M,M,M,M,M,78.8,VVTS 151730Z 18004KT 140V220 9999 FEW020 26/23 Q1009 NOSIG,M
VVTS,3/15/2021 18:00,106.6667,10.8167,78.8,73.4,83.55,180,4,0,29.8,M,6.21,M,FEW,M,M,M,2000,M,M,M,M,M,M,M,M,M,M,78.8,VVTS 151800Z 18004KT 150V210 9999 FEW020 26/23 Q1009 NOSIG,M
VVTS,3/15/2021 18:30,106.6667,10.8167,78.8,73.4,83.55,120,6,0,29.77,M,6.21,M,FEW,M,M,M,1700,M,M,M,M,M,M,M,M,M,M,78.8,VVTS 151830Z 12006KT 9999 FEW017 26/23 Q1008 NOSIG,M
VVTS,3/15/2021 19:00,106.6667,10.8167,78.8,73.4,83.55,130,7,0,29.77,M,6.21,M,FEW,M,M,M,1700,M,M,M,M,M,M,M,M,M,M,78.8,VVTS 151900Z 13007KT 9999 FEW017 26/23 Q1008 NOSIG,M
VVTS,3/15/2021 19:30,106.6667,10.8167,78.8,73.4,83.55,130,6,0,29.77,M,6.21,M,FEW,M,M,M,1700,M,M,M,M,M,M,M,M,M,M,78.8,VVTS 151930Z 13006KT 9999 FEW017 26/23 Q1008 NOSIG,M
VVTS,3/15/2021 20:00,106.6667,10.8167,78.8,73.4,83.55,120,6,0,29.77,M,6.21,M,FEW,M,M,M,1700,M,M,M,M,M,M,M,M,M,M,78.8,VVTS 152000Z 12006KT 9999 FEW017 26/23 Q1008 NOSIG,M
VVTS,3/15/2021 20:30,106.6667,10.8167,77,73.4,88.67,110,4,0,29.8,M,6.21,M,FEW,M,M,M,1700,M,M,M,M,M,M,M,M,M,M,77,VVTS 152030Z 11004KT 090V150 9999 FEW017 25/23 Q1009 NOSIG,M
VVTS,3/15/2021 21:00,106.6667,10.8167,77,73.4,88.67,130,6,0,29.8,M,6.21,M,FEW,M,M,M,1700,M,M,M,M,M,M,M,M,M,M,77,VVTS 152100Z 13006KT 9999 FEW017 25/23 Q1009 NOSIG,M
VVTS,3/15/2021 21:30,106.6667,10.8167,77,71.6,83.44,130,6,0,29.8,M,6.21,M,FEW,M,M,M,1700,M,M,M,M,M,M,M,M,M,M,77,VVTS 152130Z 13006KT 9999 FEW017 25/22 Q1009 NOSIG,M
VVTS,3/15/2021 22:00,106.6667,10.8167,77,73.4,88.67,120,5,0,29.8,M,6.21,M,FEW,M,M,M,1700,M,M,M,M,M,M,M,M,M,M,77,VVTS 152200Z 12005KT 9999 FEW017 25/23 Q1009 NOSIG,M
VVTS,3/15/2021 22:30,106.6667,10.8167,77,71.6,83.44,140,5,0,29.8,M,6.21,M,FEW,M,M,M,1700,M,M,M,M,M,M,M,M,M,M,77,VVTS 152230Z 14005KT 9999 FEW017 25/22 Q1009 NOSIG,M
VVTS,3/15/2021 23:00,106.6667,10.8167,77,71.6,83.44,140,6,0,29.8,M,6.21,M,FEW,M,M,M,1700,M,M,M,M,M,M,M,M,M,M,77,VVTS 152300Z 14006KT 9999 FEW017 25/22 Q1009 NOSIG,M
VVTS,3/15/2021 23:30,106.6667,10.8167,77,73.4,88.67,140,5,0,29.83,M,6.21,M,FEW,M,M,M,1700,M,M,M,M,M,M,M,M,M,M,77,VVTS 152330Z 14005KT 100V180 9999 FEW017 25/23 Q1010 NOSIG,M
VVTS,3/16/2021 0:00,106.6667,10.8167,78.8,73.4,83.55,130,8,0,29.83,M,6.21,M,FEW,M,M,M,1700,M,M,M,M,M,M,M,M,M,M,78.8,VVTS 160000Z 13008KT 9999 FEW017 26/23 Q1010 NOSIG,M
VVTS,3/16/2021 0:30,106.6667,10.8167,78.8,73.4,83.55,130,7,0,29.85,M,6.21,M,FEW,M,M,M,2000,M,M,M,M,M,M,M,M,M,M,78.8,VVTS 160030Z 13007KT 090V160 9999 FEW020 26/23 Q1011 NOSIG,M
VVTS,3/16/2021 1:00,106.6667,10.8167,80.6,73.4,78.76,120,5,0,29.85,M,6.21,M,FEW,M,M,M,2000,M,M,M,M,M,M,M,M,M,M,85.32,VVTS 160100Z 12005KT 090V150 9999 FEW020 27/23 Q1011 NOSIG,M
VVTS,3/16/2021 1:30,106.6667,10.8167,82.4,73.4,74.28,130,5,0,29.88,M,6.21,M,SCT,M,M,M,2000,M,M,M,M,M,M,M,M,M,M,88.26,VVTS 160130Z 13005KT 100V170 9999 SCT020 28/23 Q1012 NOSIG,M
VVTS,3/16/2021 2:00,106.6667,10.8167,82.4,73.4,74.28,130,7,0,29.88,M,6.21,M,BKN,M,M,M,1700,M,M,M,M,M,M,M,M,M,M,88.26,VVTS 160200Z 13007KT 100V160 9999 BKN017 28/23 Q1012 NOSIG,M
VVTS,3/16/2021 2:30,106.6667,10.8167,84.2,71.6,65.95,130,5,0,29.88,M,6.21,M,BKN,M,M,M,1700,M,M,M,M,M,M,M,M,M,M,89.6,VVTS 160230Z 13005KT 080V190 9999 BKN017 29/22 Q1012 NOSIG,M
VVTS,3/16/2021 3:00,106.6667,10.8167,84.2,71.6,65.95,130,6,0,29.88,M,6.21,M,BKN,M,M,M,1700,M,M,M,M,M,M,M,M,M,M,89.6,VVTS 160300Z 13006KT 060V190 9999 BKN017 29/22 Q1012 NOSIG,M
VVTS,3/16/2021 3:30,106.6667,10.8167,87.8,71.6,58.78,M,4,0,29.85,M,6.21,M,SCT,M,M,M,1700,M,M,M,M,M,M,M,M,M,M,94.18,VVTS 160330Z VRB04KT 9999 SCT017 31/22 Q1011 NOSIG,M
VVTS,3/16/2021 4:00,106.6667,10.8167,87.8,71.6,58.78,120,4,0,29.85,M,6.21,M,SCT,M,M,M,1700,M,M,M,M,M,M,M,M,M,M,94.18,VVTS 160400Z 12004KT 050V190 9999 SCT017 31/22 Q1011 NOSIG,M
VVTS,3/16/2021 4:30,106.6667,10.8167,89.6,71.6,55.53,M,3,0,29.83,M,6.21,M,SCT,M,M,M,1700,M,M,M,M,M,M,M,M,M,M,96.41,VVTS 160430Z VRB03KT 9999 SCT017 32/22 Q1010 NOSIG,M
VVTS,3/16/2021 5:00,106.6667,10.8167,89.6,71.6,55.53,140,6,0,29.83,M,6.21,M,SCT,M,M,M,1700,M,M,M,M,M,M,M,M,M,M,96.41,VVTS 160500Z 14006KT 300V080 9999 SCT017 32/22 Q1010 NOSIG,M
VVTS,3/16/2021 5:30,106.6667,10.8167,89.6,71.6,55.53,180,6,0,29.8,M,6.21,M,SCT,M,M,M,1700,M,M,M,M,M,M,M,M,M,M,96.41,VVTS 160530Z 18006KT 130V230 9999 SCT017 32/22 Q1009 NOSIG,M
VVTS,3/16/2021 6:00,106.6667,10.8167,89.6,71.6,55.53,170,5,0,29.8,M,6.21,M,SCT,M,M,M,1700,M,M,M,M,M,M,M,M,M,M,96.41,VVTS 160600Z 17005KT 130V280 9999 SCT017 32/22 Q1009 NOSIG,M
VVTS,3/16/2021 6:30,106.6667,10.8167,91.4,71.6,52.48,200,7,0,29.77,M,6.21,M,SCT,M,M,M,1700,M,M,M,M,M,M,M,M,M,M,98.64,VVTS 160630Z 20007KT 170V230 9999 SCT017 33/22 Q1008 NOSIG,M
VVTS,3/16/2021 7:00,106.6667,10.8167,89.6,71.6,55.53,190,6,0,29.74,M,6.21,M,BKN,M,M,M,1700,M,M,M,M,M,M,M,M,M,M,96.41,VVTS 160700Z 19006KT 140V220 9999 BKN017 32/22 Q1007 NOSIG,M
VVTS,3/16/2021 7:30,106.6667,10.8167,89.6,71.6,55.53,190,6,0,29.74,M,6.21,M,BKN,M,M,M,1700,M,M,M,M,M,M,M,M,M,M,96.41,VVTS 160730Z 19006KT 140V220 9999 BKN017 32/22 Q1007 NOSIG,M
VVTS,3/16/2021 8:00,106.6667,10.8167,89.6,71.6,55.53,180,11,0,29.74,M,6.21,M,BKN,M,M,M,1700,M,M,M,M,M,M,M,M,M,M,96.41,VVTS 160800Z 18011KT 150V220 9999 R25R/1700VP2000N BKN017 32/22 Q1007 NOSIG,M
VVTS,3/16/2021 8:30,106.6667,10.8167,87.8,71.6,58.78,200,10,0,29.74,M,6.21,M,SCT,M,M,M,1700,M,M,M,M,M,M,M,M,M,M,94.18,VVTS 160830Z 20010KT 150V230 9999 SCT017 31/22 Q1007 NOSIG,M
VVTS,3/16/2021 9:00,106.6667,10.8167,86,71.6,62.25,200,12,0,29.74,M,6.21,M,SCT,M,M,M,1700,M,M,M,M,M,M,M,M,M,M,91.92,VVTS 160900Z 20012KT 170V230 9999 SCT017 30/22 Q1007 NOSIG,M
VVTS,3/16/2021 9:30,106.6667,10.8167,86,71.6,62.25,200,12,0,29.74,M,6.21,M,SCT,M,M,M,1700,M,M,M,M,M,M,M,M,M,M,91.92,VVTS 160930Z 20012KT 9999 SCT017 30/22 Q1007 NOSIG,M
VVTS,3/16/2021 10:00,106.6667,10.8167,84.2,71.6,65.95,190,11,0,29.74,M,6.21,M,SCT,M,M,M,1700,M,M,M,M,M,M,M,M,M,M,89.6,VVTS 161000Z 19011KT 150V230 9999 SCT017 29/22 Q1007 NOSIG,M
VVTS,3/16/2021 10:30,106.6667,10.8167,82.4,71.6,69.9,180,9,0,29.77,M,6.21,M,FEW,M,M,M,1700,M,M,M,M,M,M,M,M,M,M,87.18,VVTS 161030Z 18009KT 140V220 9999 FEW017 28/22 Q1008 NOSIG,M
VVTS,3/16/2021 11:00,106.6667,10.8167,82.4,71.6,69.9,150,7,0,29.77,M,6.21,M,FEW,M,M,M,1700,M,M,M,M,M,M,M,M,M,M,87.18,VVTS 161100Z 15007KT 130V200 9999 FEW017 28/22 Q1008 NOSIG,M
VVTS,3/16/2021 11:30,106.6667,10.8167,80.6,71.6,74.11,160,7,0,29.77,M,4.97,M,FEW,M,M,M,1700,M,M,M,M,M,M,M,M,M,M,84.57,VVTS 161130Z 16007KT 120V210 8000 FEW017 27/22 Q1008 NOSIG,M
VVTS,3/16/2021 12:00,106.6667,10.8167,80.6,71.6,74.11,150,9,0,29.77,M,4.97,M,FEW,SCT,M,M,1700,5000,M,M,M,M,M,M,M,M,M,84.57,VVTS 161200Z 15009KT 8000 FEW017 SCT050 27/22 Q1008 NOSIG,M
VVTS,3/16/2021 12:30,106.6667,10.8167,80.6,71.6,74.11,140,7,0,29.77,M,6.21,M,FEW,M,M,M,2000,M,M,M,M,M,M,M,M,M,M,84.57,VVTS 161230Z 14007KT 110V180 9999 FEW020 27/22 Q1008 NOSIG,M
VVTS,3/16/2021 13:00,106.6667,10.8167,80.6,71.6,74.11,150,9,0,29.8,M,6.21,M,FEW,M,M,M,2000,M,M,M,M,M,M,M,M,M,M,84.57,VVTS 161300Z 15009KT 120V180 9999 FEW020 27/22 Q1009 NOSIG,M
VVTS,3/16/2021 13:30,106.6667,10.8167,80.6,71.6,74.11,150,8,0,29.8,M,6.21,M,FEW,BKN,M,M,1700,5000,M,M,M,M,M,M,M,M,M,84.57,VVTS 161330Z 15008KT 130V190 9999 FEW017 BKN050 27/22 Q1009 NOSIG,M
VVTS,3/16/2021 14:00,106.6667,10.8167,80.6,71.6,74.11,140,7,0,29.8,M,6.21,M,FEW,BKN,M,M,1700,5000,M,M,M,M,M,M,M,M,M,84.57,VVTS 161400Z 14007KT 110V170 9999 FEW017 BKN050 27/22 Q1009 NOSIG,M
VVTS,3/16/2021 14:30,106.6667,10.8167,80.6,71.6,74.11,150,6,0,29.83,M,6.21,M,FEW,BKN,M,M,1700,5000,M,M,M,M,M,M,M,M,M,84.57,VVTS 161430Z 15006KT 120V180 9999 FEW017 BKN050 27/22 Q1010 NOSIG,M
VVTS,3/16/2021 15:00,106.6667,10.8167,80.6,69.8,69.71,140,7,0,29.83,M,6.21,M,FEW,BKN,M,M,1700,5000,M,M,M,M,M,M,M,M,M,83.9,VVTS 161500Z 14007KT 9999 FEW017 BKN050 27/21 Q1010 NOSIG,M
VVTS,3/16/2021 15:30,106.6667,10.8167,78.8,71.6,78.62,160,7,0,29.83,M,6.21,M,FEW,SCT,M,M,1700,5000,M,M,M,M,M,M,M,M,M,78.8,VVTS 161530Z 16007KT 130V190 9999 FEW017 SCT050 26/22 Q1010 NOSIG,M
VVTS,3/16/2021 16:00,106.6667,10.8167,78.8,71.6,78.62,170,7,0,29.83,M,6.21,M,FEW,SCT,M,M,1700,5000,M,M,M,M,M,M,M,M,M,78.8,VVTS 161600Z 17007KT 130V200 9999 R25R/1600VP2000N FEW017 SCT050 26/22 Q1010 NOSIG,M
VVTS,3/16/2021 16:30,106.6667,10.8167,78.8,71.6,78.62,150,6,0,29.83,M,6.21,M,FEW,SCT,M,M,1700,5000,M,M,M,M,M,M,M,M,M,78.8,VVTS 161630Z 15006KT 110V200 9999 FEW017 SCT050 26/22 Q1010 NOSIG,M
VVTS,3/16/2021 17:00,106.6667,10.8167,78.8,71.6,78.62,160,6,0,29.83,M,6.21,M,FEW,SCT,M,M,1700,5000,M,M,M,M,M,M,M,M,M,78.8,VVTS 161700Z 16006KT 120V200 9999 FEW017 SCT050 26/22 Q1010 NOSIG,M
VVTS,3/16/2021 17:30,106.6667,10.8167,78.8,71.6,78.62,160,5,0,29.83,M,6.21,M,FEW,SCT,M,M,1700,5000,M,M,M,M,M,M,M,M,M,78.8,VVTS 161730Z 16005KT 130V190 9999 FEW017 SCT050 26/22 Q1010 NOSIG,M
VVTS,3/16/2021 18:00,106.6667,10.8167,78.8,71.6,78.62,160,5,0,29.83,M,6.21,M,FEW,SCT,M,M,1700,5000,M,M,M,M,M,M,M,M,M,78.8,VVTS 161800Z 16005KT 130V200 9999 R25R/1600VP2000N FEW017 SCT050 26/22 Q1010 NOSIG,M
VVTS,3/16/2021 18:30,106.6667,10.8167,78.8,71.6,78.62,150,5,0,29.8,M,6.21,M,SCT,SCT,M,M,1700,5000,M,M,M,M,M,M,M,M,M,78.8,VVTS 161830Z 15005KT 130V220 9999 SCT017 SCT050 26/22 Q1009 NOSIG,M
VVTS,3/16/2021 19:00,106.6667,10.8167,78.8,71.6,78.62,160,5,0,29.8,M,6.21,M,SCT,SCT,M,M,1700,5000,M,M,M,M,M,M,M,M,M,78.8,VVTS 161900Z 16005KT 130V200 9999 SCT017 SCT050 26/22 Q1009 NOSIG,M
VVTS,3/16/2021 19:30,106.6667,10.8167,78.8,73.4,83.55,170,6,0,29.8,M,6.21,M,SCT,SCT,M,M,1700,5000,M,M,M,M,M,M,M,M,M,78.8,VVTS 161930Z 17006KT 9999 SCT017 SCT050 26/23 Q1009 NOSIG,M
VVTS,3/16/2021 20:00,106.6667,10.8167,78.8,71.6,78.62,160,5,0,29.8,M,6.21,M,SCT,SCT,M,M,1700,5000,M,M,M,M,M,M,M,M,M,78.8,VVTS 162000Z 16005KT 120V200 9999 SCT017 SCT050 26/22 Q1009 NOSIG,M
VVTS,3/16/2021 20:30,106.6667,10.8167,77,73.4,88.67,160,6,0,29.8,M,6.21,M,SCT,SCT,M,M,1700,5000,M,M,M,M,M,M,M,M,M,77,VVTS 162030Z 16006KT 130V200 9999 SCT017 SCT050 25/23 Q1009 NOSIG,M
VVTS,3/16/2021 21:00,106.6667,10.8167,77,71.6,83.44,170,5,0,29.8,M,6.21,M,SCT,SCT,M,M,1700,5000,M,M,M,M,M,M,M,M,M,77,VVTS 162100Z 17005KT 130V220 9999 SCT017 SCT050 25/22 Q1009 NOSIG,M
VVTS,3/16/2021 21:30,106.6667,10.8167,77,71.6,83.44,150,7,0,29.8,M,6.21,M,SCT,SCT,M,M,1700,5000,M,M,M,M,M,M,M,M,M,77,VVTS 162130Z 15007KT 9999 SCT017 SCT050 25/22 Q1009 NOSIG,M
VVTS,3/16/2021 22:00,106.6667,10.8167,77,71.6,83.44,130,4,0,29.8,M,6.21,M,SCT,SCT,M,M,1700,5000,M,M,M,M,M,M,M,M,M,77,VVTS 162200Z 13004KT 100V160 9999 SCT017 SCT050 25/22 Q1009 NOSIG,M
VVTS,3/16/2021 22:30,106.6667,10.8167,77,71.6,83.44,130,8,0,29.8,M,6.21,M,SCT,SCT,M,M,1700,5000,M,M,M,M,M,M,M,M,M,77,VVTS 162230Z 13008KT 100V170 9999 SCT017 SCT050 25/22 Q1009 NOSIG,M
VVTS,3/16/2021 23:00,106.6667,10.8167,77,71.6,83.44,130,6,0,29.83,M,6.21,M,SCT,SCT,M,M,1700,5000,M,M,M,M,M,M,M,M,M,77,VVTS 162300Z 13006KT 9999 SCT017 SCT050 25/22 Q1010 NOSIG,M
VVTS,3/16/2021 23:30,106.6667,10.8167,78.8,71.6,78.62,140,6,0,29.83,M,4.97,M,BKN,M,M,M,1700,M,M,M,M,M,M,M,M,M,M,78.8,VVTS 162330Z 14006KT 110V180 8000 BKN017 26/22 Q1010 NOSIG,M
VVTS,3/17/2021 0:00,106.6667,10.8167,78.8,71.6,78.62,130,5,0,29.83,M,4.97,M,BKN,M,M,M,1700,M,M,M,M,M,M,M,M,M,M,78.8,VVTS 170000Z 13005KT 8000 BKN017 26/22 Q1010 NOSIG,M
VVTS,3/17/2021 0:30,106.6667,10.8167,78.8,71.6,78.62,140,7,0,29.85,M,4.97,M,SCT,M,M,M,1700,M,M,M,M,M,M,M,M,M,M,78.8,VVTS 170030Z 14007KT 110V170 8000 SCT017 26/22 Q1011 NOSIG,M
VVTS,3/17/2021 1:00,106.6667,10.8167,80.6,71.6,74.11,120,7,0,29.85,M,4.97,M,BKN,M,M,M,1700,M,M,M,M,M,M,M,M,M,M,84.57,VVTS 170100Z 12007KT 8000 BKN017 27/22 Q1011 NOSIG,M
VVTS,3/17/2021 1:30,106.6667,10.8167,80.6,71.6,74.11,140,6,0,29.85,M,6.21,M,BKN,M,M,M,1700,M,M,M,M,M,M,M,M,M,M,84.57,VVTS 170130Z 14006KT 9999 BKN017 27/22 Q1011 NOSIG,M
VVTS,3/17/2021 2:00,106.6667,10.8167,82.4,71.6,69.9,140,6,0,29.85,M,6.21,M,BKN,M,M,M,1700,M,M,M,M,M,M,M,M,M,M,87.18,VVTS 170200Z 14006KT 110V190 9999 BKN017 28/22 Q1011 NOSIG,M
VVTS,3/17/2021 2:30,106.6667,10.8167,84.2,69.8,62.03,160,8,0,29.88,M,6.21,M,BKN,M,M,M,1700,M,M,M,M,M,M,M,M,M,M,88.43,VVTS 170230Z 16008KT 110V200 9999 BKN017 29/21 Q1012 NOSIG,M
VVTS,3/17/2021 3:00,106.6667,10.8167,86,69.8,58.55,130,8,0,29.85,M,6.21,M,SCT,M,M,M,1700,M,M,M,M,M,M,M,M,M,M,90.58,VVTS 170300Z 13008KT 090V180 9999 SCT017 30/21 Q1011 NOSIG,M
VVTS,3/17/2021 3:30,106.6667,10.8167,86,69.8,58.55,140,5,0,29.85,M,6.21,M,SCT,M,M,M,2000,M,M,M,M,M,M,M,M,M,M,90.58,VVTS 170330Z 14005KT 080V210 9999 SCT020 30/21 Q1011 NOSIG,M
VVTS,3/17/2021 4:00,106.6667,10.8167,87.8,68,51.98,M,4,0,29.85,M,6.21,M,SCT,M,M,M,2000,M,M,M,M,M,M,M,M,M,M,91.43,VVTS 170400Z VRB04KT 9999 SCT020 31/20 Q1011 NOSIG,M
VVTS,3/17/2021 4:30,106.6667,10.8167,87.8,68,51.98,M,2,0,29.83,M,6.21,M,FEW,M,M,M,2000,M,M,M,M,M,M,M,M,M,M,91.43,VVTS 170430Z VRB02KT 9999 FEW020 31/20 Q1010 NOSIG,M
VVTS,3/17/2021 5:00,106.6667,10.8167,89.6,66.2,46.14,M,4,0,29.8,M,6.21,M,FEW,M,M,M,2000,M,M,M,M,M,M,M,M,M,M,92.27,VVTS 170500Z VRB04KT 9999 FEW020 32/19 Q1009 NOSIG,M
VVTS,3/17/2021 5:30,106.6667,10.8167,89.6,68,49.1,120,6,0,29.8,M,6.21,M,SCT,M,M,M,2000,M,M,M,M,M,M,M,M,M,M,93.47,VVTS 170530Z 12006KT 080V170 9999 SCT020 32/20 Q1009 NOSIG,M
VVTS,3/17/2021 6:00,106.6667,10.8167,89.6,66.2,46.14,M,2,0,29.8,M,6.21,M,SCT,M,M,M,2000,M,M,M,M,M,M,M,M,M,M,92.27,VVTS 170600Z VRB02KT 9999 SCT020 32/19 Q1009 NOSIG,M
VVTS,3/17/2021 6:30,106.6667,10.8167,91.4,68,46.41,M,3,0,29.77,M,6.21,M,SCT,M,M,M,2000,M,M,M,M,M,M,M,M,M,M,95.55,VVTS 170630Z VRB03KT 9999 SCT020 33/20 Q1008 NOSIG,M
VVTS,3/17/2021 7:00,106.6667,10.8167,91.4,68,46.41,M,4,0,29.74,M,6.21,M,BKN,M,M,M,1700,M,M,M,M,M,M,M,M,M,M,95.55,VVTS 170700Z VRB04KT 9999 BKN017 33/20 Q1007 NOSIG,M
VVTS,3/17/2021 7:30,106.6667,10.8167,91.4,68,46.41,M,3,0,29.74,M,6.21,M,BKN,M,M,M,1700,M,M,M,M,M,M,M,M,M,M,95.55,VVTS 170730Z VRB03KT 9999 R25R/900VP2000D BKN017 33/20 Q1007 NOSIG,M
VVTS,3/17/2021 8:00,106.6667,10.8167,89.6,71.6,55.53,170,9,0,29.74,M,6.21,M,SCT,M,M,M,1700,M,M,M,M,M,M,M,M,M,M,96.41,VVTS 170800Z 17009KT 140V220 9999 SCT017 32/22 Q1007 NOSIG,M
VVTS,3/17/2021 8:30,106.6667,10.8167,89.6,69.8,52.23,170,8,0,29.74,M,6.21,M,SCT,M,M,M,1700,M,M,M,M,M,M,M,M,M,M,94.85,VVTS 170830Z 17008KT 130V220 9999 SCT017 32/21 Q1007 NOSIG,M
VVTS,3/17/2021 9:00,106.6667,10.8167,87.8,69.8,55.29,180,9,0,29.74,M,6.21,M,FEW,M,M,M,2000,M,M,M,M,M,M,M,M,M,M,92.71,VVTS 170900Z 18009KT 140V220 9999 R25R/1700VP2000N FEW020 31/21 Q1007 NOSIG,M
VVTS,3/17/2021 9:30,106.6667,10.8167,87.8,71.6,58.78,170,10,0,29.74,M,6.21,M,FEW,M,M,M,2000,M,M,M,M,M,M,M,M,M,M,94.18,VVTS 170930Z 17010KT 9999 FEW020 31/22 Q1007 NOSIG,M
VVTS,3/17/2021 10:00,106.6667,10.8167,86,71.6,62.25,180,10,0,29.74,M,6.21,M,FEW,M,M,M,2000,M,M,M,M,M,M,M,M,M,M,91.92,VVTS 171000Z 18010KT 150V210 9999 FEW020 30/22 Q1007 NOSIG,M
VVTS,3/17/2021 10:30,106.6667,10.8167,84.2,71.6,65.95,180,9,0,29.74,M,6.21,M,FEW,M,M,M,2000,M,M,M,M,M,M,M,M,M,M,89.6,VVTS 171030Z 18009KT 9999 FEW020 29/22 Q1007 NOSIG,M
VVTS,3/17/2021 11:00,106.6667,10.8167,82.4,71.6,69.9,180,9,0,29.74,M,6.21,M,FEW,M,M,M,2000,M,M,M,M,M,M,M,M,M,M,87.18,VVTS 171100Z 18009KT 150V210 9999 FEW020 28/22 Q1007 NOSIG,M
VVTS,3/17/2021 11:30,106.6667,10.8167,82.4,71.6,69.9,170,10,0,29.77,M,6.21,M,FEW,M,M,M,2000,M,M,M,M,M,M,M,M,M,M,87.18,VVTS 171130Z 17010KT 130V190 9999 FEW020 28/22 Q1008 NOSIG,M
VVTS,3/17/2021 12:00,106.6667,10.8167,82.4,71.6,69.9,170,9,0,29.77,M,6.21,M,FEW,M,M,M,2000,M,M,M,M,M,M,M,M,M,M,87.18,VVTS 171200Z 17009KT 130V190 9999 FEW020 28/22 Q1008 NOSIG,M
VVTS,3/17/2021 12:30,106.6667,10.8167,80.6,71.6,74.11,150,8,0,29.77,M,6.21,M,FEW,M,M,M,2000,M,M,M,M,M,M,M,M,M,M,84.57,VVTS 171230Z 15008KT 9999 FEW020 27/22 Q1008 NOSIG,M
VVTS,3/17/2021 13:00,106.6667,10.8167,80.6,71.6,74.11,140,8,0,29.8,M,6.21,M,FEW,M,M,M,2000,M,M,M,M,M,M,M,M,M,M,84.57,VVTS 171300Z 14008KT 9999 FEW020 27/22 Q1009 NOSIG,M
VVTS,3/17/2021 13:30,106.6667,10.8167,80.6,73.4,78.76,140,9,0,29.8,M,6.21,M,FEW,M,M,M,2000,M,M,M,M,M,M,M,M,M,M,85.32,VVTS 171330Z 14009KT 9999 FEW020 27/23 Q1009 NOSIG,M
VVTS,3/17/2021 14:00,106.6667,10.8167,80.6,73.4,78.76,130,8,0,29.8,M,6.21,M,FEW,M,M,M,2000,M,M,M,M,M,M,M,M,M,M,85.32,VVTS 171400Z 13008KT 9999 FEW020 27/23 Q1009 NOSIG,M
VVTS,3/17/2021 14:30,106.6667,10.8167,78.8,73.4,83.55,140,10,0,29.8,M,6.21,M,FEW,M,M,M,2000,M,M,M,M,M,M,M,M,M,M,78.8,VVTS 171430Z 14010KT 9999 FEW020 26/23 Q1009 NOSIG,M
VVTS,3/17/2021 15:00,106.6667,10.8167,78.8,71.6,78.62,140,9,0,29.8,M,6.21,M,FEW,M,M,M,2000,M,M,M,M,M,M,M,M,M,M,78.8,VVTS 171500Z 14009KT 9999 FEW020 26/22 Q1009 NOSIG,M
VVTS,3/17/2021 15:30,106.6667,10.8167,78.8,73.4,83.55,140,9,0,29.83,M,6.21,M,FEW,M,M,M,2000,M,M,M,M,M,M,M,M,M,M,78.8,VVTS 171530Z 14009KT 9999 FEW020 26/23 Q1010 NOSIG,M
VVTS,3/17/2021 16:00,106.6667,10.8167,78.8,73.4,83.55,140,8,0,29.83,M,6.21,M,FEW,M,M,M,2000,M,M,M,M,M,M,M,M,M,M,78.8,VVTS 171600Z 14008KT 9999 FEW020 26/23 Q1010 NOSIG,M
VVTS,3/17/2021 16:30,106.6667,10.8167,78.8,73.4,83.55,140,7,0,29.83,M,6.21,M,FEW,M,M,M,2000,M,M,M,M,M,M,M,M,M,M,78.8,VVTS 171630Z 14007KT 110V180 9999 FEW020 26/23 Q1010 NOSIG,M
VVTS,3/17/2021 17:00,106.6667,10.8167,78.8,73.4,83.55,140,8,0,29.8,M,6.21,M,FEW,M,M,M,2000,M,M,M,M,M,M,M,M,M,M,78.8,VVTS 171700Z 14008KT 9999 FEW020 26/23 Q1009 NOSIG,M
VVTS,3/17/2021 17:30,106.6667,10.8167,78.8,73.4,83.55,140,5,0,29.8,M,6.21,M,FEW,M,M,M,2000,M,M,M,M,M,M,M,M,M,M,78.8,VVTS 171730Z 14005KT 120V190 9999 FEW020 26/23 Q1009 NOSIG,M
VVTS,3/17/2021 18:00,106.6667,10.8167,78.8,73.4,83.55,140,6,0,29.8,M,6.21,M,FEW,M,M,M,2000,M,M,M,M,M,M,M,M,M,M,78.8,VVTS 171800Z 14006KT 9999 FEW020 26/23 Q1009 NOSIG,M
VVTS,3/17/2021 18:30,106.6667,10.8167,78.8,73.4,83.55,130,6,0,29.77,M,6.21,M,FEW,M,M,M,2000,M,M,M,M,M,M,M,M,M,M,78.8,VVTS 171830Z 13006KT 110V190 9999 FEW020 26/23 Q1008 NOSIG,M
VVTS,3/17/2021 19:00,106.6667,10.8167,78.8,73.4,83.55,140,7,0,29.77,M,6.21,M,FEW,M,M,M,2000,M,M,M,M,M,M,M,M,M,M,78.8,VVTS 171900Z 14007KT 9999 FEW020 26/23 Q1008 NOSIG,M
VVTS,3/17/2021 19:30,106.6667,10.8167,78.8,73.4,83.55,140,7,0,29.77,M,6.21,M,FEW,M,M,M,1700,M,M,M,M,M,M,M,M,M,M,78.8,VVTS 171930Z 14007KT 110V190 9999 FEW017 26/23 Q1008 NOSIG,M
VVTS,3/17/2021 20:00,106.6667,10.8167,78.8,73.4,83.55,130,6,0,29.77,M,6.21,M,FEW,M,M,M,1700,M,M,M,M,M,M,M,M,M,M,78.8,VVTS 172000Z 13006KT 9999 FEW017 26/23 Q1008 NOSIG,M
VVTS,3/17/2021 20:30,106.6667,10.8167,77,73.4,88.67,140,5,0,29.77,M,6.21,M,FEW,M,M,M,1700,M,M,M,M,M,M,M,M,M,M,77,VVTS 172030Z 14005KT 120V190 9999 FEW017 25/23 Q1008 NOSIG,M
VVTS,3/17/2021 21:00,106.6667,10.8167,78.8,73.4,83.55,M,3,0,29.77,M,6.21,M,FEW,M,M,M,1700,M,M,M,M,M,M,M,M,M,M,78.8,VVTS 172100Z VRB03KT 9999 FEW017 26/23 Q1008 NOSIG,M
VVTS,3/17/2021 21:30,106.6667,10.8167,78.8,73.4,83.55,140,4,0,29.77,M,6.21,M,FEW,M,M,M,1700,M,M,M,M,M,M,M,M,M,M,78.8,VVTS 172130Z 14004KT 9999 FEW017 26/23 Q1008 NOSIG,M
VVTS,3/17/2021 22:00,106.6667,10.8167,78.8,73.4,83.55,140,4,0,29.77,M,6.21,M,FEW,M,M,M,1700,M,M,M,M,M,M,M,M,M,M,78.8,VVTS 172200Z 14004KT 120V180 9999 FEW017 26/23 Q1008 NOSIG,M
VVTS,3/17/2021 22:30,106.6667,10.8167,77,73.4,88.67,160,4,0,29.8,M,6.21,M,FEW,M,M,M,1700,M,M,M,M,M,M,M,M,M,M,77,VVTS 172230Z 16004KT 9999 FEW017 25/23 Q1009 NOSIG,M
VVTS,3/17/2021 23:00,106.6667,10.8167,78.8,73.4,83.55,M,3,0,29.8,M,6.21,M,FEW,M,M,M,1700,M,M,M,M,M,M,M,M,M,M,78.8,VVTS 172300Z VRB03KT 9999 FEW017 26/23 Q1009 NOSIG,M
VVTS,3/17/2021 23:30,106.6667,10.8167,78.8,73.4,83.55,M,3,0,29.8,M,6.21,M,FEW,M,M,M,1700,M,M,M,M,M,M,M,M,M,M,78.8,VVTS 172330Z VRB03KT 9999 FEW017 26/23 Q1009 NOSIG,M
VVTS,3/18/2021 0:00,106.6667,10.8167,78.8,73.4,83.55,140,6,0,29.8,M,6.21,M,M,M,M,M,M,M,M,M,M,M,M,M,M,M,M,78.8,VVTS 180000Z 14006KT CAVOK 26/23 Q1009 NOSIG,M
VVTS,3/18/2021 0:30,106.6667,10.8167,80.6,73.4,78.76,140,6,0,29.8,M,6.21,M,FEW,M,M,M,2000,M,M,M,M,M,M,M,M,M,M,85.32,VVTS 180030Z 14006KT 110V170 9999 FEW020 27/23 Q1009 NOSIG,M
VVTS,3/18/2021 1:00,106.6667,10.8167,82.4,73.4,74.28,120,7,0,29.8,M,6.21,M,FEW,M,M,M,2000,M,M,M,M,M,M,M,M,M,M,88.26,VVTS 180100Z 12007KT 090V180 9999 FEW020 28/23 Q1009 NOSIG,M
VVTS,3/18/2021 1:30,106.6667,10.8167,84.2,73.4,70.08,130,8,0,29.83,M,6.21,M,FEW,M,M,M,2000,M,M,M,M,M,M,M,M,M,M,90.94,VVTS 180130Z 13008KT 9999 FEW020 29/23 Q1010 NOSIG,M
VVTS,3/18/2021 2:00,106.6667,10.8167,86,71.6,62.25,150,7,0,29.83,M,6.21,M,FEW,M,M,M,2000,M,M,M,M,M,M,M,M,M,M,91.92,VVTS 180200Z 15007KT 120V180 9999 FEW020 30/22 Q1010 NOSIG,M
VVTS,3/18/2021 2:30,106.6667,10.8167,87.8,71.6,58.78,150,6,0,29.83,M,6.21,M,FEW,M,M,M,2000,M,M,M,M,M,M,M,M,M,M,94.18,VVTS 180230Z 15006KT 120V200 9999 FEW020 31/22 Q1010 NOSIG,M
VVTS,3/18/2021 3:00,106.6667,10.8167,87.8,71.6,58.78,160,6,0,29.83,M,6.21,M,SCT,M,M,M,2000,M,M,M,M,M,M,M,M,M,M,94.18,VVTS 180300Z 16006KT 130V210 9999 SCT020 31/22 Q1010 NOSIG,M
VVTS,3/18/2021 3:30,106.6667,10.8167,89.6,71.6,55.53,160,6,0,29.83,M,6.21,M,SCT,M,M,M,2000,M,M,M,M,M,M,M,M,M,M,96.41,VVTS 180330Z 16006KT 100V200 9999 SCT020 32/22 Q1010 NOSIG,M
VVTS,3/18/2021 4:00,106.6667,10.8167,87.8,71.6,58.78,180,4,0,29.8,M,6.21,M,BKN,M,M,M,2000,M,M,M,M,M,M,M,M,M,M,94.18,VVTS 180400Z 18004KT 120V240 9999 BKN020 31/22 Q1009 NOSIG,M
VVTS,3/18/2021 4:30,106.6667,10.8167,89.6,71.6,55.53,190,5,0,29.8,M,6.21,M,BKN,M,M,M,2000,M,M,M,M,M,M,M,M,M,M,96.41,VVTS 180430Z 19005KT 150V240 9999 BKN020 32/22 Q1009 NOSIG,M
VVTS,3/18/2021 5:00,106.6667,10.8167,89.6,71.6,55.53,170,5,0,29.8,M,6.21,M,BKN,M,M,M,2000,M,M,M,M,M,M,M,M,M,M,96.41,VVTS 180500Z 17005KT 100V230 9999 BKN020 32/22 Q1009 NOSIG,M
VVTS,3/18/2021 5:30,106.6667,10.8167,89.6,73.4,59.01,210,9,0,29.77,M,6.21,M,BKN,M,M,M,2000,M,M,M,M,M,M,M,M,M,M,98.2,VVTS 180530Z 21009KT 160V230 9999 BKN020 32/23 Q1008 NOSIG,M
VVTS,3/18/2021 6:00,106.6667,10.8167,89.6,73.4,59.01,190,10,0,29.77,M,6.21,M,BKN,M,M,M,2000,M,M,M,M,M,M,M,M,M,M,98.2,VVTS 180600Z 19010KT 150V230 9999 BKN020 32/23 Q1008 NOSIG,M
VVTS,3/18/2021 6:30,106.6667,10.8167,89.6,73.4,59.01,180,9,0,29.77,M,6.21,M,BKN,M,M,M,2000,M,M,M,M,M,M,M,M,M,M,98.2,VVTS 180630Z 18009KT 140V210 9999 BKN020 32/23 Q1008 NOSIG,M
VVTS,3/18/2021 7:00,106.6667,10.8167,89.6,71.6,55.53,180,11,0,29.74,M,6.21,M,BKN,M,M,M,2000,M,M,M,M,M,M,M,M,M,M,96.41,VVTS 180700Z 18011KT 130V230 9999 BKN020 32/22 Q1007 NOSIG,M
VVTS,3/18/2021 7:30,106.6667,10.8167,91.4,71.6,52.48,180,9,0,29.74,M,6.21,M,SCT,M,M,M,2000,M,M,M,M,M,M,M,M,M,M,98.64,VVTS 180730Z 18009KT 150V230 9999 SCT020 33/22 Q1007 NOSIG,M
VVTS,3/18/2021 8:00,106.6667,10.8167,89.6,71.6,55.53,170,8,0,29.74,M,6.21,M,SCT,M,M,M,2000,M,M,M,M,M,M,M,M,M,M,96.41,VVTS 180800Z 17008KT 130V210 9999 SCT020 32/22 Q1007 NOSIG,M
VVTS,3/18/2021 8:30,106.6667,10.8167,87.8,71.6,58.78,160,9,0,29.74,M,6.21,M,SCT,M,M,M,2000,M,M,M,M,M,M,M,M,M,M,94.18,VVTS 180830Z 16009KT 120V220 9999 SCT020 31/22 Q1007 NOSIG,M
VVTS,3/18/2021 9:00,106.6667,10.8167,87.8,69.8,55.29,150,11,0,29.74,M,6.21,M,SCT,M,M,M,2000,M,M,M,M,M,M,M,M,M,M,92.71,VVTS 180900Z 15011KT 9999 R25R/550VP2000 SCT020 31/21 Q1007 NOSIG,M
VVTS,3/18/2021 9:30,106.6667,10.8167,86,71.6,62.25,170,9,0,29.74,M,6.21,M,SCT,M,M,M,2000,M,M,M,M,M,M,M,M,M,M,91.92,VVTS 180930Z 17009KT 120V210 9999 SCT020 30/22 Q1007 NOSIG,M
VVTS,3/18/2021 10:00,106.6667,10.8167,86,71.6,62.25,160,9,0,29.74,M,6.21,M,SCT,M,M,M,2000,M,M,M,M,M,M,M,M,M,M,91.92,VVTS 181000Z 16009KT 130V190 9999 SCT020 30/22 Q1007 NOSIG,M
VVTS,3/18/2021 10:30,106.6667,10.8167,84.2,71.6,65.95,170,8,0,29.74,M,6.21,M,SCT,M,M,M,2000,M,M,M,M,M,M,M,M,M,M,89.6,VVTS 181030Z 17008KT 120V210 9999 SCT020 29/22 Q1007 NOSIG,M
VVTS,3/18/2021 11:00,106.6667,10.8167,84.2,71.6,65.95,160,6,0,29.77,M,6.21,M,SCT,M,M,M,2000,M,M,M,M,M,M,M,M,M,M,89.6,VVTS 181100Z 16006KT 130V200 9999 SCT020 29/22 Q1008 NOSIG,M
VVTS,3/18/2021 11:30,106.6667,10.8167,82.4,71.6,69.9,160,9,0,29.77,M,6.21,M,SCT,M,M,M,2000,M,M,M,M,M,M,M,M,M,M,87.18,VVTS 181130Z 16009KT 130V190 9999 SCT020 28/22 Q1008 NOSIG,M
VVTS,3/18/2021 12:00,106.6667,10.8167,82.4,73.4,74.28,160,7,0,29.77,M,6.21,M,SCT,M,M,M,2000,M,M,M,M,M,M,M,M,M,M,88.26,VVTS 181200Z 16007KT 120V190 9999 SCT020 28/23 Q1008 NOSIG,M
VVTS,3/18/2021 12:30,106.6667,10.8167,82.4,73.4,74.28,170,5,0,29.8,M,6.21,M,FEW,SCT,M,M,2000,5000,M,M,M,M,M,M,M,M,M,88.26,VVTS 181230Z 17005KT 140V210 9999 FEW020 SCT050 28/23 Q1009 NOSIG,M
VVTS,3/18/2021 13:00,106.6667,10.8167,82.4,73.4,74.28,160,7,0,29.8,M,6.21,M,FEW,SCT,M,M,2000,5000,M,M,M,M,M,M,M,M,M,88.26,VVTS 181300Z 16007KT 120V190 9999 FEW020 SCT050 28/23 Q1009 NOSIG,M
VVTS,3/18/2021 13:30,106.6667,10.8167,82.4,73.4,74.28,140,8,0,29.8,M,6.21,M,FEW,SCT,M,M,2000,5000,M,M,M,M,M,M,M,M,M,88.26,VVTS 181330Z 14008KT 9999 FEW020 SCT050 28/23 Q1009 NOSIG,M
VVTS,3/18/2021 14:00,106.6667,10.8167,80.6,73.4,78.76,140,7,0,29.8,M,6.21,M,FEW,SCT,M,M,2000,5000,M,M,M,M,M,M,M,M,M,85.32,VVTS 181400Z 14007KT 9999 FEW020 SCT050 27/23 Q1009 NOSIG,M
VVTS,3/18/2021 14:30,106.6667,10.8167,80.6,73.4,78.76,140,8,0,29.83,M,6.21,M,FEW,SCT,M,M,1700,5000,M,M,M,M,M,M,M,M,M,85.32,VVTS 181430Z 14008KT 120V180 9999 FEW017 SCT050 27/23 Q1010 NOSIG,M
VVTS,3/18/2021 15:00,106.6667,10.8167,80.6,73.4,78.76,140,8,0,29.83,M,6.21,M,FEW,SCT,M,M,1700,5000,M,M,M,M,M,M,M,M,M,85.32,VVTS 181500Z 14008KT 120V180 9999 FEW017 SCT050 27/23 Q1010 NOSIG,M
VVTS,3/18/2021 15:30,106.6667,10.8167,80.6,75.2,83.66,140,8,0,29.83,M,6.21,M,FEW,M,M,M,1700,M,M,M,M,M,M,M,M,M,M,86.17,VVTS 181530Z 14008KT 110V180 9999 FEW017 27/24 Q1010 NOSIG,M
VVTS,3/18/2021 16:00,106.6667,10.8167,80.6,75.2,83.66,130,7,0,29.83,M,6.21,M,FEW,M,M,M,1700,M,M,M,M,M,M,M,M,M,M,86.17,VVTS 181600Z 13007KT 9999 FEW017 27/24 Q1010 NOSIG,M
VVTS,3/18/2021 16:30,106.6667,10.8167,80.6,75.2,83.66,140,8,0,29.83,M,6.21,M,FEW,M,M,M,1700,M,M,M,M,M,M,M,M,M,M,86.17,VVTS 181630Z 14008KT 110V180 9999 FEW017 27/24 Q1010 NOSIG,M
VVTS,3/18/2021 17:00,106.6667,10.8167,80.6,75.2,83.66,140,7,0,29.83,M,6.21,M,FEW,M,M,M,1700,M,M,M,M,M,M,M,M,M,M,86.17,VVTS 181700Z 14007KT 110V170 9999 FEW017 27/24 Q1010 NOSIG,M
VVTS,3/18/2021 17:30,106.6667,10.8167,80.6,75.2,83.66,140,6,0,29.8,M,6.21,M,FEW,M,M,M,1700,M,M,M,M,M,M,M,M,M,M,86.17,VVTS 181730Z 14006KT 120V180 9999 FEW017 27/24 Q1009 NOSIG,M
VVTS,3/18/2021 18:00,106.6667,10.8167,80.6,75.2,83.66,140,6,0,29.8,M,6.21,M,FEW,M,M,M,1700,M,M,M,M,M,M,M,M,M,M,86.17,VVTS 181800Z 14006KT 110V170 9999 FEW017 27/24 Q1009 NOSIG,M
VVTS,3/18/2021 18:30,106.6667,10.8167,80.6,75.2,83.66,140,8,0,29.8,M,6.21,M,FEW,SCT,M,M,1700,5000,M,M,M,M,M,M,M,M,M,86.17,VVTS 181830Z 14008KT 110V180 9999 FEW017 SCT050 27/24 Q1009 NOSIG,M
VVTS,3/18/2021 19:00,106.6667,10.8167,80.6,75.2,83.66,140,7,0,29.8,M,6.21,M,FEW,SCT,M,M,1700,5000,M,M,M,M,M,M,M,M,M,86.17,VVTS 181900Z 14007KT 9999 FEW017 SCT050 27/24 Q1009 NOSIG,M
VVTS,3/18/2021 19:30,106.6667,10.8167,80.6,75.2,83.66,150,6,0,29.77,M,6.21,M,FEW,SCT,M,M,1700,5000,M,M,M,M,M,M,M,M,M,86.17,VVTS 181930Z 15006KT 120V200 9999 FEW017 SCT050 27/24 Q1008 NOSIG,M
VVTS,3/18/2021 20:00,106.6667,10.8167,78.8,75.2,88.75,140,5,0,29.77,M,6.21,M,FEW,SCT,M,M,1700,5000,M,M,M,M,M,M,M,M,M,78.8,VVTS 182000Z 14005KT 9999 FEW017 SCT050 26/24 Q1008 NOSIG,M
VVTS,3/18/2021 20:30,106.6667,10.8167,78.8,75.2,88.75,160,4,0,29.77,M,6.21,M,FEW,SCT,M,M,1700,5000,M,M,M,M,M,M,M,M,M,78.8,VVTS 182030Z 16004KT 120V190 9999 FEW017 SCT050 26/24 Q1008 NOSIG,M
VVTS,3/18/2021 21:00,106.6667,10.8167,78.8,75.2,88.75,140,4,0,29.77,M,6.21,M,FEW,SCT,M,M,1700,5000,M,M,M,M,M,M,M,M,M,78.8,VVTS 182100Z 14004KT 120V190 9999 FEW017 SCT050 26/24 Q1008 NOSIG,M
VVTS,3/18/2021 21:30,106.6667,10.8167,78.8,75.2,88.75,M,3,0,29.77,M,6.21,M,FEW,SCT,M,M,1700,5000,M,M,M,M,M,M,M,M,M,78.8,VVTS 182130Z VRB03KT 9999 FEW017 SCT050 26/24 Q1008 NOSIG,M
VVTS,3/18/2021 22:00,106.6667,10.8167,78.8,75.2,88.75,M,3,0,29.77,M,6.21,M,FEW,SCT,M,M,1700,5000,M,M,M,M,M,M,M,M,M,78.8,VVTS 182200Z VRB03KT 9999 FEW017 SCT050 26/24 Q1008 NOSIG,M
VVTS,3/18/2021 22:30,106.6667,10.8167,78.8,75.2,88.75,170,3,0,29.77,M,6.21,M,FEW,SCT,M,M,1700,5000,M,M,M,M,M,M,M,M,M,78.8,VVTS 182230Z 17003KT 9999 FEW017 SCT050 26/24 Q1008 NOSIG,M
VVTS,3/18/2021 23:00,106.6667,10.8167,78.8,75.2,88.75,M,2,0,29.77,M,6.21,M,FEW,SCT,M,M,1700,5000,M,M,M,M,M,M,M,M,M,78.8,VVTS 182300Z VRB02KT 9999 FEW017 SCT050 26/24 Q1008 NOSIG,M
VVTS,3/18/2021 23:30,106.6667,10.8167,78.8,75.2,88.75,130,4,0,29.8,M,6.21,M,FEW,M,M,M,1700,M,M,M,M,M,M,M,M,M,M,78.8,VVTS 182330Z 13004KT 9999 FEW017 26/24 Q1009 NOSIG,M
VVTS,3/19/2021 0:00,106.6667,10.8167,80.6,75.2,83.66,M,2,0,29.8,M,6.21,M,FEW,M,M,M,1700,M,M,M,M,M,M,M,M,M,M,86.17,VVTS 190000Z VRB02KT 9999 FEW017 27/24 Q1009 NOSIG,M
VVTS,3/19/2021 0:30,106.6667,10.8167,82.4,75.2,78.9,M,3,0,29.8,M,6.21,M,FEW,M,M,M,1700,M,M,M,M,M,M,M,M,M,M,89.48,VVTS 190030Z VRB03KT 9999 FEW017 28/24 Q1009 NOSIG,M
VVTS,3/19/2021 1:00,106.6667,10.8167,82.4,73.4,74.28,120,6,0,29.83,M,6.21,M,FEW,M,M,M,1700,M,M,M,M,M,M,M,M,M,M,88.26,VVTS 190100Z 12006KT 090V150 9999 FEW017 28/23 Q1010 NOSIG,M
VVTS,3/19/2021 1:30,106.6667,10.8167,84.2,73.4,70.08,140,5,0,29.83,M,6.21,M,FEW,M,M,M,1700,M,M,M,M,M,M,M,M,M,M,90.94,VVTS 190130Z 14005KT 090V190 9999 FEW017 29/23 Q1010 NOSIG,M
VVTS,3/19/2021 2:00,106.6667,10.8167,86,71.6,62.25,150,7,0,29.83,M,6.21,M,FEW,M,M,M,1700,M,M,M,M,M,M,M,M,M,M,91.92,VVTS 190200Z 15007KT 120V180 9999 FEW017 30/22 Q1010 NOSIG,M
VVTS,3/19/2021 2:30,106.6667,10.8167,86,73.4,66.15,130,8,0,29.83,M,6.21,M,FEW,M,M,M,1700,M,M,M,M,M,M,M,M,M,M,93.45,VVTS 190230Z 13008KT 100V160 9999 FEW017 30/23 Q1010 NOSIG,M
VVTS,3/19/2021 3:00,106.6667,10.8167,89.6,71.6,55.53,140,7,0,29.83,M,6.21,M,FEW,M,M,M,2000,M,M,M,M,M,M,M,M,M,M,96.41,VVTS 190300Z 14007KT 090V190 9999 FEW020 32/22 Q1010 NOSIG,M
VVTS,3/19/2021 3:30,106.6667,10.8167,91.4,71.6,52.48,170,6,0,29.8,M,6.21,M,FEW,M,M,M,2000,M,M,M,M,M,M,M,M,M,M,98.64,VVTS 190330Z 17006KT 120V260 9999 FEW020 33/22 Q1009 NOSIG,M
VVTS,3/19/2021 4:00,106.6667,10.8167,91.4,71.6,52.48,160,5,0,29.8,M,6.21,M,FEW,M,M,M,2000,M,M,M,M,M,M,M,M,M,M,98.64,VVTS 190400Z 16005KT 100V220 9999 FEW020 33/22 Q1009 NOSIG,M
VVTS,3/19/2021 4:30,106.6667,10.8167,93.2,71.6,49.62,140,4,0,29.77,M,6.21,M,FEW,M,M,M,2000,M,M,M,M,M,M,M,M,M,M,100.88,VVTS 190430Z 14004KT 080V200 9999 FEW020 34/22 Q1008 NOSIG,M
VVTS,3/19/2021 5:00,106.6667,10.8167,93.2,69.8,46.67,M,5,0,29.77,M,6.21,M,SCT,M,M,M,2000,M,M,M,M,M,M,M,M,M,M,99.17,VVTS 190500Z VRB05KT 9999 SCT020 34/21 Q1008 NOSIG,M
VVTS,3/19/2021 5:30,106.6667,10.8167,93.2,71.6,49.62,140,4,0,29.74,M,6.21,M,SCT,M,M,M,2000,M,M,M,M,M,M,M,M,M,M,100.88,VVTS 190530Z 14004KT 080V200 9999 SCT020 34/22 Q1007 NOSIG,M
VVTS,3/19/2021 6:00,106.6667,10.8167,93.2,69.8,46.67,M,5,0,29.71,M,6.21,M,SCT,M,M,M,2000,M,M,M,M,M,M,M,M,M,M,99.17,VVTS 190600Z VRB05KT 9999 SCT020 34/21 Q1006 NOSIG,M
VVTS,3/19/2021 6:30,106.6667,10.8167,93.2,71.6,49.62,150,5,0,29.71,M,6.21,M,SCT,M,M,M,2000,M,M,M,M,M,M,M,M,M,M,100.88,VVTS 190630Z 15005KT 9999 SCT020 34/22 Q1006 NOSIG,M
VVTS,3/19/2021 7:00,106.6667,10.8167,91.4,73.4,55.77,180,7,0,29.68,M,6.21,M,SCT,M,M,M,2000,M,M,M,M,M,M,M,M,M,M,100.52,VVTS 190700Z 18007KT 130V230 9999 SCT020 33/23 Q1005 NOSIG,M
VVTS,3/19/2021 7:30,106.6667,10.8167,93.2,73.4,52.73,190,10,0,29.68,M,6.21,M,SCT,M,M,M,2000,M,M,M,M,M,M,M,M,M,M,102.82,VVTS 190730Z 19010KT 150V230 9999 SCT020 34/23 Q1005 NOSIG,M
VVTS,3/19/2021 8:00,106.6667,10.8167,93.2,73.4,52.73,180,10,0,29.68,M,6.21,M,SCT,M,M,M,2000,M,M,M,M,M,M,M,M,M,M,102.82,VVTS 190800Z 18010KT 140V220 9999 SCT020 34/23 Q1005 NOSIG,M
VVTS,3/19/2021 8:30,106.6667,10.8167,91.4,73.4,55.77,160,8,0,29.65,M,6.21,M,SCT,M,M,M,2000,M,M,M,M,M,M,M,M,M,M,100.52,VVTS 190830Z 16008KT 120V220 9999 SCT020 33/23 Q1004 NOSIG,M
VVTS,3/19/2021 9:00,106.6667,10.8167,91.4,73.4,55.77,180,10,0,29.65,M,6.21,M,FEW,M,M,M,2000,M,M,M,M,M,M,M,M,M,M,100.52,VVTS 190900Z 18010KT 150V220 9999 FEW020 33/23 Q1004 NOSIG,M
VVTS,3/19/2021 9:30,106.6667,10.8167,89.6,73.4,59.01,190,10,0,29.68,M,6.21,M,FEW,M,M,M,2000,M,M,M,M,M,M,M,M,M,M,98.2,VVTS 190930Z 19010KT 160V220 9999 FEW020 32/23 Q1005 NOSIG,M
VVTS,3/19/2021 10:00,106.6667,10.8167,87.8,73.4,62.47,180,10,0,29.68,M,6.21,M,FEW,M,M,M,2000,M,M,M,M,M,M,M,M,M,M,95.86,VVTS 191000Z 18010KT 150V210 9999 FEW020 31/23 Q1005 NOSIG,M
VVTS,3/19/2021 10:30,106.6667,10.8167,86,75.2,70.27,180,9,0,29.71,M,6.21,M,FEW,M,M,M,2000,M,M,M,M,M,M,M,M,M,M,95.19,VVTS 191030Z 18009KT 140V210 9999 FEW020 30/24 Q1006 NOSIG,M
VVTS,3/19/2021 11:00,106.6667,10.8167,84.2,75.2,74.44,180,10,0,29.71,M,6.21,M,FEW,M,M,M,2000,M,M,M,M,M,M,M,M,M,M,92.45,VVTS 191100Z 18010KT 150V220 9999 FEW020 29/24 Q1006 NOSIG,M
VVTS,3/19/2021 11:30,106.6667,10.8167,84.2,75.2,74.44,170,9,0,29.71,M,6.21,M,FEW,M,M,M,2000,M,M,M,M,M,M,M,M,M,M,92.45,VVTS 191130Z 17009KT 140V220 9999 FEW020 29/24 Q1006 NOSIG,M
VVTS,3/19/2021 12:00,106.6667,10.8167,82.4,75.2,78.9,190,10,0,29.74,M,6.21,M,SCT,M,M,M,2000,M,M,M,M,M,M,M,M,M,M,89.48,VVTS 191200Z 19010KT 9999 SCT020 28/24 Q1007 NOSIG,M
VVTS,3/19/2021 12:30,106.6667,10.8167,82.4,75.2,78.9,170,9,0,29.74,M,6.21,M,SCT,M,M,M,2000,M,M,M,M,M,M,M,M,M,M,89.48,VVTS 191230Z 17009KT 140V200 9999 SCT020 28/24 Q1007 NOSIG,M
VVTS,3/19/2021 13:00,106.6667,10.8167,82.4,75.2,78.9,150,6,0,29.74,M,6.21,M,FEW,SCT,M,M,2000,5000,M,M,M,M,M,M,M,M,M,89.48,VVTS 191300Z 15006KT 120V190 9999 FEW020 SCT050 28/24 Q1007 NOSIG,M
VVTS,3/19/2021 13:30,106.6667,10.8167,82.4,75.2,78.9,160,8,0,29.77,M,6.21,M,FEW,SCT,M,M,2000,5000,M,M,M,M,M,M,M,M,M,89.48,VVTS 191330Z 16008KT 140V210 9999 FEW020 SCT050 28/24 Q1008 NOSIG,M
VVTS,3/19/2021 14:00,106.6667,10.8167,82.4,75.2,78.9,170,7,0,29.77,M,6.21,M,FEW,SCT,M,M,2000,5000,M,M,M,M,M,M,M,M,M,89.48,VVTS 191400Z 17007KT 140V200 9999 FEW020 SCT050 28/24 Q1008 NOSIG,M
VVTS,3/19/2021 14:30,106.6667,10.8167,82.4,75.2,78.9,150,10,0,29.77,M,6.21,M,FEW,SCT,M,M,2000,5000,M,M,M,M,M,M,M,M,M,89.48,VVTS 191430Z 15010KT 120V180 9999 FEW020 SCT050 28/24 Q1008,M
VVTS,3/19/2021 15:00,106.6667,10.8167,82.4,75.2,78.9,160,8,0,29.77,M,6.21,M,FEW,SCT,M,M,2000,5000,M,M,M,M,M,M,M,M,M,89.48,VVTS 191500Z 16008KT 130V210 9999 FEW020 SCT050 28/24 Q1008 NOSIG,M
VVTS,3/19/2021 15:30,106.6667,10.8167,82.4,75.2,78.9,150,7,0,29.77,M,6.21,M,FEW,SCT,M,M,2000,5000,M,M,M,M,M,M,M,M,M,89.48,VVTS 191530Z 15007KT 120V200 9999 FEW020 SCT050 28/24 Q1008 NOSIG,M
VVTS,3/19/2021 16:00,106.6667,10.8167,82.4,75.2,78.9,150,7,0,29.77,M,6.21,M,FEW,SCT,M,M,1700,5000,M,M,M,M,M,M,M,M,M,89.48,VVTS 191600Z 15007KT 120V180 9999 FEW017 SCT050 28/24 Q1008 NOSIG,M
VVTS,3/19/2021 16:30,106.6667,10.8167,82.4,75.2,78.9,160,6,0,29.77,M,6.21,M,FEW,SCT,M,M,1700,5000,M,M,M,M,M,M,M,M,M,89.48,VVTS 191630Z 16006KT 120V190 9999 FEW017 SCT050 28/24 Q1008 NOSIG,M
VVTS,3/19/2021 17:00,106.6667,10.8167,82.4,77,83.77,160,7,0,29.77,M,6.21,M,FEW,SCT,M,M,1700,5000,M,M,M,M,M,M,M,M,M,90.85,VVTS 191700Z 16007KT 130V200 9999 R25R/1300VP2000D FEW017 SCT050 28/25 Q1008 NOSIG,M
VVTS,3/19/2021 17:30,106.6667,10.8167,80.6,77,88.83,160,7,0,29.77,M,6.21,M,FEW,SCT,M,M,1700,5000,M,M,M,M,M,M,M,M,M,87.59,VVTS 191730Z 16007KT 130V190 9999 R25R/1400VP2000D FEW017 SCT050 27/25 Q1008 NOSIG,M
VVTS,3/19/2021 18:00,106.6667,10.8167,82.4,77,83.77,140,8,0,29.77,M,6.21,M,FEW,SCT,M,M,1700,5000,M,M,M,M,M,M,M,M,M,90.85,VVTS 191800Z 14008KT 110V170 9999 FEW017 SCT050 28/25 Q1008 NOSIG,M
VVTS,3/19/2021 18:30,106.6667,10.8167,82.4,77,83.77,150,7,0,29.74,M,6.21,M,FEW,SCT,M,M,2000,5000,M,M,M,M,M,M,M,M,M,90.85,VVTS 191830Z 15007KT 110V180 9999 FEW020 SCT050 28/25 Q1007 NOSIG,M
VVTS,3/19/2021 19:00,106.6667,10.8167,82.4,75.2,78.9,140,6,0,29.74,M,6.21,M,FEW,SCT,M,M,2000,5000,M,M,M,M,M,M,M,M,M,89.48,VVTS 191900Z 14006KT 110V170 9999 FEW020 SCT050 28/24 Q1007 NOSIG,M
VVTS,3/19/2021 19:30,106.6667,10.8167,82.4,75.2,78.9,140,5,0,29.74,M,6.21,M,FEW,SCT,M,M,2000,5000,M,M,M,M,M,M,M,M,M,89.48,VVTS 191930Z 14005KT 110V170 9999 FEW020 SCT050 28/24 Q1007 NOSIG,M
VVTS,3/19/2021 20:00,106.6667,10.8167,82.4,75.2,78.9,140,7,0,29.74,M,6.21,M,FEW,SCT,M,M,2000,5000,M,M,M,M,M,M,M,M,M,89.48,VVTS 192000Z 14007KT 110V170 9999 FEW020 SCT050 28/24 Q1007 NOSIG,M
VVTS,3/19/2021 20:30,106.6667,10.8167,80.6,75.2,83.66,150,6,0,29.74,M,6.21,M,FEW,SCT,M,M,2000,5000,M,M,M,M,M,M,M,M,M,86.17,VVTS 192030Z 15006KT 120V180 9999 FEW020 SCT050 27/24 Q1007 NOSIG,M
VVTS,3/19/2021 21:00,106.6667,10.8167,80.6,77,88.83,140,5,0,29.74,M,6.21,M,FEW,SCT,M,M,1700,5000,M,M,M,M,M,M,M,M,M,87.59,VVTS 192100Z 14005KT 110V210 9999 FEW017 SCT050 27/25 Q1007 NOSIG,M
VVTS,3/19/2021 21:30,106.6667,10.8167,80.6,77,88.83,130,8,0,29.74,M,6.21,M,FEW,SCT,M,M,1700,5000,M,M,M,M,M,M,M,M,M,87.59,VVTS 192130Z 13008KT 9999 FEW017 SCT050 27/25 Q1007 NOSIG,M
VVTS,3/19/2021 22:00,106.6667,10.8167,80.6,77,88.83,150,6,0,29.74,M,6.21,M,FEW,SCT,M,M,1700,5000,M,M,M,M,M,M,M,M,M,87.59,VVTS 192200Z 15006KT 9999 FEW017 SCT050 27/25 Q1007 NOSIG,M
VVTS,3/19/2021 22:30,106.6667,10.8167,80.6,77,88.83,140,6,0,29.74,M,6.21,M,FEW,SCT,M,M,1700,5000,M,M,M,M,M,M,M,M,M,87.59,VVTS 192230Z 14006KT 090V170 9999 FEW017 SCT050 27/25 Q1007 NOSIG,M
VVTS,3/19/2021 23:00,106.6667,10.8167,80.6,77,88.83,160,5,0,29.77,M,6.21,M,SCT,BKN,M,M,1700,5000,M,M,M,M,M,M,M,M,M,87.59,VVTS 192300Z 16005KT 130V220 9999 SCT017 BKN050 27/25 Q1008 NOSIG,M
VVTS,3/19/2021 23:30,106.6667,10.8167,80.6,77,88.83,140,5,0,29.77,M,6.21,M,SCT,FEW,BKN,M,1500,1700,5000,M,#NAME?,M,M,M,M,M,M,87.59,VVTS 192330Z 14005KT 100V180 9999 -SHRA SCT015 FEW017CTU BKN050 27/25 Q1008 NOSIG RMK TCU OVER RWY,M
VVTS,3/20/2021 0:00,106.6667,10.8167,80.6,77,88.83,130,5,0,29.77,M,6.21,M,BKN,BKN,M,M,1500,5000,M,M,#NAME?,M,M,M,M,M,M,87.59,VVTS 200000Z 13005KT 110V190 9999 -RA BKN015 BKN050 27/25 Q1008 NOSIG,M
VVTS,3/20/2021 0:30,106.6667,10.8167,80.6,77,88.83,140,5,0,29.8,M,6.21,M,BKN,BKN,M,M,1500,5000,M,M,#NAME?,M,M,M,M,M,M,87.59,VVTS 200030Z 14005KT 110V170 9999 -RA BKN015 BKN050 27/25 Q1009 NOSIG,M
VVTS,3/20/2021 1:00,106.6667,10.8167,82.4,77,83.77,160,4,0,29.8,M,6.21,M,BKN,BKN,M,M,1500,5000,M,M,M,M,M,M,M,M,M,90.85,VVTS 200100Z 16004KT 120V210 9999 BKN015 BKN050 28/25 Q1009 NOSIG,M
VVTS,3/20/2021 1:30,106.6667,10.8167,82.4,77,83.77,140,6,0,29.8,M,6.21,M,BKN,BKN,M,M,1500,5000,M,M,M,M,M,M,M,M,M,90.85,VVTS 200130Z 14006KT 110V170 9999 BKN015 BKN050 28/25 Q1009 NOSIG,M
VVTS,3/20/2021 2:00,106.6667,10.8167,84.2,75.2,74.44,110,6,0,29.8,M,6.21,M,BKN,BKN,M,M,1500,5000,M,M,M,M,M,M,M,M,M,92.45,VVTS 200200Z 11006KT 090V150 9999 BKN015 BKN050 29/24 Q1009 NOSIG,M
VVTS,3/20/2021 2:30,106.6667,10.8167,86,75.2,70.27,150,6,0,29.8,M,6.21,M,BKN,BKN,M,M,1500,5000,M,M,M,M,M,M,M,M,M,95.19,VVTS 200230Z 15006KT 100V190 9999 BKN015 BKN050 30/24 Q1009 NOSIG,M
VVTS,3/20/2021 3:00,106.6667,10.8167,86,75.2,70.27,130,6,0,29.8,M,6.21,M,SCT,BKN,M,M,2000,5000,M,M,M,M,M,M,M,M,M,95.19,VVTS 200300Z 13006KT 080V190 9999 SCT020 BKN050 30/24 Q1009 NOSIG,M
VVTS,3/20/2021 3:30,106.6667,10.8167,87.8,75.2,66.35,110,6,0,29.8,M,6.21,M,SCT,BKN,M,M,2000,5000,M,M,M,M,M,M,M,M,M,97.76,VVTS 200330Z 11006KT 070V170 9999 SCT020 BKN050 31/24 Q1009 NOSIG,M
VVTS,3/20/2021 4:00,106.6667,10.8167,86,75.2,70.27,140,5,0,29.77,M,2.86,M,SCT,BKN,M,M,2000,5000,M,M,M,M,M,M,M,M,M,95.19,VVTS 200400Z 14005KT 080V190 4600 SCT020 BKN050 30/24 Q1008 NOSIG,M
VVTS,3/20/2021 4:30,106.6667,10.8167,87.8,75.2,66.35,150,6,0,29.77,M,6.21,M,SCT,BKN,M,M,2000,5000,M,M,M,M,M,M,M,M,M,97.76,VVTS 200430Z 15006KT 070V190 9999 SCT020 BKN050 31/24 Q1008 NOSIG,M
VVTS,3/20/2021 5:00,106.6667,10.8167,87.8,75.2,66.35,130,5,0,29.74,M,6.21,M,SCT,BKN,M,M,2000,5000,M,M,M,M,M,M,M,M,M,97.76,VVTS 200500Z 13005KT 080V200 9999 SCT020 BKN050 31/24 Q1007 NOSIG,M
VVTS,3/20/2021 5:30,106.6667,10.8167,89.6,73.4,59.01,150,3,0,29.74,M,6.21,M,SCT,BKN,M,M,2000,5000,M,M,M,M,M,M,M,M,M,98.2,VVTS 200530Z 15003KT 9999 SCT020 BKN050 32/23 Q1007 NOSIG,M
VVTS,3/20/2021 6:00,106.6667,10.8167,89.6,73.4,59.01,130,5,0,29.71,M,6.21,M,SCT,M,M,M,2000,M,M,M,M,M,M,M,M,M,M,98.2,VVTS 200600Z 13005KT 090V240 9999 SCT020 32/23 Q1006 NOSIG,M
VVTS,3/20/2021 6:30,106.6667,10.8167,91.4,73.4,55.77,M,3,0,29.71,M,6.21,M,BKN,M,M,M,2000,M,M,M,M,M,M,M,M,M,M,100.52,VVTS 200630Z VRB03KT 9999 BKN020 33/23 Q1006 NOSIG,M
VVTS,3/20/2021 8:00,106.6667,10.8167,89.6,73.4,59.01,200,6,0,29.68,M,6.21,M,BKN,M,M,M,2000,M,M,M,M,M,M,M,M,M,M,98.2,VVTS 200800Z 20006KT 160V260 9999 BKN020 32/23 Q1005 NOSIG,M
VVTS,3/20/2021 8:30,106.6667,10.8167,91.4,73.4,55.77,160,5,0,29.65,M,6.21,M,BKN,M,M,M,2000,M,M,M,M,M,M,M,M,M,M,100.52,VVTS 200830Z 16005KT 130V190 9999 BKN020 33/23 Q1004 NOSIG,M
VVTS,3/20/2021 9:00,106.6667,10.8167,91.4,75.2,59.24,190,7,0,29.65,M,6.21,M,SCT,M,M,M,2000,M,M,M,M,M,M,M,M,M,M,102.65,VVTS 200900Z 19007KT 140V230 9999 SCT020 33/24 Q1004 NOSIG,M
VVTS,3/20/2021 9:30,106.6667,10.8167,89.6,75.2,62.68,170,9,0,29.65,M,6.21,M,SCT,M,M,M,2000,M,M,M,M,M,M,M,M,M,M,100.23,VVTS 200930Z 17009KT 9999 SCT020 32/24 Q1004 NOSIG,M
VVTS,3/20/2021 10:00,106.6667,10.8167,87.8,75.2,66.35,180,9,0,29.68,M,6.21,M,FEW,M,M,M,2000,M,M,M,M,M,M,M,M,M,M,97.76,VVTS 201000Z 18009KT 150V210 9999 R25R/1100VP2000D FEW020 31/24 Q1005 NOSIG,M
VVTS,3/20/2021 10:30,106.6667,10.8167,86,73.4,66.15,180,9,0,29.68,M,6.21,M,FEW,M,M,M,2000,M,M,M,M,M,M,M,M,M,M,93.45,VVTS 201030Z 18009KT 9999 FEW020 30/23 Q1005 NOSIG,M
VVTS,3/20/2021 11:00,106.6667,10.8167,86,73.4,66.15,150,8,0,29.68,M,6.21,M,FEW,M,M,M,2000,M,M,M,M,M,M,M,M,M,M,93.45,VVTS 201100Z 15008KT 130V190 9999 FEW020 30/23 Q1005 NOSIG,M
VVTS,3/20/2021 11:30,106.6667,10.8167,84.2,73.4,70.08,170,9,0,29.68,M,6.21,M,FEW,M,M,M,2000,M,M,M,M,M,M,M,M,M,M,90.94,VVTS 201130Z 17009KT 130V210 9999 FEW020 29/23 Q1005 NOSIG,M
VVTS,3/20/2021 12:00,106.6667,10.8167,84.2,73.4,70.08,150,8,0,29.71,M,6.21,M,FEW,M,M,M,2000,M,M,M,M,M,M,M,M,M,M,90.94,VVTS 201200Z 15008KT 9999 FEW020 29/23 Q1006 NOSIG,M
VVTS,3/20/2021 12:30,106.6667,10.8167,84.2,71.6,65.95,140,6,0,29.71,M,6.21,M,FEW,M,M,M,2000,M,M,M,M,M,M,M,M,M,M,89.6,VVTS 201230Z 14006KT 110V170 9999 FEW020 29/22 Q1006 NOSIG,M
VVTS,3/20/2021 13:00,106.6667,10.8167,82.4,73.4,74.28,160,8,0,29.71,M,6.21,M,FEW,M,M,M,2000,M,M,M,M,M,M,M,M,M,M,88.26,VVTS 201300Z 16008KT 130V200 9999 FEW020 28/23 Q1006 NOSIG,M
VVTS,3/20/2021 13:30,106.6667,10.8167,82.4,73.4,74.28,150,6,0,29.74,M,6.21,M,FEW,M,M,M,2000,M,M,M,M,M,M,M,M,M,M,88.26,VVTS 201330Z 15006KT 120V190 9999 FEW020 28/23 Q1007 NOSIG,M
VVTS,3/20/2021 14:00,106.6667,10.8167,82.4,75.2,78.9,140,6,0,29.74,M,6.21,M,FEW,M,M,M,2000,M,M,M,M,M,M,M,M,M,M,89.48,VVTS 201400Z 14006KT 110V170 9999 FEW020 28/24 Q1007 NOSIG,M
VVTS,3/20/2021 14:30,106.6667,10.8167,82.4,75.2,78.9,120,8,0,29.74,M,6.21,M,FEW,M,M,M,2000,M,M,M,M,M,M,M,M,M,M,89.48,VVTS 201430Z 12008KT 110V180 9999 FEW020 28/24 Q1007 NOSIG,M
VVTS,3/20/2021 15:00,106.6667,10.8167,82.4,75.2,78.9,150,6,0,29.74,M,6.21,M,FEW,M,M,M,2000,M,M,M,M,M,M,M,M,M,M,89.48,VVTS 201500Z 15006KT 120V190 9999 FEW020 28/24 Q1007 NOSIG,M
VVTS,3/20/2021 15:30,106.6667,10.8167,82.4,75.2,78.9,150,7,0,29.74,M,6.21,M,SCT,M,M,M,1700,M,M,M,M,M,M,M,M,M,M,89.48,VVTS 201530Z 15007KT 130V190 9999 R25R/1700VP2000N SCT017 28/24 Q1007 NOSIG,M
VVTS,3/20/2021 16:00,106.6667,10.8167,82.4,75.2,78.9,150,7,0,29.74,M,6.21,M,SCT,M,M,M,1700,M,M,M,M,M,M,M,M,M,M,89.48,VVTS 201600Z 15007KT 130V190 9999 SCT017 28/24 Q1007 NOSI G,M
VVTS,3/20/2021 16:30,106.6667,10.8167,80.6,75.2,83.66,140,6,0,29.74,M,6.21,M,SCT,M,M,M,1700,M,M,M,M,M,M,M,M,M,M,86.17,VVTS 201630Z 14006KT 100V200 9999 SCT017 27/24 Q1007 NOSIG,M
VVTS,3/20/2021 17:00,106.6667,10.8167,82.4,75.2,78.9,130,8,0,29.74,M,6.21,M,SCT,M,M,M,1700,M,M,M,M,M,M,M,M,M,M,89.48,VVTS 201700Z 13008KT 9999 SCT017 28/24 Q1007 NOSIG,M
VVTS,3/20/2021 17:30,106.6667,10.8167,82.4,75.2,78.9,140,7,0,29.74,M,6.21,M,SCT,M,M,M,1700,M,M,M,M,M,M,M,M,M,M,89.48,VVTS 201730Z 14007KT 9999 SCT017 28/24 Q1007 NOSIG,M
VVTS,3/20/2021 18:00,106.6667,10.8167,80.6,75.2,83.66,130,7,0,29.74,M,6.21,M,SCT,M,M,M,1700,M,M,M,M,M,M,M,M,M,M,86.17,VVTS 201800Z 13007KT 9999 SCT017 27/24 Q1007 NOSIG,M
VVTS,3/20/2021 18:30,106.6667,10.8167,80.6,75.2,83.66,130,7,0,29.74,M,6.21,M,FEW,SCT,M,M,1700,5000,M,M,M,M,M,M,M,M,M,86.17,VVTS 201830Z 13007KT 9999 FEW017 SCT050 27/24 Q1007 NOSIG,M
VVTS,3/20/2021 19:00,106.6667,10.8167,82.4,75.2,78.9,130,6,0,29.74,M,6.21,M,FEW,SCT,M,M,1700,5000,M,M,M,M,M,M,M,M,M,89.48,VVTS 201900Z 13006KT 110V170 9999 FEW017 SCT050 28/24 Q1007 NOSIG,M
VVTS,3/20/2021 19:30,106.6667,10.8167,80.6,75.2,83.66,150,6,0,29.74,M,6.21,M,FEW,SCT,M,M,1700,5000,M,M,M,M,M,M,M,M,M,86.17,VVTS 201930Z 15006KT 110V200 9999 FEW017 SCT050 27/24 Q1007 NOSIG,M
VVTS,3/20/2021 20:00,106.6667,10.8167,80.6,75.2,83.66,130,7,0,29.74,M,6.21,M,FEW,SCT,M,M,1700,5000,M,M,M,M,M,M,M,M,M,86.17,VVTS 202000Z 13007KT 9999 FEW017 SCT050 27/24 Q1007 NOSIG,M
VVTS,3/20/2021 20:30,106.6667,10.8167,80.6,75.2,83.66,120,5,0,29.74,M,6.21,M,FEW,SCT,M,M,1700,5000,M,M,M,M,M,M,M,M,M,86.17,VVTS 202030Z 12005KT 9999 FEW017 SCT050 27/24 Q1007 NOSIG,M
VVTS,3/20/2021 21:00,106.6667,10.8167,80.6,75.2,83.66,140,5,0,29.74,M,6.21,M,FEW,SCT,M,M,1700,5000,M,M,M,M,M,M,M,M,M,86.17,VVTS 202100Z 14005KT 110V180 9999 FEW017 SCT050 27/24 Q1007 NOSIG,M
VVTS,3/20/2021 21:30,106.6667,10.8167,80.6,75.2,83.66,140,5,0,29.74,M,4.97,M,SCT,SCT,M,M,1700,5000,M,M,M,M,M,M,M,M,M,86.17,VVTS 202130Z 14005KT 100V180 8000 SCT017 SCT050 27/24 Q1007 NOSIG,M
VVTS,3/20/2021 22:00,106.6667,10.8167,80.6,75.2,83.66,130,6,0,29.74,M,4.97,M,SCT,SCT,M,M,1700,5000,M,M,M,M,M,M,M,M,M,86.17,VVTS 202200Z 13006KT 8000 SCT017 SCT050 27/24 Q1007 NOSIG,M
VVTS,3/20/2021 22:30,106.6667,10.8167,80.6,75.2,83.66,M,3,0,29.77,M,4.97,M,SCT,SCT,M,M,1700,5000,M,M,M,M,M,M,M,M,M,86.17,VVTS 202230Z VRB03KT 8000 SCT017 SCT050 27/24 Q1008 NOSIG,M
VVTS,3/20/2021 23:00,106.6667,10.8167,80.6,75.2,83.66,M,3,0,29.77,M,4.97,M,SCT,SCT,M,M,1700,5000,M,M,M,M,M,M,M,M,M,86.17,VVTS 202300Z VRB03KT 8000 SCT017 SCT050 27/24 Q1008 NOSIG,M
VVTS,3/20/2021 23:30,106.6667,10.8167,80.6,75.2,83.66,130,4,0,29.8,M,4.97,M,SCT,SCT,M,M,1700,5000,M,M,M,M,M,M,M,M,M,86.17,VVTS 202330Z 13004KT 090V200 8000 SCT017 SCT050 27/24 Q1009 NOSIG,M
VVTS,3/21/2021 0:00,106.6667,10.8167,82.4,75.2,78.9,130,4,0,29.8,M,6.21,M,SCT,SCT,M,M,1500,5000,M,M,M,M,M,M,M,M,M,89.48,VVTS 210000Z 13004KT 110V170 9999 SCT015 SCT050 28/24 Q1009 NOSIG,M
VVTS,3/21/2021 0:30,106.6667,10.8167,82.4,75.2,78.9,140,5,0,29.8,M,6.21,M,SCT,SCT,M,M,1500,5000,M,M,M,M,M,M,M,M,M,89.48,VVTS 210030Z 14005KT 120V180 9999 SCT015 SCT050 28/24 Q1009 NOSIG,M
VVTS,3/21/2021 1:00,106.6667,10.8167,82.4,75.2,78.9,130,7,0,29.83,M,6.21,M,SCT,SCT,M,M,1500,5000,M,M,M,M,M,M,M,M,M,89.48,VVTS 210100Z 13007KT 9999 SCT015 SCT050 28/24 Q1010 NOSIG,M
VVTS,3/21/2021 1:30,106.6667,10.8167,84.2,75.2,74.44,130,5,0,29.83,M,6.21,M,SCT,SCT,M,M,1500,5000,M,M,M,M,M,M,M,M,M,92.45,VVTS 210130Z 13005KT 9999 SCT015 SCT050 29/24 Q1010 NOSIG,M
VVTS,3/21/2021 2:00,106.6667,10.8167,86,73.4,66.15,160,4,0,29.83,M,6.21,M,SCT,M,M,M,1700,M,M,M,M,M,M,M,M,M,M,93.45,VVTS 210200Z 16004KT 120V200 9999 SCT017 30/23 Q1010 NOSIG,M
VVTS,3/21/2021 2:30,106.6667,10.8167,87.8,73.4,62.47,140,5,0,29.83,M,6.21,M,SCT,M,M,M,1700,M,M,M,M,M,M,M,M,M,M,95.86,VVTS 210230Z 14005KT 080V200 9999 SCT017 31/23 Q1010 NOSIG,M
VVTS,3/21/2021 3:00,106.6667,10.8167,87.8,73.4,62.47,140,4,0,29.83,M,6.21,M,SCT,M,M,M,1700,M,M,M,M,M,M,M,M,M,M,95.86,VVTS 210300Z 14004KT 110V180 9999 SCT017 31/23 Q1010 NOSIG,M
VVTS,3/21/2021 3:30,106.6667,10.8167,89.6,73.4,59.01,M,4,0,29.8,M,6.21,M,SCT,M,M,M,1700,M,M,M,M,M,M,M,M,M,M,98.2,VVTS 210330Z VRB04KT 9999 SCT017 32/23 Q1009 NOSIG,M
VVTS,3/21/2021 4:00,106.6667,10.8167,91.4,71.6,52.48,M,4,0,29.8,M,6.21,M,SCT,M,M,M,1700,M,M,M,M,M,M,M,M,M,M,98.64,VVTS 210400Z VRB04KT 9999 SCT017 33/22 Q1009 NOSIG,M
VVTS,3/21/2021 4:30,106.6667,10.8167,89.6,73.4,59.01,100,4,0,29.77,M,6.21,M,SCT,M,M,M,1700,M,M,M,M,M,M,M,M,M,M,98.2,VVTS 210430Z 10004KT 150V300 9999 SCT017 32/23 Q1008 NOSIG,M
VVTS,3/21/2021 5:00,106.6667,10.8167,91.4,71.6,52.48,120,5,0,29.77,M,6.21,M,SCT,M,M,M,2000,M,M,M,M,M,M,M,M,M,M,98.64,VVTS 210500Z 12005KT 070V170 9999 SCT020 33/22 Q1008 NOSIG,M
VVTS,3/21/2021 5:30,106.6667,10.8167,91.4,73.4,55.77,190,4,0,29.74,M,6.21,M,SCT,M,M,M,2000,M,M,M,M,M,M,M,M,M,M,100.52,VVTS 210530Z 19004KT 080V250 9999 SCT020 33/23 Q1007 NOSIG,M
VVTS,3/21/2021 6:00,106.6667,10.8167,93.2,71.6,49.62,M,1,0,29.74,M,6.21,M,SCT,M,M,M,2000,M,M,M,M,M,M,M,M,M,M,100.88,VVTS 210600Z VRB01KT 9999 SCT020 34/22 Q1007 NOSIG,M
VVTS,3/21/2021 6:30,106.6667,10.8167,95,71.6,46.93,300,2,0,29.71,M,6.21,M,SCT,M,M,M,2000,M,M,M,M,M,M,M,M,M,M,103.13,VVTS 210630Z 30002KT 9999 SCT020 35/22 Q1006 NOSIG,M
VVTS,3/21/2021 7:00,106.6667,10.8167,93.2,71.6,49.62,M,2,0,29.68,M,6.21,M,SCT,M,M,M,2000,M,M,M,M,M,M,M,M,M,M,100.88,VVTS 210700Z VRB02KT 9999 SCT020 34/22 Q1005 NOSIG,M
VVTS,3/21/2021 7:30,106.6667,10.8167,95,69.8,44.14,M,3,0,29.68,M,6.21,M,SCT,M,M,M,2000,M,M,M,M,M,M,M,M,M,M,101.37,VVTS 210730Z VRB03KT 9999 SCT020 35/21 Q1005 NOSIG,M
VVTS,3/21/2021 8:00,106.6667,10.8167,95,69.8,44.14,M,1,0,29.65,M,6.21,M,FEW,M,M,M,2000,M,M,M,M,M,M,M,M,M,M,101.37,VVTS 210800Z VRB01KT 9999 FEW020 35/21 Q1004 NOSIG,M
VVTS,3/21/2021 8:30,106.6667,10.8167,93.2,73.4,52.73,110,4,0,29.65,M,6.21,M,FEW,M,M,M,2000,M,M,M,M,M,M,M,M,M,M,102.82,VVTS 210830Z 11004KT 030V200 9999 FEW020 34/23 Q1004 NOSIG,M
VVTS,3/21/2021 9:00,106.6667,10.8167,89.6,77,66.55,190,13,0,29.65,M,6.21,M,FEW,SCT,M,M,2000,5000,M,M,M,M,M,M,M,M,M,102.54,VVTS 210900Z 19013KT 150V220 9999 FEW020 SCT050 32/25 Q1004 NOSIG,M
VVTS,3/21/2021 9:30,106.6667,10.8167,87.8,77,70.45,180,11,0,29.68,M,6.21,M,FEW,SCT,M,M,2000,5000,M,M,M,M,M,M,M,M,M,99.92,VVTS 210930Z 18011KT 150V210 9999 FEW020 SCT050 31/25 Q1005 NOSIG,M
VVTS,3/21/2021 10:00,106.6667,10.8167,86,75.2,70.27,140,14,0,29.68,M,6.21,M,FEW,SCT,M,M,2000,5000,M,M,M,M,M,M,M,M,M,95.19,VVTS 211000Z 14014KT 9999 FEW020 SCT050 30/24 Q1005 NOSIG,M
VVTS,3/21/2021 10:30,106.6667,10.8167,84.2,75.2,74.44,140,10,0,29.71,M,6.21,M,FEW,SCT,M,M,2000,5000,M,M,M,M,M,M,M,M,M,92.45,VVTS 211030Z 14010KT 120V180 9999 FEW020 SCT050 29/24 Q1006 NOSIG,M
VVTS,3/21/2021 11:00,106.6667,10.8167,84.2,75.2,74.44,140,12,0,29.71,M,6.21,M,SCT,SCT,M,M,2000,5000,M,M,M,M,M,M,M,M,M,92.45,VVTS 211100Z 14012KT 9999 SCT020 SCT050 29/24 Q1006 NOSIG,M
VVTS,3/21/2021 11:30,106.6667,10.8167,84.2,75.2,74.44,130,12,0,29.74,M,6.21,M,SCT,FEW,SCT,M,1700,2000,5000,M,M,M,M,M,M,M,M,92.45,VVTS 211130Z 13012KT 090V170 9999 SCT017 FEW020CB SCT050 29/24 Q1007 TEMPO FM1150 TL1230 07015G28KT 2000 +TSRA RMK CB/NE,M
VVTS,3/21/2021 12:00,106.6667,10.8167,84.2,73.4,70.08,120,10,0,29.74,M,6.21,M,SCT,FEW,SCT,M,1700,2000,5000,M,M,M,M,M,M,M,M,90.94,VVTS 211200Z 12010KT 040V150 9999 SCT017 FEW020CB SCT050 29/23 Q1007 NOSIG RMK CB OVER RWY,M
VVTS,3/21/2021 12:30,106.6667,10.8167,84.2,73.4,70.08,120,8,0,29.74,M,6.21,M,SCT,FEW,SCT,M,1700,2000,5000,M,M,M,M,M,M,M,M,90.94,VVTS 211230Z 12008KT 080V150 9999 SCT017 FEW020CB SCT050 29/23 Q1007 NOSIG RMK CB/W,M
VVTS,3/21/2021 13:00,106.6667,10.8167,82.4,73.4,74.28,140,9,0,29.74,M,6.21,M,SCT,SCT,M,M,1700,5000,M,M,M,M,M,M,M,M,M,88.26,VVTS 211300Z 14009KT 9999 SCT017 SCT050 28/23 Q1007 NOSIG,M
VVTS,3/21/2021 13:30,106.6667,10.8167,82.4,73.4,74.28,130,7,0,29.77,M,6.21,M,SCT,SCT,M,M,1700,5000,M,M,M,M,M,M,M,M,M,88.26,VVTS 211330Z 13007KT 110V170 9999 SCT017 SCT050 28/23 Q1008 NOSIG,M
VVTS,3/21/2021 14:00,106.6667,10.8167,82.4,73.4,74.28,130,7,0,29.77,M,6.21,M,SCT,SCT,M,M,1700,5000,M,M,M,M,M,M,M,M,M,88.26,VVTS 211400Z 13007KT 110V170 9999 SCT017 SCT050 28/23 Q1008 NOSIG,M
VVTS,3/21/2021 14:30,106.6667,10.8167,82.4,73.4,74.28,130,10,0,29.77,M,6.21,M,SCT,SCT,M,M,1700,5000,M,M,M,M,M,M,M,M,M,88.26,VVTS 211430Z 13010KT 9999 SCT017 SCT050 28/23 Q1008 NOSIG,M
VVTS,3/21/2021 15:00,106.6667,10.8167,82.4,73.4,74.28,140,9,0,29.8,M,6.21,M,SCT,SCT,M,M,1700,5000,M,M,M,M,M,M,M,M,M,88.26,VVTS 211500Z 14009KT 100V170 9999 SCT017 SCT050 28/23 Q1009 NOSIG,M
VVTS,3/21/2021 15:30,106.6667,10.8167,82.4,75.2,78.9,130,9,0,29.8,M,6.21,M,FEW,SCT,M,M,1700,5000,M,M,M,M,M,M,M,M,M,89.48,VVTS 211530Z 13009KT 110V170 9999 FEW017 SCT050 28/24 Q1009 NOSIG,M
VVTS,3/21/2021 16:00,106.6667,10.8167,82.4,75.2,78.9,130,8,0,29.8,M,4.97,M,SCT,SCT,M,M,1700,5000,M,M,M,M,M,M,M,M,M,89.48,VVTS 211600Z 13008KT 100V160 8000 SCT017 SCT050 28/24 Q1009 NOSIG,M
VVTS,3/21/2021 16:30,106.6667,10.8167,82.4,75.2,78.9,130,7,0,29.8,M,4.97,M,SCT,SCT,M,M,1700,5000,M,M,M,M,M,M,M,M,M,89.48,VVTS 211630Z 13007KT 100V160 8000 SCT017 SCT050 28/24 Q1009 NOSIG,M
VVTS,3/21/2021 17:00,106.6667,10.8167,82.4,75.2,78.9,120,8,0,29.8,M,4.97,M,SCT,SCT,M,M,1700,5000,M,M,M,M,M,M,M,M,M,89.48,VVTS 211700Z 12008KT 8000 SCT017 SCT050 28/24 Q1009 NOSIG,M
VVTS,3/21/2021 17:30,106.6667,10.8167,82.4,75.2,78.9,130,9,0,29.8,M,4.97,M,SCT,SCT,M,M,1700,5000,M,M,M,M,M,M,M,M,M,89.48,VVTS 211730Z 13009KT 8000 SCT017 SCT050 28/24 Q1009 NOSIG,M
VVTS,3/21/2021 18:00,106.6667,10.8167,82.4,75.2,78.9,130,8,0,29.8,M,4.97,M,SCT,SCT,M,M,1700,5000,M,M,M,M,M,M,M,M,M,89.48,VVTS 211800Z 13008KT 8000 SCT017 SCT050 28/24 Q1009 NOSIG,M
VVTS,3/21/2021 18:30,106.6667,10.8167,80.6,75.2,83.66,120,6,0,29.8,M,4.97,M,FEW,SCT,M,M,1700,5000,M,M,M,M,M,M,M,M,M,86.17,VVTS 211830Z 12006KT 8000 FEW017 SCT050 27/24 Q1009 NOSIG,M
VVTS,3/21/2021 19:00,106.6667,10.8167,80.6,75.2,83.66,110,7,0,29.77,M,4.97,M,FEW,SCT,M,M,1700,5000,M,M,M,M,M,M,M,M,M,86.17,VVTS 211900Z 11007KT 8000 FEW017 SCT050 27/24 Q1008 NOSIG,M
VVTS,3/21/2021 19:30,106.6667,10.8167,80.6,75.2,83.66,110,5,0,29.77,M,4.97,M,FEW,SCT,M,M,1700,5000,M,M,M,M,M,M,M,M,M,86.17,VVTS 211930Z 11005KT 8000 FEW017 SCT050 27/24 Q1008 NOSIG,M
VVTS,3/21/2021 20:00,106.6667,10.8167,80.6,75.2,83.66,90,5,0,29.8,M,4.97,M,FEW,SCT,M,M,1700,5000,M,M,M,M,M,M,M,M,M,86.17,VVTS 212000Z 09005KT 8000 FEW017 SCT050 27/24 Q1009 NOSIG,M
VVTS,3/21/2021 20:30,106.6667,10.8167,78.8,75.2,88.75,90,5,0,29.8,M,4.97,M,FEW,SCT,M,M,1700,5000,M,M,M,M,M,M,M,M,M,78.8,VVTS 212030Z 09005KT 8000 FEW017 SCT050 26/24 Q1009 NOSIG,M
VVTS,3/21/2021 21:00,106.6667,10.8167,78.8,75.2,88.75,80,4,0,29.8,M,4.97,M,FEW,SCT,M,M,1700,5000,M,M,M,M,M,M,M,M,M,78.8,VVTS 212100Z 08004KT 8000 FEW017 SCT050 26/24 Q1009 NOSIG,M
VVTS,3/21/2021 21:30,106.6667,10.8167,78.8,75.2,88.75,80,3,0,29.8,M,4.97,M,FEW,SCT,M,M,1700,5000,M,M,M,M,M,M,M,M,M,78.8,VVTS 212130Z 08003KT 8000 FEW017 SCT050 26/24 Q1009 NOSIG,M
VVTS,3/21/2021 22:00,106.6667,10.8167,78.8,75.2,88.75,70,3,0,29.8,M,4.97,M,FEW,SCT,M,M,1700,5000,M,M,M,M,M,M,M,M,M,78.8,VVTS 212200Z 07003KT 8000 FEW017 SCT050 26/24 Q1009 NOSIG,M
VVTS,3/21/2021 22:30,106.6667,10.8167,77,73.4,88.67,70,4,0,29.8,M,4.97,M,FEW,SCT,M,M,1700,5000,M,M,M,M,M,M,M,M,M,77,VVTS 212230Z 07004KT 8000 FEW017 SCT050 25/23 Q1009 NOSIG,M
VVTS,3/21/2021 23:00,106.6667,10.8167,78.8,75.2,88.75,30,3,0,29.83,M,6.21,M,FEW,SCT,M,M,1700,5000,M,M,M,M,M,M,M,M,M,78.8,VVTS 212300Z 03003KT 9999 FEW017 SCT050 26/24 Q1010 NOSIG,M
VVTS,3/21/2021 23:30,106.6667,10.8167,78.8,75.2,88.75,10,1,0,29.83,M,6.21,M,FEW,SCT,M,M,1700,5000,M,M,M,M,M,M,M,M,M,78.8,VVTS 212330Z 01001KT 9999 FEW017 SCT050 26/24 Q1010 NOSIG,M
VVTS,3/22/2021 0:00,106.6667,10.8167,78.8,75.2,88.75,M,2,0,29.85,M,4.97,M,FEW,M,M,M,1700,M,M,M,M,M,M,M,M,M,M,78.8,VVTS 220000Z VRB02KT 8000 FEW017 26/24 Q1011 NOSIG,M
VVTS,3/22/2021 0:30,106.6667,10.8167,80.6,75.2,83.66,M,3,0,29.85,M,4.97,M,FEW,M,M,M,1700,M,M,M,M,M,M,M,M,M,M,86.17,VVTS 220030Z VRB03KT 8000 FEW017 27/24 Q1011 NOSIG,M
VVTS,3/22/2021 1:00,106.6667,10.8167,82.4,73.4,74.28,M,3,0,29.85,M,4.97,M,FEW,M,M,M,1700,M,M,M,M,M,M,M,M,M,M,88.26,VVTS 220100Z VRB03KT 8000 FEW017 28/23 Q1011 NOSIG,M
VVTS,3/22/2021 1:30,106.6667,10.8167,84.2,73.4,70.08,M,3,0,29.85,M,6.21,M,SCT,M,M,M,1700,M,M,M,M,M,M,M,M,M,M,90.94,VVTS 220130Z VRB03KT 9999 SCT017 29/23 Q1011 NOSIG,M
VVTS,3/22/2021 2:00,106.6667,10.8167,84.2,73.4,70.08,330,5,0,29.85,M,6.21,M,SCT,M,M,M,1700,M,M,M,M,M,M,M,M,M,M,90.94,VVTS 220200Z 33005KT 240V010 9999 SCT017 29/23 Q1011 NOSIG,M
VVTS,3/22/2021 2:30,106.6667,10.8167,86,71.6,62.25,10,5,0,29.85,M,6.21,M,SCT,M,M,M,1700,M,M,M,M,M,M,M,M,M,M,91.92,VVTS 220230Z 01005KT 060V230 9999 SCT017 30/22 Q1011 NOSIG,M
VVTS,3/22/2021 3:00,106.6667,10.8167,87.8,69.8,55.29,M,3,0,29.85,M,6.21,M,SCT,M,M,M,1700,M,M,M,M,M,M,M,M,M,M,92.71,VVTS 220300Z VRB03KT 9999 SCT017 31/21 Q1011 NOSIG,M
VVTS,3/22/2021 3:30,106.6667,10.8167,89.6,68,49.1,30,6,0,29.85,M,6.21,M,SCT,M,M,M,1700,M,M,M,M,M,M,M,M,M,M,93.47,VVTS 220330Z 03006KT 360V060 9999 SCT017 32/20 Q1011 NOSIG,M
VVTS,3/22/2021 4:00,106.6667,10.8167,91.4,66.2,43.61,M,4,0,29.85,M,6.21,M,FEW,M,M,M,2000,M,M,M,M,M,M,M,M,M,M,94.29,VVTS 220400Z VRB04KT 9999 FEW020 33/19 Q1011 NOSIG,M
VVTS,3/22/2021 4:30,106.6667,10.8167,91.4,64.4,40.96,350,5,0,29.83,M,6.21,M,FEW,M,M,M,2000,M,M,M,M,M,M,M,M,M,M,93.19,VVTS 220430Z 35005KT 290V080 9999 FEW020 33/18 Q1010 NOSIG,M
VVTS,3/22/2021 5:00,106.6667,10.8167,93.2,62.6,36.35,M,4,0,29.83,M,6.21,M,FEW,M,M,M,2000,M,M,M,M,M,M,M,M,M,M,94.2,VVTS 220500Z VRB04KT 9999 FEW020 34/17 Q1010 NOSIG,M
VVTS,3/22/2021 5:30,106.6667,10.8167,93.2,62.6,36.35,360,8,0,29.8,M,6.21,M,FEW,M,M,M,2000,M,M,M,M,M,M,M,M,M,M,94.2,VVTS 220530Z 36008KT 260V030 9999 FEW020 34/17 Q1009 NOSIG,M
VVTS,3/22/2021 6:00,106.6667,10.8167,95,62.6,34.39,310,6,0,29.8,M,6.21,M,FEW,M,M,M,2000,M,M,M,M,M,M,M,M,M,M,96.22,VVTS 220600Z 31006KT 270V010 9999 FEW020 35/17 Q1009 NOSIG,M
VVTS,3/22/2021 6:30,106.6667,10.8167,96.8,62.6,32.54,50,8,0,29.77,M,6.21,M,SCT,M,M,M,2000,M,M,M,M,M,M,M,M,M,M,98.28,VVTS 220630Z 05008KT 020V080 9999 SCT020 36/17 Q1008 NOSIG,M
VVTS,3/22/2021 7:00,106.6667,10.8167,95,60.8,32.27,30,6,0,29.77,M,6.21,17,SCT,M,M,M,2000,M,M,M,M,M,M,M,M,M,M,95.3,VVTS 220700Z 03006G17KT 330V090 9999 SCT020 35/16 Q1008 NOSIG,M
VVTS,3/22/2021 7:30,106.6667,10.8167,96.8,60.8,30.53,60,5,0,29.74,M,6.21,M,SCT,M,M,M,2000,M,M,M,M,M,M,M,M,M,M,97.33,VVTS 220730Z 06005KT 010V090 9999 SCT020 36/16 Q1007 NOSIG,M
VVTS,3/22/2021 8:00,106.6667,10.8167,96.8,60.8,30.53,M,4,0,29.74,M,6.21,M,SCT,M,M,M,2000,M,M,M,M,M,M,M,M,M,M,97.33,VVTS 220800Z VRB04KT 9999 SCT020 36/16 Q1007 NOSIG,M
VVTS,3/22/2021 8:30,106.6667,10.8167,96.8,60.8,30.53,110,5,0,29.74,M,6.21,M,SCT,M,M,M,2000,M,M,M,M,M,M,M,M,M,M,97.33,VVTS 220830Z 11005KT 050V180 9999 SCT020 36/16 Q1007 NOSIG,M
VVTS,3/22/2021 9:00,106.6667,10.8167,93.2,71.6,49.62,190,10,0,29.74,M,6.21,M,SCT,M,M,M,2000,M,M,M,M,M,M,M,M,M,M,100.88,VVTS 220900Z 19010KT 150V210 9999 R25R/1800VP2000N SCT020 34/22 Q1007 NOSIG,M
VVTS,3/22/2021 9:30,106.6667,10.8167,91.4,71.6,52.48,200,9,0,29.74,M,6.21,M,SCT,M,M,M,2000,M,M,M,M,M,M,M,M,M,M,98.64,VVTS 220930Z 20009KT 160V220 9999 SCT020 33/22 Q1007 NOSIG,M
VVTS,3/22/2021 10:00,106.6667,10.8167,91.4,71.6,52.48,170,10,0,29.74,M,6.21,M,FEW,M,M,M,2000,M,M,M,M,M,M,M,M,M,M,98.64,VVTS 221000Z 17010KT 150V210 9999 FEW020 33/22 Q1007 NOSIG,M
VVTS,3/22/2021 10:30,106.6667,10.8167,89.6,71.6,55.53,170,8,0,29.77,M,6.21,M,FEW,M,M,M,2000,M,M,M,M,M,M,M,M,M,M,96.41,VVTS 221030Z 17008KT 140V200 9999 FEW020 32/22 Q1008 NOSIG,M
VVTS,3/22/2021 11:00,106.6667,10.8167,89.6,71.6,55.53,190,9,0,29.77,M,6.21,M,FEW,M,M,M,2000,M,M,M,M,M,M,M,M,M,M,96.41,VVTS 221100Z 19009KT 9999 FEW020 32/22 Q1008 NOSIG,M
VVTS,3/22/2021 11:30,106.6667,10.8167,87.8,73.4,62.47,190,7,0,29.8,M,6.21,M,FEW,M,M,M,2000,M,M,M,M,M,M,M,M,M,M,95.86,VVTS 221130Z 19007KT 9999 FEW020 31/23 Q1009 NOSIG,M
VVTS,3/22/2021 12:00,106.6667,10.8167,87.8,73.4,62.47,180,5,0,29.8,M,6.21,M,FEW,SCT,M,M,2000,5000,M,M,M,M,M,M,M,M,M,95.86,VVTS 221200Z 18005KT 140V210 9999 FEW020TCU SCT050 31/23 Q1009 NOSIG RMK TCU/N,M
VVTS,3/22/2021 12:30,106.6667,10.8167,87.8,71.6,58.78,190,5,0,29.8,M,6.21,M,FEW,SCT,M,M,2000,5000,M,M,M,M,M,M,M,M,M,94.18,VVTS 221230Z 19005KT 160V220 9999 FEW020TCU SCT050 31/22 Q1009 NOSIG RMK TCU/N,M
VVTS,3/22/2021 13:00,106.6667,10.8167,87.8,71.6,58.78,M,2,0,29.83,M,6.21,M,FEW,M,M,M,1700,M,M,M,M,M,M,M,M,M,M,94.18,VVTS 221300Z VRB02KT 9999 FEW017 31/22 Q1010 NOSIG,M
VVTS,3/22/2021 13:30,106.6667,10.8167,87.8,71.6,58.78,M,2,0,29.83,M,6.21,M,SCT,FEW,M,M,1700,2000,M,M,M,M,M,M,M,M,M,94.18,VVTS 221330Z VRB02KT 9999 SCT017 FEW020TCU 31/22 Q1010 NOSIG RMK TCU/SW/W,M
VVTS,3/22/2021 14:00,106.6667,10.8167,86,71.6,62.25,M,2,0,29.85,M,6.21,M,SCT,FEW,M,M,1700,2000,M,M,M,M,M,M,M,M,M,91.92,VVTS 221400Z VRB02KT 9999 SCT017 FEW020CB 30/22 Q1011 NOSIG RMK CB/NE/W,M
VVTS,3/22/2021 14:30,106.6667,10.8167,87.8,71.6,58.78,M,3,0,29.85,M,6.21,M,SCT,M,M,M,1700,M,M,M,M,M,M,M,M,M,M,94.18,VVTS 221430Z VRB03KT 9999 SCT017 31/22 Q1011 NOSIG,M
VVTS,3/22/2021 15:00,106.6667,10.8167,86,71.6,62.25,M,2,0,29.85,M,6.21,M,SCT,M,M,M,1700,M,M,M,M,M,M,M,M,M,M,91.92,VVTS 221500Z VRB02KT 9999 SCT017 30/22 Q1011 NOSIG,M
VVTS,3/22/2021 15:30,106.6667,10.8167,86,75.2,70.27,20,5,0,29.85,M,6.21,M,FEW,M,M,M,1700,M,M,M,M,M,M,M,M,M,M,95.19,VVTS 221530Z 02005KT 9999 FEW017 30/24 Q1011 NOSIG,M
VVTS,3/22/2021 16:00,106.6667,10.8167,84.2,75.2,74.44,10,4,0,29.85,M,6.21,M,FEW,M,M,M,1700,M,M,M,M,M,M,M,M,M,M,92.45,VVTS 221600Z 01004KT 310V070 9999 FEW017 29/24 Q1011 NOSIG,M
VVTS,3/22/2021 16:30,106.6667,10.8167,84.2,75.2,74.44,M,2,0,29.85,M,6.21,M,FEW,M,M,M,1700,M,M,M,M,M,M,M,M,M,M,92.45,VVTS 221630Z VRB02KT 9999 FEW017 29/24 Q1011 NOSIG,M
VVTS,3/22/2021 17:00,106.6667,10.8167,82.4,75.2,78.9,300,4,0,29.85,M,6.21,M,FEW,M,M,M,1700,M,M,M,M,M,M,M,M,M,M,89.48,VVTS 221700Z 30004KT 270V330 9999 FEW017 28/24 Q1011 NOSIG,M
VVTS,3/22/2021 17:30,106.6667,10.8167,82.4,75.2,78.9,300,4,0,29.83,M,6.21,M,FEW,M,M,M,1700,M,M,M,M,M,M,M,M,M,M,89.48,VVTS 221730Z 30004KT 260V320 9999 FEW017 28/24 Q1010 NOSIG,M
VVTS,3/22/2021 18:00,106.6667,10.8167,82.4,73.4,74.28,20,6,0,29.83,M,6.21,M,FEW,M,M,M,1700,M,M,M,M,M,M,M,M,M,M,88.26,VVTS 221800Z 02006KT 330V050 9999 FEW017 28/23 Q1010 NOSIG,M
VVTS,3/22/2021 18:30,106.6667,10.8167,82.4,71.6,69.9,60,8,0,29.83,M,6.21,M,FEW,M,M,M,1700,M,M,M,M,M,M,M,M,M,M,87.18,VVTS 221830Z 06008KT 9999 FEW017 28/22 Q1010 NOSIG,M
VVTS,3/22/2021 19:00,106.6667,10.8167,80.6,71.6,74.11,60,6,0,29.83,M,2.98,M,NSC,M,M,M,M,M,M,M,HZ,M,M,M,M,M,M,84.57,VVTS 221900Z 06006KT 4800 HZ NSC 27/22 Q1010 NOSIG,M
VVTS,3/22/2021 19:30,106.6667,10.8167,80.6,71.6,74.11,60,5,0,29.8,M,6.21,M,FEW,M,M,M,1700,M,M,M,M,M,M,M,M,M,M,84.57,VVTS 221930Z 06005KT 9999 FEW017 27/22 Q1009 NOSIG,M
VVTS,3/22/2021 20:00,106.6667,10.8167,80.6,71.6,74.11,30,4,0,29.8,M,6.21,M,FEW,M,M,M,1700,M,M,M,M,M,M,M,M,M,M,84.57,VVTS 222000Z 03004KT 360V070 9999 FEW017 27/22 Q1009 NOSIG,M
VVTS,3/22/2021 20:30,106.6667,10.8167,80.6,69.8,69.71,40,6,0,29.8,M,6.21,M,FEW,M,M,M,1700,M,M,M,M,M,M,M,M,M,M,83.9,VVTS 222030Z 04006KT 9999 FEW017 27/21 Q1009 NOSIG,M
VVTS,3/22/2021 21:00,106.6667,10.8167,78.8,71.6,78.62,60,6,0,29.8,M,6.21,M,FEW,M,M,M,1700,M,M,M,M,M,M,M,M,M,M,78.8,VVTS 222100Z 06006KT 9999 FEW017 26/22 Q1009 NOSIG,M
VVTS,3/22/2021 21:30,106.6667,10.8167,78.8,71.6,78.62,50,5,0,29.8,M,6.21,M,FEW,M,M,M,1700,M,M,M,M,M,M,M,M,M,M,78.8,VVTS 222130Z 05005KT 9999 FEW017 26/22 Q1009 NOSIG,M
VVTS,3/22/2021 22:00,106.6667,10.8167,78.8,71.6,78.62,50,5,0,29.8,M,6.21,M,FEW,M,M,M,1700,M,M,M,M,M,M,M,M,M,M,78.8,VVTS 222200Z 05005KT 9999 FEW017 26/22 Q1009 NOSIG,M
VVTS,3/22/2021 22:30,106.6667,10.8167,78.8,69.8,73.95,50,6,0,29.8,M,6.21,M,FEW,M,M,M,1700,M,M,M,M,M,M,M,M,M,M,78.8,VVTS 222230Z 05006KT 9999 FEW017 26/21 Q1009 NOSIG,M
VVTS,3/22/2021 23:00,106.6667,10.8167,78.8,69.8,73.95,60,7,0,29.83,M,6.21,M,FEW,M,M,M,1700,M,M,M,M,M,M,M,M,M,M,78.8,VVTS 222300Z 06007KT 9999 FEW017 26/21 Q1010 NOSIG,M
VVTS,3/22/2021 23:30,106.6667,10.8167,78.8,69.8,73.95,50,4,0,29.83,M,6.21,M,FEW,M,M,M,1700,M,M,M,M,M,M,M,M,M,M,78.8,VVTS 222330Z 05004KT 9999 FEW017 26/21 Q1010 NOSIG,M
VVTS,3/23/2021 0:00,106.6667,10.8167,80.6,69.8,69.71,60,4,0,29.83,M,6.21,M,FEW,M,M,M,1700,M,M,M,M,M,M,M,M,M,M,83.9,VVTS 230000Z 06004KT 010V080 9999 FEW017 27/21 Q1010 NOSIG,M
VVTS,3/23/2021 0:30,106.6667,10.8167,82.4,69.8,65.74,M,3,0,29.85,M,6.21,M,FEW,M,M,M,2000,M,M,M,M,M,M,M,M,M,M,86.22,VVTS 230030Z VRB03KT 9999 FEW020 28/21 Q1011 NOSIG,M
VVTS,3/23/2021 1:00,106.6667,10.8167,82.4,68,61.81,M,2,0,29.85,M,6.21,M,FEW,M,M,M,2000,M,M,M,M,M,M,M,M,M,M,85.38,VVTS 230100Z VRB02KT 9999 FEW020 28/20 Q1011 NOSIG,M
VVTS,3/23/2021 1:30,106.6667,10.8167,84.2,68,58.32,60,5,0,29.85,M,6.21,M,FEW,M,M,M,2000,M,M,M,M,M,M,M,M,M,M,87.4,VVTS 230130Z 06005KT 010V090 9999 FEW020 29/20 Q1011 NOSIG,M
VVTS,3/23/2021 2:00,106.6667,10.8167,87.8,66.2,48.84,M,3,0,29.85,M,6.21,M,FEW,M,M,M,2000,M,M,M,M,M,M,M,M,M,M,90.31,VVTS 230200Z VRB03KT 9999 FEW020 31/19 Q1011 NOSIG,M
VVTS,3/23/2021 2:30,106.6667,10.8167,89.6,64.4,43.34,50,5,0,29.85,M,6.21,M,M,M,M,M,M,M,M,M,M,M,M,M,M,M,M,91.23,VVTS 230230Z 05005KT 350V090 CAVOK 32/18 Q1011 NOSIG,M
VVTS,3/23/2021 3:00,106.6667,10.8167,89.6,64.4,43.34,50,5,0,29.85,M,6.21,M,M,M,M,M,M,M,M,M,M,M,M,M,M,M,M,91.23,VVTS 230300Z 05005KT 010V110 CAVOK 32/18 Q1011 NOSIG,M
VVTS,3/23/2021 3:30,106.6667,10.8167,91.4,64.4,40.96,30,5,0,29.85,M,6.21,M,M,M,M,M,M,M,M,M,M,M,M,M,M,M,M,93.19,VVTS 230330Z 03005KT 320V100 CAVOK 33/18 Q1011 NOSIG,M
VVTS,3/23/2021 4:00,106.6667,10.8167,91.4,64.4,40.96,M,3,0,29.85,M,6.21,M,M,M,M,M,M,M,M,M,M,M,M,M,M,M,M,93.19,VVTS 230400Z VRB03KT CAVOK 33/18 Q1011 NOSIG,M
VVTS,3/23/2021 4:30,106.6667,10.8167,93.2,62.6,36.35,20,6,0,29.83,M,6.21,M,FEW,M,M,M,2000,M,M,M,M,M,M,M,M,M,M,94.2,VVTS 230430Z 02006KT 020V180 9999 FEW020 34/17 Q1010 NOSIG,M
VVTS,3/23/2021 5:00,106.6667,10.8167,93.2,62.6,36.35,M,3,0,29.83,M,6.21,M,FEW,M,M,M,2000,M,M,M,M,M,M,M,M,M,M,94.2,VVTS 230500Z VRB03KT 9999 FEW020 34/17 Q1010 NOSIG,M
VVTS,3/23/2021 5:30,106.6667,10.8167,93.2,62.6,36.35,50,5,0,29.8,M,6.21,M,SCT,M,M,M,2000,M,M,M,M,M,M,M,M,M,M,94.2,VVTS 230530Z 05005KT 350V140 9999 SCT020 34/17 Q1009 NOSIG,M
VVTS,3/23/2021 6:00,106.6667,10.8167,93.2,62.6,36.35,350,7,0,29.8,M,6.21,M,SCT,M,M,M,2000,M,M,M,M,M,M,M,M,M,M,94.2,VVTS 230600Z 35007KT 300V070 9999 SCT020 34/17 Q1009 NOSIG,M
VVTS,3/23/2021 6:30,106.6667,10.8167,95,62.6,34.39,70,5,0,29.77,M,6.21,M,SCT,M,M,M,2000,M,M,M,M,M,M,M,M,M,M,96.22,VVTS 230630Z 07005KT 360V150 9999 SCT020 35/17 Q1008 NOSIG,M
VVTS,3/23/2021 7:00,106.6667,10.8167,95,62.6,34.39,M,3,0,29.77,M,6.21,M,SCT,M,M,M,2000,M,M,M,M,M,M,M,M,M,M,96.22,VVTS 230700Z VRB03KT 9999 SCT020 35/17 Q1008 NOSIG,M
VVTS,3/23/2021 7:30,106.6667,10.8167,96.8,62.6,32.54,150,4,0,29.74,M,6.21,M,SCT,M,M,M,2000,M,M,M,M,M,M,M,M,M,M,98.28,VVTS 230730Z 15004KT 060V230 9999 SCT020 36/17 Q1007 NOSIG,M
VVTS,3/23/2021 8:00,106.6667,10.8167,93.2,68,43.88,180,7,0,29.74,M,6.21,M,SCT,M,M,M,2000,M,M,M,M,M,M,M,M,M,M,97.67,VVTS 230800Z 18007KT 150V210 9999 SCT020 34/20 Q1007 NOSIG,M
VVTS,3/23/2021 8:30,106.6667,10.8167,95,68,41.5,180,6,0,29.74,M,6.21,M,BKN,M,M,M,2000,M,M,M,M,M,M,M,M,M,M,99.82,VVTS 230830Z 18006KT 150V230 9999 BKN020 35/20 Q1007 NOSIG,M
VVTS,3/23/2021 9:00,106.6667,10.8167,93.2,68,43.88,190,6,0,29.74,M,6.21,M,BKN,M,M,M,2000,M,M,M,M,M,M,M,M,M,M,97.67,VVTS 230900Z 19006KT 160V230 9999 BKN020 34/20 Q1007 NOSIG,M
VVTS,3/23/2021 9:30,106.6667,10.8167,93.2,68,43.88,190,7,0,29.74,M,6.21,M,BKN,M,M,M,2000,M,M,M,M,M,M,M,M,M,M,97.67,VVTS 230930Z 19007KT 140V230 9999 BKN020 34/20 Q1007 NOSIG,M
VVTS,3/23/2021 10:00,106.6667,10.8167,91.4,69.8,49.36,180,8,0,29.74,M,6.21,M,SCT,M,M,M,2000,M,M,M,M,M,M,M,M,M,M,96.99,VVTS 231000Z 18008KT 160V220 9999 SCT020 33/21 Q1007 NOSIG,M
VVTS,3/23/2021 10:30,106.6667,10.8167,89.6,69.8,52.23,180,10,0,29.74,M,6.21,M,SCT,FEW,M,M,1700,2000,M,M,M,M,M,M,M,M,M,94.85,VVTS 231030Z 18010KT 150V210 9999 SCT017 FEW020TCU 32/21 Q1007 NOSIG RMK TCU/E,M
VVTS,3/23/2021 11:00,106.6667,10.8167,89.6,71.6,55.53,160,10,0,29.74,M,4.97,M,SCT,FEW,M,M,1700,2000,M,M,M,M,M,M,M,M,M,96.41,VVTS 231100Z 16010KT 130V210 8000 SCT017 FEW020TCU 32/22 Q1007 NOSIG RMK TCU/NE/NW,M
VVTS,3/23/2021 11:30,106.6667,10.8167,87.8,73.4,62.47,150,5,0,29.77,M,4.97,M,SCT,FEW,M,M,1700,2000,M,M,M,M,M,M,M,M,M,95.86,VVTS 231130Z 15005KT 120V190 8000 SCT017 FEW020TCU 31/23 Q1008 NOSIG RMK TCU/NE/NW,M
VVTS,3/23/2021 12:00,106.6667,10.8167,87.8,69.8,55.29,130,8,0,29.77,M,4.97,M,SCT,FEW,SCT,M,1700,2000,5000,M,M,M,M,M,M,M,M,92.71,VVTS 231200Z 13008KT 100V160 8000 SCT017 FEW020CB SCT050 31/21 Q1008 NOSIG RMK CB/N,M
VVTS,3/23/2021 12:30,106.6667,10.8167,87.8,69.8,55.29,160,4,0,29.8,M,6.21,M,SCT,FEW,M,M,1700,2000,M,M,M,M,M,M,M,M,M,92.71,VVTS 231230Z 16004KT 100V220 9999 SCT017 FEW020CB 31/21 Q1009 NOSIG RMK CB/N,M
VVTS,3/23/2021 13:00,106.6667,10.8167,87.8,71.6,58.78,60,10,0,29.83,M,6.21,M,SCT,FEW,M,M,1700,2000,M,M,VCTS,M,M,M,M,M,M,94.18,VVTS 231300Z 06010KT 030V100 9999 VCTS SCT017 FEW020CB 31/22 Q1010 NOSIG RMK CB/N/E/NW,M
VVTS,3/23/2021 13:30,106.6667,10.8167,82.4,71.6,69.9,10,8,0,29.83,M,6.21,M,SCT,FEW,M,M,1700,2000,M,M,M,M,M,M,M,M,M,87.18,VVTS 231330Z 01008KT 9999 SCT017 FEW020CB 28/22 Q1010 NOSIG RMK CB/W,M
VVTS,3/23/2021 14:00,106.6667,10.8167,82.4,71.6,69.9,320,4,0,29.83,M,6.21,M,SCT,FEW,M,M,1700,2000,M,M,M,M,M,M,M,M,M,87.18,VVTS 231400Z 32004KT 9999 SCT017 FEW020CB 28/22 Q1010 NOSIG RMK CB/S,M
VVTS,3/23/2021 14:30,106.6667,10.8167,82.4,71.6,69.9,0,0,0,29.83,M,6.21,M,SCT,M,M,M,1700,M,M,M,M,M,M,M,M,M,M,87.18,VVTS 231430Z 00000KT 9999 SCT017 28/22 Q1010 NOSIG,M
VVTS,3/23/2021 15:00,106.6667,10.8167,82.4,69.8,65.74,0,0,0,29.83,M,6.21,M,SCT,M,M,M,1700,M,M,M,M,M,M,M,M,M,M,86.22,VVTS 231500Z 00000KT 9999 SCT017 28/21 Q1010 NOSIG,M
VVTS,3/23/2021 15:30,106.6667,10.8167,84.2,69.8,62.03,70,2,0,29.83,M,6.21,M,SCT,M,M,M,1700,M,M,M,M,M,M,M,M,M,M,88.43,VVTS 231530Z 07002KT 9999 SCT017 29/21 Q1010 NOSIG,M
VVTS,3/23/2021 16:00,106.6667,10.8167,82.4,71.6,69.9,M,3,0,29.83,M,6.21,M,SCT,M,M,M,1700,M,M,M,M,M,M,M,M,M,M,87.18,VVTS 231600Z VRB03KT 9999 SCT017 28/22 Q1010 NOSIG,M
VVTS,3/23/2021 16:30,106.6667,10.8167,82.4,71.6,69.9,70,2,0,29.83,M,6.21,M,SCT,M,M,M,1700,M,M,M,M,M,M,M,M,M,M,87.18,VVTS 231630Z 07002KT 9999 SCT017 28/22 Q1010 NOSIG,M
VVTS,3/23/2021 17:00,106.6667,10.8167,82.4,71.6,69.9,M,2,0,29.83,M,6.21,M,SCT,M,M,M,1700,M,M,M,M,M,M,M,M,M,M,87.18,VVTS 231700Z VRB02KT 9999 SCT017 28/22 Q1010 NOSIG,M
VVTS,3/23/2021 17:30,106.6667,10.8167,82.4,73.4,74.28,M,3,0,29.8,M,6.21,M,SCT,M,M,M,1700,M,M,M,M,M,M,M,M,M,M,88.26,VVTS 231730Z VRB03KT 9999 SCT017 28/23 Q1009 NOSIG,M
VVTS,3/23/2021 18:00,106.6667,10.8167,80.6,73.4,78.76,340,3,0,29.8,M,6.21,M,SCT,M,M,M,1700,M,M,M,M,M,M,M,M,M,M,85.32,VVTS 231800Z 34003KT 9999 SCT017 27/23 Q1009 NOSIG,M
VVTS,3/23/2021 18:30,106.6667,10.8167,80.6,71.6,74.11,350,4,0,29.8,M,6.21,M,FEW,SCT,M,M,1700,5000,M,M,M,M,M,M,M,M,M,84.57,VVTS 231830Z 35004KT 9999 FEW017 SCT050 27/22 Q1009 NOSIG,M
VVTS,3/23/2021 19:00,106.6667,10.8167,80.6,71.6,74.11,M,2,0,29.8,M,6.21,M,FEW,SCT,M,M,1700,5000,M,M,M,M,M,M,M,M,M,84.57,VVTS 231900Z VRB02KT 9999 FEW017 SCT050 27/22 Q1009 NOSIG,M
VVTS,3/23/2021 19:30,106.6667,10.8167,80.6,71.6,74.11,M,3,0,29.8,M,6.21,M,SCT,SCT,M,M,1700,5000,M,M,M,M,M,M,M,M,M,84.57,VVTS 231930Z VRB03KT 9999 SCT017 SCT050 27/22 Q1009 NOSIG,M
VVTS,3/23/2021 20:00,106.6667,10.8167,80.6,73.4,78.76,70,2,0,29.77,M,6.21,M,SCT,SCT,M,M,1700,5000,M,M,M,M,M,M,M,M,M,85.32,VVTS 232000Z 07002KT 9999 SCT017 SCT050 27/23 Q1008 NOSIG,M
VVTS,3/23/2021 20:30,106.6667,10.8167,80.6,73.4,78.76,60,4,0,29.77,M,6.21,M,SCT,SCT,M,M,1700,5000,M,M,M,M,M,M,M,M,M,85.32,VVTS 232030Z 06004KT 9999 SCT017 SCT050 27/23 Q1008 NOSIG,M
VVTS,3/23/2021 21:00,106.6667,10.8167,80.6,73.4,78.76,70,4,0,29.77,M,6.21,M,SCT,SCT,M,M,1700,5000,M,M,M,M,M,M,M,M,M,85.32,VVTS 232100Z 07004KT 9999 SCT017 SCT050 27/23 Q1008 NOSIG,M
VVTS,3/23/2021 21:30,106.6667,10.8167,80.6,73.4,78.76,80,4,0,29.77,M,6.21,M,SCT,SCT,M,M,1700,5000,M,M,M,M,M,M,M,M,M,85.32,VVTS 232130Z 08004KT 9999 SCT017 SCT050 27/23 Q1008 NOSIG,M
VVTS,3/23/2021 22:00,106.6667,10.8167,80.6,73.4,78.76,60,5,0,29.77,M,4.97,M,FEW,SCT,M,M,1700,5000,M,M,M,M,M,M,M,M,M,85.32,VVTS 232200Z 06005KT 030V090 8000 FEW017 SCT050 27/23 Q1008 NOSIG,M
VVTS,3/23/2021 22:30,106.6667,10.8167,80.6,73.4,78.76,70,4,0,29.8,M,4.97,M,FEW,SCT,M,M,1700,5000,M,M,M,M,M,M,M,M,M,85.32,VVTS 232230Z 07004KT 8000 FEW017 SCT050 27/23 Q1009 NOSIG,M
VVTS,3/23/2021 23:00,106.6667,10.8167,80.6,71.6,74.11,80,3,0,29.8,M,4.97,M,FEW,SCT,M,M,1700,5000,M,M,M,M,M,M,M,M,M,84.57,VVTS 232300Z 08003KT 8000 FEW017 SCT050 27/22 Q1009 NOSIG,M
VVTS,3/23/2021 23:30,106.6667,10.8167,82.4,71.6,69.9,90,5,0,29.83,M,6.21,M,FEW,M,M,M,1700,M,M,M,M,M,M,M,M,M,M,87.18,VVTS 232330Z 09005KT 060V120 9999 FEW017 28/22 Q1010 NOSIG,M
VVTS,3/24/2021 0:00,106.6667,10.8167,82.4,71.6,69.9,110,5,0,29.83,M,6.21,M,FEW,M,M,M,1700,M,M,M,M,M,M,M,M,M,M,87.18,VVTS 240000Z 11005KT 070V140 9999 FEW017 28/22 Q1010 NOSIG,M
VVTS,3/24/2021 0:30,106.6667,10.8167,84.2,71.6,65.95,110,7,0,29.83,M,6.21,M,FEW,M,M,M,1700,M,M,M,M,M,M,M,M,M,M,89.6,VVTS 240030Z 11007KT 080V140 9999 FEW017 29/22 Q1010 NOSIG,M
VVTS,3/24/2021 1:00,106.6667,10.8167,84.2,69.8,62.03,120,6,0,29.83,M,6.21,M,FEW,M,M,M,1700,M,M,M,M,M,M,M,M,M,M,88.43,VVTS 240100Z 12006KT 090V180 9999 FEW017 29/21 Q1010 NOSIG,M
VVTS,3/24/2021 1:30,106.6667,10.8167,86,69.8,58.55,M,6,0,29.85,M,6.21,M,FEW,M,M,M,1700,M,M,M,M,M,M,M,M,M,M,90.58,VVTS 240130Z VRB06KT 9999 FEW017 30/21 Q1011 NOSIG,M
VVTS,3/24/2021 2:00,106.6667,10.8167,87.8,68,51.98,80,7,0,29.85,M,6.21,M,FEW,M,M,M,2000,M,M,M,M,M,M,M,M,M,M,91.43,VVTS 240200Z 08007KT 040V130 9999 FEW020 31/20 Q1011 NOSIG,M
VVTS,3/24/2021 2:30,106.6667,10.8167,89.6,66.2,46.14,130,5,0,29.85,M,6.21,M,FEW,M,M,M,2000,M,M,M,M,M,M,M,M,M,M,92.27,VVTS 240230Z 13005KT 070V170 9999 FEW020 32/19 Q1011 NOSIG,M
VVTS,3/24/2021 3:00,106.6667,10.8167,91.4,66.2,43.61,M,5,0,29.83,M,6.21,M,FEW,M,M,M,2000,M,M,M,M,M,M,M,M,M,M,94.29,VVTS 240300Z VRB05KT 9999 FEW020 33/19 Q1010 NOSIG,M
VVTS,3/24/2021 3:30,106.6667,10.8167,91.4,64.4,40.96,120,6,0,29.83,M,6.21,M,FEW,M,M,M,2000,M,M,M,M,M,M,M,M,M,M,93.19,VVTS 240330Z 12006KT 080V170 9999 FEW020 33/18 Q1010 NOSIG,M
VVTS,3/24/2021 4:00,106.6667,10.8167,93.2,64.4,38.73,70,4,0,29.83,M,6.21,M,FEW,M,M,M,2000,M,M,M,M,M,M,M,M,M,M,95.2,VVTS 240400Z 07004KT 9999 FEW020 34/18 Q1010 NOSIG,M
VVTS,3/24/2021 4:30,106.6667,10.8167,95,64.4,36.63,M,3,0,29.8,M,6.21,M,FEW,M,M,M,2000,M,M,M,M,M,M,M,M,M,M,97.26,VVTS 240430Z VRB03KT 9999 FEW020 35/18 Q1009 NOSIG,M
VVTS,3/24/2021 5:00,106.6667,10.8167,95,64.4,36.63,M,3,0,29.77,M,6.21,M,SCT,M,M,M,2000,M,M,M,M,M,M,M,M,M,M,97.26,VVTS 240500Z VRB03KT 9999 SCT020 35/18 Q1008 NOSIG,M
VVTS,3/24/2021 5:30,106.6667,10.8167,96.8,66.2,36.9,150,6,0,29.77,M,6.21,M,SCT,M,M,M,2000,M,M,M,M,M,M,M,M,M,M,100.6,VVTS 240530Z 15006KT 050V220 9999 SCT020 36/19 Q1008 NOSIG,M
VVTS,3/24/2021 6:00,106.6667,10.8167,95,66.2,39,70,5,0,29.74,M,6.21,M,BKN,M,M,M,2000,M,M,M,M,M,M,M,M,M,M,98.46,VVTS 240600Z 07005KT 330V120 9999 BKN020 35/19 Q1007 NOSIG,M
VVTS,3/24/2021 6:30,106.6667,10.8167,95,64.4,36.63,110,7,0,29.71,M,6.21,M,BKN,M,M,M,2000,M,M,M,M,M,M,M,M,M,M,97.26,VVTS 240630Z 11007KT 050V150 9999 BKN020 35/18 Q1006 NOSIG,M
VVTS,3/24/2021 7:00,106.6667,10.8167,93.2,66.2,41.23,170,5,0,29.71,M,6.21,M,SCT,FEW,M,M,1700,2000,M,M,M,M,M,M,M,M,M,96.35,VVTS 240700Z 17005KT 110V230 9999 SCT017 FEW020TCU 34/19 Q1006 NOSIG RMK TCU OVER RWY,M
VVTS,3/24/2021 7:30,106.6667,10.8167,93.2,66.2,41.23,140,7,0,29.71,M,6.21,M,SCT,FEW,M,M,1700,2000,M,M,M,M,M,M,M,M,M,96.35,VVTS 240730Z 14007KT 110V180 9999 SCT017 FEW020CB 34/19 Q1006 NOSIG RMK CB OVER RWY,M
VVTS,3/24/2021 8:00,106.6667,10.8167,93.2,69.8,46.67,150,9,0,29.68,M,6.21,M,SCT,FEW,M,M,1700,2000,M,M,M,M,M,M,M,M,M,99.17,VVTS 240800Z 15009KT 100V190 9999 SCT017 FEW020CB 34/21 Q1005 NOSIG RMK CB/W,M
VVTS,3/24/2021 8:30,106.6667,10.8167,93.2,69.8,46.67,150,9,0,29.71,M,6.21,M,SCT,FEW,M,M,1700,2000,M,M,M,M,M,M,M,M,M,99.17,VVTS 240830Z 15009KT 120V190 9999 SCT017 FEW020CB 34/21 Q1006 NOSIG RMK CB/SW,M
VVTS,3/24/2021 9:00,106.6667,10.8167,93.2,69.8,46.67,140,14,0,29.71,M,6.21,M,SCT,M,M,M,1700,M,M,M,M,M,M,M,M,M,M,99.17,VVTS 240900Z 14014KT 100V170 9999 SCT017 34/21 Q1006 NOSIG,M
VVTS,3/24/2021 9:30,106.6667,10.8167,91.4,69.8,49.36,130,15,0,29.71,M,6.21,M,SCT,FEW,M,M,1700,2000,M,M,M,M,M,M,M,M,M,96.99,VVTS 240930Z 13015KT 110V170 9999 SCT017 FEW020TCU 33/21 Q1006 NOSIG,M
VVTS,3/24/2021 10:00,106.6667,10.8167,89.6,68,49.1,130,15,0,29.71,M,6.21,M,SCT,M,M,M,1700,M,M,M,M,M,M,M,M,M,M,93.47,VVTS 241000Z 13015KT 100V160 9999 SCT017 32/20 Q1006 NOSIG,M
VVTS,3/24/2021 10:30,106.6667,10.8167,87.8,69.8,55.29,130,14,0,29.74,M,6.21,M,SCT,M,M,M,1700,M,M,M,M,M,M,M,M,M,M,92.71,VVTS 241030Z 13014KT 9999 SCT017 31/21 Q1007 NOSIG,M
VVTS,3/24/2021 11:00,106.6667,10.8167,87.8,69.8,55.29,130,14,0,29.74,M,6.21,M,SCT,FEW,M,M,1700,2000,M,M,M,M,M,M,M,M,M,92.71,VVTS 241100Z 13014KT 100V160 9999 SCT017 FEW020TCU 31/21 Q1007 NOSIG RMK TCU/NW,M
VVTS,3/24/2021 11:30,106.6667,10.8167,87.8,69.8,55.29,130,12,0,29.74,M,6.21,M,SCT,M,M,M,1700,M,M,M,M,M,M,M,M,M,M,92.71,VVTS 241130Z 13012KT 110V170 9999 SCT017 31/21 Q1007 NOSIG,M
VVTS,3/24/2021 12:00,106.6667,10.8167,86,71.6,62.25,130,12,0,29.77,M,6.21,M,SCT,M,M,M,1700,M,M,M,M,M,M,M,M,M,M,91.92,VVTS 241200Z 13012KT 9999 SCT017 30/22 Q1008 NOSIG,M
VVTS,3/24/2021 12:30,106.6667,10.8167,86,69.8,58.55,140,9,0,29.77,M,6.21,M,FEW,BKN,M,M,1700,5000,M,M,M,M,M,M,M,M,M,90.58,VVTS 241230Z 14009KT 9999 FEW017 BKN050 30/21 Q1008 NOSIG,M
VVTS,3/24/2021 13:00,106.6667,10.8167,86,71.6,62.25,140,9,0,29.77,M,6.21,M,FEW,BKN,M,M,1700,5000,M,M,M,M,M,M,M,M,M,91.92,VVTS 241300Z 14009KT 9999 FEW017 BKN050 30/22 Q1008 NOSIG,M
VVTS,3/24/2021 13:30,106.6667,10.8167,86,71.6,62.25,120,10,0,29.8,M,6.21,M,FEW,BKN,M,M,1700,5000,M,M,M,M,M,M,M,M,M,91.92,VVTS 241330Z 12010KT 090V150 9999 FEW017 BKN050 30/22 Q1009 NOSIG,M
VVTS,3/24/2021 14:00,106.6667,10.8167,84.2,71.6,65.95,140,8,0,29.8,M,6.21,M,FEW,BKN,M,M,1700,5000,M,M,M,M,M,M,M,M,M,89.6,VVTS 241400Z 14008KT 9999 FEW017 BKN050 29/22 Q1009 NOSIG,M
VVTS,3/24/2021 14:30,106.6667,10.8167,84.2,71.6,65.95,150,7,0,29.8,M,6.21,M,FEW,BKN,M,M,1700,5000,M,M,M,M,M,M,M,M,M,89.6,VVTS 241430Z 15007KT 9999 FEW017 BKN050 29/22 Q1009 NOSIG,M
VVTS,3/24/2021 15:00,106.6667,10.8167,84.2,71.6,65.95,130,8,0,29.8,M,6.21,M,FEW,BKN,M,M,1700,5000,M,M,M,M,M,M,M,M,M,89.6,VVTS 241500Z 13008KT 9999 FEW017 BKN050 29/22 Q1009 NOSIG,M
VVTS,3/24/2021 15:30,106.6667,10.8167,84.2,71.6,65.95,130,6,0,29.8,M,6.21,M,FEW,SCT,M,M,1700,5000,M,M,M,M,M,M,M,M,M,89.6,VVTS 241530Z 13006KT 100V160 9999 FEW017 SCT050 29/22 Q1009 NOSIG,M
VVTS,3/24/2021 16:00,106.6667,10.8167,84.2,71.6,65.95,110,6,0,29.8,M,6.21,M,FEW,SCT,M,M,1700,5000,M,M,M,M,M,M,M,M,M,89.6,VVTS 241600Z 11006KT 080V150 9999 FEW017 SCT050 29/22 Q1009 NOSIG,M
VVTS,3/24/2021 16:30,106.6667,10.8167,84.2,71.6,65.95,110,9,0,29.8,M,6.21,M,FEW,SCT,M,M,1700,5000,M,M,M,M,M,M,M,M,M,89.6,VVTS 241630Z 11009KT 9999 FEW017 SCT050 29/22 Q1009 NOSIG,M
VVTS,3/24/2021 17:00,106.6667,10.8167,82.4,73.4,74.28,80,6,0,29.8,M,6.21,M,FEW,SCT,M,M,1700,5000,M,M,M,M,M,M,M,M,M,88.26,VVTS 241700Z 08006KT 9999 FEW017 SCT050 28/23 Q1009 NOSIG,M
VVTS,3/24/2021 17:30,106.6667,10.8167,82.4,71.6,69.9,90,6,0,29.77,M,6.21,M,FEW,SCT,M,M,1700,5000,M,M,M,M,M,M,M,M,M,87.18,VVTS 241730Z 09006KT 9999 FEW017 SCT050 28/22 Q1008 NOSIG,M
VVTS,3/24/2021 18:00,106.6667,10.8167,82.4,73.4,74.28,80,4,0,29.77,M,6.21,M,FEW,SCT,M,M,1700,5000,M,M,M,M,M,M,M,M,M,88.26,VVTS 241800Z 08004KT 020V110 9999 FEW017 SCT050 28/23 Q1008 NOSIG,M
VVTS,3/24/2021 18:30,106.6667,10.8167,82.4,71.6,69.9,80,4,0,29.77,M,6.21,M,FEW,SCT,M,M,1700,5000,M,M,M,M,M,M,M,M,M,87.18,VVTS 241830Z 08004KT 9999 FEW017 SCT050 28/22 Q1008 NOSIG,M
VVTS,3/24/2021 19:00,106.6667,10.8167,82.4,71.6,69.9,120,5,0,29.77,M,6.21,M,FEW,SCT,M,M,1700,5000,M,M,M,M,M,M,M,M,M,87.18,VVTS 241900Z 12005KT 090V150 9999 FEW017 SCT050 28/22 Q1008 NOSIG,M
VVTS,3/24/2021 19:30,106.6667,10.8167,82.4,71.6,69.9,100,5,0,29.77,M,6.21,M,FEW,SCT,M,M,1700,5000,M,M,M,M,M,M,M,M,M,87.18,VVTS 241930Z 10005KT 060V130 9999 FEW017 SCT050 28/22 Q1008 NOSIG,M
VVTS,3/24/2021 20:00,106.6667,10.8167,82.4,71.6,69.9,100,6,0,29.77,M,6.21,M,FEW,SCT,M,M,1700,5000,M,M,M,M,M,M,M,M,M,87.18,VVTS 242000Z 10006KT 9999 FEW017 SCT050 28/22 Q1008 NOSIG,M
VVTS,3/24/2021 20:30,106.6667,10.8167,82.4,71.6,69.9,100,6,0,29.77,M,6.21,M,FEW,SCT,M,M,1700,5000,M,M,M,M,M,M,M,M,M,87.18,VVTS 242030Z 10006KT 9999 FEW017 SCT050 28/22 Q1008 NOSIG,M
VVTS,3/24/2021 21:00,106.6667,10.8167,82.4,71.6,69.9,90,6,0,29.74,M,6.21,M,SCT,FEW,SCT,M,1500,1700,5000,M,M,M,M,M,M,M,M,87.18,VVTS 242100Z 09006KT 9999 SCT015 FEW017TCU SCT050 28/22 Q1007 NOSIG RMK TCU OVER RWY,M
VVTS,3/24/2021 21:30,106.6667,10.8167,82.4,71.6,69.9,90,3,0,29.77,M,6.21,M,SCT,FEW,SCT,M,1500,1700,5000,M,M,M,M,M,M,M,M,87.18,VVTS 242130Z 09003KT 9999 SCT015 FEW017TCU SCT050 28/22 Q1008 NOSIG RMK TCU/SW/W,M
VVTS,3/24/2021 22:00,106.6667,10.8167,80.6,71.6,74.11,70,4,0,29.77,M,6.21,M,SCT,FEW,SCT,M,1500,1700,5000,M,M,M,M,M,M,M,M,84.57,VVTS 242200Z 07004KT 9999 SCT015 FEW017TCU SCT050 27/22 Q1008 NOSIG RMK TCU/W,M
VVTS,3/24/2021 22:30,106.6667,10.8167,82.4,71.6,69.9,80,5,0,29.77,M,6.21,M,SCT,BKN,M,M,1500,5000,M,M,M,M,M,M,M,M,M,87.18,VVTS 242230Z 08005KT 9999 SCT015 BKN050 28/22 Q1008 NOSIG,M
VVTS,3/24/2021 23:00,106.6667,10.8167,80.6,71.6,74.11,70,4,0,29.8,M,6.21,M,SCT,BKN,M,M,1500,5000,M,M,M,M,M,M,M,M,M,84.57,VVTS 242300Z 07004KT 9999 SCT015 BKN050 27/22 Q1009 NOSIG,M
VVTS,3/24/2021 23:30,106.6667,10.8167,82.4,71.6,69.9,100,5,0,29.8,M,6.21,M,FEW,BKN,M,M,1500,5000,M,M,M,M,M,M,M,M,M,87.18,VVTS 242330Z 10005KT 050V130 9999 FEW015 BKN050 28/22 Q1009 NOSIG,M
VVTS,3/25/2021 0:00,106.6667,10.8167,82.4,71.6,69.9,M,3,0,29.83,M,6.21,M,FEW,SCT,M,M,1700,5000,M,M,M,M,M,M,M,M,M,87.18,VVTS 250000Z VRB03KT 9999 FEW017 SCT050 28/22 Q1010 NOSIG,M
VVTS,3/25/2021 0:30,106.6667,10.8167,84.2,71.6,65.95,120,4,0,29.83,M,6.21,M,FEW,SCT,M,M,1700,5000,M,M,M,M,M,M,M,M,M,89.6,VVTS 250030Z 12004KT 080V160 9999 FEW017 SCT050 29/22 Q1010 NOSIG,M
VVTS,3/25/2021 1:00,106.6667,10.8167,86,71.6,62.25,90,6,0,29.85,M,6.21,M,FEW,SCT,M,M,1700,5000,M,M,M,M,M,M,M,M,M,91.92,VVTS 250100Z 09006KT 050V130 9999 FEW017 SCT050 30/22 Q1011 NOSIG,M
VVTS,3/25/2021 1:30,106.6667,10.8167,86,69.8,58.55,90,4,0,29.88,M,6.21,M,FEW,SCT,M,M,1700,5000,M,M,M,M,M,M,M,M,M,90.58,VVTS 250130Z 09004KT 040V140 9999 FEW017 SCT050 30/21 Q1012 NOSIG,M
VVTS,3/25/2021 2:00,106.6667,10.8167,86,71.6,62.25,60,4,0,29.88,M,6.21,M,FEW,SCT,M,M,1700,5000,M,M,M,M,M,M,M,M,M,91.92,VVTS 250200Z 06004KT 350V090 9999 FEW017 SCT050 30/22 Q1012 NOSIG,M
VVTS,3/25/2021 2:30,106.6667,10.8167,89.6,69.8,52.23,M,3,0,29.85,M,6.21,M,FEW,SCT,M,M,1700,5000,M,M,M,M,M,M,M,M,M,94.85,VVTS 250230Z VRB03KT 9999 FEW017 SCT050 32/21 Q1011 NOSIG,M
VVTS,3/25/2021 3:00,106.6667,10.8167,89.6,69.8,52.23,50,7,0,29.85,M,6.21,M,SCT,M,M,M,1700,M,M,M,M,M,M,M,M,M,M,94.85,VVTS 250300Z 05007KT 350V090 9999 SCT017 32/21 Q1011 NOSIG,M
VVTS,3/25/2021 3:30,106.6667,10.8167,89.6,69.8,52.23,30,4,0,29.85,M,6.21,M,SCT,M,M,M,1700,M,M,M,M,M,M,M,M,M,M,94.85,VVTS 250330Z 03004KT 350V090 9999 SCT017 32/21 Q1011 NOSIG,M
VVTS,3/25/2021 4:00,106.6667,10.8167,93.2,69.8,46.67,40,6,0,29.83,M,6.21,M,SCT,M,M,M,1700,M,M,M,M,M,M,M,M,M,M,99.17,VVTS 250400Z 04006KT 350V080 9999 SCT017 34/21 Q1010,M
VVTS,3/25/2021 4:30,106.6667,10.8167,93.2,68,43.88,60,6,0,29.83,M,6.21,M,BKN,M,M,M,1700,M,M,M,M,M,M,M,M,M,M,97.67,VVTS 250430Z 06006KT 350V120 9999 BKN017 34/20 Q1010 NOSIG,M
VVTS,3/25/2021 5:00,106.6667,10.8167,93.2,68,43.88,M,4,0,29.8,M,6.21,M,BKN,M,M,M,1700,M,M,M,M,M,M,M,M,M,M,97.67,VVTS 250500Z VRB04KT 9999 BKN017 34/20 Q1009 NOSIG,M
VVTS,3/25/2021 5:30,106.6667,10.8167,95,68,41.5,M,4,0,29.77,M,6.21,M,BKN,M,M,M,1700,M,M,M,M,M,M,M,M,M,M,99.82,VVTS 250530Z VRB04KT 9999 BKN017 35/20 Q1008 NOSIG,M
VVTS,3/25/2021 6:00,106.6667,10.8167,95,66.2,39,M,4,0,29.74,M,6.21,M,BKN,M,M,M,1700,M,M,M,M,M,M,M,M,M,M,98.46,VVTS 250600Z VRB04KT 9999 BKN017 35/19 Q1007 NOSIG,M
VVTS,3/25/2021 6:30,106.6667,10.8167,96.8,68,39.27,M,3,0,29.74,M,6.21,M,BKN,M,M,M,1700,M,M,M,M,M,M,M,M,M,M,102.01,VVTS 250630Z VRB03KT 9999 BKN017 36/20 Q1007 NOSIG,M
VVTS,3/25/2021 7:00,106.6667,10.8167,96.8,66.2,36.9,170,2,0,29.71,M,6.21,M,BKN,M,M,M,1700,M,M,M,M,M,M,M,M,M,M,100.6,VVTS 250700Z 17002KT 9999 BKN017 36/19 Q1006 NOSIG,M
VVTS,3/25/2021 7:30,106.6667,10.8167,93.2,69.8,46.67,210,10,0,29.71,M,6.21,M,BKN,M,M,M,1700,M,M,M,M,M,M,M,M,M,M,99.17,VVTS 250730Z 21010KT 170V240 9999 BKN017 34/21 Q1006 NOSIG,M
VVTS,3/25/2021 8:00,106.6667,10.8167,95,68,41.5,190,8,0,29.71,M,6.21,M,SCT,FEW,M,M,1700,2000,M,M,M,M,M,M,M,M,M,99.82,VVTS 250800Z 19008KT 160V220 9999 SCT017 FEW020CB 35/20 Q1006 NOSIG RMK CB/E,M
VVTS,3/25/2021 8:30,106.6667,10.8167,95,68,41.5,170,7,0,29.71,M,6.21,M,BKN,M,M,M,1700,M,M,M,M,M,M,M,M,M,M,99.82,VVTS 250830Z 17007KT 140V200 9999 BKN017 35/20 Q1006 NOSIG,M
VVTS,3/25/2021 9:00,106.6667,10.8167,91.4,69.8,49.36,180,7,0,29.71,M,6.21,M,BKN,M,M,M,1700,M,M,M,M,M,M,M,M,M,M,96.99,VVTS 250900Z 18007KT 120V210 9999 BKN017 33/21 Q1006 NOSIG,M
VVTS,3/25/2021 9:30,106.6667,10.8167,91.4,69.8,49.36,160,10,0,29.71,M,6.21,M,SCT,FEW,M,M,1700,2000,M,M,M,M,M,M,M,M,M,96.99,VVTS 250930Z 16010KT 130V200 9999 SCT017 FEW020CB 33/21 Q1006 NOSIG RMK CB/E,M
VVTS,3/25/2021 10:00,106.6667,10.8167,91.4,68,46.41,170,10,0,29.71,M,4.97,M,SCT,FEW,M,M,1500,1700,M,M,VCSH,M,M,M,M,M,M,95.55,VVTS 251000Z 17010KT 130V200 8000 VCSH SCT015 FEW017CB 33/20 Q1006 NOSIG RMK CB/E,M
VVTS,3/25/2021 10:30,106.6667,10.8167,89.6,69.8,52.23,130,8,0,29.71,M,4.35,M,SCT,FEW,M,M,1500,1700,M,M,#NAME?,M,M,M,M,M,M,94.85,VVTS 251030Z 13008KT 050V190 7000 -TSRA SCT015 FEW017CB 32/21 Q1006 TEMPO TL1050 07015G28KT 2000 +TSRA,M
VVTS,3/25/2021 11:00,106.6667,10.8167,84.2,75.2,74.44,170,4,0,29.71,M,4.97,M,SCT,SCT,M,M,1500,5000,M,M,M,M,M,M,M,M,M,92.45,VVTS 251100Z 17004KT 140V210 8000 SCT015 SCT050 29/24 Q1006 NOSIG,M
VVTS,3/25/2021 11:30,106.6667,10.8167,86,75.2,70.27,150,6,0,29.74,M,4.97,M,SCT,SCT,M,M,1500,5000,M,M,M,M,M,M,M,M,M,95.19,VVTS 251130Z 15006KT 130V190 8000 SCT015 SCT050 30/24 Q1007 NOSIG,M
VVTS,3/25/2021 12:00,106.6667,10.8167,86,73.4,66.15,140,9,0,M,M,6.21,M,SCT,FEW,SCT,M,1500,1700,5000,M,M,M,M,M,M,M,M,93.45,VVTS 251200Z 14009KT 100V160 9999 SCT015 FEW017TCU SCT050 30/23 Q//// NOSIG RMK TCU/NE,M
VVTS,3/25/2021 12:30,106.6667,10.8167,84.2,71.6,65.95,140,10,0,29.77,M,6.21,M,SCT,SCT,M,M,1700,5000,M,M,M,M,M,M,M,M,M,89.6,VVTS 251230Z 14010KT 120V180 9999 SCT017 SCT050 29/22 Q1008 NOSIG,M
VVTS,3/25/2021 13:00,106.6667,10.8167,84.2,71.6,65.95,140,10,0,29.77,M,6.21,M,FEW,SCT,M,M,1700,5000,M,M,M,M,M,M,M,M,M,89.6,VVTS 251300Z 14010KT 120V190 9999 FEW017 SCT050 29/22 Q1008 NOSIG,M
VVTS,3/25/2021 13:30,106.6667,10.8167,84.2,71.6,65.95,140,9,0,29.8,M,6.21,M,FEW,SCT,M,M,1700,5000,M,M,M,M,M,M,M,M,M,89.6,VVTS 251330Z 14009KT 120V180 9999 FEW017 SCT050 29/22 Q1009 NOSIG,M
VVTS,3/25/2021 14:00,106.6667,10.8167,84.2,71.6,65.95,150,10,0,29.8,M,6.21,M,FEW,SCT,M,M,1700,5000,M,M,M,M,M,M,M,M,M,89.6,VVTS 251400Z 15010KT 9999 FEW017 SCT050 29/22 Q1009 NOSIG,M
VVTS,3/25/2021 14:30,106.6667,10.8167,84.2,71.6,65.95,130,9,0,29.83,M,6.21,M,FEW,SCT,M,M,1700,5000,M,M,M,M,M,M,M,M,M,89.6,VVTS 251430Z 13009KT 100V160 9999 FEW017 SCT050 29/22 Q1010 NOSIG,M
VVTS,3/25/2021 15:00,106.6667,10.8167,84.2,71.6,65.95,130,7,0,29.83,M,6.21,M,FEW,M,M,M,1700,M,M,M,M,M,M,M,M,M,M,89.6,VVTS 251500Z 13007KT 100V160 9999 FEW017 29/22 Q1010 NOSIG,M
VVTS,3/25/2021 15:30,106.6667,10.8167,84.2,71.6,65.95,130,8,0,29.83,M,6.21,M,FEW,M,M,M,1700,M,M,M,M,M,M,M,M,M,M,89.6,VVTS 251530Z 13008KT 9999 FEW017 29/22 Q1010 NOSIG,M
VVTS,3/25/2021 16:00,106.6667,10.8167,84.2,71.6,65.95,120,9,0,29.83,M,6.21,M,FEW,M,M,M,1700,M,M,M,M,M,M,M,M,M,M,89.6,VVTS 251600Z 12009KT 9999 FEW017 29/22 Q1010 NOSIG,M
VVTS,3/25/2021 16:30,106.6667,10.8167,82.4,71.6,69.9,100,7,0,29.83,M,6.21,M,FEW,M,M,M,1700,M,M,M,M,M,M,M,M,M,M,87.18,VVTS 251630Z 10007KT 9999 FEW017 28/22 Q1010 NOSIG,M
VVTS,3/25/2021 17:00,106.6667,10.8167,82.4,71.6,69.9,120,10,0,29.8,M,6.21,M,FEW,M,M,M,1700,M,M,M,M,M,M,M,M,M,M,87.18,VVTS 251700Z 12010KT 100V170 9999 FEW017 28/22 Q1009 NOSIG,M
VVTS,3/25/2021 17:30,106.6667,10.8167,82.4,71.6,69.9,130,7,0,29.8,M,6.21,M,FEW,M,M,M,1700,M,M,M,M,M,M,M,M,M,M,87.18,VVTS 251730Z 13007KT 090V150 9999 FEW017 28/22 Q1009 NOSIG,M
VVTS,3/25/2021 18:00,106.6667,10.8167,82.4,71.6,69.9,130,8,0,29.8,M,6.21,M,M,M,M,M,M,M,M,M,M,M,M,M,M,M,M,87.18,VVTS 251800Z 13008KT CAVOK 28/22 Q1009 NOSIG,M
VVTS,3/25/2021 18:30,106.6667,10.8167,82.4,71.6,69.9,140,7,0,29.77,M,6.21,M,M,M,M,M,M,M,M,M,M,M,M,M,M,M,M,87.18,VVTS 251830Z 14007KT CAVOK 28/22 Q1008 NOSIG,M
VVTS,3/25/2021 19:00,106.6667,10.8167,80.6,71.6,74.11,140,6,0,29.77,M,6.21,M,M,M,M,M,M,M,M,M,M,M,M,M,M,M,M,84.57,VVTS 251900Z 14006KT 110V180 CAVOK 27/22 Q1008 NOSIG,M
VVTS,3/25/2021 19:30,106.6667,10.8167,80.6,71.6,74.11,140,6,0,29.77,M,6.21,M,M,M,M,M,M,M,M,M,M,M,M,M,M,M,M,84.57,VVTS 251930Z 14006KT CAVOK 27/22 Q1008 NOSIG,M
VVTS,3/25/2021 20:00,106.6667,10.8167,80.6,71.6,74.11,130,7,0,29.77,M,6.21,M,FEW,M,M,M,1700,M,M,M,M,M,M,M,M,M,M,84.57,VVTS 252000Z 13007KT 110V190 9999 FEW017 27/22 Q1008 NOSIG,M
VVTS,3/25/2021 20:30,106.6667,10.8167,80.6,71.6,74.11,120,7,0,29.77,M,6.21,M,FEW,M,M,M,1700,M,M,M,M,M,M,M,M,M,M,84.57,VVTS 252030Z 12007KT 090V160 9999 FEW017 27/22 Q1008 NOSIG,M
VVTS,3/25/2021 21:00,106.6667,10.8167,80.6,71.6,74.11,140,5,0,29.77,M,6.21,M,FEW,M,M,M,1700,M,M,M,M,M,M,M,M,M,M,84.57,VVTS 252100Z 14005KT 9999 FEW017 27/22 Q1008 NOSIG,M
VVTS,3/25/2021 21:30,106.6667,10.8167,80.6,71.6,74.11,140,6,0,29.77,M,6.21,M,FEW,M,M,M,1700,M,M,M,M,M,M,M,M,M,M,84.57,VVTS 252130Z 14006KT 9999 FEW017 27/22 Q1008 NOSIG,M
VVTS,3/25/2021 22:00,106.6667,10.8167,80.6,71.6,74.11,120,4,0,29.77,M,6.21,M,FEW,M,M,M,1700,M,M,M,M,M,M,M,M,M,M,84.57,VVTS 252200Z 12004KT 090V150 9999 FEW017 27/22 Q1008 NOSIG,M
VVTS,3/25/2021 22:30,106.6667,10.8167,78.8,71.6,78.62,100,4,0,29.77,M,6.21,M,FEW,M,M,M,1700,M,M,M,M,M,M,M,M,M,M,78.8,VVTS 252230Z 10004KT 9999 FEW017 26/22 Q1008 NOSIG,M
VVTS,3/25/2021 23:00,106.6667,10.8167,78.8,71.6,78.62,90,4,0,29.8,M,6.21,M,M,M,M,M,M,M,M,M,M,M,M,M,M,M,M,78.8,VVTS 252300Z 09004KT CAVOK 26/22 Q1009 NOSIG,M
VVTS,3/25/2021 23:30,106.6667,10.8167,80.6,71.6,74.11,100,5,0,29.8,M,6.21,M,M,M,M,M,M,M,M,M,M,M,M,M,M,M,M,84.57,VVTS 252330Z 10005KT 070V130 CAVOK 27/22 Q1009 NOSIG,M
VVTS,3/26/2021 0:00,106.6667,10.8167,82.4,71.6,69.9,80,5,0,29.83,M,6.21,M,M,M,M,M,M,M,M,M,M,M,M,M,M,M,M,87.18,VVTS 260000Z 08005KT CAVOK 28/22 Q1010 NOSIG,M
VVTS,3/26/2021 0:30,106.6667,10.8167,84.2,71.6,65.95,60,5,0,29.83,M,6.21,M,M,M,M,M,M,M,M,M,M,M,M,M,M,M,M,89.6,VVTS 260030Z 06005KT 010V120 CAVOK 29/22 Q1010 NOSIG,M
VVTS,3/26/2021 1:00,106.6667,10.8167,84.2,69.8,62.03,70,5,0,29.85,M,6.21,M,M,M,M,M,M,M,M,M,M,M,M,M,M,M,M,88.43,VVTS 260100Z 07005KT 030V120 CAVOK 29/21 Q1011 NOSIG,M
VVTS,3/26/2021 1:30,106.6667,10.8167,86,68,55.04,90,7,0,29.85,M,6.21,M,M,M,M,M,M,M,M,M,M,M,M,M,M,M,M,89.41,VVTS 260130Z 09007KT 060V140 CAVOK 30/20 Q1011 NOSIG,M
VVTS,3/26/2021 2:00,106.6667,10.8167,87.8,69.8,55.29,100,8,0,M,M,6.21,M,M,M,M,M,M,M,M,M,M,M,M,M,M,M,M,92.71,VVTS 260200Z 10008KT 070V140 CAVOK 31/21 Q//// NOSIG,M
VVTS,3/26/2021 2:30,106.6667,10.8167,89.6,68,49.1,80,10,0,29.85,M,6.21,M,FEW,M,M,M,1700,M,M,M,M,M,M,M,M,M,M,93.47,VVTS 260230Z 08010KT 060V120 9999 FEW017 32/20 Q1011 NOSIG,M
VVTS,3/26/2021 3:00,106.6667,10.8167,91.4,69.8,49.36,80,9,0,29.83,M,6.21,M,FEW,M,M,M,1700,M,M,M,M,M,M,M,M,M,M,96.99,VVTS 260300Z 08009KT 040V130 9999 FEW017 33/21 Q1010 NOSIG,M
VVTS,3/26/2021 3:30,106.6667,10.8167,91.4,68,46.41,100,8,0,29.83,M,6.21,M,FEW,M,M,M,1700,M,M,M,M,M,M,M,M,M,M,95.55,VVTS 260330Z 10008KT 030V150 9999 FEW017 33/20 Q 1010 NOSIG,M
VVTS,3/26/2021 4:00,106.6667,10.8167,93.2,68,43.88,M,6,0,29.83,M,6.21,M,FEW,M,M,M,1700,M,M,M,M,M,M,M,M,M,M,97.67,VVTS 260400Z VRB06KT 9999 FEW017 34/20 Q1010 NOSIG,M
VVTS,3/26/2021 4:30,106.6667,10.8167,95,66.2,39,60,8,0,29.8,M,6.21,M,FEW,M,M,M,1700,M,M,M,M,M,M,M,M,M,M,98.46,VVTS 260430Z 06008KT 010V090 9999 FEW017 35/19 Q1009 NOSIG,M
VVTS,3/26/2021 5:00,106.6667,10.8167,96.8,66.2,36.9,70,10,0,29.74,M,6.21,M,FEW,M,M,M,1700,M,M,M,M,M,M,M,M,M,M,100.6,VVTS 260500Z 07010KT 010V130 9999 FEW017 36/19 Q1007 NOSIG,M
VVTS,3/26/2021 7:30,106.6667,10.8167,95,68,41.5,190,8,0,M,M,6.21,M,BKN,M,M,M,1700,M,M,M,M,M,M,M,M,M,M,99.82,VVTS 260730Z 19008KT 9999 BKN017 35/20 Q//// NOSIG,M
VVTS,3/26/2021 8:00,106.6667,10.8167,95,69.8,44.14,M,9,0,29.71,M,6.21,M,BKN,M,M,M,1700,M,M,M,M,M,M,M,M,M,M,101.37,VVTS 260800Z VRB09KT 9999 BKN017 35/21 Q1006 NOSIG,M
VVTS,3/26/2021 8:30,106.6667,10.8167,95,69.8,44.14,160,10,0,29.68,M,6.21,M,BKN,M,M,M,1700,M,M,M,M,M,M,M,M,M,M,101.37,VVTS 260830Z 16010KT 130V210 9999 BKN017 35/21 Q1005 NOSIG,M
VVTS,3/26/2021 9:00,106.6667,10.8167,93.2,69.8,46.67,160,10,0,29.68,M,6.21,M,BKN,M,M,M,1700,M,M,M,M,M,M,M,M,M,M,99.17,VVTS 260900Z 16010KT 130V210 9999 BKN017 34/21 Q1005 NOSIG,M
VVTS,3/26/2021 9:30,106.6667,10.8167,93.2,69.8,46.67,150,10,0,29.71,M,6.21,M,SCT,M,M,M,2000,M,M,M,M,M,M,M,M,M,M,99.17,VVTS 260930Z 15010KT 120V190 9999 SCT020 34/21 Q1006 NOSIG,M
VVTS,3/26/2021 10:00,106.6667,10.8167,89.6,69.8,52.23,140,11,0,29.71,M,6.21,M,SCT,FEW,M,M,1700,2000,M,M,M,M,M,M,M,M,M,94.85,VVTS 261000Z 14011KT 110V180 9999 SCT017 FEW020TCU 32/21 Q1006 NOSIG RMK TCU/NE,M
VVTS,3/26/2021 10:30,106.6667,10.8167,89.6,71.6,55.53,140,9,0,29.71,M,6.21,M,SCT,M,M,M,2000,M,M,M,M,M,M,M,M,M,M,96.41,VVTS 261030Z 14009KT 110V180 9999 SCT020 32/22 Q1006 NOSIG,M
VVTS,3/26/2021 11:00,106.6667,10.8167,89.6,69.8,52.23,130,13,0,29.74,M,6.21,M,SCT,SCT,M,M,2000,5000,M,M,M,M,M,M,M,M,M,94.85,VVTS 261100Z 13013KT 090V150 9999 SCT020 SCT050 32/21 Q1007 NOSIG,M
VVTS,3/26/2021 11:30,106.6667,10.8167,87.8,68,51.98,140,13,0,29.74,M,6.21,M,SCT,SCT,M,M,2000,5000,M,M,M,M,M,M,M,M,M,91.43,VVTS 261130Z 14013KT 9999 SCT020 SCT050 31/20 Q1007 NOSIG,M
VVTS,3/26/2021 12:00,106.6667,10.8167,87.8,69.8,55.29,130,13,0,29.77,M,6.21,M,FEW,SCT,M,M,2000,5000,M,M,M,M,M,M,M,M,M,92.71,VVTS 261200Z 13013KT 9999 FEW020 SCT050 31/21 Q1008 NOSIG,M
VVTS,3/26/2021 12:30,106.6667,10.8167,86,69.8,58.55,130,13,0,29.77,M,6.21,M,FEW,M,M,M,1700,M,M,M,M,M,M,M,M,M,M,90.58,VVTS 261230Z 13013KT 9999 FEW017 30/21 Q1008 NOSIG,M
VVTS,3/26/2021 13:00,106.6667,10.8167,84.2,71.6,65.95,130,14,0,29.8,M,6.21,M,FEW,M,M,M,1700,M,M,M,M,M,M,M,M,M,M,89.6,VVTS 261300Z 13014KT 9999 FEW017 29/22 Q1009 NOSIG,M
VVTS,3/26/2021 13:30,106.6667,10.8167,84.2,73.4,70.08,130,12,0,29.8,M,6.21,M,FEW,M,M,M,1700,M,M,M,M,M,M,M,M,M,M,90.94,VVTS 261330Z 13012KT 090V170 9999 FEW017 29/23 Q1009 NOSIG,M
VVTS,3/26/2021 14:00,106.6667,10.8167,84.2,73.4,70.08,130,10,0,29.8,M,6.21,M,FEW,M,M,M,1700,M,M,M,M,M,M,M,M,M,M,90.94,VVTS 261400Z 13010KT 100V160 9999 FEW017 29/23 Q1009 NOSIG,M
VVTS,3/26/2021 14:30,106.6667,10.8167,82.4,73.4,74.28,140,8,0,29.8,M,6.21,M,FEW,M,M,M,1700,M,M,M,M,M,M,M,M,M,M,88.26,VVTS 261430Z 14008KT 9999 FEW017 28/23 Q1009 NOSIG,M
VVTS,3/26/2021 15:00,106.6667,10.8167,82.4,73.4,74.28,130,7,0,29.8,M,6.21,M,FEW,M,M,M,1700,M,M,M,M,M,M,M,M,M,M,88.26,VVTS 261500Z 13007KT 090V150 9999 FEW017 28/23 Q1009 NOSIG,M
VVTS,3/26/2021 15:30,106.6667,10.8167,82.4,73.4,74.28,130,6,0,29.8,M,6.21,M,FEW,M,M,M,1700,M,M,M,M,M,M,M,M,M,M,88.26,VVTS 261530Z 13006KT 100V160 9999 FEW017 28/23 Q1009 NOSIG,M
VVTS,3/26/2021 16:00,106.6667,10.8167,82.4,73.4,74.28,120,6,0,29.8,M,6.21,M,FEW,M,M,M,1700,M,M,M,M,M,M,M,M,M,M,88.26,VVTS 261600Z 12006KT 080V160 9999 FEW017 28/23 Q1009 NOSIG,M
VVTS,3/26/2021 16:30,106.6667,10.8167,82.4,73.4,74.28,130,6,0,29.8,M,6.21,M,FEW,M,M,M,1700,M,M,M,M,M,M,M,M,M,M,88.26,VVTS 261630Z 13006KT 9999 FEW017 28/23 Q1009,M
VVTS,3/26/2021 17:00,106.6667,10.8167,82.4,73.4,74.28,120,4,0,29.8,M,6.21,M,FEW,M,M,M,1700,M,M,M,M,M,M,M,M,M,M,88.26,VVTS 261700Z 12004KT 040V170 9999 FEW017 28/23 Q1009,M
VVTS,3/26/2021 17:30,106.6667,10.8167,82.4,71.6,69.9,100,5,0,29.77,M,6.21,M,FEW,M,M,M,1700,M,M,M,M,M,M,M,M,M,M,87.18,VVTS 261730Z 10005KT 070V140 9999 FEW017 28/22 Q1008,M
VVTS,3/26/2021 18:00,106.6667,10.8167,80.6,73.4,78.76,80,5,0,29.77,M,6.21,M,FEW,M,M,M,1700,M,M,M,M,M,M,M,M,M,M,85.32,VVTS 261800Z 08005KT 9999 FEW017 27/23 Q1008 NOSIG,M
VVTS,3/26/2021 18:30,106.6667,10.8167,80.6,73.4,78.76,80,3,0,29.77,M,6.21,M,FEW,M,M,M,1700,M,M,M,M,M,M,M,M,M,M,85.32,VVTS 261830Z 08003KT 9999 FEW017 27/23 Q1008 NOSIG,M
VVTS,3/26/2021 19:00,106.6667,10.8167,80.6,73.4,78.76,M,2,0,29.77,M,6.21,M,FEW,M,M,M,1700,M,M,M,M,M,M,M,M,M,M,85.32,VVTS 261900Z VRB02KT 9999 FEW017 27/23 Q1008 NOSIG,M
VVTS,3/26/2021 19:30,106.6667,10.8167,82.4,73.4,74.28,140,3,0,29.77,M,6.21,M,FEW,M,M,M,1700,M,M,M,M,M,M,M,M,M,M,88.26,VVTS 261930Z 14003KT 9999 FEW017 28/23 Q1008 NOSIG,M
VVTS,3/26/2021 20:00,106.6667,10.8167,80.6,73.4,78.76,130,3,0,29.77,M,6.21,M,FEW,M,M,M,1700,M,M,M,M,M,M,M,M,M,M,85.32,VVTS 262000Z 13003KT 9999 FEW017 27/23 Q1008 NOSIG,M
VVTS,3/26/2021 20:30,106.6667,10.8167,80.6,73.4,78.76,130,5,0,29.77,M,6.21,M,FEW,M,M,M,1700,M,M,M,M,M,M,M,M,M,M,85.32,VVTS 262030Z 13005KT 9999 FEW017 27/23 Q1008 NOSIG,M
VVTS,3/26/2021 21:00,106.6667,10.8167,80.6,73.4,78.76,130,5,0,29.77,M,6.21,M,FEW,M,M,M,1700,M,M,M,M,M,M,M,M,M,M,85.32,VVTS 262100Z 13005KT 9999 FEW017 27/23 Q1008 NOSIG,M
VVTS,3/26/2021 21:30,106.6667,10.8167,80.6,73.4,78.76,100,5,0,29.77,M,6.21,M,FEW,M,M,M,1700,M,M,M,M,M,M,M,M,M,M,85.32,VVTS 262130Z 10005KT 070V130 9999 FEW017 27/23 Q1008 NOSIG,M
VVTS,3/26/2021 22:00,106.6667,10.8167,80.6,75.2,83.66,110,7,0,29.77,M,6.21,M,FEW,M,M,M,1700,M,M,M,M,M,M,M,M,M,M,86.17,VVTS 262200Z 11007KT 9999 FEW017 27/24 Q1008 NOSIG,M
VVTS,3/26/2021 22:30,106.6667,10.8167,80.6,75.2,83.66,110,9,0,29.77,M,6.21,M,FEW,M,M,M,1700,M,M,M,M,M,M,M,M,M,M,86.17,VVTS 262230Z 11009KT 9999 FEW017 27/24 Q1008 NOSIG,M
VVTS,3/26/2021 23:00,106.6667,10.8167,80.6,75.2,83.66,130,9,0,29.77,M,6.21,M,FEW,M,M,M,1700,M,M,M,M,M,M,M,M,M,M,86.17,VVTS 262300Z 13009KT 9999 FEW017 27/24 Q1008 NOSIG,M
VVTS,3/26/2021 23:30,106.6667,10.8167,80.6,75.2,83.66,130,9,0,29.8,M,6.21,M,FEW,M,M,M,1700,M,M,M,M,M,M,M,M,M,M,86.17,VVTS 262330Z 13009KT 100V160 9999 FEW017 27/24 Q1009 NOSIG,M
VVTS,3/27/2021 0:00,106.6667,10.8167,80.6,75.2,83.66,130,10,0,29.8,M,6.21,M,FEW,M,M,M,1700,M,M,M,M,M,M,M,M,M,M,86.17,VVTS 270000Z 13010KT 090V150 9999 FEW017 27/24 Q1009 NOSIG,M
VVTS,3/27/2021 0:30,106.6667,10.8167,82.4,75.2,78.9,140,8,0,29.83,M,6.21,M,FEW,M,M,M,2000,M,M,M,M,M,M,M,M,M,M,89.48,VVTS 270030Z 14008KT 110V170 9999 FEW020 28/24 Q1010 NOSIG,M
VVTS,3/27/2021 1:00,106.6667,10.8167,84.2,75.2,74.44,140,7,0,29.83,M,6.21,M,FEW,M,M,M,2000,M,M,M,M,M,M,M,M,M,M,92.45,VVTS 270100Z 14007KT 090V180 9999 FEW020 29/24 Q1010 NOSIG,M
VVTS,3/27/2021 1:30,106.6667,10.8167,86,75.2,70.27,100,7,0,29.83,M,6.21,M,FEW,M,M,M,2000,M,M,M,M,M,M,M,M,M,M,95.19,VVTS 270130Z 10007KT 9999 FEW020 30/24 Q1010 NOSIG,M
VVTS,3/27/2021 2:00,106.6667,10.8167,89.6,73.4,59.01,90,6,0,29.83,M,6.21,M,FEW,M,M,M,2000,M,M,M,M,M,M,M,M,M,M,98.2,VVTS 270200Z 09006KT 050V140 9999 FEW020 32/23 Q1010,M
VVTS,3/27/2021 2:30,106.6667,10.8167,87.8,73.4,62.47,90,6,0,29.85,M,6.21,M,FEW,M,M,M,2000,M,M,M,M,M,M,M,M,M,M,95.86,VVTS 270230Z 09006KT 050V160 9999 FEW020 31/23 Q1011 NOSIG,M
VVTS,3/27/2021 3:00,106.6667,10.8167,91.4,71.6,52.48,90,9,0,29.85,M,6.21,M,FEW,M,M,M,2000,M,M,M,M,M,M,M,M,M,M,98.64,VVTS 270300Z 09009KT 9999 FEW020 33/22 Q1011 NOSIG,M
VVTS,3/27/2021 3:30,106.6667,10.8167,91.4,71.6,52.48,70,8,0,29.83,M,6.21,M,FEW,M,M,M,2000,M,M,M,M,M,M,M,M,M,M,98.64,VVTS 270330Z 07008KT 030V120 9999 FEW020 33/22 Q1010 NOSIG,M
VVTS,3/27/2021 4:00,106.6667,10.8167,93.2,69.8,46.67,80,8,0,29.83,M,6.21,M,FEW,M,M,M,2000,M,M,M,M,M,M,M,M,M,M,99.17,VVTS 270400Z 08008KT 040V120 9999 FEW020 34/21 Q1010 NOSIG,M
VVTS,3/27/2021 4:30,106.6667,10.8167,93.2,69.8,46.67,100,5,0,29.8,M,6.21,M,FEW,M,M,M,2000,M,M,M,M,M,M,M,M,M,M,99.17,VVTS 270430Z 10005KT 040V170 9999 FEW020 34/21 Q1009 NOSIG,M
VVTS,3/27/2021 5:00,106.6667,10.8167,93.2,68,43.88,70,7,0,29.8,M,6.21,M,SCT,M,M,M,2000,M,M,M,M,M,M,M,M,M,M,97.67,VVTS 270500Z 07007KT 040V120 9999 SCT020 34/20 Q1009 NOSIG,M
VVTS,3/27/2021 5:30,106.6667,10.8167,95,68,41.5,60,4,0,29.77,M,6.21,M,SCT,M,M,M,2000,M,M,M,M,M,M,M,M,M,M,99.82,VVTS 270530Z 06004KT 350V140 9999 SCT020 35/20 Q1008 NOSIG,M
VVTS,3/27/2021 6:00,106.6667,10.8167,96.8,66.2,36.9,150,5,0,29.74,M,6.21,M,BKN,M,M,M,2000,M,M,M,M,M,M,M,M,M,M,100.6,VVTS 270600Z 15005KT 090V220 9999 BKN020 36/19 Q1007 NOSIG,M
VVTS,3/27/2021 6:30,106.6667,10.8167,96.8,69.8,41.77,170,9,0,29.74,M,6.21,M,BKN,M,M,M,2000,M,M,M,M,M,M,M,M,M,M,103.6,VVTS 270630Z 17009KT 130V240 9999 BKN020 36/21 Q1007 NOSIG,M
VVTS,3/27/2021 7:00,106.6667,10.8167,95,69.8,44.14,150,9,0,29.71,M,6.21,M,BKN,M,M,M,1700,M,M,M,M,M,M,M,M,M,M,101.37,VVTS 270700Z 15009KT 110V210 9999 BKN017 35/21 Q1006 NOSIG,M
VVTS,3/27/2021 7:30,106.6667,10.8167,96.8,69.8,41.77,140,11,0,29.71,M,6.21,M,SCT,FEW,M,M,1500,1700,M,M,M,M,M,M,M,M,M,103.6,VVTS 270730Z 14011KT 110V180 9999 SCT015 FEW017TCU 36/21 Q1006 NOSIG RMK TCU/NW,M
VVTS,3/27/2021 8:00,106.6667,10.8167,95,69.8,44.14,170,10,0,29.71,M,6.21,M,SCT,FEW,M,M,1500,1700,M,M,M,M,M,M,M,M,M,101.37,VVTS 270800Z 17010KT 140V200 9999 SCT015 FEW017CB 35/21 Q1006 NOSIG RMK CB/NW,M
VVTS,3/27/2021 8:30,106.6667,10.8167,93.2,69.8,46.67,170,10,0,29.71,M,6.21,M,SCT,M,M,M,1700,M,M,M,M,M,M,M,M,M,M,99.17,VVTS 270830Z 17010KT 130V210 9999 SCT017 34/21 Q1006 NOSIG,M
VVTS,3/27/2021 9:00,106.6667,10.8167,93.2,68,43.88,160,11,0,29.71,M,6.21,M,FEW,M,M,M,2000,M,M,M,M,M,M,M,M,M,M,97.67,VVTS 270900Z 16011KT 130V190 9999 FEW020 34/20 Q1006 NOSIG,M
VVTS,3/27/2021 9:30,106.6667,10.8167,91.4,69.8,49.36,150,10,0,29.68,M,6.21,M,FEW,M,M,M,2000,M,M,M,M,M,M,M,M,M,M,96.99,VVTS 270930Z 15010KT 120V200 9999 FEW020 33/21 Q1005 NOSIG,M
VVTS,3/27/2021 10:00,106.6667,10.8167,89.6,69.8,52.23,170,11,0,29.71,M,6.21,M,FEW,M,M,M,2000,M,M,M,M,M,M,M,M,M,M,94.85,VVTS 271000Z 17011KT 140V200 9999 FEW020 32/21 Q1006 NOSIG,M
VVTS,3/27/2021 10:30,106.6667,10.8167,87.8,71.6,58.78,150,11,0,29.71,M,6.21,M,FEW,M,M,M,2000,M,M,M,M,M,M,M,M,M,M,94.18,VVTS 271030Z 15011KT 9999 FEW020 31/22 Q1006 NOSIG,M
VVTS,3/27/2021 11:00,106.6667,10.8167,87.8,68,51.98,160,11,0,29.71,M,6.21,M,FEW,M,M,M,2000,M,M,M,M,M,M,M,M,M,M,91.43,VVTS 271100Z 16011KT 120V190 9999 FEW020 31/20 Q1006 NOSIG,M
VVTS,3/27/2021 11:30,106.6667,10.8167,86,69.8,58.55,150,11,0,29.74,M,6.21,M,FEW,M,M,M,2000,M,M,M,M,M,M,M,M,M,M,90.58,VVTS 271130Z 15011KT 130V200 9999 FEW020 30/21 Q1007 NOSIG,M
VVTS,3/27/2021 12:00,106.6667,10.8167,86,69.8,58.55,140,10,0,29.74,M,6.21,M,FEW,M,M,M,1700,M,M,M,M,M,M,M,M,M,M,90.58,VVTS 271200Z 14010KT 9999 FEW017 30/21 Q1007 NOSIG,M
VVTS,3/27/2021 12:30,106.6667,10.8167,84.2,71.6,65.95,140,10,0,29.74,M,6.21,M,FEW,M,M,M,1700,M,M,M,M,M,M,M,M,M,M,89.6,VVTS 271230Z 14010KT 110V170 9999 FEW017 29/22 Q1007 NOSIG,M
VVTS,3/27/2021 13:00,106.6667,10.8167,84.2,71.6,65.95,140,9,0,29.74,M,6.21,M,FEW,M,M,M,1700,M,M,M,M,M,M,M,M,M,M,89.6,VVTS 271300Z 14009KT 9999 FEW017 29/22 Q1007 NOSIG,M
VVTS,3/27/2021 13:30,106.6667,10.8167,82.4,71.6,69.9,130,10,0,29.77,M,6.21,M,FEW,M,M,M,1700,M,M,M,M,M,M,M,M,M,M,87.18,VVTS 271330Z 13010KT 9999 FEW017 28/22 Q1008 NOSIG,M
VVTS,3/27/2021 14:00,106.6667,10.8167,82.4,73.4,74.28,130,9,0,29.77,M,6.21,M,FEW,M,M,M,1700,M,M,M,M,M,M,M,M,M,M,88.26,VVTS 271400Z 13009KT 9999 FEW017 28/23 Q1008 NOSIG,M
VVTS,3/27/2021 14:30,106.6667,10.8167,82.4,73.4,74.28,140,7,0,29.8,M,6.21,M,FEW,M,M,M,1700,M,M,M,M,M,M,M,M,M,M,88.26,VVTS 271430Z 14007KT 110V170 9999 FEW017 28/23 Q1009 NOSIG,M
VVTS,3/27/2021 15:00,106.6667,10.8167,82.4,73.4,74.28,150,8,0,29.8,M,6.21,M,FEW,M,M,M,1700,M,M,M,M,M,M,M,M,M,M,88.26,VVTS 271500Z 15008KT 9999 FEW017 28/23 Q1009 NOSIG,M
VVTS,3/27/2021 15:30,106.6667,10.8167,82.4,75.2,78.9,150,8,0,29.8,M,6.21,M,FEW,M,M,M,2000,M,M,M,M,M,M,M,M,M,M,89.48,VVTS 271530Z 15008KT 9999 FEW020 28/24 Q1009 NOSIG,M
VVTS,3/27/2021 16:00,106.6667,10.8167,82.4,75.2,78.9,140,7,0,29.8,M,6.21,M,FEW,M,M,M,2000,M,M,M,M,M,M,M,M,M,M,89.48,VVTS 271600Z 14007KT 110V170 9999 FEW020 28/24 Q1009 NOSIG,M
VVTS,3/27/2021 16:30,106.6667,10.8167,80.6,75.2,83.66,140,7,0,29.8,M,6.21,M,FEW,M,M,M,2000,M,M,M,M,M,M,M,M,M,M,86.17,VVTS 271630Z 14007KT 110V180 9999 FEW020 27/24 Q1009 NOSIG,M
VVTS,3/27/2021 17:00,106.6667,10.8167,80.6,75.2,83.66,130,7,0,29.8,M,6.21,M,FEW,M,M,M,2000,M,M,M,M,M,M,M,M,M,M,86.17,VVTS 271700Z 13007KT 9999 FEW020 27/24 Q1009 NOSIG,M
VVTS,3/27/2021 17:30,106.6667,10.8167,80.6,75.2,83.66,130,8,0,29.77,M,6.21,M,FEW,SCT,M,M,2000,5000,M,M,M,M,M,M,M,M,M,86.17,VVTS 271730Z 13008KT 100V180 9999 FEW020 SCT050 27/24 Q1008 NOSIG,M
VVTS,3/27/2021 18:00,106.6667,10.8167,80.6,73.4,78.76,130,8,0,29.77,M,6.21,M,FEW,SCT,M,M,2000,5000,M,M,M,M,M,M,M,M,M,85.32,VVTS 271800Z 13008KT 100V160 9999 FEW020 SCT050 27/23 Q1008 NOSIG,M
VVTS,3/27/2021 18:30,106.6667,10.8167,80.6,75.2,83.66,140,7,0,29.77,M,6.21,M,FEW,SCT,M,M,1700,5000,M,M,M,M,M,M,M,M,M,86.17,VVTS 271830Z 14007KT 110V170 9999 FEW017 SCT050 27/24 Q1008 NOSIG,M
VVTS,3/27/2021 19:00,106.6667,10.8167,80.6,75.2,83.66,140,8,0,29.77,M,6.21,M,FEW,SCT,M,M,1700,5000,M,M,M,M,M,M,M,M,M,86.17,VVTS 271900Z 14008KT 110V180 9999 FEW017 SCT050 27/24 Q1008 NOSIG,M
VVTS,3/27/2021 19:30,106.6667,10.8167,80.6,75.2,83.66,130,9,0,29.74,M,6.21,M,FEW,SCT,M,M,1700,5000,M,M,M,M,M,M,M,M,M,86.17,VVTS 271930Z 13009KT 9999 FEW017 SCT050 27/24 Q1007 NOSIG,M
VVTS,3/27/2021 20:00,106.6667,10.8167,80.6,75.2,83.66,120,8,0,29.74,M,6.21,M,FEW,SCT,M,M,1700,5000,M,M,M,M,M,M,M,M,M,86.17,VVTS 272000Z 12008KT 090V160 9999 FEW017 SCT050 27/24 Q1007 NOSIG,M
VVTS,3/27/2021 20:30,106.6667,10.8167,80.6,75.2,83.66,130,7,0,29.74,M,6.21,M,FEW,SCT,M,M,1700,5000,M,M,M,M,M,M,M,M,M,86.17,VVTS 272030Z 13007KT 110V170 9999 FEW017 SCT050 27/24 Q1007 NOSIG,M
VVTS,3/27/2021 21:00,106.6667,10.8167,78.8,73.4,83.55,120,8,0,29.74,M,6.21,M,FEW,SCT,M,M,1700,5000,M,M,M,M,M,M,M,M,M,78.8,VVTS 272100Z 12008KT 080V150 9999 FEW017 SCT050 26/23 Q1007 NOSIG,M
VVTS,3/27/2021 21:30,106.6667,10.8167,78.8,73.4,83.55,130,8,0,29.77,M,6.21,M,FEW,SCT,M,M,1700,5000,M,M,M,M,M,M,M,M,M,78.8,VVTS 272130Z 13008KT 9999 FEW017 SCT050 26/23 Q1008 NOSIG,M
VVTS,3/27/2021 22:00,106.6667,10.8167,78.8,73.4,83.55,130,7,0,29.77,M,6.21,M,FEW,SCT,M,M,1700,5000,M,M,M,M,M,M,M,M,M,78.8,VVTS 272200Z 13007KT 9999 FEW017 SCT050 26/23 Q1008 NOSIG,M
VVTS,3/27/2021 22:30,106.6667,10.8167,78.8,75.2,88.75,130,7,0,29.77,M,6.21,M,FEW,SCT,M,M,1700,5000,M,M,M,M,M,M,M,M,M,78.8,VVTS 272230Z 13007KT 9999 FEW017 SCT050 26/24 Q1008 NOSIG,M
VVTS,3/27/2021 23:00,106.6667,10.8167,78.8,75.2,88.75,130,5,0,29.8,M,6.21,M,FEW,SCT,M,M,1700,5000,M,M,M,M,M,M,M,M,M,78.8,VVTS 272300Z 13005KT 080V150 9999 FEW017 SCT050 26/24 Q1009 NOSIG,M
VVTS,3/27/2021 23:30,106.6667,10.8167,80.6,73.4,78.76,130,8,0,29.8,M,6.21,M,FEW,M,M,M,1700,M,M,M,M,M,M,M,M,M,M,85.32,VVTS 272330Z 13008KT 9999 FEW017 27/23 Q1009 NOSIG,M
VVTS,3/28/2021 0:00,106.6667,10.8167,80.6,73.4,78.76,130,7,0,29.8,M,6.21,M,FEW,M,M,M,1700,M,M,M,M,M,M,M,M,M,M,85.32,VVTS 280000Z 13007KT 110V190 9999 FEW017 27/23 Q1009 NOSIG,M
VVTS,3/28/2021 0:30,106.6667,10.8167,82.4,75.2,78.9,140,9,0,29.83,M,6.21,M,SCT,M,M,M,1700,M,M,M,M,M,M,M,M,M,M,89.48,VVTS 280030Z 14009KT 9999 SCT017 28/24 Q1010 NOSIG,M
VVTS,3/28/2021 1:00,106.6667,10.8167,82.4,73.4,74.28,130,8,0,29.85,M,6.21,M,SCT,M,M,M,1700,M,M,M,M,M,M,M,M,M,M,88.26,VVTS 280100Z 13008KT 090V170 9999 SCT017 28/23 Q1011 NOSIG,M
VVTS,3/28/2021 1:30,106.6667,10.8167,84.2,73.4,70.08,130,7,0,29.85,M,6.21,M,BKN,M,M,M,1700,M,M,M,M,M,M,M,M,M,M,90.94,VVTS 280130Z 13007KT 080V160 9999 BKN017 29/23 Q1011 NOSIG,M
VVTS,3/28/2021 2:00,106.6667,10.8167,86,73.4,66.15,130,6,0,29.85,M,6.21,M,BKN,M,M,M,1700,M,M,M,M,M,M,M,M,M,M,93.45,VVTS 280200Z 13006KT 100V180 9999 BKN017 30/23 Q1011 NOSIG,M
VVTS,3/28/2021 2:30,106.6667,10.8167,86,73.4,66.15,160,5,0,29.85,M,6.21,M,SCT,M,M,M,1700,M,M,M,M,M,M,M,M,M,M,93.45,VVTS 280230Z 16005KT 110V210 9999 SCT017 30/23 Q1011 NOSIG,M
VVTS,3/28/2021 3:00,106.6667,10.8167,87.8,71.6,58.78,M,3,0,29.83,M,6.21,M,SCT,M,M,M,1700,M,M,M,M,M,M,M,M,M,M,94.18,VVTS 280300Z VRB03KT 9999 SCT017 31/22 Q1010 NOSIG,M
VVTS,3/28/2021 3:30,106.6667,10.8167,89.6,69.8,52.23,M,3,0,29.83,M,6.21,M,SCT,M,M,M,1700,M,M,M,M,M,M,M,M,M,M,94.85,VVTS 280330Z VRB03KT 9999 SCT017 32/21 Q1010 NOSIG,M
VVTS,3/28/2021 4:00,106.6667,10.8167,93.2,69.8,46.67,120,5,0,29.83,M,6.21,M,SCT,M,M,M,1700,M,M,M,M,M,M,M,M,M,M,99.17,VVTS 280400Z 12005KT 050V210 9999 SCT017 34/21 Q1010 NOSIG,M
VVTS,3/28/2021 4:30,106.6667,10.8167,91.4,68,46.41,M,3,0,29.8,M,6.21,M,SCT,M,M,M,1700,M,M,M,M,M,M,M,M,M,M,95.55,VVTS 280430Z VRB03KT 9999 SCT017 33/20 Q1009 NOSIG,M
VVTS,3/28/2021 5:00,106.6667,10.8167,95,66.2,39,M,4,0,29.8,M,6.21,M,SCT,M,M,M,1700,M,M,M,M,M,M,M,M,M,M,98.46,VVTS 280500Z VRB04KT 9999 SCT017 35/19 Q1009 NOSIG,M
VVTS,3/28/2021 5:30,106.6667,10.8167,95,66.2,39,M,2,0,29.77,M,6.21,M,SCT,M,M,M,1700,M,M,M,M,M,M,M,M,M,M,98.46,VVTS 280530Z VRB02KT 9999 SCT017 35/19 Q1008 NOSIG,M
VVTS,3/28/2021 6:00,106.6667,10.8167,95,68,41.5,M,2,0,29.74,M,6.21,M,SCT,M,M,M,1700,M,M,M,M,M,M,M,M,M,M,99.82,VVTS 280600Z VRB02KT 9999 SCT017 35/20 Q1007 NOSIG,M
VVTS,3/28/2021 6:30,106.6667,10.8167,96.8,66.2,36.9,M,4,0,29.74,M,6.21,M,SCT,M,M,M,2000,M,M,M,M,M,M,M,M,M,M,100.6,VVTS 280630Z VRB04KT 9999 SCT020 36/19 Q1007 NOSIG,M
VVTS,3/28/2021 7:00,106.6667,10.8167,95,66.2,39,M,3,0,29.71,M,6.21,M,BKN,M,M,M,2000,M,M,M,M,M,M,M,M,M,M,98.46,VVTS 280700Z VRB03KT 9999 BKN020 35/19 Q1006 NOSIG,M
VVTS,3/28/2021 7:30,106.6667,10.8167,95,69.8,44.14,M,4,0,29.71,M,6.21,M,BKN,M,M,M,2000,M,M,M,M,M,M,M,M,M,M,101.37,VVTS 280730Z VRB04KT 9999 BKN020 35/21 Q1006 NOSIG,M
VVTS,3/28/2021 8:00,106.6667,10.8167,96.8,68,39.27,200,4,0,29.68,M,6.21,M,BKN,M,M,M,2000,M,M,M,M,M,M,M,M,M,M,102.01,VVTS 280800Z 20004KT 100V240 9999 BKN020 36/20 Q1005 NOSIG,M
VVTS,3/28/2021 8:30,106.6667,10.8167,95,69.8,44.14,190,7,0,29.68,M,6.21,M,SCT,M,M,M,2000,M,M,M,M,M,M,M,M,M,M,101.37,VVTS 280830Z 19007KT 140V250 9999 SCT020 35/21 Q1005 NOSIG,M
VVTS,3/28/2021 9:00,106.6667,10.8167,93.2,71.6,49.62,190,11,0,29.68,M,6.21,M,SCT,M,M,M,2000,M,M,M,M,M,M,M,M,M,M,100.88,VVTS 280900Z 19011KT 140V210 9999 SCT020 34/22 Q1005 NOSIG,M
VVTS,3/28/2021 9:30,106.6667,10.8167,91.4,69.8,49.36,170,11,0,29.68,M,6.21,M,SCT,M,M,M,2000,M,M,M,M,M,M,M,M,M,M,96.99,VVTS 280930Z 17011KT 9999 SCT020 33/21 Q1005 NOSIG,M
VVTS,3/28/2021 10:00,106.6667,10.8167,89.6,69.8,52.23,170,11,0,29.68,M,6.21,M,FEW,M,M,M,2000,M,M,M,M,M,M,M,M,M,M,94.85,VVTS 281000Z 17011KT 140V200 9999 FEW020 32/21 Q1005 NOSIG,M
VVTS,3/28/2021 10:30,106.6667,10.8167,87.8,69.8,55.29,160,8,0,29.68,M,6.21,M,FEW,M,M,M,2000,M,M,M,M,M,M,M,M,M,M,92.71,VVTS 281030Z 16008KT 130V200 9999 FEW020 31/21 Q1005 NOSIG,M
VVTS,3/28/2021 11:00,106.6667,10.8167,86,68,55.04,150,9,0,29.68,M,6.21,M,FEW,M,M,M,2000,M,M,M,M,M,M,M,M,M,M,89.41,VVTS 281100Z 15009KT 9999 FEW020 30/20 Q1005 NOSIG,M
VVTS,3/28/2021 11:30,106.6667,10.8167,86,69.8,58.55,160,7,0,29.71,M,6.21,M,FEW,M,M,M,2000,M,M,M,M,M,M,M,M,M,M,90.58,VVTS 281130Z 16007KT 120V190 9999 FEW020 30/21 Q1006 NOSIG,M
VVTS,3/28/2021 12:00,106.6667,10.8167,84.2,69.8,62.03,170,7,0,29.71,M,6.21,M,FEW,M,M,M,2000,M,M,M,M,M,M,M,M,M,M,88.43,VVTS 281200Z 17007KT 140V200 9999 FEW020 29/21 Q1006 NOSIG,M
VVTS,3/28/2021 12:30,106.6667,10.8167,84.2,73.4,70.08,170,11,0,29.74,M,6.21,M,FEW,M,M,M,1700,M,M,M,M,M,M,M,M,M,M,90.94,VVTS 281230Z 17011KT 9999 FEW017 29/23 Q1007 NOSIG,M
VVTS,3/28/2021 13:00,106.6667,10.8167,82.4,73.4,74.28,160,9,0,29.74,M,6.21,M,FEW,M,M,M,1700,M,M,M,M,M,M,M,M,M,M,88.26,VVTS 281300Z 16009KT 130V190 9999 FEW017 28/23 Q1007 NOSIG,M
VVTS,3/28/2021 13:30,106.6667,10.8167,82.4,75.2,78.9,150,8,0,29.77,M,6.21,M,FEW,M,M,M,1700,M,M,M,M,M,M,M,M,M,M,89.48,VVTS 281330Z 15008KT 120V180 9999 FEW017 28/24 Q1008 NOSIG,M
VVTS,3/28/2021 14:00,106.6667,10.8167,82.4,75.2,78.9,140,8,0,29.77,M,6.21,M,FEW,M,M,M,1700,M,M,M,M,M,M,M,M,M,M,89.48,VVTS 281400Z 14008KT 110V170 9999 FEW017 28/24 Q1008 NOSIG,M
VVTS,3/28/2021 14:30,106.6667,10.8167,82.4,75.2,78.9,150,11,0,29.77,M,6.21,M,FEW,M,M,M,1700,M,M,M,M,M,M,M,M,M,M,89.48,VVTS 281430Z 15011KT 9999 FEW017 28/24 Q1008 NOSIG,M
VVTS,3/28/2021 15:00,106.6667,10.8167,82.4,75.2,78.9,130,11,0,29.8,M,6.21,M,FEW,M,M,M,1700,M,M,M,M,M,M,M,M,M,M,89.48,VVTS 281500Z 13011KT 100V160 9999 FEW017 28/24 Q1009 NOSIG,M
VVTS,3/28/2021 15:30,106.6667,10.8167,80.6,75.2,83.66,140,12,0,29.8,M,6.21,M,SCT,M,M,M,1700,M,M,M,M,M,M,M,M,M,M,86.17,VVTS 281530Z 14012KT 9999 SCT017 27/24 Q1009 NOSIG,M
VVTS,3/28/2021 16:00,106.6667,10.8167,82.4,75.2,78.9,150,8,0,29.8,M,6.21,M,SCT,M,M,M,1700,M,M,M,M,M,M,M,M,M,M,89.48,VVTS 281600Z 15008KT 120V180 9999 SCT017 28/24 Q1009 NOSIG,M
VVTS,3/28/2021 16:30,106.6667,10.8167,82.4,75.2,78.9,140,8,0,29.8,M,6.21,M,SCT,M,M,M,1700,M,M,M,M,M,M,M,M,M,M,89.48,VVTS 281630Z 14008KT 110V170 9999 SCT017 28/24 Q1009 NOSIG,M
VVTS,3/28/2021 17:00,106.6667,10.8167,80.6,75.2,83.66,150,8,0,29.8,M,6.21,M,SCT,M,M,M,1700,M,M,M,M,M,M,M,M,M,M,86.17,VVTS 281700Z 15008KT 130V190 9999 SCT017 27/24 Q1009 NOSIG,M
VVTS,3/28/2021 17:30,106.6667,10.8167,80.6,75.2,83.66,160,7,0,29.8,M,6.21,M,SCT,M,M,M,1700,M,M,M,M,M,M,M,M,M,M,86.17,VVTS 281730Z 16007KT 130V200 9999 SCT017 27/24 Q1009 NOSIG,M
VVTS,3/28/2021 18:00,106.6667,10.8167,80.6,75.2,83.66,150,8,0,29.77,M,6.21,M,SCT,M,M,M,1700,M,M,M,M,M,M,M,M,M,M,86.17,VVTS 281800Z 15008KT 130V190 9999 SCT017 27/24 Q1008 NOSIG,M
VVTS,3/28/2021 18:30,106.6667,10.8167,80.6,75.2,83.66,150,7,0,29.77,M,6.21,M,FEW,SCT,M,M,1700,5000,M,M,M,M,M,M,M,M,M,86.17,VVTS 281830Z 15007KT 130V190 9999 FEW017 SCT050 27/24 Q1008 NOSIG,M
VVTS,3/28/2021 19:00,106.6667,10.8167,80.6,75.2,83.66,150,8,0,29.77,M,6.21,M,SCT,SCT,M,M,1700,5000,M,M,M,M,M,M,M,M,M,86.17,VVTS 281900Z 15008KT 120V180 9999 SCT017 SCT050 27/24 Q1008 NOSIG,M
VVTS,3/28/2021 19:30,106.6667,10.8167,80.6,75.2,83.66,150,4,0,29.77,M,6.21,M,SCT,SCT,M,M,1700,5000,M,M,M,M,M,M,M,M,M,86.17,VVTS 281930Z 15004KT 120V190 9999 SCT017 SCT050 27/24 Q1008 NOSIG,M
VVTS,3/28/2021 20:00,106.6667,10.8167,80.6,75.2,83.66,160,4,0,29.77,M,6.21,M,SCT,SCT,M,M,1700,5000,M,M,M,M,M,M,M,M,M,86.17,VVTS 282000Z 16004KT 130V210 9999 SCT017 SCT050 27/24 Q1008 NOSIG,M
VVTS,3/28/2021 20:30,106.6667,10.8167,80.6,75.2,83.66,160,6,0,29.77,M,6.21,M,SCT,SCT,M,M,1700,5000,M,M,M,M,M,M,M,M,M,86.17,VVTS 282030Z 16006KT 130V200 9999 SCT017 SCT050 27/24 Q1008 NOSIG,M
VVTS,3/28/2021 21:00,106.6667,10.8167,80.6,75.2,83.66,150,6,0,29.77,M,6.21,M,SCT,SCT,M,M,1700,5000,M,M,M,M,M,M,M,M,M,86.17,VVTS 282100Z 15006KT 120V200 9999 SCT017 SCT050 27/24 Q1008 NOSIG,M
VVTS,3/28/2021 21:30,106.6667,10.8167,80.6,75.2,83.66,120,7,0,29.77,M,6.21,M,SCT,SCT,M,M,1500,5000,M,M,M,M,M,M,M,M,M,86.17,VVTS 282130Z 12007KT 9999 SCT015 SCT050 27/24 Q1008 NOSIG,M
VVTS,3/28/2021 22:00,106.6667,10.8167,80.6,75.2,83.66,120,6,0,29.77,M,6.21,M,SCT,SCT,M,M,1500,5000,M,M,M,M,M,M,M,M,M,86.17,VVTS 282200Z 12006KT 9999 SCT015 SCT050 27/24 Q1008 NOSIG,M
VVTS,3/28/2021 22:30,106.6667,10.8167,80.6,75.2,83.66,140,8,0,29.77,M,6.21,M,SCT,SCT,M,M,1500,5000,M,M,M,M,M,M,M,M,M,86.17,VVTS 282230Z 14008KT 9999 SCT015 SCT050 27/24 Q1008 NOSIG,M
VVTS,3/28/2021 23:00,106.6667,10.8167,80.6,75.2,83.66,130,5,0,29.77,M,6.21,M,BKN,M,M,M,1700,M,M,M,M,M,M,M,M,M,M,86.17,VVTS 282300Z 13005KT 090V150 9999 BKN017 27/24 Q1008 NOSIG,M
VVTS,3/28/2021 23:30,106.6667,10.8167,80.6,75.2,83.66,130,4,0,29.8,M,6.21,M,BKN,M,M,M,1700,M,M,M,M,M,M,M,M,M,M,86.17,VVTS 282330Z 13004KT 100V160 9999 BKN017 27/24 Q1009 NOSIG,M
VVTS,3/29/2021 0:00,106.6667,10.8167,80.6,75.2,83.66,120,4,0,29.8,M,6.21,M,SCT,M,M,M,1700,M,M,M,M,M,M,M,M,M,M,86.17,VVTS 290000Z 12004KT 9999 SCT017 27/24 Q1009 NOSIG,M
VVTS,3/29/2021 0:30,106.6667,10.8167,82.4,75.2,78.9,M,3,0,29.8,M,6.21,M,SCT,M,M,M,1700,M,M,M,M,M,M,M,M,M,M,89.48,VVTS 290030Z VRB03KT 9999 SCT017 28/24 Q1009 NOSIG,M
VVTS,3/29/2021 1:00,106.6667,10.8167,82.4,75.2,78.9,M,3,0,29.83,M,6.21,M,SCT,M,M,M,1700,M,M,M,M,M,M,M,M,M,M,89.48,VVTS 290100Z VRB03KT 9999 SCT017 28/24 Q1010 NOSIG,M
VVTS,3/29/2021 1:30,106.6667,10.8167,84.2,73.4,70.08,130,6,0,29.83,M,6.21,M,SCT,M,M,M,1700,M,M,M,M,M,M,M,M,M,M,90.94,VVTS 290130Z 13006KT 110V170 9999 SCT017 29/23 Q1010 NOSIG,M
VVTS,3/29/2021 2:00,106.6667,10.8167,84.2,73.4,70.08,140,4,0,29.83,M,6.21,M,BKN,M,M,M,1700,M,M,M,M,M,M,M,M,M,M,90.94,VVTS 290200Z 14004KT 040V200 9999 BKN017 29/23 Q1010 NOSIG,M
VVTS,3/29/2021 2:30,106.6667,10.8167,86,73.4,66.15,140,3,0,29.83,M,6.21,M,BKN,M,M,M,1700,M,M,M,M,M,M,M,M,M,M,93.45,VVTS 290230Z 14003KT 9999 BKN017 30/23 Q1010 NOSIG,M
VVTS,3/29/2021 3:00,106.6667,10.8167,87.8,73.4,62.47,M,4,0,29.83,M,6.21,M,BKN,M,M,M,1700,M,M,M,M,M,M,M,M,M,M,95.86,VVTS 290300Z VRB04KT 9999 BKN017 31/23 Q1010 NOSIG,M
VVTS,3/29/2021 3:30,106.6667,10.8167,87.8,73.4,62.47,M,3,0,29.83,M,6.21,M,BKN,M,M,M,1700,M,M,M,M,M,M,M,M,M,M,95.86,VVTS 290330Z VRB03KT 9999 BKN017 31/23 Q1010 NOSIG,M
VVTS,3/29/2021 4:00,106.6667,10.8167,91.4,71.6,52.48,M,2,0,29.8,M,6.21,M,BKN,M,M,M,1700,M,M,M,M,M,M,M,M,M,M,98.64,VVTS 290400Z VRB02KT 9999 BKN017 33/22 Q1009 NOSIG,M
VVTS,3/29/2021 4:30,106.6667,10.8167,89.6,71.6,55.53,260,5,0,29.8,M,6.21,M,BKN,M,M,M,1700,M,M,M,M,M,M,M,M,M,M,96.41,VVTS 290430Z 26005KT 220V300 9999 BKN017 32/22 Q1009 NOSIG,M
VVTS,3/29/2021 5:00,106.6667,10.8167,91.4,69.8,49.36,M,1,0,29.77,M,6.21,M,BKN,M,M,M,1700,M,M,M,M,M,M,M,M,M,M,96.99,VVTS 290500Z VRB01KT 9999 BKN017 33/21 Q1008 NOSIG,M
VVTS,3/29/2021 5:30,106.6667,10.8167,93.2,69.8,46.67,140,4,0,29.77,M,6.21,M,BKN,M,M,M,1700,M,M,M,M,M,M,M,M,M,M,99.17,VVTS 290530Z 14004KT 070V220 9999 BKN017 34/21 Q1008 NOSIG,M
VVTS,3/29/2021 6:00,106.6667,10.8167,93.2,68,43.88,M,2,0,29.74,M,6.21,M,BKN,M,M,M,1700,M,M,M,M,M,M,M,M,M,M,97.67,VVTS 290600Z VRB02KT 9999 BKN017 34/20 Q1007 NOSIG,M
VVTS,3/29/2021 6:30,106.6667,10.8167,95,68,41.5,M,2,0,29.74,M,6.21,M,BKN,M,M,M,1700,M,M,M,M,M,M,M,M,M,M,99.82,VVTS 290630Z VRB02KT 9999 BKN017 35/20 Q1007 NOSIG,M
VVTS,3/29/2021 7:00,106.6667,10.8167,95,69.8,44.14,220,4,0,29.71,M,6.21,M,BKN,M,M,M,1700,M,M,M,M,M,M,M,M,M,M,101.37,VVTS 290700Z 22004KT 170V270 9999 BKN017 35/21 Q1006 NOSIG,M
VVTS,3/29/2021 7:30,106.6667,10.8167,93.2,69.8,46.67,140,4,0,29.71,M,6.21,M,BKN,M,M,M,1700,M,M,M,M,M,M,M,M,M,M,99.17,VVTS 290730Z 14004KT 100V220 9999 BKN017 34/21 Q1006 NOSIG,M
VVTS,3/29/2021 8:00,106.6667,10.8167,93.2,69.8,46.67,M,3,0,29.68,M,6.21,M,BKN,M,M,M,1700,M,M,M,M,M,M,M,M,M,M,99.17,VVTS 290800Z VRB03KT 9999 BKN017 34/21 Q1005 NOSIG,M
VVTS,3/29/2021 8:30,106.6667,10.8167,95,69.8,44.14,200,5,0,29.65,M,6.21,M,BKN,M,M,M,1700,M,M,M,M,M,M,M,M,M,M,101.37,VVTS 290830Z 20005KT 140V250 9999 BKN017 35/21 Q1004 NOSIG,M
VVTS,3/29/2021 9:00,106.6667,10.8167,93.2,69.8,46.67,230,4,0,29.65,M,6.21,M,SCT,M,M,M,1700,M,M,M,M,M,M,M,M,M,M,99.17,VVTS 290900Z 23004KT 160V270 9999 SCT017 34/21 Q1004 NOSIG,M
VVTS,3/29/2021 9:30,106.6667,10.8167,93.2,69.8,46.67,210,6,0,29.65,M,6.21,M,SCT,M,M,M,1700,M,M,M,M,M,M,M,M,M,M,99.17,VVTS 290930Z 21006KT 170V250 9999 SCT017 34/21 Q1004 NOSIG,M
VVTS,3/29/2021 10:00,106.6667,10.8167,91.4,69.8,49.36,170,7,0,29.65,M,6.21,M,SCT,M,M,M,1700,M,M,M,M,M,M,M,M,M,M,96.99,VVTS 291000Z 17007KT 140V210 9999 SCT017 33/21 Q1004 NOSIG,M
VVTS,3/29/2021 10:30,106.6667,10.8167,89.6,71.6,55.53,170,9,0,29.65,M,6.21,M,SCT,M,M,M,1700,M,M,M,M,M,M,M,M,M,M,96.41,VVTS 291030Z 17009KT 140V210 9999 SCT017 32/22 Q1004 NOSIG,M
VVTS,3/29/2021 11:00,106.6667,10.8167,87.8,71.6,58.78,170,8,0,29.65,M,6.21,M,SCT,M,M,M,1700,M,M,M,M,M,M,M,M,M,M,94.18,VVTS 291100Z 17008KT 140V200 9999 SCT017 31/22 Q1004 NOSIG,M
VVTS,3/29/2021 11:30,106.6667,10.8167,86,71.6,62.25,180,9,0,29.65,M,6.21,M,SCT,M,M,M,2000,M,M,M,M,M,M,M,M,M,M,91.92,VVTS 291130Z 18009KT 9999 SCT020 30/22 Q1004 NOSIG,M
VVTS,3/29/2021 12:00,106.6667,10.8167,86,71.6,62.25,180,8,0,29.68,M,6.21,M,SCT,M,M,M,2000,M,M,M,M,M,M,M,M,M,M,91.92,VVTS 291200Z 18008KT 150V210 9999 SCT020 30/22 Q1005 NOSIG,M
VVTS,3/29/2021 12:30,106.6667,10.8167,84.2,71.6,65.95,180,8,0,29.68,M,6.21,M,FEW,M,M,M,2000,M,M,M,M,M,M,M,M,M,M,89.6,VVTS 291230Z 18008KT 9999 FEW020 29/22 Q1005 NOSIG,M
VVTS,3/29/2021 13:00,106.6667,10.8167,84.2,73.4,70.08,140,8,0,29.68,M,6.21,M,FEW,M,M,M,2000,M,M,M,M,M,M,M,M,M,M,90.94,VVTS 291300Z 14008KT 120V180 9999 FEW020 29/23 Q1005 NOSIG,M
VVTS,3/29/2021 13:30,106.6667,10.8167,82.4,75.2,78.9,160,8,0,29.71,M,6.21,M,FEW,M,M,M,2000,M,M,M,M,M,M,M,M,M,M,89.48,VVTS 291330Z 16008KT 9999 FEW020 28/24 Q1006 NOSIG,M
VVTS,3/29/2021 14:00,106.6667,10.8167,82.4,75.2,78.9,160,7,0,29.71,M,6.21,M,M,M,M,M,M,M,M,M,M,M,M,M,M,M,M,89.48,VVTS 291400Z 16007KT 130V190 CAVOK 28/24 Q1006 NOSIG,M
VVTS,3/29/2021 14:30,106.6667,10.8167,82.4,75.2,78.9,160,8,0,29.74,M,6.21,M,M,M,M,M,M,M,M,M,M,M,M,M,M,M,M,89.48,VVTS 291430Z 16008KT 130V210 CAVOK 28/24 Q1007 NOSIG,M
VVTS,3/29/2021 15:00,106.6667,10.8167,82.4,75.2,78.9,170,9,0,29.74,M,6.21,M,M,M,M,M,M,M,M,M,M,M,M,M,M,M,M,89.48,VVTS 291500Z 17009KT CAVOK 28/24 Q1007 NOSIG,M
VVTS,3/29/2021 15:30,106.6667,10.8167,82.4,75.2,78.9,160,8,0,29.74,M,6.21,M,FEW,M,M,M,2000,M,M,M,M,M,M,M,M,M,M,89.48,VVTS 291530Z 16008KT 130V200 9999 FEW020 28/24 Q1007 NOSIG,M
VVTS,3/29/2021 16:00,106.6667,10.8167,80.6,77,88.83,160,7,0,29.74,M,6.21,M,FEW,M,M,M,2000,M,M,M,M,M,M,M,M,M,M,87.59,VVTS 291600Z 16007KT 130V190 9999 FEW020 27/25 Q1007 NOSIG,M
VVTS,3/29/2021 16:30,106.6667,10.8167,80.6,77,88.83,150,10,0,29.74,M,6.21,M,SCT,M,M,M,2000,M,M,M,M,M,M,M,M,M,M,87.59,VVTS 291630Z 15010KT 9999 SCT020 27/25 Q1007 NOSIG,M
VVTS,3/29/2021 17:00,106.6667,10.8167,80.6,75.2,83.66,170,9,0,29.74,M,6.21,M,SCT,M,M,M,2000,M,M,M,M,M,M,M,M,M,M,86.17,VVTS 291700Z 17009KT 140V200 9999 SCT020 27/24 Q1007 NOSIG,M
VVTS,3/29/2021 17:30,106.6667,10.8167,80.6,75.2,83.66,170,8,0,29.74,M,6.21,M,SCT,M,M,M,2000,M,M,M,M,M,M,M,M,M,M,86.17,VVTS 291730Z 17008KT 140V200 9999 SCT020 27/24 Q1007 NOSIG,M
VVTS,3/29/2021 18:00,106.6667,10.8167,80.6,77,88.83,180,7,0,29.74,M,6.21,M,SCT,M,M,M,2000,M,M,M,M,M,M,M,M,M,M,87.59,VVTS 291800Z 18007KT 150V220 9999 R25R/900VP2000D SCT020 27/25 Q1007 NOSIG,M
VVTS,3/29/2021 18:30,106.6667,10.8167,80.6,77,88.83,180,8,0,29.74,M,6.21,M,SCT,M,M,M,2000,M,M,M,M,M,M,M,M,M,M,87.59,VVTS 291830Z 18008KT 150V220 9999 SCT020 27/25 Q1007 NOSIG,M
VVTS,3/29/2021 19:00,106.6667,10.8167,80.6,75.2,83.66,180,7,0,29.71,M,6.21,M,SCT,M,M,M,2000,M,M,M,M,M,M,M,M,M,M,86.17,VVTS 291900Z 18007KT 9999 SCT020 27/24 Q1006 NOSIG,M
VVTS,3/29/2021 19:30,106.6667,10.8167,80.6,77,88.83,180,5,0,29.71,M,6.21,M,SCT,M,M,M,1600,M,M,M,M,M,M,M,M,M,M,87.59,VVTS 291930Z 18005KT 140V220 9999 SCT016 27/25 Q1006 NOSIG,M
VVTS,3/29/2021 20:00,106.6667,10.8167,80.6,75.2,83.66,190,7,0,29.71,M,6.21,M,SCT,BKN,M,M,3000,5200,M,M,M,M,M,M,M,M,M,86.17,VVTS 292000Z 19007KT 9999 SCT030 BKN052 27/24 Q1006 NOSIG,M
VVTS,3/29/2021 20:30,106.6667,10.8167,80.6,75.2,83.66,200,7,0,29.71,M,6.21,M,SCT,M,M,M,2000,M,M,M,M,M,M,M,M,M,M,86.17,VVTS 292030Z 20007KT 9999 SCT020 27/24 Q1006 NOSIG,M
VVTS,3/29/2021 21:00,106.6667,10.8167,80.6,75.2,83.66,190,5,0,29.74,M,6.21,M,SCT,M,M,M,2000,M,M,M,M,M,M,M,M,M,M,86.17,VVTS 292100Z 19005KT 150V210 9999 SCT020 27/24 Q1007 NOSIG,M
VVTS,3/29/2021 21:30,106.6667,10.8167,80.6,75.2,83.66,200,7,0,29.74,M,6.21,M,SCT,M,M,M,2000,M,M,M,M,M,M,M,M,M,M,86.17,VVTS 292130Z 20007KT 9999 SCT020 27/24 Q1007 NOSIG,M
VVTS,3/29/2021 22:00,106.6667,10.8167,80.6,75.2,83.66,200,6,0,29.74,M,6.21,M,SCT,M,M,M,2000,M,M,M,M,M,M,M,M,M,M,86.17,VVTS 292200Z 20006KT 170V230 9999 SCT020 27/24 Q1007 NOSIG,M
VVTS,3/29/2021 22:30,106.6667,10.8167,80.6,75.2,83.66,220,4,0,29.74,M,6.21,M,FEW,M,M,M,2000,M,M,M,M,M,M,M,M,M,M,86.17,VVTS 292230Z 22004KT 9999 FEW020 27/24 Q1007 NOSIG,M
VVTS,3/29/2021 23:00,106.6667,10.8167,80.6,75.2,83.66,210,5,0,29.74,M,6.21,M,BKN,M,M,M,1700,M,M,M,M,M,M,M,M,M,M,86.17,VVTS 292300Z 21005KT 9999 BKN017 27/24 Q1007 NOSIG,M
VVTS,3/29/2021 23:30,106.6667,10.8167,80.6,75.2,83.66,210,5,0,29.77,M,6.21,M,BKN,M,M,M,1700,M,M,M,M,M,M,M,M,M,M,86.17,VVTS 292330Z 21005KT 9999 BKN017 27/24 Q1008 NOSIG,M
VVTS,3/30/2021 0:00,106.6667,10.8167,82.4,75.2,78.9,180,4,0,29.77,M,6.21,M,SCT,SCT,M,M,1700,5000,M,M,M,M,M,M,M,M,M,89.48,VVTS 300000Z 18004KT 140V210 9999 SCT017 SCT050 28/24 Q1008 NOSIG,M
VVTS,3/30/2021 0:30,106.6667,10.8167,82.4,75.2,78.9,220,5,0,29.77,M,6.21,M,SCT,SCT,M,M,1700,5000,M,M,M,M,M,M,M,M,M,89.48,VVTS 300030Z 22005KT 170V250 9999 SCT017 SCT050 28/24 Q1008 NOSIG,M
VVTS,3/30/2021 1:00,106.6667,10.8167,82.4,75.2,78.9,200,4,0,29.8,M,6.21,M,BKN,M,M,M,1700,M,M,M,M,M,M,M,M,M,M,89.48,VVTS 300100Z 20004KT 140V260 9999 BKN017 28/24 Q1009 NOSIG,M
VVTS,3/30/2021 1:30,106.6667,10.8167,84.2,73.4,70.08,M,3,0,29.8,M,6.21,M,BKN,M,M,M,1700,M,M,M,M,M,M,M,M,M,M,90.94,VVTS 300130Z VRB03KT 9999 BKN017 29/23 Q1009 NOSIG,M
VVTS,3/30/2021 2:00,106.6667,10.8167,84.2,75.2,74.44,190,5,0,29.8,M,6.21,M,BKN,M,M,M,1700,M,M,M,M,M,M,M,M,M,M,92.45,VVTS 300200Z 19005KT 120V230 9999 BKN017 29/24 Q1009 NOSIG,M
VVTS,3/30/2021 2:30,106.6667,10.8167,84.2,75.2,74.44,240,6,0,29.8,M,6.21,M,BKN,M,M,M,1700,M,M,M,M,M,M,M,M,M,M,92.45,VVTS 300230Z 24006KT 190V270 9999 BKN017 29/24 Q1009 NOSIG,M
VVTS,3/30/2021 3:00,106.6667,10.8167,86,75.2,70.27,240,4,0,29.8,M,6.21,M,BKN,M,M,M,1700,M,M,M,M,M,M,M,M,M,M,95.19,VVTS 300300Z 24004KT 200V270 9999 BKN017 30/24 Q1009 NOSIG,M
VVTS,3/30/2021 3:30,106.6667,10.8167,87.8,75.2,66.35,230,4,0,29.8,M,6.21,M,BKN,M,M,M,1700,M,M,M,M,M,M,M,M,M,M,97.76,VVTS 300330Z 23004KT 160V290 9999 BKN017 31/24 Q1009 NOSIG,M
VVTS,3/30/2021 4:00,106.6667,10.8167,87.8,73.4,62.47,M,2,0,29.8,M,6.21,M,BKN,M,M,M,1700,M,M,M,M,M,M,M,M,M,M,95.86,VVTS 300400Z VRB02KT 9999 BKN017 31/23 Q1009 NOSIG,M
VVTS,3/30/2021 4:30,106.6667,10.8167,91.4,73.4,55.77,240,5,0,29.77,M,6.21,M,BKN,M,M,M,1700,M,M,M,M,M,M,M,M,M,M,100.52,VVTS 300430Z 24005KT 200V280 9999 BKN017 33/23 Q1008 NOSIG,M
VVTS,3/30/2021 7:30,106.6667,10.8167,93.2,69.8,46.67,M,2,0,29.65,M,6.21,M,BKN,M,M,M,1700,M,M,M,M,M,M,M,M,M,M,99.17,VVTS 300730Z VRB02KT 9999 BKN017 34/21 Q1004 NOSIG,M
VVTS,3/30/2021 8:00,106.6667,10.8167,96.8,69.8,41.77,150,4,0,29.65,M,6.21,M,BKN,M,M,M,1700,M,M,M,M,M,M,M,M,M,M,103.6,VVTS 300800Z 15004KT 100V210 9999 BKN017 36/21 Q1004 NOSIG,M
VVTS,3/30/2021 8:30,106.6667,10.8167,93.2,69.8,46.67,170,4,0,29.65,M,6.21,M,BKN,M,M,M,1700,M,M,M,M,M,M,M,M,M,M,99.17,VVTS 300830Z 17004KT 120V220 9999 BKN017 34/21 Q1004 NOSIG,M
VVTS,3/30/2021 9:00,106.6667,10.8167,93.2,69.8,46.67,200,7,0,29.62,M,6.21,M,SCT,M,M,M,1700,M,M,M,M,M,M,M,M,M,M,99.17,COR VVTS 300900Z 20007KT 180V240 9999 SCT017 34/21 Q1003 NOSIG,M
VVTS,3/30/2021 9:30,106.6667,10.8167,93.2,71.6,49.62,190,8,0,29.62,M,6.21,M,SCT,M,M,M,1700,M,M,M,M,M,M,M,M,M,M,100.88,VVTS 300930Z 19008KT 150V230 9999 SCT017 34/22 Q1003 NOSIG,M
VVTS,3/30/2021 10:00,106.6667,10.8167,91.4,75.2,59.24,180,8,0,29.62,M,6.21,M,SCT,M,M,M,1700,M,M,M,M,M,M,M,M,M,M,102.65,VVTS 301000Z 18008KT 140V210 9999 SCT017 33/24 Q1003 NOSIG,M
VVTS,3/30/2021 10:30,106.6667,10.8167,89.6,75.2,62.68,170,7,0,29.65,M,6.21,M,FEW,M,M,M,1700,M,M,M,M,M,M,M,M,M,M,100.23,VVTS 301030Z 17007KT 140V210 9999 FEW017 32/24 Q1004 NOSIG,M
VVTS,3/30/2021 11:00,106.6667,10.8167,87.8,75.2,66.35,190,8,0,29.65,M,6.21,M,FEW,M,M,M,1700,M,M,M,M,M,M,M,M,M,M,97.76,VVTS 301100Z 19008KT 9999 FEW017 31/24 Q1004 NOSIG,M
VVTS,3/30/2021 11:30,106.6667,10.8167,86,77,74.61,170,8,0,29.65,M,4.97,M,FEW,M,M,M,1700,M,M,M,M,M,M,M,M,M,M,97.15,VVTS 301130Z 17008KT 8000 FEW017 30/25 Q1004 NOSIG,M
VVTS,3/30/2021 12:00,106.6667,10.8167,84.2,78.8,83.88,170,9,0,29.65,M,6.21,M,FEW,M,M,M,1700,M,M,M,M,M,M,M,M,M,M,96.1,VVTS 301200Z 17009KT 150V210 9999 FEW017 29/26 Q1004 NOSIG,M
VVTS,3/30/2021 12:30,106.6667,10.8167,84.2,78.8,83.88,170,9,0,29.65,M,6.21,M,FEW,M,M,M,1700,M,M,M,M,M,M,M,M,M,M,96.1,VVTS 301230Z 17009KT 9999 FEW017 29/26 Q1004 NOSIG,M
VVTS,3/30/2021 13:00,106.6667,10.8167,84.2,78.8,83.88,170,9,0,29.65,M,6.21,M,FEW,M,M,M,1700,M,M,M,M,M,M,M,M,M,M,96.1,VVTS 301300Z 17009KT 9999 FEW017 29/26 Q1004 NOSIG,M
VVTS,3/30/2021 13:30,106.6667,10.8167,84.2,78.8,83.88,160,7,0,29.68,M,6.21,M,FEW,M,M,M,1700,M,M,M,M,M,M,M,M,M,M,96.1,VVTS 301330Z 16007KT 130V200 9999 FEW017 29/26 Q1005 NOSIG,M
VVTS,3/30/2021 14:00,106.6667,10.8167,84.2,78.8,83.88,170,6,0,29.68,M,6.21,M,FEW,M,M,M,1700,M,M,M,M,M,M,M,M,M,M,96.1,VVTS 301400Z 17006KT 140V210 9999 FEW017 29/26 Q1005 NOSIG,M
VVTS,3/30/2021 14:30,106.6667,10.8167,82.4,77,83.77,170,4,0,29.68,M,6.21,M,FEW,M,M,M,1700,M,M,M,M,M,M,M,M,M,M,90.85,VVTS 301430Z 17004KT 130V210 9999 FEW017 28/25 Q1005 NOSIG,M
VVTS,3/30/2021 15:00,106.6667,10.8167,82.4,77,83.77,190,5,0,29.71,M,6.21,M,FEW,M,M,M,1700,M,M,M,M,M,M,M,M,M,M,90.85,VVTS 301500Z 19005KT 140V210 9999 FEW017 28/25 Q1006 NOSIG,M
VVTS,3/30/2021 15:30,106.6667,10.8167,82.4,77,83.77,190,7,0,29.71,M,6.21,M,FEW,M,M,M,1700,M,M,M,M,M,M,M,M,M,M,90.85,VVTS 301530Z 19007KT 9999 FEW017 28/25 Q1006 NOSIG,M
VVTS,3/30/2021 16:00,106.6667,10.8167,82.4,75.2,78.9,200,7,0,29.71,M,6.21,M,FEW,M,M,M,1700,M,M,M,M,M,M,M,M,M,M,89.48,VVTS 301600Z 20007KT 170V230 9999 FEW017 28/24 Q1006 NOSIG,M
VVTS,3/30/2021 16:30,106.6667,10.8167,82.4,75.2,78.9,180,5,0,29.71,M,6.21,M,FEW,M,M,M,1700,M,M,M,M,M,M,M,M,M,M,89.48,VVTS 301630Z 18005KT 9999 FEW017 28/24 Q1006 NOSIG,M
VVTS,3/30/2021 17:00,106.6667,10.8167,82.4,75.2,78.9,180,6,0,29.71,M,6.21,M,FEW,M,M,M,1700,M,M,M,M,M,M,M,M,M,M,89.48,VVTS 301700Z 18006KT 150V230 9999 FEW017 28/24 Q1006 NOSIG,M
VVTS,3/30/2021 17:30,106.6667,10.8167,82.4,77,83.77,200,7,0,29.71,M,6.21,M,FEW,SCT,M,M,1700,5000,M,M,M,M,M,M,M,M,M,90.85,VVTS 301730Z 20007KT 9999 FEW017 SCT050 28/25 Q1006 NOSIG,M
VVTS,3/30/2021 18:00,106.6667,10.8167,82.4,77,83.77,200,7,0,29.71,M,6.21,M,FEW,SCT,M,M,1700,5000,M,M,M,M,M,M,M,M,M,90.85,VVTS 301800Z 20007KT 170V240 9999 FEW017 SCT050 28/25 Q1006 NOSIG,M
VVTS,3/30/2021 18:30,106.6667,10.8167,82.4,75.2,78.9,200,6,0,29.71,M,6.21,M,FEW,SCT,M,M,1700,5000,M,M,M,M,M,M,M,M,M,89.48,VVTS 301830Z 20006KT 9999 FEW017 SCT050 28/24 Q1006 NOSIG,M
VVTS,3/30/2021 19:00,106.6667,10.8167,82.4,77,83.77,200,6,0,29.71,M,6.21,M,FEW,SCT,M,M,1700,5000,M,M,M,M,M,M,M,M,M,90.85,VVTS 301900Z 20006KT 9999 FEW017 SCT050 28/25 Q1006 NOSIG,M
VVTS,3/30/2021 19:30,106.6667,10.8167,80.6,77,88.83,200,5,0,29.68,M,6.21,M,FEW,SCT,M,M,1700,5000,M,M,M,M,M,M,M,M,M,87.59,VVTS 301930Z 20005KT 170V230 9999 FEW017 SCT050 27/25 Q1005 NOSIG,M
VVTS,3/30/2021 20:00,106.6667,10.8167,80.6,77,88.83,180,6,0,29.68,M,6.21,M,FEW,SCT,M,M,2000,5000,M,M,M,M,M,M,M,M,M,87.59,VVTS 302000Z 18006KT 150V210 9999 FEW020 SCT050 27/25 Q1005 NOSIG,M
VVTS,3/30/2021 20:30,106.6667,10.8167,80.6,77,88.83,180,6,0,29.68,M,6.21,M,FEW,SCT,M,M,2000,5000,M,M,M,M,M,M,M,M,M,87.59,VVTS 302030Z 18006KT 9999 FEW020 SCT050 27/25 Q1005 NOSIG,M
VVTS,3/30/2021 21:00,106.6667,10.8167,80.6,77,88.83,180,4,0,29.71,M,6.21,M,FEW,SCT,M,M,2000,5000,M,M,M,M,M,M,M,M,M,87.59,VVTS 302100Z 18004KT 140V220 9999 FEW020 SCT050 27/25 Q1006 NOSIG,M
VVTS,3/30/2021 21:30,106.6667,10.8167,80.6,77,88.83,180,4,0,29.71,M,6.21,M,FEW,SCT,M,M,2000,5000,M,M,M,M,M,M,M,M,M,87.59,VVTS 302130Z 18004KT 9999 FEW020 SCT050 27/25 Q1006 NOSIG,M
VVTS,3/30/2021 22:00,106.6667,10.8167,80.6,77,88.83,180,6,0,29.71,M,6.21,M,FEW,SCT,M,M,2000,5000,M,M,M,M,M,M,M,M,M,87.59,VVTS 302200Z 18006KT 150V220 9999 FEW020 SCT050 27/25 Q1006 NOSIG,M
VVTS,3/30/2021 22:30,106.6667,10.8167,80.6,77,88.83,180,6,0,29.71,M,6.21,M,FEW,SCT,M,M,2000,5000,M,M,M,M,M,M,M,M,M,87.59,VVTS 302230Z 18006KT 150V210 9999 FEW020 SCT050 27/25 Q1006 NOSIG,M
VVTS,3/30/2021 23:00,106.6667,10.8167,80.6,77,88.83,190,5,0,29.74,M,6.21,M,SCT,BKN,M,M,1700,5000,M,M,M,M,M,M,M,M,M,87.59,VVTS 302300Z 19005KT 170V230 9999 SCT017 BKN050 27/25 Q1007 NOSIG,M
VVTS,3/30/2021 23:30,106.6667,10.8167,80.6,77,88.83,200,7,0,29.74,M,6.21,M,SCT,BKN,M,M,1700,5000,M,M,M,M,M,M,M,M,M,87.59,VVTS 302330Z 20007KT 9999 SCT017 BKN050 27/25 Q1007 NOSIG,M
VVTS,3/31/2021 0:00,106.6667,10.8167,82.4,77,83.77,210,8,0,29.74,M,6.21,M,SCT,SCT,M,M,1700,5000,M,M,M,M,M,M,M,M,M,90.85,VVTS 310000Z 21008KT 9999 SCT017 SCT050 28/25 Q1007 NOSIG,M
VVTS,3/31/2021 0:30,106.6667,10.8167,82.4,77,83.77,200,5,0,29.74,M,6.21,M,BKN,M,M,M,1700,M,M,M,M,M,M,M,M,M,M,90.85,VVTS 310030Z 20005KT 170V230 9999 BKN017 28/25 Q1007 NOSIG,M
VVTS,3/31/2021 1:00,106.6667,10.8167,82.4,77,83.77,220,4,0,29.77,M,6.21,M,BKN,M,M,M,1700,M,M,M,M,M,M,M,M,M,M,90.85,VVTS 310100Z 22004KT 190V270 9999 BKN017 28/25 Q1008 NOSIG,M
VVTS,3/31/2021 1:30,106.6667,10.8167,84.2,77,79.04,230,6,0,29.77,M,6.21,M,BKN,M,M,M,1700,M,M,M,M,M,M,M,M,M,M,94.16,VVTS 310130Z 23006KT 190V250 9999 BKN017 29/25 Q1008 NOSIG,M
VVTS,3/31/2021 2:00,106.6667,10.8167,86,77,74.61,220,4,0,29.77,M,6.21,M,SCT,M,M,M,2000,M,M,M,M,M,M,M,M,M,M,97.15,VVTS 310200Z 22004KT 160V260 9999 SCT020 30/25 Q1008 NOSIG,M
VVTS,3/31/2021 2:30,106.6667,10.8167,87.8,75.2,66.35,210,4,0,29.77,M,6.21,M,SCT,M,M,M,2000,M,M,M,M,M,M,M,M,M,M,97.76,VVTS 310230Z 21004KT 130V250 9999 SCT020 31/24 Q1008 NOSIG,M
VVTS,3/31/2021 3:00,106.6667,10.8167,91.4,75.2,59.24,M,3,0,29.77,M,6.21,M,SCT,M,M,M,2000,M,M,M,M,M,M,M,M,M,M,102.65,VVTS 310300Z VRB03KT 9999 SCT020 33/24 Q1008 NOSIG,M
VVTS,3/31/2021 3:30,106.6667,10.8167,89.6,75.2,62.68,M,3,0,29.77,M,6.21,M,BKN,M,M,M,2000,M,M,M,M,M,M,M,M,M,M,100.23,VVTS 310330Z VRB03KT 9999 BKN020 32/24 Q1008 NOSIG,M
VVTS,3/31/2021 4:00,106.6667,10.8167,93.2,73.4,52.73,M,3,0,29.74,M,6.21,M,BKN,M,M,M,2000,M,M,M,M,M,M,M,M,M,M,102.82,VVTS 310400Z VRB03KT 9999 BKN020 34/23 Q1007 NOSIG,M
VVTS,3/31/2021 4:30,106.6667,10.8167,91.4,71.6,52.48,M,4,0,29.74,M,6.21,M,BKN,M,M,M,2000,M,M,M,M,M,M,M,M,M,M,98.64,VVTS 310430Z VRB04KT 9999 BKN020 33/22 Q1007 NOSIG,M
VVTS,3/31/2021 5:00,106.6667,10.8167,95,71.6,46.93,M,2,0,29.71,M,6.21,M,BKN,M,M,M,2000,M,M,M,M,M,M,M,M,M,M,103.13,VVTS 310500Z VRB02KT 9999 BKN020 35/22 Q1006 NOSIG,M
VVTS,3/31/2021 5:30,106.6667,10.8167,93.2,69.8,46.67,260,4,0,29.68,M,6.21,M,BKN,M,M,M,2000,M,M,M,M,M,M,M,M,M,M,99.17,VVTS 310530Z 26004KT 230V300 9999 BKN020 34/21 Q1005 NOSIG,M
VVTS,3/31/2021 6:00,106.6667,10.8167,95,69.8,44.14,M,1,0,29.68,M,6.21,M,BKN,M,M,M,2000,M,M,M,M,M,M,M,M,M,M,101.37,VVTS 310600Z VRB01KT 9999 BKN020 35/21 Q1005 NOSIG,M
VVTS,3/31/2021 6:30,106.6667,10.8167,96.8,69.8,41.77,M,5,0,29.65,M,4.97,M,BKN,M,M,M,1700,M,M,M,M,M,M,M,M,M,M,103.6,VVTS 310630Z VRB05KT 8000 BKN017 36/21 Q1004 NOSIG,M
VVTS,3/31/2021 7:00,106.6667,10.8167,95,69.8,44.14,M,3,0,29.65,M,4.97,M,BKN,M,M,M,1700,M,M,M,M,M,M,M,M,M,M,101.37,VVTS 310700Z VRB03KT 8000 BKN017 35/21 Q1004 NOSIG,M
VVTS,3/31/2021 7:30,106.6667,10.8167,95,69.8,44.14,230,5,0,29.62,M,4.97,M,BKN,M,M,M,1700,M,M,M,M,M,M,M,M,M,M,101.37,VVTS 310730Z 23005KT 190V280 8000 BKN017 35/21 Q1003 NOSIG,M
VVTS,3/31/2021 8:00,106.6667,10.8167,95,69.8,44.14,M,7,0,29.62,M,4.97,M,BKN,M,M,M,1700,M,M,M,M,M,M,M,M,M,M,101.37,VVTS 310800Z VRB07KT 8000 BKN017 35/21 Q1003 NOSIG,M
VVTS,3/31/2021 8:30,106.6667,10.8167,93.2,71.6,49.62,160,9,0,29.59,M,4.97,M,BKN,M,M,M,1700,M,M,M,M,M,M,M,M,M,M,100.88,VVTS 310830Z 16009KT 130V200 8000 BKN017 34/22 Q1002 NOSIG,M
VVTS,3/31/2021 9:00,106.6667,10.8167,93.2,73.4,52.73,160,8,0,29.59,M,4.97,M,SCT,M,M,M,1700,M,M,M,M,M,M,M,M,M,M,102.82,VVTS 310900Z 16008KT 140V200 8000 SCT017 34/23 Q1002 NOSIG,M
VVTS,3/31/2021 9:30,106.6667,10.8167,93.2,75.2,56.01,180,8,0,29.59,M,6.21,M,SCT,M,M,M,1700,M,M,M,M,M,M,M,M,M,M,105.02,VVTS 310930Z 18008KT 150V220 9999 SCT017 34/24 Q1002 NOSIG,M
VVTS,3/31/2021 10:00,106.6667,10.8167,91.4,77,62.9,190,8,0,29.59,M,6.21,M,SCT,M,M,M,1700,M,M,M,M,M,M,M,M,M,M,105.06,VVTS 311000Z 19008KT 160V220 9999 SCT017 33/25 Q1002 NOSIG,M
VVTS,3/31/2021 10:30,106.6667,10.8167,89.6,77,66.55,170,10,0,29.62,M,6.21,M,FEW,M,M,M,2000,M,M,M,M,M,M,M,M,M,M,102.54,VVTS 311030Z 17010KT 9999 FEW020 32/25 Q1003 NOSIG,M
VVTS,3/31/2021 11:00,106.6667,10.8167,87.8,78.8,74.77,180,10,0,29.62,M,6.21,M,FEW,SCT,M,M,1700,5000,M,M,M,M,M,M,M,M,M,102.37,VVTS 311100Z 18010KT 9999 FEW017 SCT050 31/26 Q1003 NOSIG,M
VVTS,3/31/2021 11:30,106.6667,10.8167,86,78.8,79.18,170,10,0,29.62,M,6.21,M,FEW,SCT,M,M,1700,5000,M,M,M,M,M,M,M,M,M,99.38,VVTS 311130Z 17010KT 140V210 9999 FEW017 SCT050 30/26 Q1003 NOSIG,M
VVTS,3/31/2021 12:00,106.6667,10.8167,86,78.8,79.18,180,9,0,29.62,M,6.21,M,FEW,M,M,M,1700,M,M,M,M,M,M,M,M,M,M,99.38,VVTS 311200Z 18009KT 140V200 9999 FEW017 30/26 Q1003 NOSIG,M
VVTS,3/31/2021 12:30,106.6667,10.8167,86,78.8,79.18,170,8,0,29.62,M,6.21,M,FEW,M,M,M,2000,M,M,M,M,M,M,M,M,M,M,99.38,VVTS 311230Z 17008KT 150V210 9999 FEW020 30/26 Q1003 NOSIG,M
VVTS,3/31/2021 13:00,106.6667,10.8167,84.2,78.8,83.88,160,9,0,29.65,M,6.21,M,FEW,M,M,M,2000,M,M,M,M,M,M,M,M,M,M,96.1,VVTS 311300Z 16009KT 130V200 9999 FEW020 29/26 Q1004 NOSIG,M
VVTS,3/31/2021 13:30,106.6667,10.8167,84.2,78.8,83.88,170,8,0,29.65,M,6.21,M,FEW,M,M,M,2000,M,M,M,M,M,M,M,M,M,M,96.1,VVTS 311330Z 17008KT 140V200 9999 FEW020 29/26 Q1004 NOSIG,M
VVTS,3/31/2021 14:00,106.6667,10.8167,84.2,78.8,83.88,150,6,0,29.68,M,6.21,M,FEW,M,M,M,2000,M,M,M,M,M,M,M,M,M,M,96.1,VVTS 311400Z 15006KT 130V190 9999 FEW020 29/26 Q1005 NOSIG,M
VVTS,3/31/2021 14:30,106.6667,10.8167,84.2,77,79.04,180,8,0,29.68,M,6.21,M,SCT,M,M,M,2000,M,M,M,M,M,M,M,M,M,M,94.16,VVTS 311430Z 18008KT 9999 SCT020 29/25 Q1005 NOSIG,M
VVTS,3/31/2021 15:00,106.6667,10.8167,84.2,77,79.04,180,8,0,29.71,M,6.21,M,SCT,M,M,M,2000,M,M,M,M,M,M,M,M,M,M,94.16,VVTS 311500Z 18008KT 140V200 9999 SCT020 29/25 Q1006 NOSIG,M
VVTS,3/31/2021 15:30,106.6667,10.8167,82.4,77,83.77,180,7,0,29.71,M,6.21,M,SCT,M,M,M,1700,M,M,M,M,M,M,M,M,M,M,90.85,VVTS 311530Z 18007KT 9999 SCT017 28/25 Q1006 NOSIG,M
VVTS,3/31/2021 16:00,106.6667,10.8167,82.4,77,83.77,180,8,0,29.71,M,6.21,M,SCT,M,M,M,1700,M,M,M,M,M,M,M,M,M,M,90.85,VVTS 311600Z 18008KT 150V210 9999 SCT017 28/25 Q1006 NOSIG,M
VVTS,3/31/2021 16:30,106.6667,10.8167,82.4,77,83.77,180,8,0,29.71,M,6.21,M,SCT,M,M,M,1700,M,M,M,M,M,M,M,M,M,M,90.85,VVTS 311630Z 18008KT 150V210 9999 SCT017 28/25 Q1006 NOSIG,M
VVTS,3/31/2021 17:00,106.6667,10.8167,82.4,77,83.77,180,7,0,29.71,M,6.21,M,SCT,M,M,M,1700,M,M,M,M,M,M,M,M,M,M,90.85,VVTS 311700Z 18007KT 130V220 9999 SCT017 28/25 Q1006 NOSIG,M
VVTS,3/31/2021 17:30,106.6667,10.8167,82.4,77,83.77,190,7,0,29.71,M,6.21,M,SCT,M,M,M,1700,M,M,M,M,M,M,M,M,M,M,90.85,VVTS 311730Z 19007KT 150V220 9999 SCT017 28/25 Q1006 NOSIG,M
VVTS,3/31/2021 18:00,106.6667,10.8167,82.4,77,83.77,190,6,0,29.71,M,6.21,M,SCT,M,M,M,1700,M,M,M,M,M,M,M,M,M,M,90.85,VVTS 311800Z 19006KT 9999 SCT017 28/25 Q1006 NOSIG,M
VVTS,3/31/2021 18:30,106.6667,10.8167,82.4,77,83.77,200,8,0,29.71,M,6.21,M,SCT,M,M,M,1700,M,M,M,M,M,M,M,M,M,M,90.85,VVTS 311830Z 20008KT 9999 SCT017 28/25 Q1006 NOSIG,M
VVTS,3/31/2021 19:00,106.6667,10.8167,82.4,77,83.77,190,6,0,29.71,M,6.21,M,SCT,M,M,M,1700,M,M,M,M,M,M,M,M,M,M,90.85,VVTS 311900Z 19006KT 150V210 9999 SCT017 28/25 Q1006 NOSIG,M
VVTS,3/31/2021 19:30,106.6667,10.8167,80.6,77,88.83,200,6,0,29.71,M,6.21,M,SCT,M,M,M,1700,M,M,M,M,M,M,M,M,M,M,87.59,VVTS 311930Z 20006KT 170V230 9999 SCT017 27/25 Q1006 NOSIG,M
VVTS,3/31/2021 20:00,106.6667,10.8167,80.6,77,88.83,200,5,0,29.71,M,6.21,M,SCT,M,M,M,1700,M,M,M,M,M,M,M,M,M,M,87.59,VVTS 312000Z 20005KT 9999 SCT017 27/25 Q1006 NOSIG,M
VVTS,3/31/2021 20:30,106.6667,10.8167,80.6,77,88.83,200,6,0,29.71,M,6.21,M,SCT,M,M,M,1700,M,M,M,M,M,M,M,M,M,M,87.59,VVTS 312030Z 20006KT 160V220 9999 SCT017 27/25 Q1006 NOSIG,M
VVTS,3/31/2021 21:00,106.6667,10.8167,80.6,77,88.83,200,7,0,29.71,M,6.21,M,SCT,M,M,M,1700,M,M,M,M,M,M,M,M,M,M,87.59,VVTS 312100Z 20007KT 9999 SCT017 27/25 Q1006 NOSIG,M
VVTS,3/31/2021 21:30,106.6667,10.8167,80.6,77,88.83,190,5,0,29.71,M,6.21,M,SCT,M,M,M,1700,M,M,M,M,M,M,M,M,M,M,87.59,VVTS 312130Z 19005KT 150V230 9999 SCT017 27/25 Q1006 NOSIG,M
VVTS,3/31/2021 22:00,106.6667,10.8167,82.4,77,83.77,190,5,0,29.71,M,6.21,M,SCT,M,M,M,1700,M,M,M,M,M,M,M,M,M,M,90.85,VVTS 312200Z 19005KT 160V220 9999 SCT017 28/25 Q1006 NOSIG,M
VVTS,3/31/2021 22:30,106.6667,10.8167,80.6,77,88.83,200,6,0,29.74,M,6.21,M,SCT,M,M,M,1700,M,M,M,M,M,M,M,M,M,M,87.59,VVTS 312230Z 20006KT 9999 SCT017 27/25 Q1007 NOSIG,M
VVTS,3/31/2021 23:00,106.6667,10.8167,80.6,77,88.83,200,6,0,29.74,M,6.21,M,SCT,M,M,M,1700,M,M,M,M,M,M,M,M,M,M,87.59,VVTS 312300Z 20006KT 160V230 9999 SCT017 27/25 Q1007 NOSIG,M
VVTS,3/31/2021 23:30,106.6667,10.8167,82.4,75.2,78.9,200,5,0,29.77,M,6.21,M,BKN,M,M,M,1700,M,M,M,M,M,M,M,M,M,M,89.48,VVTS 312330Z 20005KT 150V240 9999 BKN017 28/24 Q1008 NOSIG,M
VVTS,4/1/2021 0:00,106.6667,10.8167,82.4,75.2,78.9,180,6,0,29.77,M,6.21,M,BKN,M,M,M,1700,M,M,M,M,M,M,M,M,M,M,89.48,VVTS 010000Z 18006KT 9999 BKN017 28/24 Q1008 NOSIG,M
VVTS,4/1/2021 0:30,106.6667,10.8167,84.2,75.2,74.44,200,6,0,29.77,M,6.21,M,SCT,M,M,M,1700,M,M,M,M,M,M,M,M,M,M,92.45,VVTS 010030Z 20006KT 150V230 9999 SCT017 29/24 Q1008 NOSIG,M
VVTS,4/1/2021 1:00,106.6667,10.8167,84.2,75.2,74.44,190,7,0,29.8,M,6.21,M,SCT,M,M,M,1700,M,M,M,M,M,M,M,M,M,M,92.45,VVTS 010100Z 19007KT 150V220 9999 SCT017 29/24 Q1009 NOSIG,M
VVTS,4/1/2021 1:30,106.6667,10.8167,86,73.4,66.15,210,7,0,29.8,M,6.21,M,FEW,M,M,M,1700,M,M,M,M,M,M,M,M,M,M,93.45,VVTS 010130Z 21007KT 150V250 9999 FEW017 30/23 Q1009 NOSIG,M
VVTS,4/1/2021 2:00,106.6667,10.8167,87.8,73.4,62.47,220,8,0,29.8,M,6.21,M,FEW,M,M,M,1700,M,M,M,M,M,M,M,M,M,M,95.86,VVTS 010200Z 22008KT 170V250 9999 FEW017 31/23 Q1009 NOSIG,M
VVTS,4/1/2021 2:30,106.6667,10.8167,89.6,71.6,55.53,230,4,0,29.8,M,6.21,M,FEW,M,M,M,1700,M,M,M,M,M,M,M,M,M,M,96.41,VVTS 010230Z 23004KT 170V300 9999 FEW017 32/22 Q1009 NOSIG,M
VVTS,4/1/2021 3:00,106.6667,10.8167,89.6,69.8,52.23,200,4,0,29.8,M,6.21,M,FEW,M,M,M,1700,M,M,M,M,M,M,M,M,M,M,94.85,VVTS 010300Z 20004KT 110V260 9999 FEW017 32/21 Q1009 NOSIG,M
VVTS,4/1/2021 3:30,106.6667,10.8167,89.6,69.8,52.23,200,7,0,29.77,M,6.21,M,SCT,M,M,M,1700,M,M,M,M,M,M,M,M,M,M,94.85,VVTS 010330Z 20007KT 160V250 9999 SCT017 32/21 Q1008 NOSIG,M
VVTS,4/1/2021 4:00,106.6667,10.8167,91.4,69.8,49.36,220,5,0,29.77,M,6.21,M,SCT,M,M,M,1700,M,M,M,M,M,M,M,M,M,M,96.99,VVTS 010400Z 22005KT 140V300 9999 SCT017 33/21 Q1008 NOSIG,M
VVTS,4/1/2021 4:30,106.6667,10.8167,91.4,68,46.41,M,3,0,29.77,M,6.21,M,SCT,M,M,M,1700,M,M,M,M,M,M,M,M,M,M,95.55,VVTS 010430Z VRB03KT 9999 SCT017 33/20 Q1008 NOSIG,M
VVTS,4/1/2021 5:00,106.6667,10.8167,93.2,68,43.88,220,4,0,29.74,M,6.21,M,SCT,M,M,M,1700,M,M,M,M,M,M,M,M,M,M,97.67,VVTS 010500Z 22004KT 200V330 9999 SCT017 34/20 Q1007 NOSIG,M
VVTS,4/1/2021 5:30,106.6667,10.8167,95,68,41.5,M,2,0,29.71,M,6.21,M,SCT,M,M,M,1700,M,M,M,M,M,M,M,M,M,M,99.82,VVTS 010530Z VRB02KT 9999 SCT017 35/20 Q1006 NOSIG,M
VVTS,4/1/2021 6:00,106.6667,10.8167,95,68,41.5,200,5,0,29.68,M,6.21,M,SCT,M,M,M,1700,M,M,M,M,M,M,M,M,M,M,99.82,VVTS 010600Z 20005KT 150V310 9999 SCT017 35/20 Q1005 NOSIG,M
VVTS,4/1/2021 6:30,106.6667,10.8167,95,68,41.5,270,5,0,29.68,M,6.21,M,BKN,M,M,M,2000,M,M,M,M,M,M,M,M,M,M,99.82,VVTS 010630Z 27005KT 200V330 9999 BKN020 35/20 Q1005 NOSIG,M
VVTS,4/1/2021 7:00,106.6667,10.8167,95,66.2,39,M,2,0,29.65,M,6.21,M,BKN,M,M,M,2000,M,M,M,M,M,M,M,M,M,M,98.46,VVTS 010700Z VRB02KT 9999 BKN020 35/19 Q1004 NOSIG,M
VVTS,4/1/2021 7:30,106.6667,10.8167,96.8,66.2,36.9,210,4,0,29.65,M,6.21,M,BKN,M,M,M,2000,M,M,M,M,M,M,M,M,M,M,100.6,VVTS 010730Z 21004KT 110V280 9999 BKN020 36/19 Q1004 NOSIG,M
VVTS,4/1/2021 8:00,106.6667,10.8167,95,66.2,39,210,6,0,29.62,M,6.21,M,BKN,M,M,M,2000,M,M,M,M,M,M,M,M,M,M,98.46,VVTS 010800Z 21006KT 130V250 9999 BKN020 35/19 Q1003 NOSIG,M
VVTS,4/1/2021 8:30,106.6667,10.8167,95,68,41.5,M,3,0,29.62,M,6.21,M,BKN,M,M,M,2000,M,M,M,M,M,M,M,M,M,M,99.82,VVTS 010830Z VRB03KT 9999 BKN020 35/20 Q1003 NOSIG,M
VVTS,4/1/2021 9:00,106.6667,10.8167,93.2,69.8,46.67,220,5,0,29.62,M,6.21,M,BKN,M,M,M,2000,M,M,M,M,M,M,M,M,M,M,99.17,VVTS 010900Z 22005KT 160V300 9999 BKN020 34/21 Q1003 NOSIG,M
VVTS,4/1/2021 9:30,106.6667,10.8167,91.4,73.4,55.77,190,8,0,29.62,M,6.21,M,BKN,M,M,M,1700,M,M,M,M,M,M,M,M,M,M,100.52,VVTS 010930Z 19008KT 160V240 9999 BKN017 33/23 Q1003 NOSIG,M
VVTS,4/1/2021 10:00,106.6667,10.8167,91.4,73.4,55.77,190,10,0,29.62,M,6.21,M,SCT,M,M,M,1700,M,M,M,M,M,M,M,M,M,M,100.52,VVTS 011000Z 19010KT 9999 SCT017 33/23 Q1003 NOSIG,M
VVTS,4/1/2021 10:30,106.6667,10.8167,89.6,73.4,59.01,180,8,0,29.62,M,6.21,M,SCT,M,M,M,1700,M,M,M,M,M,M,M,M,M,M,98.2,VVTS 011030Z 18008KT 150V210 9999 SCT017 32/23 Q1003 NOSIG,M
VVTS,4/1/2021 11:00,106.6667,10.8167,89.6,75.2,62.68,180,8,0,29.62,M,4.97,M,FEW,M,M,M,1700,M,M,M,M,M,M,M,M,M,M,100.23,VVTS 011100Z 18008KT 150V210 8000 FEW017 32/24 Q1003 NOSIG,M
VVTS,4/1/2021 11:30,106.6667,10.8167,87.8,75.2,66.35,180,7,0,29.62,M,4.97,M,FEW,M,M,M,1700,M,M,M,M,M,M,M,M,M,M,97.76,VVTS 011130Z 18007KT 150V210 8000 FEW017 31/24 Q1003 NOSIG,M
VVTS,4/1/2021 12:00,106.6667,10.8167,87.8,77,70.45,160,8,0,29.65,M,4.97,M,FEW,M,M,M,1700,M,M,M,M,M,M,M,M,M,M,99.92,VVTS 011200Z 16008KT 8000 FEW017 31/25 Q1004 NOSIG,M
VVTS,4/1/2021 12:30,106.6667,10.8167,86,77,74.61,170,8,0,29.65,M,6.21,M,FEW,M,M,M,1700,M,M,M,M,M,M,M,M,M,M,97.15,VVTS 011230Z 17008KT 9999 FEW017 30/25 Q1004 NOSIG,M
VVTS,4/1/2021 13:00,106.6667,10.8167,86,77,74.61,190,7,0,29.68,M,6.21,M,FEW,M,M,M,1700,M,M,M,M,M,M,M,M,M,M,97.15,VVTS 011300Z 19007KT 150V210 9999 FEW017 30/25 Q1005 NOSIG,M
VVTS,4/1/2021 13:30,106.6667,10.8167,84.2,77,79.04,170,7,0,29.71,M,6.21,M,FEW,M,M,M,1700,M,M,M,M,M,M,M,M,M,M,94.16,VVTS 011330Z 17007KT 140V210 9999 FEW017 29/25 Q1006 NOSIG,M
VVTS,4/1/2021 14:00,106.6667,10.8167,84.2,77,79.04,180,8,0,29.71,M,6.21,M,SCT,M,M,M,1700,M,M,M,M,M,M,M,M,M,M,94.16,VVTS 011400Z 18008KT 150V210 9999 SCT017 29/25 Q1006 NOSIG,M
VVTS,4/1/2021 14:30,106.6667,10.8167,84.2,77,79.04,170,8,0,29.74,M,6.21,M,SCT,M,M,M,1700,M,M,M,M,M,M,M,M,M,M,94.16,VVTS 011430Z 17008KT 9999 SCT017 29/25 Q1007 NOSIG,M
VVTS,4/1/2021 15:00,106.6667,10.8167,84.2,77,79.04,180,8,0,29.74,M,6.21,M,SCT,M,M,M,1700,M,M,M,M,M,M,M,M,M,M,94.16,VVTS 011500Z 18008KT 9999 SCT017 29/25 Q1007 NOSIG,M
VVTS,4/1/2021 15:30,106.6667,10.8167,84.2,75.2,74.44,190,10,0,29.74,M,6.21,M,SCT,M,M,M,1700,M,M,M,M,M,M,M,M,M,M,92.45,VVTS 011530Z 19010KT 9999 SCT017 29/24 Q1007 NOSIG,M
VVTS,4/1/2021 16:00,106.6667,10.8167,84.2,77,79.04,180,10,0,29.74,M,6.21,M,SCT,M,M,M,1700,M,M,M,M,M,M,M,M,M,M,94.16,VVTS 011600Z 18010KT 9999 SCT017 29/25 Q1007 NOSIG,M
VVTS,4/1/2021 16:30,106.6667,10.8167,84.2,75.2,74.44,190,9,0,29.77,M,6.21,M,SCT,M,M,M,1700,M,M,M,M,M,M,M,M,M,M,92.45,VVTS 011630Z 19009KT 150V210 9999 SCT017 29/24 Q1008 NOSIG,M
VVTS,4/1/2021 17:00,106.6667,10.8167,84.2,77,79.04,190,9,0,29.74,M,6.21,M,SCT,M,M,M,1700,M,M,M,M,M,M,M,M,M,M,94.16,VVTS 011700Z 19009KT 160V230 9999 SCT017 29/25 Q1007 NOSIG,M
VVTS,4/1/2021 17:30,106.6667,10.8167,82.4,77,83.77,190,6,0,29.77,M,6.21,M,SCT,M,M,M,1700,M,M,M,M,M,M,M,M,M,M,90.85,VVTS 011730Z 19006KT 150V240 9999 SCT017 28/25 Q1008 NOSIG,M
VVTS,4/1/2021 18:00,106.6667,10.8167,82.4,77,83.77,210,9,0,29.74,M,6.21,M,SCT,M,M,M,1700,M,M,M,M,M,M,M,M,M,M,90.85,VVTS 011800Z 21009KT 9999 SCT017 28/25 Q1007 NOSIG,M
VVTS,4/1/2021 18:30,106.6667,10.8167,82.4,77,83.77,180,6,0,29.74,M,6.21,M,SCT,M,M,M,1700,M,M,M,M,M,M,M,M,M,M,90.85,VVTS 011830Z 18006KT 160V230 9999 SCT017 28/25 Q1007 NOSIG,M
VVTS,4/1/2021 19:00,106.6667,10.8167,82.4,77,83.77,180,5,0,29.74,M,6.21,M,SCT,M,M,M,1700,M,M,M,M,M,M,M,M,M,M,90.85,VVTS 011900Z 18005KT 140V220 9999 SCT017 28/25 Q1007 NOSIG,M
VVTS,4/1/2021 19:30,106.6667,10.8167,82.4,77,83.77,180,5,0,29.74,M,6.21,M,SCT,M,M,M,1700,M,M,M,M,M,M,M,M,M,M,90.85,VVTS 011930Z 18005KT 150V210 9999 SCT017 28/25 Q1007 NOSIG,M
VVTS,4/1/2021 20:00,106.6667,10.8167,82.4,77,83.77,180,6,0,29.74,M,6.21,M,SCT,M,M,M,1700,M,M,M,M,M,M,M,M,M,M,90.85,VVTS 012000Z 18006KT 140V210 9999 SCT017 28/25 Q1007 NOSIG,M
VVTS,4/1/2021 20:30,106.6667,10.8167,82.4,77,83.77,190,6,0,29.71,M,6.21,M,SCT,FEW,M,M,1500,1700,M,M,M,M,M,M,M,M,M,90.85,VVTS 012030Z 19006KT 9999 SCT015 FEW017TCU 28/25 Q1006 NOSIG RMK TCU/NE,M
VVTS,4/1/2021 21:00,106.6667,10.8167,82.4,77,83.77,200,6,0,29.74,M,6.21,M,SCT,M,M,M,1700,M,M,M,M,M,M,M,M,M,M,90.85,VVTS 012100Z 20006KT 160V220 9999 SCT017 28/25 Q1007 NOSIG,M
VVTS,4/1/2021 21:30,106.6667,10.8167,82.4,77,83.77,170,5,0,29.74,M,6.21,M,SCT,M,M,M,1700,M,M,M,M,M,M,M,M,M,M,90.85,VVTS 012130Z 17005KT 130V200 9999 SCT017 28/25 Q1007 NOSIG,M
VVTS,4/1/2021 22:00,106.6667,10.8167,82.4,77,83.77,190,5,0,29.74,M,6.21,M,SCT,M,M,M,1700,M,M,M,M,M,M,M,M,M,M,90.85,VVTS 012200Z 19005KT 160V220 9999 SCT017 28/25 Q1007 NOSIG,M
VVTS,4/1/2021 22:30,106.6667,10.8167,82.4,77,83.77,160,5,0,29.77,M,6.21,M,SCT,FEW,M,M,1500,1700,M,M,M,M,M,M,M,M,M,90.85,VVTS 012230Z 16005KT 120V230 9999 SCT015 FEW017TCU 28/25 Q1008 NOSIG RMK TCU/NW,M
VVTS,4/1/2021 23:00,106.6667,10.8167,82.4,77,83.77,180,5,0,29.77,M,6.21,M,BKN,M,M,M,1700,M,M,M,M,M,M,M,M,M,M,90.85,VVTS 012300Z 18005KT 140V210 9999 BKN017 28/25 Q1008 NOSIG,M
VVTS,4/1/2021 23:30,106.6667,10.8167,82.4,77,83.77,170,7,0,29.77,M,6.21,M,BKN,M,M,M,1700,M,M,M,M,M,M,M,M,M,M,90.85,VVTS 012330Z 17007KT 9999 BKN017 28/25 Q1008 NOSIG,M
VVTS,4/2/2021 0:00,106.6667,10.8167,84.2,77,79.04,180,4,0,29.8,M,6.21,M,BKN,M,M,M,1700,M,M,M,M,M,M,M,M,M,M,94.16,VVTS 020000Z 18004KT 140V220 9999 BKN017 29/25 Q1009 NOSIG,M
VVTS,4/2/2021 0:30,106.6667,10.8167,84.2,77,79.04,190,5,0,29.8,M,6.21,M,BKN,M,M,M,1700,M,M,M,M,M,M,M,M,M,M,94.16,VVTS 020030Z 19005KT 140V220 9999 BKN017 29/25 Q1009 NOSIG,M
VVTS,4/2/2021 1:00,106.6667,10.8167,84.2,77,79.04,M,3,0,29.8,M,6.21,M,BKN,M,M,M,1700,M,M,M,M,M,M,M,M,M,M,94.16,VVTS 020100Z VRB03KT 9999 BKN017 29/25 Q1009 NOSIG,M
VVTS,4/2/2021 1:30,106.6667,10.8167,86,77,74.61,M,2,0,29.83,M,6.21,M,BKN,M,M,M,1700,M,M,M,M,M,M,M,M,M,M,97.15,VVTS 020130Z VRB02KT 9999 BKN017 30/25 Q1010 NOSIG,M
VVTS,4/2/2021 2:00,106.6667,10.8167,87.8,77,70.45,M,1,0,29.8,M,6.21,M,BKN,M,M,M,1700,M,M,M,M,M,M,M,M,M,M,99.92,VVTS 020200Z VRB01KT 9999 BKN017 31/25 Q1009 NOSIG,M
VVTS,4/2/2021 2:30,106.6667,10.8167,89.6,77,66.55,M,2,0,29.8,M,6.21,M,BKN,M,M,M,1700,M,M,M,M,M,M,M,M,M,M,102.54,VVTS 020230Z VRB02KT 9999 BKN017 32/25 Q1009 NOSIG,M
VVTS,4/2/2021 3:00,106.6667,10.8167,89.6,75.2,62.68,M,2,0,29.8,M,6.21,M,BKN,M,M,M,1700,M,M,M,M,M,M,M,M,M,M,100.23,VVTS 020300Z VRB02KT 9999 BKN017 32/24 Q1009 NOSIG,M
VVTS,4/2/2021 3:30,106.6667,10.8167,91.4,73.4,55.77,M,2,0,29.77,M,6.21,M,BKN,M,M,M,1700,M,M,M,M,M,M,M,M,M,M,100.52,VVTS 020330Z VRB02KT 9999 BKN017 33/23 Q1008 NOSIG,M
VVTS,4/2/2021 4:00,106.6667,10.8167,93.2,71.6,49.62,M,3,0,29.77,M,6.21,M,BKN,M,M,M,1700,M,M,M,M,M,M,M,M,M,M,100.88,VVTS 020400Z VRB03KT 9999 BKN017 34/22 Q1008 NOSIG,M
VVTS,4/2/2021 4:30,106.6667,10.8167,93.2,71.6,49.62,M,3,0,29.74,M,6.21,M,BKN,M,M,M,1700,M,M,M,M,M,M,M,M,M,M,100.88,VVTS 020430Z VRB03KT 9999 BKN017 34/22 Q1007 NOSIG,M
VVTS,4/2/2021 5:00,106.6667,10.8167,96.8,69.8,41.77,280,5,0,29.74,M,6.21,M,BKN,M,M,M,1700,M,M,M,M,M,M,M,M,M,M,103.6,VVTS 020500Z 28005KT 240V310 9999 BKN017 36/21 Q1007 NOSIG,M
VVTS,4/2/2021 5:30,106.6667,10.8167,96.8,69.8,41.77,280,5,0,29.71,M,6.21,M,BKN,M,M,M,1700,M,M,M,M,M,M,M,M,M,M,103.6,VVTS 020530Z 28005KT 240V350 9999 BKN017 36/21 Q1006 NOSIG,M
VVTS,4/2/2021 6:00,106.6667,10.8167,95,68,41.5,M,3,0,29.71,M,6.21,M,BKN,M,M,M,1700,M,M,M,M,M,M,M,M,M,M,99.82,VVTS 020600Z VRB03KT 9999 BKN017 35/20 Q1006 NOSIG,M
VVTS,4/2/2021 6:30,106.6667,10.8167,96.8,68,39.27,300,4,0,29.68,M,6.21,M,BKN,M,M,M,1700,M,M,M,M,M,M,M,M,M,M,102.01,VVTS 020630Z 30004KT 250V340 9999 BKN017 36/20 Q1005 NOSIG,M
VVTS,4/2/2021 7:00,106.6667,10.8167,96.8,68,39.27,M,3,0,29.68,M,6.21,M,BKN,M,M,M,1700,M,M,M,M,M,M,M,M,M,M,102.01,VVTS 020700Z VRB03KT 9999 BKN017 36/20 Q1005 NOSIG,M
VVTS,4/2/2021 7:30,106.6667,10.8167,98.6,66.2,34.93,M,6,0,29.65,M,6.21,M,BKN,M,M,M,1700,M,M,M,M,M,M,M,M,M,M,102.78,VVTS 020730Z VRB06KT 9999 BKN017 37/19 Q1004 NOSIG,M
VVTS,4/2/2021 8:00,106.6667,10.8167,98.6,68,37.17,300,7,0,29.65,M,6.21,M,BKN,M,M,M,1700,M,M,M,M,M,M,M,M,M,M,104.22,VVTS 020800Z 30007KT 260V330 9999 BKN017 37/20 Q1004 NOSIG,M
VVTS,4/2/2021 8:30,106.6667,10.8167,98.6,68,37.17,250,5,0,29.62,M,6.21,M,BKN,M,M,M,1700,M,M,M,M,M,M,M,M,M,M,104.22,VVTS 020830Z 25005KT 180V330 9999 BKN017 37/20 Q1003 NOSIG,M
VVTS,4/2/2021 9:00,106.6667,10.8167,96.8,68,39.27,M,4,0,29.62,M,6.21,M,BKN,M,M,M,1700,M,M,M,M,M,M,M,M,M,M,102.01,VVTS 020900Z VRB04KT 9999 BKN017 36/20 Q1003 NOSIG,M
VVTS,4/2/2021 9:30,106.6667,10.8167,96.8,68,39.27,290,6,0,29.62,M,6.21,M,SCT,M,M,M,1700,M,M,M,M,M,M,M,M,M,M,102.01,VVTS 020930Z 29006KT 250V330 9999 SCT017 36/20 Q1003 NOSIG,M
VVTS,4/2/2021 10:00,106.6667,10.8167,96.8,68,39.27,260,6,0,29.62,M,6.21,M,SCT,M,M,M,1700,M,M,M,M,M,M,M,M,M,M,102.01,VVTS 021000Z 26006KT 200V320 9999 SCT017 36/20 Q1003 NOSIG,M
VVTS,4/2/2021 10:30,106.6667,10.8167,93.2,77,59.47,230,8,0,29.62,M,6.21,M,FEW,M,M,M,1700,M,M,M,M,M,M,M,M,M,M,107.52,VVTS 021030Z 23008KT 180V270 9999 FEW017 34/25 Q1003 NOSIG,M
VVTS,4/2/2021 11:00,106.6667,10.8167,89.6,78.8,70.63,170,10,0,29.65,M,6.21,M,FEW,M,M,M,1700,M,M,M,M,M,M,M,M,M,M,105.15,VVTS 021100Z 17010KT 140V200 9999 FEW017 32/26 Q1004 NOSIG,M
VVTS,4/2/2021 11:30,106.6667,10.8167,87.8,78.8,74.77,170,11,0,29.68,M,6.21,M,FEW,M,M,M,1700,M,M,M,M,M,M,M,M,M,M,102.37,VVTS 021130Z 17011KT 150V210 9999 FEW017 31/26 Q1005 NOSIG,M
VVTS,4/2/2021 12:00,106.6667,10.8167,87.8,78.8,74.77,170,9,0,29.68,M,6.21,M,FEW,M,M,M,1700,M,M,M,M,M,M,M,M,M,M,102.37,VVTS 021200Z 17009KT 9999 FEW017 31/26 Q1005 NOSIG,M
VVTS,4/2/2021 12:30,106.6667,10.8167,86,78.8,79.18,170,8,0,29.68,M,6.21,M,FEW,M,M,M,1700,M,M,M,M,M,M,M,M,M,M,99.38,VVTS 021230Z 17008KT 140V200 9999 FEW017 30/26 Q1005 NOSIG,M
VVTS,4/2/2021 13:00,106.6667,10.8167,86,78.8,79.18,150,6,0,29.71,M,6.21,M,FEW,M,M,M,2000,M,M,M,M,M,M,M,M,M,M,99.38,VVTS 021300Z 15006KT 130V190 9999 FEW020 30/26 Q1006 NOSIG,M
VVTS,4/2/2021 13:30,106.6667,10.8167,86,78.8,79.18,150,8,0,29.74,M,6.21,M,FEW,M,M,M,2000,M,M,M,M,M,M,M,M,M,M,99.38,VVTS 021330Z 15008KT 130V210 9999 FEW020 30/26 Q1007 NOSIG,M
VVTS,4/2/2021 14:00,106.6667,10.8167,84.2,78.8,83.88,170,10,0,29.74,M,6.21,M,FEW,M,M,M,2000,M,M,M,M,M,M,M,M,M,M,96.1,VVTS 021400Z 17010KT 120V190 9999 FEW020 29/26 Q1007 NOSIG,M
VVTS,4/2/2021 14:30,106.6667,10.8167,84.2,78.8,83.88,180,10,0,29.74,M,6.21,M,SCT,M,M,M,1700,M,M,M,M,M,M,M,M,M,M,96.1,VVTS 021430Z 18010KT 140V210 9999 SCT017 29/26 Q1007 NOSIG,M
VVTS,4/2/2021 15:00,106.6667,10.8167,84.2,78.8,83.88,170,6,0,29.74,M,6.21,M,BKN,M,M,M,1700,M,M,M,M,M,M,M,M,M,M,96.1,VVTS 021500Z 17006KT 130V210 9999 BKN017 29/26 Q1007 NOSIG,M
VVTS,4/2/2021 15:30,106.6667,10.8167,84.2,78.8,83.88,170,7,0,29.74,M,6.21,M,SCT,FEW,M,M,1500,1700,M,M,M,M,M,M,M,M,M,96.1,VVTS 021530Z 17007KT 150V210 9999 SCT015 FEW017CB 29/26 Q1007 NOSIG,M
VVTS,4/2/2021 16:00,106.6667,10.8167,82.4,80.6,94.31,150,8,0,29.74,M,2.49,M,SCT,FEW,M,M,1500,1700,M,M,TSRA,M,M,M,M,M,M,95,VVTS 021600Z 15008KT 110V200 4000 TSRA SCT015 FEW017CB 28/27 Q1007 TEMPO TL1640 08015G26KT 5000 TSRA RMK CB OVER RWY,M
VVTS,4/2/2021 16:30,106.6667,10.8167,84.2,78.8,83.88,130,7,0,29.71,M,4.97,M,SCT,SCT,M,M,1500,1700,M,M,#NAME?,M,M,M,M,M,M,96.1,VVTS 021630Z 13007KT 040V160 8000 2500W +TSRA SCT015 SCT017CB 29/26 Q1006 TEMPO TL2400 16015G26KT 4000 TSRA RMK CB OVER RWY,M
VVTS,4/2/2021 17:00,106.6667,10.8167,75.2,75.2,100,60,14,0,29.74,M,0.5,M,SCT,SCT,M,M,1300,1500,M,M,#NAME?,M,M,M,M,M,M,75.2,VVTS 021700Z 06014KT 020V090 0800 R25R/0800V1000 +TSRA SCT013 SCT015CB 24/24 Q1007 BECMG TL1715 06015G26KT 2000 +TSRA RMK CB OVER RWY,M
VVTS,4/2/2021 17:30,106.6667,10.8167,73.4,73.4,100,320,11,0,29.77,M,1.24,M,SCT,SCT,M,M,1300,1500,M,M,#NAME?,M,M,M,M,M,M,73.4,VVTS 021730Z 32011KT 280V040 2000 +TSRA SCT013 SCT015CB 23/23 Q1008 BECMG TL1735 32015G26KT 3000 TSRA RMK CB OVER RWY,M
VVTS,4/2/2021 18:00,106.6667,10.8167,75.2,75.2,100,340,5,0,29.77,M,3.73,M,SCT,FEW,M,M,1500,1700,M,M,#NAME?,M,M,M,M,M,M,75.2,VVTS 021800Z 34005KT 300V020 6000 -TSRA SCT015 FEW017CB 24/24 Q1008 RETSRA NOSIG RMK CB OVER RWY,M
VVTS,4/2/2021 18:30,106.6667,10.8167,75.2,75.2,100,M,3,0,29.74,M,4.97,M,SCT,FEW,SCT,M,1500,1700,4000,M,#NAME?,M,M,M,M,M,M,75.2,VVTS 021830Z VRB03KT 8000 -TSRA SCT015 FEW017CB SCT040 24/24 Q1007 NOSIG RMK CB OVER RWY,M
VVTS,4/2/2021 19:00,106.6667,10.8167,75.2,75.2,100,270,4,0,29.74,M,4.97,M,SCT,FEW,BKN,M,1500,1700,4000,M,#NAME?,M,M,M,M,M,M,75.2,VVTS 021900Z 27004KT 220V300 8000 -RA SCT015 FEW017CB BKN040 24/24 Q1007 NOSIG RMK CB/E/SW,M
VVTS,4/2/2021 19:30,106.6667,10.8167,77,75.2,94.19,250,2,0,29.74,M,4.97,M,SCT,FEW,SCT,M,1500,1700,4000,M,M,M,M,M,M,M,M,77,VVTS 021930Z 25002KT 8000 SCT015 FEW017CB SCT040 25/24 Q1007 NOSIG RMK CB/NE/SW,M
VVTS,4/2/2021 20:00,106.6667,10.8167,77,75.2,94.19,170,7,0,29.74,M,4.97,M,SCT,FEW,SCT,M,1500,1700,4000,M,M,M,M,M,M,M,M,77,VVTS 022000Z 17007KT 140V200 8000 SCT015 FEW017CB SCT040 25/24 Q1007 NOSIG RMK CB/NE/SW,M
VVTS,4/2/2021 20:30,106.6667,10.8167,77,75.2,94.19,180,6,0,29.71,M,6.21,M,SCT,SCT,M,M,1500,4000,M,M,M,M,M,M,M,M,M,77,VVTS 022030Z 18006KT 140V210 9999 SCT015 SCT040 25/24 Q1006 NOSIG,M
VVTS,4/2/2021 21:00,106.6667,10.8167,77,75.2,94.19,M,1,0,29.74,M,6.21,M,SCT,SCT,M,M,1500,4000,M,M,M,M,M,M,M,M,M,77,VVTS 022100Z VRB01KT 9999 SCT015 SCT040 25/24 Q1007 NOSIG,M
VVTS,4/2/2021 21:30,106.6667,10.8167,78.8,75.2,88.75,310,2,0,29.74,M,6.21,M,SCT,SCT,M,M,1500,4000,M,M,M,M,M,M,M,M,M,78.8,VVTS 022130Z 31002KT 9999 SCT015 SCT040 26/24 Q1007 NOSIG,M
VVTS,4/2/2021 22:00,106.6667,10.8167,77,77,100,M,2,0,29.74,M,6.21,M,SCT,SCT,M,M,1500,4000,M,M,M,M,M,M,M,M,M,77,VVTS 022200Z VRB02KT 9999 SCT015 SCT040 25/25 Q1007 NOSIG,M
VVTS,4/2/2021 22:30,106.6667,10.8167,77,75.2,94.19,270,3,0,29.77,M,6.21,M,SCT,SCT,M,M,1500,4000,M,M,M,M,M,M,M,M,M,77,VVTS 022230Z 27003KT 9999 SCT015 SCT040 25/24 Q1008 NOSIG,M
VVTS,4/2/2021 23:00,106.6667,10.8167,77,75.2,94.19,0,0,0,29.77,M,4.97,M,SCT,SCT,M,M,1500,4000,M,M,M,M,M,M,M,M,M,77,VVTS 022300Z 00000KT 8000 SCT015 SCT040 25/24 Q1008 NOSIG,M
VVTS,4/2/2021 23:30,106.6667,10.8167,78.8,77,94.23,M,1,0,29.8,M,4.97,M,SCT,BKN,M,M,1500,4000,M,M,M,M,M,M,M,M,M,78.8,VVTS 022330Z VRB01KT 8000 SCT015 BKN040 26/25 Q1009 NOSIG,M
VVTS,4/3/2021 0:00,106.6667,10.8167,78.8,77,94.23,M,1,0,29.8,M,4.97,M,SCT,BKN,M,M,1700,4000,M,M,M,M,M,M,M,M,M,78.8,VVTS 030000Z VRB01KT 8000 SCT017 BKN040 26/25 Q1009 NOSIG,M
VVTS,4/3/2021 0:30,106.6667,10.8167,80.6,77,88.83,M,2,0,29.8,M,6.21,M,SCT,BKN,M,M,1700,4000,M,M,M,M,M,M,M,M,M,87.59,VVTS 030030Z VRB02KT 9999 SCT017 BKN040 27/25 Q1009 NOSIG,M
VVTS,4/3/2021 1:00,106.6667,10.8167,80.6,77,88.83,M,2,0,29.83,M,6.21,M,SCT,BKN,M,M,1700,4000,M,M,M,M,M,M,M,M,M,87.59,VVTS 030100Z VRB02KT 9999 SCT017 BKN040 27/25 Q1010 NOSIG,M
VVTS,4/3/2021 1:30,106.6667,10.8167,82.4,78.8,88.9,M,1,0,29.83,M,6.21,M,SCT,BKN,M,M,1700,4000,M,M,M,M,M,M,M,M,M,92.76,VVTS 030130Z VRB01KT 9999 SCT017 BKN040 28/26 Q1010 NOSIG,M
VVTS,4/3/2021 2:00,106.6667,10.8167,84.2,78.8,83.88,M,3,0,29.83,M,6.21,M,SCT,BKN,M,M,1700,4000,M,M,M,M,M,M,M,M,M,96.1,VVTS 030200Z VRB03KT 9999 SCT017 BKN040 29/26 Q1010 NOSIG,M
VVTS,4/3/2021 2:30,106.6667,10.8167,86,78.8,79.18,140,5,0,29.83,M,6.21,M,SCT,SCT,M,M,1700,4000,M,M,M,M,M,M,M,M,M,99.38,VVTS 030230Z 14005KT 090V170 9999 SCT017 SCT040 30/26 Q1010 NOSIG,M
VVTS,4/3/2021 3:00,106.6667,10.8167,86,78.8,79.18,140,5,0,29.83,M,6.21,M,SCT,SCT,M,M,1700,4000,M,M,M,M,M,M,M,M,M,99.38,VVTS 030300Z 14005KT 090V160 9999 SCT017 SCT040 30/26 Q1010 NOSIG,M
VVTS,4/3/2021 3:30,106.6667,10.8167,87.8,78.8,74.77,140,5,0,29.83,M,6.21,M,SCT,SCT,M,M,1700,5000,M,M,M,M,M,M,M,M,M,102.37,VVTS 030330Z 14005KT 100V170 9999 SCT017 SCT050 31/26 Q1010 NOSIG,M
VVTS,4/3/2021 4:00,106.6667,10.8167,89.6,77,66.55,140,5,0,29.8,M,6.21,M,BKN,M,M,M,1700,M,M,M,M,M,M,M,M,M,M,102.54,VVTS 030400Z 14005KT 050V190 9999 BKN017 32/25 Q1009 NOSIG,M
VVTS,4/3/2021 4:30,106.6667,10.8167,89.6,77,66.55,160,4,0,29.8,M,6.21,M,BKN,M,M,M,1700,M,M,M,M,M,M,M,M,M,M,102.54,VVTS 030430Z 16004KT 110V230 9999 BKN017 32/25 Q1009 NOSIG,M
VVTS,4/3/2021 5:00,106.6667,10.8167,91.4,75.2,59.24,80,4,0,29.77,M,6.21,M,BKN,M,M,M,1700,M,M,M,M,M,M,M,M,M,M,102.65,VVTS 030500Z 08004KT 330V140 9999 BKN017 33/24 Q1008 NOSIG,M
VVTS,4/3/2021 5:30,106.6667,10.8167,91.4,75.2,59.24,M,5,0,29.74,M,6.21,M,BKN,M,M,M,1700,M,M,M,M,M,M,M,M,M,M,102.65,VVTS 030530Z VRB05KT 9999 BKN017 33/24 Q1007 NOSIG,M
VVTS,4/3/2021 6:00,106.6667,10.8167,93.2,75.2,56.01,160,5,0,29.74,M,6.21,M,BKN,M,M,M,1700,M,M,M,M,M,M,M,M,M,M,105.02,VVTS 030600Z 16005KT 090V210 9999 BKN017 34/24 Q1007 NOSIG,M
VVTS,4/3/2021 6:30,106.6667,10.8167,91.4,73.4,55.77,M,3,0,29.71,M,6.21,M,BKN,M,M,M,2000,M,M,M,M,M,M,M,M,M,M,100.52,VVTS 030630Z VRB03KT 9999 BKN020 33/23 Q1006 NOSIG,M
VVTS,4/3/2021 7:00,106.6667,10.8167,93.2,73.4,52.73,M,6,0,29.71,M,6.21,M,BKN,M,M,M,2000,M,M,M,M,M,M,M,M,M,M,102.82,VVTS 030700Z VRB06KT 9999 BKN020 34/23 Q1006 NOSIG,M
VVTS,4/3/2021 7:30,106.6667,10.8167,95,71.6,46.93,110,6,0,29.68,M,6.21,M,BKN,M,M,M,2000,M,M,M,M,M,M,M,M,M,M,103.13,VVTS 030730Z 11006KT 050V160 9999 BKN020 35/22 Q1005 NOSIG,M
VVTS,4/3/2021 8:00,106.6667,10.8167,93.2,71.6,49.62,150,6,0,29.68,M,6.21,M,BKN,M,M,M,2000,M,M,M,M,M,M,M,M,M,M,100.88,VVTS 030800Z 15006KT 9999 R25R/1900VP2000N BKN020 34/22 Q1005 NOSIG,M
VVTS,4/3/2021 8:30,106.6667,10.8167,93.2,73.4,52.73,150,6,0,29.68,M,6.21,M,BKN,M,M,M,2000,M,M,M,M,M,M,M,M,M,M,102.82,VVTS 030830Z 15006KT 120V200 9999 BKN020 34/23 Q1005 NOSIG,M
VVTS,4/3/2021 9:00,106.6667,10.8167,93.2,73.4,52.73,160,8,0,29.68,M,6.21,M,SCT,SCT,M,M,1700,5000,M,M,M,M,M,M,M,M,M,102.82,VVTS 030900Z 16008KT 130V200 9999 SCT017 SCT050 34/23 Q1005 NOSIG,M
VVTS,4/3/2021 9:30,106.6667,10.8167,91.4,73.4,55.77,160,9,0,29.68,M,6.21,M,SCT,SCT,M,M,1700,5000,M,M,M,M,M,M,M,M,M,100.52,VVTS 030930Z 16009KT 120V190 9999 SCT017 SCT050 33/23 Q1005 NOSIG,M
VVTS,4/3/2021 10:00,106.6667,10.8167,91.4,73.4,55.77,160,9,0,29.68,M,6.21,M,FEW,SCT,M,M,1700,5000,M,M,M,M,M,M,M,M,M,100.52,VVTS 031000Z 16009KT 120V200 9999 FEW017 SCT050 33/23 Q1005 NOSIG,M
VVTS,4/3/2021 10:30,106.6667,10.8167,89.6,73.4,59.01,160,9,0,29.68,M,6.21,M,FEW,SCT,M,M,1700,5000,M,M,M,M,M,M,M,M,M,98.2,VVTS 031030Z 16009KT 140V200 9999 FEW017 SCT050 32/23 Q1005 NOSIG,M
VVTS,4/3/2021 11:00,106.6667,10.8167,87.8,75.2,66.35,180,8,0,29.68,M,6.21,M,FEW,SCT,M,M,1700,5000,M,M,M,M,M,M,M,M,M,97.76,VVTS 031100Z 18008KT 9999 FEW017 SCT050 31/24 Q1005 NOSIG,M
VVTS,4/3/2021 11:30,106.6667,10.8167,86,75.2,70.27,170,8,0,29.71,M,6.21,M,FEW,SCT,M,M,1700,5000,M,M,M,M,M,M,M,M,M,95.19,VVTS 031130Z 17008KT 120V210 9999 FEW017 SCT050 30/24 Q1006 NOSIG,M
VVTS,4/3/2021 12:00,106.6667,10.8167,86,75.2,70.27,160,10,0,29.71,M,6.21,M,FEW,M,M,M,2000,M,M,M,M,M,M,M,M,M,M,95.19,VVTS 031200Z 16010KT 120V190 9999 FEW020 30/24 Q1006 NOSIG,M
VVTS,4/3/2021 12:30,106.6667,10.8167,86,71.6,62.25,150,10,0,29.71,M,6.21,M,FEW,M,M,M,2000,M,M,M,M,M,M,M,M,M,M,91.92,VVTS 031230Z 15010KT 9999 FEW020 30/22 Q1006 NOSIG,M
VVTS,4/3/2021 13:00,106.6667,10.8167,84.2,75.2,74.44,150,8,0,29.74,M,6.21,M,FEW,M,M,M,2000,M,M,M,M,M,M,M,M,M,M,92.45,VVTS 031300Z 15008KT 120V190 9999 FEW020 29/24 Q1007 NOSIG,M
VVTS,4/3/2021 13:30,106.6667,10.8167,84.2,75.2,74.44,140,9,0,29.74,M,6.21,M,FEW,M,M,M,2000,M,M,M,M,M,M,M,M,M,M,92.45,VVTS 031330Z 14009KT 9999 FEW020 29/24 Q1007 NOSIG,M
VVTS,4/3/2021 14:00,106.6667,10.8167,84.2,75.2,74.44,130,8,0,29.74,M,6.21,M,FEW,M,M,M,2000,M,M,M,M,M,M,M,M,M,M,92.45,VVTS 031400Z 13008KT 9999 FEW020 29/24 Q1007 NOSIG,M
VVTS,4/3/2021 14:30,106.6667,10.8167,84.2,75.2,74.44,130,10,0,29.74,M,6.21,M,FEW,M,M,M,2000,M,M,M,M,M,M,M,M,M,M,92.45,VVTS 031430Z 13010KT 9999 FEW020 29/24 Q1007 NOSIG,M
VVTS,4/3/2021 15:00,106.6667,10.8167,82.4,75.2,78.9,130,11,0,29.77,M,6.21,M,FEW,M,M,M,2000,M,M,M,M,M,M,M,M,M,M,89.48,VVTS 031500Z 13011KT 9999 FEW020 28/24 Q1008 NOSIG,M
VVTS,4/3/2021 15:30,106.6667,10.8167,82.4,75.2,78.9,140,11,0,29.77,M,6.21,M,FEW,M,M,M,2000,M,M,M,M,M,M,M,M,M,M,89.48,VVTS 031530Z 14011KT 9999 FEW020 28/24 Q1008 NOSIG,M
VVTS,4/3/2021 16:00,106.6667,10.8167,82.4,75.2,78.9,130,10,0,29.77,M,6.21,M,FEW,M,M,M,2000,M,M,M,M,M,M,M,M,M,M,89.48,VVTS 031600Z 13010KT 9999 FEW020 28/24 Q1008 NOSIG,M
VVTS,4/3/2021 16:30,106.6667,10.8167,82.4,75.2,78.9,140,9,0,29.77,M,6.21,M,FEW,M,M,M,2000,M,M,M,M,M,M,M,M,M,M,89.48,VVTS 031630Z 14009KT 9999 FEW020 28/24 Q1008 NOSIG,M
VVTS,4/3/2021 17:00,106.6667,10.8167,82.4,77,83.77,140,8,0,29.77,M,6.21,M,FEW,M,M,M,2000,M,M,M,M,M,M,M,M,M,M,90.85,VVTS 031700Z 14008KT 110V190 9999 FEW020 28/25 Q1008 NOSIG,M
VVTS,4/3/2021 17:30,106.6667,10.8167,82.4,77,83.77,130,11,0,29.74,M,6.21,M,FEW,M,M,M,1700,M,M,M,M,M,M,M,M,M,M,90.85,VVTS 031730Z 13011KT 9999 FEW017 28/25 Q1007 NOSIG,M
VVTS,4/3/2021 18:00,106.6667,10.8167,82.4,77,83.77,140,10,0,29.74,M,6.21,M,FEW,M,M,M,1700,M,M,M,M,M,M,M,M,M,M,90.85,VVTS 031800Z 14010KT 9999 FEW017 28/25 Q1007 NOSIG,M
VVTS,4/3/2021 18:30,106.6667,10.8167,82.4,77,83.77,130,7,0,29.74,M,6.21,M,FEW,M,M,M,1700,M,M,M,M,M,M,M,M,M,M,90.85,VVTS 031830Z 13007KT 090V190 9999 FEW017 28/25 Q1007 NOSIG,M
VVTS,4/3/2021 19:00,106.6667,10.8167,82.4,77,83.77,130,7,0,29.71,M,6.21,M,FEW,M,M,M,1700,M,M,M,M,M,M,M,M,M,M,90.85,VVTS 031900Z 13007KT 9999 FEW017 28/25 Q1006 NOSIG,M
VVTS,4/3/2021 19:30,106.6667,10.8167,82.4,75.2,78.9,130,9,0,29.71,M,6.21,M,FEW,M,M,M,1700,M,M,M,M,M,M,M,M,M,M,89.48,VVTS 031930Z 13009KT 9999 FEW017 28/24 Q1006 NOSIG,M
VVTS,4/3/2021 20:00,106.6667,10.8167,80.6,75.2,83.66,130,7,0,29.71,M,6.21,M,SCT,M,M,M,1700,M,M,M,M,M,M,M,M,M,M,86.17,VVTS 032000Z 13007KT 110V240 9999 SCT017 27/24 Q1006 NOSIG,M
VVTS,4/3/2021 20:30,106.6667,10.8167,80.6,75.2,83.66,130,5,0,29.74,M,6.21,M,SCT,M,M,M,1700,M,M,M,M,M,M,M,M,M,M,86.17,VVTS 032030Z 13005KT 100V160 9999 SCT017 27/24 Q1007 NOSIG,M
VVTS,4/3/2021 21:00,106.6667,10.8167,80.6,73.4,78.76,140,7,0,29.74,M,6.21,M,SCT,M,M,M,1700,M,M,M,M,M,M,M,M,M,M,85.32,VVTS 032100Z 14007KT 110V180 9999 SCT017 27/23 Q1007 NOSIG,M
VVTS,4/3/2021 21:30,106.6667,10.8167,80.6,73.4,78.76,140,6,0,29.74,M,6.21,M,SCT,M,M,M,1700,M,M,M,M,M,M,M,M,M,M,85.32,VVTS 032130Z 14006KT 110V230 9999 SCT017 27/23 Q1007 NOSIG,M
VVTS,4/3/2021 22:00,106.6667,10.8167,80.6,75.2,83.66,140,5,0,29.74,M,6.21,M,SCT,M,M,M,1700,M,M,M,M,M,M,M,M,M,M,86.17,VVTS 032200Z 14005KT 110V180 9999 SCT017 27/24 Q1007 NOSIG,M
VVTS,4/3/2021 22:30,106.6667,10.8167,80.6,75.2,83.66,150,4,0,29.77,M,6.21,M,SCT,M,M,M,1700,M,M,M,M,M,M,M,M,M,M,86.17,VVTS 032230Z 15004KT 120V180 9999 SCT017 27/24 Q1008 NOSIG,M
VVTS,4/3/2021 23:00,106.6667,10.8167,80.6,75.2,83.66,150,4,0,29.77,M,6.21,M,FEW,SCT,M,M,1700,5000,M,M,M,M,M,M,M,M,M,86.17,VVTS 032300Z 15004KT 110V190 9999 FEW017 SCT050 27/24 Q1008 NOSIG,M
VVTS,4/3/2021 23:30,106.6667,10.8167,82.4,75.2,78.9,130,6,0,29.8,M,6.21,M,FEW,SCT,M,M,1700,5000,M,M,M,M,M,M,M,M,M,89.48,VVTS 032330Z 13006KT 110V180 9999 FEW017 SCT050 28/24 Q1009 NOSIG,M
VVTS,4/4/2021 0:00,106.6667,10.8167,82.4,75.2,78.9,130,5,0,29.8,M,6.21,M,FEW,M,M,M,1700,M,M,M,M,M,M,M,M,M,M,89.48,VVTS 040000Z 13005KT 090V170 9999 FEW017 28/24 Q1009 NOSIG,M
VVTS,4/4/2021 0:30,106.6667,10.8167,84.2,75.2,74.44,140,8,0,29.8,M,6.21,M,FEW,M,M,M,1700,M,M,M,M,M,M,M,M,M,M,92.45,VVTS 040030Z 14008KT 110V170 9999 FEW017 29/24 Q1009 NOSIG,M
VVTS,4/4/2021 1:00,106.6667,10.8167,86,77,74.61,140,8,0,29.83,M,6.21,M,FEW,M,M,M,1700,M,M,M,M,M,M,M,M,M,M,97.15,VVTS 040100Z 14008KT 100V170 9999 FEW017 30/25 Q1010 NOSIG,M
VVTS,4/4/2021 1:30,106.6667,10.8167,86,77,74.61,130,8,0,29.83,M,6.21,M,SCT,SCT,M,M,1700,5000,M,M,M,M,M,M,M,M,M,97.15,VVTS 040130Z 13008KT 100V170 9999 SCT017 SCT050 30/25 Q1010 NOSIG,M
VVTS,4/4/2021 2:00,106.6667,10.8167,87.8,75.2,66.35,150,10,0,29.83,M,6.21,M,SCT,SCT,M,M,1700,5000,M,M,M,M,M,M,M,M,M,97.76,VVTS 040200Z 15010KT 120V180 9999 SCT017 SCT050 31/24 Q1010 NOSIG,M
VVTS,4/4/2021 2:30,106.6667,10.8167,89.6,75.2,62.68,130,9,0,29.83,M,6.21,M,SCT,M,M,M,1700,M,M,M,M,M,M,M,M,M,M,100.23,VVTS 040230Z 13009KT 080V180 9999 SCT017 32/24 Q1010 NOSIG,M
VVTS,4/4/2021 3:00,106.6667,10.8167,91.4,75.2,59.24,130,6,0,29.83,M,6.21,M,SCT,M,M,M,1700,M,M,M,M,M,M,M,M,M,M,102.65,VVTS 040300Z 13006KT 080V180 9999 SCT017 33/24 Q1010 NOSIG,M
VVTS,4/4/2021 3:30,106.6667,10.8167,89.6,75.2,62.68,90,8,0,29.83,M,6.21,M,BKN,M,M,M,1700,M,M,M,M,M,M,M,M,M,M,100.23,VVTS 040330Z 09008KT 060V150 9999 BKN017 32/24 Q1010 NOSIG,M
VVTS,4/4/2021 4:00,106.6667,10.8167,91.4,73.4,55.77,90,5,0,29.8,M,6.21,M,BKN,M,M,M,1700,M,M,M,M,M,M,M,M,M,M,100.52,VVTS 040400Z 09005KT 030V150 9999 BKN017 33/23 Q1009 NOSIG,M
VVTS,4/4/2021 4:30,106.6667,10.8167,91.4,73.4,55.77,120,6,0,29.8,M,6.21,M,BKN,M,M,M,1700,M,M,M,M,M,M,M,M,M,M,100.52,VVTS 040430Z 12006KT 060V170 9999 BKN017 33/23 Q1009 NOSIG,M
VVTS,4/4/2021 5:00,106.6667,10.8167,93.2,71.6,49.62,140,6,0,29.77,M,6.21,M,SCT,FEW,M,M,1700,2000,M,M,M,M,M,M,M,M,M,100.88,VVTS 040500Z 14006KT 080V180 9999 SCT017 FEW020TCU 34/22 Q1008 NOSIG RMK TCU OVER RWY,M
VVTS,4/4/2021 5:30,106.6667,10.8167,89.6,75.2,62.68,190,7,0,2.95,M,6.21,M,SCT,FEW,M,M,1700,2000,M,M,#NAME?,M,M,M,M,M,M,100.23,VVTS 040530Z 19007KT 140V220 9999 -SHRA SCT017 FEW020CB 32/24 Q100 TEMPO FM0540 TL0620 18015G28KT 3000 TSRA RMK CB OVER RWY,M
VVTS,4/4/2021 6:00,106.6667,10.8167,89.6,75.2,62.68,220,8,0,29.74,M,6.21,M,SCT,FEW,M,M,1500,1700,M,M,#NAME?,M,M,M,M,M,M,100.23,VVTS 040600Z 22008KT 9999 -SHRA SCT015 FEW017CB 32/24 Q1007 TEMPO FM0610 TL0630 16015G28KT 3000 TSRA RMK CB OVER RWY,M
VVTS,4/4/2021 6:30,106.6667,10.8167,84.2,78.8,83.88,160,9,0,29.74,M,2.49,M,SCT,FEW,M,M,1500,1700,M,M,TSRA,M,M,M,M,M,M,96.1,VVTS 040630Z 16009KT 140V200 4000 TSRA SCT015 FEW017CB 29/26 Q1007 TEMPO TL0640 16015G28KT 3000 TSRA RMK CB OVER RWY,M
VVTS,4/4/2021 7:00,106.6667,10.8167,80.6,75.2,83.66,M,2,0,29.71,M,4.97,M,SCT,SCT,M,M,1500,1700,M,M,#NAME?,M,M,M,M,M,M,86.17,VVTS 040700Z VRB02KT 8000 -TSRA SCT015 SCT017CB 27/24 Q1006 RETSRA NOSIG RMK CB OVER RWY,M
VVTS,4/4/2021 7:30,106.6667,10.8167,75.2,73.4,94.14,M,14,0,29.74,M,0.93,32,SCT,SCT,M,M,1300,1500,M,M,#NAME?,M,M,M,M,M,M,75.2,VVTS 040730Z VRB14G32KT 1500 R25R/0350 +TSRA SCT013 SCT015CB 24/23 Q1007 WS ALL RWY BECMG TL0750 10015G28KT 3000 TSRA RMK CB OVER RWY,M
VVTS,4/4/2021 8:00,106.6667,10.8167,80.6,73.4,78.76,180,6,0,29.71,M,4.97,M,SCT,SCT,M,M,1500,1700,M,M,#NAME?,M,M,M,M,M,M,85.32,VVTS 040800Z 18006KT 8000 -TSRA SCT015 SCT017CB 27/23 Q1006 NOSIG,M
VVTS,4/4/2021 8:30,106.6667,10.8167,82.4,77,83.77,170,5,0,29.71,M,6.21,M,SCT,M,M,M,1700,M,M,M,M,M,M,M,M,M,M,90.85,VVTS 040830Z 17005KT 140V210 9999 SCT017 28/25 Q1006 NOSIG,M
VVTS,4/4/2021 9:00,106.6667,10.8167,86,78.8,79.18,190,4,0,29.71,M,6.21,M,SCT,M,M,M,1700,M,M,M,M,M,M,M,M,M,M,99.38,VVTS 040900Z 19004KT 130V230 9999 SCT017 30/26 Q1006 NOSIG,M
VVTS,4/4/2021 9:30,106.6667,10.8167,87.8,77,70.45,200,5,0,29.71,M,6.21,M,SCT,M,M,M,1700,M,M,M,M,M,M,M,M,M,M,99.92,VVTS 040930Z 20005KT 170V230 9999 SCT017 31/25 Q1006 NOSIG,M
VVTS,4/4/2021 10:00,106.6667,10.8167,87.8,75.2,66.35,200,7,0,29.71,M,6.21,M,FEW,M,M,M,2000,M,M,M,M,M,M,M,M,M,M,97.76,VVTS 041000Z 20007KT 9999 FEW020 31/24 Q1006 NOSIG,M
VVTS,4/4/2021 10:30,106.6667,10.8167,87.8,73.4,62.47,180,8,0,29.74,M,6.21,M,FEW,M,M,M,2000,M,M,M,M,M,M,M,M,M,M,95.86,VVTS 041030Z 18008KT 150V210 9999 FEW020 31/23 Q1007 NOSIG,M
VVTS,4/4/2021 11:00,106.6667,10.8167,86,71.6,62.25,180,9,0,29.74,M,6.21,M,FEW,M,M,M,2000,M,M,M,M,M,M,M,M,M,M,91.92,VVTS 041100Z 18009KT 140V200 9999 FEW020 30/22 Q1007 NOSIG,M
VVTS,4/4/2021 11:30,106.6667,10.8167,86,73.4,66.15,170,7,0,29.74,M,6.21,M,SCT,M,M,M,2000,M,M,M,M,M,M,M,M,M,M,93.45,VVTS 041130Z 17007KT 140V210 9999 SCT020 30/23 Q1007 NOSIG,M
VVTS,4/4/2021 12:00,106.6667,10.8167,84.2,75.2,74.44,160,8,0,29.77,M,6.21,M,SCT,M,M,M,2000,M,M,M,M,M,M,M,M,M,M,92.45,VVTS 041200Z 16008KT 120V200 9999 SCT020 29/24 Q1008 NOSIG,M
VVTS,4/4/2021 12:30,106.6667,10.8167,84.2,75.2,74.44,150,9,0,29.77,M,6.21,M,FEW,M,M,M,2000,M,M,M,M,M,M,M,M,M,M,92.45,VVTS 041230Z 15009KT 130V190 9999 FEW020 29/24 Q1008 NOSIG,M
VVTS,4/4/2021 13:00,106.6667,10.8167,84.2,75.2,74.44,160,7,0,29.8,M,6.21,M,FEW,M,M,M,2000,M,M,M,M,M,M,M,M,M,M,92.45,VVTS 041300Z 16007KT 110V200 9999 FEW020 29/24 Q1009 NOSIG,M
VVTS,4/4/2021 13:30,106.6667,10.8167,84.2,75.2,74.44,150,6,0,29.8,M,6.21,M,FEW,M,M,M,2000,M,M,M,M,M,M,M,M,M,M,92.45,VVTS 041330Z 15006KT 120V190 9999 FEW020 29/24 Q1009 NOSIG,M
VVTS,4/4/2021 14:00,106.6667,10.8167,84.2,75.2,74.44,130,5,0,29.83,M,6.21,M,FEW,SCT,M,M,2000,5000,M,M,M,M,M,M,M,M,M,92.45,VVTS 041400Z 13005KT 100V160 9999 FEW020 SCT050 29/24 Q1010 NOSIG,M
VVTS,4/4/2021 14:30,106.6667,10.8167,84.2,75.2,74.44,150,7,0,29.85,M,6.21,M,FEW,SCT,M,M,2000,5000,M,M,M,M,M,M,M,M,M,92.45,VVTS 041430Z 15007KT 120V190 9999 FEW020 SCT050 29/24 Q1011 NOSIG,M
VVTS,4/4/2021 15:00,106.6667,10.8167,82.4,75.2,78.9,130,5,0,29.85,M,6.21,M,FEW,SCT,M,M,2000,5000,M,M,M,M,M,M,M,M,M,89.48,VVTS 041500Z 13005KT 9999 FEW020 SCT050 28/24 Q1011 NOSIG,M
VVTS,4/4/2021 15:30,106.6667,10.8167,82.4,75.2,78.9,140,8,0,29.85,M,6.21,M,FEW,SCT,M,M,1700,5000,M,M,M,M,M,M,M,M,M,89.48,VVTS 041530Z 14008KT 9999 FEW017 SCT050 28/24 Q1011 NOSIG,M
VVTS,4/4/2021 16:00,106.6667,10.8167,82.4,75.2,78.9,170,5,0,29.85,M,6.21,M,FEW,SCT,M,M,1700,5000,M,M,M,M,M,M,M,M,M,89.48,VVTS 041600Z 17005KT 140V200 9999 FEW017 SCT050 28/24 Q1011 NOSIG,M
VVTS,4/4/2021 16:30,106.6667,10.8167,82.4,75.2,78.9,M,3,0,29.85,M,6.21,M,FEW,SCT,M,M,1700,5000,M,M,M,M,M,M,M,M,M,89.48,VVTS 041630Z VRB03KT 9999 FEW017 SCT050 28/24 Q1011 NOSIG,M
VVTS,4/4/2021 17:00,106.6667,10.8167,82.4,75.2,78.9,160,4,0,29.85,M,6.21,M,FEW,SCT,M,M,1700,5000,M,M,M,M,M,M,M,M,M,89.48,VVTS 041700Z 16004KT 120V210 9999 FEW017 SCT050 28/24 Q1011 NOSIG,M
VVTS,4/4/2021 17:30,106.6667,10.8167,82.4,75.2,78.9,140,6,0,29.83,M,6.21,M,FEW,SCT,M,M,1700,5000,M,M,M,M,M,M,M,M,M,89.48,VVTS 041730Z 14006KT 9999 FEW017 SCT050 28/24 Q1010 NOSIG,M
VVTS,4/4/2021 18:00,106.6667,10.8167,82.4,75.2,78.9,160,5,0,29.8,M,6.21,M,FEW,SCT,M,M,1700,5000,M,M,M,M,M,M,M,M,M,89.48,VVTS 041800Z 16005KT 9999 FEW017 SCT050 28/24 Q1009 NOSIG,M
VVTS,4/4/2021 18:30,106.6667,10.8167,82.4,75.2,78.9,130,5,0,29.8,M,6.21,M,SCT,SCT,M,M,1700,5000,M,M,M,M,M,M,M,M,M,89.48,VVTS 041830Z 13005KT 100V170 9999 SCT017 SCT050 28/24 Q1009 NOSIG,M
VVTS,4/4/2021 19:00,106.6667,10.8167,80.6,75.2,83.66,120,5,0,29.8,M,6.21,M,SCT,SCT,M,M,1700,5000,M,M,M,M,M,M,M,M,M,86.17,VVTS 041900Z 12005KT 9999 SCT017 SCT050 27/24 Q1009 NOSIG,M
VVTS,4/4/2021 19:30,106.6667,10.8167,80.6,75.2,83.66,110,5,0,29.8,M,6.21,M,SCT,SCT,M,M,1700,5000,M,M,M,M,M,M,M,M,M,86.17,VVTS 041930Z 11005KT 9999 SCT017 SCT050 27/24 Q1009 NOSIG,M
VVTS,4/4/2021 20:00,106.6667,10.8167,78.8,75.2,88.75,M,3,0,29.8,M,6.21,M,SCT,SCT,M,M,1700,5000,M,M,M,M,M,M,M,M,M,78.8,VVTS 042000Z VRB03KT 9999 SCT017 SCT050 26/24 Q1009 NOSIG,M
VVTS,4/4/2021 20:30,106.6667,10.8167,78.8,77,94.23,70,3,0,29.8,M,6.21,M,SCT,SCT,M,M,1700,5000,M,M,M,M,M,M,M,M,M,78.8,VVTS 042030Z 07003KT 9999 SCT017 SCT050 26/25 Q1009 NOSIG,M
VVTS,4/4/2021 21:00,106.6667,10.8167,78.8,75.2,88.75,80,4,0,29.8,M,6.21,M,SCT,SCT,M,M,2000,5000,M,M,M,M,M,M,M,M,M,78.8,VVTS 042100Z 08004KT 9999 SCT020 SCT050 26/24 Q1009 NOSIG,M
VVTS,4/4/2021 21:30,106.6667,10.8167,78.8,75.2,88.75,80,4,0,29.8,M,6.21,M,SCT,SCT,M,M,2000,5000,M,M,M,M,M,M,M,M,M,78.8,VVTS 042130Z 08004KT 9999 SCT020 SCT050 26/24 Q1009 NOSIG,M
VVTS,4/4/2021 22:00,106.6667,10.8167,78.8,75.2,88.75,60,4,0,29.83,M,6.21,M,SCT,SCT,M,M,2000,5000,M,M,M,M,M,M,M,M,M,78.8,VVTS 042200Z 06004KT 010V080 9999 SCT020 SCT050 26/24 Q1010 NOSIG,M
VVTS,4/4/2021 22:30,106.6667,10.8167,78.8,77,94.23,10,2,0,29.83,M,6.21,M,SCT,SCT,M,M,2000,5000,M,M,M,M,M,M,M,M,M,78.8,VVTS 042230Z 01002KT 9999 SCT020 SCT050 26/25 Q1010 NOSIG,M
VVTS,4/4/2021 23:00,106.6667,10.8167,78.8,77,94.23,M,1,0,29.83,M,3.73,M,FEW,M,M,M,2000,M,M,M,M,M,M,M,M,M,M,78.8,VVTS 042300Z VRB01KT 6000 FEW020 26/25 Q1010 NOSIG,M
VVTS,4/4/2021 23:30,106.6667,10.8167,78.8,77,94.23,M,3,0,29.85,M,3.73,M,FEW,M,M,M,2000,M,M,M,M,M,M,M,M,M,M,78.8,VVTS 042330Z VRB03KT 6000 FEW020 26/25 Q1011 NOSIG,M
VVTS,4/5/2021 0:00,106.6667,10.8167,78.8,77,94.23,40,4,0,29.85,M,3.73,M,FEW,M,M,M,2000,M,M,M,M,M,M,M,M,M,M,78.8,VVTS 050000Z 04004KT 020V080 6000 FEW020 26/25 Q1011 NOSIG,M
VVTS,4/5/2021 0:30,106.6667,10.8167,80.6,77,88.83,50,6,0,29.85,M,3.73,M,SCT,M,M,M,2000,M,M,M,M,M,M,M,M,M,M,87.59,VVTS 050030Z 05006KT 6000 SCT020 27/25 Q1011 NOSIG,M
VVTS,4/5/2021 1:00,106.6667,10.8167,80.6,77,88.83,20,4,0,29.88,M,4.35,M,FEW,M,M,M,2000,M,M,M,M,M,M,M,M,M,M,87.59,VVTS 050100Z 02004KT 7000 FEW020 27/25 Q1012 NOSIG,M
VVTS,4/5/2021 1:30,106.6667,10.8167,82.4,77,83.77,M,2,0,29.88,M,4.35,M,FEW,M,M,M,2000,M,M,M,M,M,M,M,M,M,M,90.85,VVTS 050130Z VRB02KT 7000 FEW020 28/25 Q1012 NOSIG,M
VVTS,4/5/2021 2:00,106.6667,10.8167,84.2,77,79.04,20,5,0,29.88,M,4.35,M,FEW,M,M,M,2000,M,M,M,M,M,M,M,M,M,M,94.16,VVTS 050200Z 02005KT 250V060 7000 FEW020 29/25 Q1012 NOSIG,M
VVTS,4/5/2021 2:30,106.6667,10.8167,86,77,74.61,40,5,0,29.88,M,4.97,M,SCT,M,M,M,2000,M,M,M,M,M,M,M,M,M,M,97.15,VVTS 050230Z 04005KT 360V070 8000 SCT020 30/25 Q1012 NOSIG,M
VVTS,4/5/2021 3:00,106.6667,10.8167,87.8,77,70.45,40,4,0,29.88,M,4.97,M,SCT,M,M,M,2000,M,M,M,M,M,M,M,M,M,M,99.92,VVTS 050300Z 04004KT 340V090 8000 SCT020 31/25 Q1012 NOSIG,M
VVTS,4/5/2021 3:30,106.6667,10.8167,89.6,75.2,62.68,70,8,0,29.88,M,4.97,M,BKN,M,M,M,2000,M,M,M,M,M,M,M,M,M,M,100.23,VVTS 050330Z 07008KT 040V100 8000 BKN020 32/24 Q1012 NOSIG,M
VVTS,4/5/2021 4:00,106.6667,10.8167,89.6,75.2,62.68,90,5,0,29.85,M,6.21,M,BKN,M,M,M,1700,M,M,M,M,M,M,M,M,M,M,100.23,VVTS 050400Z 09005KT 050V150 9999 BKN017 32/24 Q1011 NOSIG,M
VVTS,4/5/2021 4:30,106.6667,10.8167,91.4,75.2,59.24,140,7,0,29.85,M,6.21,M,BKN,M,M,M,1700,M,M,M,M,M,M,M,M,M,M,102.65,VVTS 050430Z 14007KT 100V170 9999 BKN017 33/24 Q1011 NOSIG,M
VVTS,4/5/2021 5:00,106.6667,10.8167,91.4,73.4,55.77,90,6,0,29.83,M,6.21,M,BKN,M,M,M,1700,M,M,M,M,M,M,M,M,M,M,100.52,VVTS 050500Z 09006KT 040V160 9999 BKN017 33/23 Q1010 NOSIG,M
VVTS,4/5/2021 5:30,106.6667,10.8167,93.2,71.6,49.62,90,6,0,29.8,M,6.21,M,BKN,M,M,M,1700,M,M,M,M,M,M,M,M,M,M,100.88,VVTS 050530Z 09006KT 040V150 9999 BKN017 34/22 Q1009 NOSIG,M
VVTS,4/5/2021 6:00,106.6667,10.8167,93.2,73.4,52.73,M,5,0,29.8,M,6.21,M,BKN,M,M,M,1700,M,M,M,M,M,M,M,M,M,M,102.82,VVTS 050600Z VRB05KT 9999 BKN017 34/23 Q1009 NOSIG,M
VVTS,4/5/2021 6:30,106.6667,10.8167,91.4,75.2,59.24,180,8,0,29.77,M,6.21,M,BKN,M,M,M,1700,M,M,M,M,M,M,M,M,M,M,102.65,VVTS 050630Z 18008KT 140V230 9999 BKN017 33/24 Q1008 NOSIG,M
VVTS,4/5/2021 7:00,106.6667,10.8167,91.4,75.2,59.24,170,9,0,29.77,M,6.21,M,BKN,M,M,M,1700,M,M,M,M,M,M,M,M,M,M,102.65,VVTS 050700Z 17009KT 150V210 9999 BKN017 33/24 Q1008 NOSIG,M
VVTS,4/5/2021 7:30,106.6667,10.8167,93.2,71.6,49.62,200,8,0,29.77,M,6.21,M,BKN,M,M,M,1700,M,M,M,M,M,M,M,M,M,M,100.88,VVTS 050730Z 20008KT 150V260 9999 BKN017 34/22 Q1008 NOSIG,M
VVTS,4/5/2021 8:00,106.6667,10.8167,93.2,69.8,46.67,170,8,0,29.77,M,6.21,M,BKN,M,M,M,1700,M,M,M,M,M,M,M,M,M,M,99.17,VVTS 050800Z 17008KT 130V220 9999 BKN017 34/21 Q1008 NOSIG,M
VVTS,4/5/2021 8:30,106.6667,10.8167,91.4,69.8,49.36,180,9,0,29.74,M,6.21,M,SCT,M,M,M,1700,M,M,M,M,M,M,M,M,M,M,96.99,VVTS 050830Z 18009KT 130V210 9999 SCT017 33/21 Q1007 NOSIG,M
VVTS,4/5/2021 9:00,106.6667,10.8167,89.6,71.6,55.53,180,9,0,29.74,M,6.21,M,SCT,M,M,M,1700,M,M,M,M,M,M,M,M,M,M,96.41,VVTS 050900Z 18009KT 150V220 9999 SCT017 32/22 Q1007 NOSIG,M
VVTS,4/5/2021 9:30,106.6667,10.8167,89.6,71.6,55.53,170,7,0,29.74,M,6.21,M,SCT,SCT,M,M,1700,5000,M,M,M,M,M,M,M,M,M,96.41,VVTS 050930Z 17007KT 140V210 9999 SCT017 SCT050 32/22 Q1007 NOSIG,M
VVTS,4/5/2021 10:00,106.6667,10.8167,87.8,69.8,55.29,170,7,0,29.74,M,6.21,M,SCT,SCT,M,M,1700,5000,M,M,M,M,M,M,M,M,M,92.71,VVTS 051000Z 17007KT 140V200 9999 SCT017 SCT050 31/21 Q1007 NOSIG,M
VVTS,4/5/2021 10:30,106.6667,10.8167,87.8,71.6,58.78,190,9,0,29.74,M,6.21,M,SCT,SCT,M,M,1700,5000,M,M,M,M,M,M,M,M,M,94.18,VVTS 051030Z 19009KT 160V220 9999 SCT017 SCT050 31/22 Q1007 NOSIG,M
VVTS,4/5/2021 11:00,106.6667,10.8167,87.8,71.6,58.78,180,8,0,29.74,M,6.21,M,SCT,SCT,M,M,1700,5000,M,M,M,M,M,M,M,M,M,94.18,VVTS 051100Z 18008KT 140V200 9999 SCT017 SCT050 31/22 Q1007 NOSIG,M
VVTS,4/5/2021 11:30,106.6667,10.8167,86,69.8,58.55,150,7,0,29.74,M,6.21,M,SCT,SCT,M,M,1700,5000,M,M,M,M,M,M,M,M,M,90.58,VVTS 051130Z 15007KT 130V210 9999 SCT017 SCT050 30/21 Q1007 NOSIG,M
VVTS,4/5/2021 12:00,106.6667,10.8167,86,68,55.04,140,8,0,29.74,M,6.21,M,SCT,SCT,M,M,1700,5000,M,M,M,M,M,M,M,M,M,89.41,VVTS 051200Z 14008KT 110V170 9999 SCT017 SCT050 30/20 Q1007 NOSIG,M
VVTS,4/5/2021 12:30,106.6667,10.8167,86,68,55.04,140,9,0,29.77,M,6.21,M,FEW,SCT,M,M,1700,5000,M,M,M,M,M,M,M,M,M,89.41,VVTS 051230Z 14009KT 9999 FEW017 SCT050 30/20 Q1008 NOSIG,M
VVTS,4/5/2021 13:00,106.6667,10.8167,84.2,69.8,62.03,130,8,0,29.77,M,6.21,M,FEW,SCT,M,M,1700,5000,M,M,M,M,M,M,M,M,M,88.43,VVTS 051300Z 13008KT 9999 FEW017 SCT050 29/21 Q1008 NOSIG,M
VVTS,4/5/2021 13:30,106.6667,10.8167,84.2,68,58.32,130,6,0,29.8,M,6.21,M,FEW,SCT,M,M,1700,5000,M,M,M,M,M,M,M,M,M,87.4,VVTS 051330Z 13006KT 110V170 9999 FEW017 SCT050 29/20 Q1009 NOSIG,M
VVTS,4/5/2021 14:00,106.6667,10.8167,84.2,68,58.32,150,5,0,29.83,M,6.21,M,FEW,SCT,M,M,1700,5000,M,M,M,M,M,M,M,M,M,87.4,VVTS 051400Z 15005KT 110V180 9999 FEW017 SCT050 29/20 Q1010 NOSIG,M
VVTS,4/5/2021 14:30,106.6667,10.8167,84.2,68,58.32,140,6,0,29.83,M,6.21,M,FEW,SCT,M,M,1700,5000,M,M,M,M,M,M,M,M,M,87.4,VVTS 051430Z 14006KT 090V170 9999 FEW017 SCT050 29/20 Q1010 NOSIG,M
VVTS,4/5/2021 15:00,106.6667,10.8167,84.2,68,58.32,150,7,0,29.83,M,6.21,M,FEW,SCT,M,M,1700,5000,M,M,M,M,M,M,M,M,M,87.4,VVTS 051500Z 15007KT 9999 FEW017 SCT050 29/20 Q1010 NOSIG,M
VVTS,4/5/2021 15:30,106.6667,10.8167,84.2,68,58.32,160,5,0,29.83,M,6.21,M,SCT,M,M,M,1700,M,M,M,M,M,M,M,M,M,M,87.4,VVTS 051530Z 16005KT 130V200 9999 SCT017 29/20 Q1010 NOSIG,M
VVTS,4/5/2021 16:00,106.6667,10.8167,84.2,68,58.32,150,5,0,29.83,M,6.21,M,SCT,M,M,M,1700,M,M,M,M,M,M,M,M,M,M,87.4,VVTS 051600Z 15005KT 110V190 9999 SCT017 29/20 Q1010 NOSIG,M
VVTS,4/5/2021 16:30,106.6667,10.8167,84.2,68,58.32,160,4,0,29.83,M,6.21,M,SCT,M,M,M,1700,M,M,M,M,M,M,M,M,M,M,87.4,VVTS 051630Z 16004KT 110V210 9999 SCT017 29/20 Q1010 NOSIG,M
VVTS,4/5/2021 17:00,106.6667,10.8167,82.4,69.8,65.74,150,4,0,29.83,M,6.21,M,SCT,M,M,M,1700,M,M,M,M,M,M,M,M,M,M,86.22,VVTS 051700Z 15004KT 120V190 9999 SCT017 28/21 Q1010 NOSIG,M
VVTS,4/5/2021 17:30,106.6667,10.8167,82.4,71.6,69.9,M,3,0,29.83,M,6.21,M,SCT,M,M,M,1700,M,M,M,M,M,M,M,M,M,M,87.18,VVTS 051730Z VRB03KT 9999 SCT017 28/22 Q1010 NOSIG,M
VVTS,4/5/2021 18:00,106.6667,10.8167,82.4,71.6,69.9,140,4,0,29.8,M,6.21,M,SCT,M,M,M,1700,M,M,M,M,M,M,M,M,M,M,87.18,VVTS 051800Z 14004KT 120V180 9999 SCT017 28/22 Q1009 NOSIG,M
VVTS,4/5/2021 18:30,106.6667,10.8167,82.4,69.8,65.74,120,4,0,29.8,M,6.21,M,SCT,SCT,M,M,1700,5000,M,M,M,M,M,M,M,M,M,86.22,VVTS 051830Z 12004KT 9999 SCT017 SCT050 28/21 Q1009 NOSIG,M
VVTS,4/5/2021 19:00,106.6667,10.8167,82.4,69.8,65.74,120,4,0,29.8,M,6.21,M,SCT,SCT,M,M,1700,5000,M,M,M,M,M,M,M,M,M,86.22,VVTS 051900Z 12004KT 080V200 9999 SCT017 SCT050 28/21 Q1009 NOSIG,M
VVTS,4/5/2021 19:30,106.6667,10.8167,82.4,71.6,69.9,110,4,0,29.8,M,6.21,M,SCT,SCT,M,M,1700,5000,M,M,M,M,M,M,M,M,M,87.18,VVTS 051930Z 11004KT 080V150 9999 SCT017 SCT050 28/22 Q1009 NOSIG,M
VVTS,4/5/2021 20:00,106.6667,10.8167,82.4,73.4,74.28,120,5,0,29.8,M,6.21,M,SCT,SCT,M,M,1700,5000,M,M,M,M,M,M,M,M,M,88.26,VVTS 052000Z 12005KT 090V150 9999 SCT017 SCT050 28/23 Q1009 NOSIG,M
VVTS,4/5/2021 20:30,106.6667,10.8167,80.6,73.4,78.76,130,9,0,29.8,M,6.21,M,SCT,SCT,M,M,1700,5000,M,M,M,M,M,M,M,M,M,85.32,VVTS 052030Z 13009KT 9999 SCT017 SCT050 27/23 Q1009 NOSIG,M
VVTS,4/5/2021 21:00,106.6667,10.8167,80.6,73.4,78.76,110,6,0,29.8,M,6.21,M,SCT,SCT,M,M,1700,5000,M,M,M,M,M,M,M,M,M,85.32,VVTS 052100Z 11006KT 090V160 9999 SCT017 SCT050 27/23 Q1009 NOSIG,M
VVTS,4/5/2021 21:30,106.6667,10.8167,80.6,73.4,78.76,110,7,0,29.8,M,6.21,M,SCT,SCT,M,M,1700,5000,M,M,M,M,M,M,M,M,M,85.32,VVTS 052130Z 11007KT 9999 SCT017 SCT050 27/23 Q1009,M
VVTS,4/5/2021 22:00,106.6667,10.8167,78.8,75.2,88.75,80,5,0,29.83,M,6.21,M,SCT,SCT,M,M,1700,5000,M,M,M,M,M,M,M,M,M,78.8,VVTS 052200Z 08005KT 9999 SCT017 SCT050 26/24 Q1010,M
VVTS,4/5/2021 22:30,106.6667,10.8167,78.8,73.4,83.55,90,4,0,29.83,M,6.21,M,SCT,SCT,M,M,1700,5000,M,M,M,M,M,M,M,M,M,78.8,VVTS 052230Z 09004KT 9999 SCT017 SCT050 26/23 Q1010,M
VVTS,4/5/2021 23:00,106.6667,10.8167,78.8,73.4,83.55,80,4,0,29.83,M,6.21,M,FEW,SCT,M,M,1700,5000,M,M,M,M,M,M,M,M,M,78.8,VVTS 052300Z 08004KT 9999 FEW017 SCT050 26/23 Q1010 NOSIG,M
VVTS,4/5/2021 23:30,106.6667,10.8167,78.8,75.2,88.75,70,4,0,29.85,M,6.21,M,FEW,SCT,M,M,1700,5000,M,M,M,M,M,M,M,M,M,78.8,VVTS 052330Z 07004KT 030V100 9999 FEW017 SCT050 26/24 Q1011 NOSIG,M
VVTS,4/6/2021 0:00,106.6667,10.8167,80.6,75.2,83.66,90,5,0,29.85,M,6.21,M,FEW,SCT,M,M,1700,5000,M,M,M,M,M,M,M,M,M,86.17,VVTS 060000Z 09005KT 050V110 9999 FEW017 SCT050 27/24 Q1011 NOSIG,M
VVTS,4/6/2021 0:30,106.6667,10.8167,82.4,73.4,74.28,90,6,0,29.88,M,6.21,M,FEW,SCT,M,M,1700,5000,M,M,M,M,M,M,M,M,M,88.26,VVTS 060030Z 09006KT 9999 FEW017 SCT050 28/23 Q1012 NOSIG,M
VVTS,4/6/2021 1:00,106.6667,10.8167,84.2,73.4,70.08,100,6,0,29.88,M,6.21,M,FEW,M,M,M,1700,M,M,M,M,M,M,M,M,M,M,90.94,VVTS 060100Z 10006KT 070V130 9999 FEW017 29/23 Q1012 NOSIG,M
VVTS,4/6/2021 1:30,106.6667,10.8167,86,71.6,62.25,110,7,0,29.88,M,6.21,M,FEW,M,M,M,1700,M,M,M,M,M,M,M,M,M,M,91.92,VVTS 060130Z 11007KT 080V140 9999 FEW017 30/22 Q1012 NOSIG,M
VVTS,4/6/2021 2:00,106.6667,10.8167,87.8,69.8,55.29,90,7,0,29.88,M,6.21,M,FEW,M,M,M,1700,M,M,M,M,M,M,M,M,M,M,92.71,VVTS 060200Z 09007KT 070V130 9999 FEW017 31/21 Q1012 NOSIG,M
VVTS,4/6/2021 2:30,106.6667,10.8167,89.6,68,49.1,100,7,0,29.88,M,6.21,M,FEW,M,M,M,1700,M,M,M,M,M,M,M,M,M,M,93.47,VVTS 060230Z 10007KT 060V150 9999 FEW017 32/20 Q1012 NOSIG,M
VVTS,4/6/2021 3:00,106.6667,10.8167,91.4,66.2,43.61,100,9,0,29.88,M,6.21,M,FEW,M,M,M,1700,M,M,M,M,M,M,M,M,M,M,94.29,VVTS 060300Z 10009KT 050V130 9999 FEW017 33/19 Q1012 NOSIG,M
VVTS,4/6/2021 3:30,106.6667,10.8167,91.4,66.2,43.61,80,10,0,29.88,M,6.21,M,FEW,M,M,M,1700,M,M,M,M,M,M,M,M,M,M,94.29,VVTS 060330Z 08010KT 050V130 9999 FEW017 33/19 Q1012 NOSIG,M
VVTS,4/6/2021 4:00,106.6667,10.8167,93.2,64.4,38.73,90,10,0,29.85,M,6.21,M,SCT,M,M,M,2000,M,M,M,M,M,M,M,M,M,M,95.2,VVTS 060400Z 09010KT 040V160 9999 SCT020 34/18 Q1011 NOSIG,M
VVTS,4/6/2021 4:30,106.6667,10.8167,93.2,64.4,38.73,80,7,0,29.85,M,6.21,M,SCT,M,M,M,2000,M,M,M,M,M,M,M,M,M,M,95.2,VVTS 060430Z 08007KT 040V160 9999 SCT020 34/18 Q1011 NOSIG,M
VVTS,4/6/2021 5:00,106.6667,10.8167,95,64.4,36.63,80,10,0,29.83,M,6.21,M,SCT,M,M,M,2000,M,M,M,M,M,M,M,M,M,M,97.26,VVTS 060500Z 08010KT 050V130 9999 SCT020 35/18 Q1010 NOSIG,M
VVTS,4/6/2021 5:30,106.6667,10.8167,95,62.6,34.39,110,10,0,29.83,M,6.21,M,SCT,M,M,M,2000,M,M,M,M,M,M,M,M,M,M,96.22,VVTS 060530Z 11010KT 040V140 9999 SCT020 35/17 Q1010 NOSIG,M
VVTS,4/6/2021 6:00,106.6667,10.8167,95,60.8,32.27,80,9,0,29.8,M,6.21,M,BKN,M,M,M,2000,M,M,M,M,M,M,M,M,M,M,95.3,VVTS 060600Z 08009KT 030V140 9999 BKN020 35/16 Q1009 NOSIG,M
VVTS,4/6/2021 6:30,106.6667,10.8167,96.8,62.6,32.54,140,5,0,29.77,M,6.21,M,BKN,M,M,M,2000,M,M,M,M,M,M,M,M,M,M,98.28,VVTS 060630Z 14005KT 070V190 9999 BKN020 36/17 Q1008 NOSIG,M
VVTS,4/6/2021 7:00,106.6667,10.8167,95,64.4,36.63,160,6,0,29.77,M,6.21,M,BKN,M,M,M,2000,M,M,M,M,M,M,M,M,M,M,97.26,VVTS 060700Z 16006KT 070V200 9999 BKN020 35/18 Q1008 NOSIG,M
VVTS,4/6/2021 7:30,106.6667,10.8167,95,66.2,39,160,9,0,29.77,M,6.21,M,BKN,M,M,M,2000,M,M,M,M,M,M,M,M,M,M,98.46,VVTS 060730Z 16009KT 130V200 9999 BKN020 35/19 Q1008 NOSIG,M
VVTS,4/6/2021 8:00,106.6667,10.8167,95,66.2,39,140,10,0,29.77,M,6.21,M,BKN,M,M,M,2000,M,M,M,M,M,M,M,M,M,M,98.46,VVTS 060800Z 14010KT 9999 BKN020 35/19 Q1008 NOSIG,M
VVTS,4/6/2021 8:30,106.6667,10.8167,93.2,64.4,38.73,170,9,0,29.77,M,6.21,M,BKN,M,M,M,2000,M,M,M,M,M,M,M,M,M,M,95.2,VVTS 060830Z 17009KT 150V210 9999 BKN020 34/18 Q1008 NOSIG,M
VVTS,4/6/2021 9:00,106.6667,10.8167,93.2,66.2,41.23,160,8,0,29.74,M,6.21,M,SCT,M,M,M,2000,M,M,M,M,M,M,M,M,M,M,96.35,VVTS 060900Z 16008KT 130V190 9999 SCT020 34/19 Q1007 NOSIG,M
VVTS,4/6/2021 9:30,106.6667,10.8167,91.4,64.4,40.96,160,8,0,29.77,M,6.21,M,SCT,M,M,M,2000,M,M,M,M,M,M,M,M,M,M,93.19,VVTS 060930Z 16008KT 130V200 9999 SCT020 33/18 Q1008 NOSIG,M
VVTS,4/6/2021 10:00,106.6667,10.8167,89.6,66.2,46.14,160,8,0,29.77,M,6.21,M,FEW,M,M,M,2000,M,M,M,M,M,M,M,M,M,M,92.27,VVTS 061000Z 16008KT 120V200 9999 FEW020 32/19 Q1008 NOSIG,M
VVTS,4/6/2021 10:30,106.6667,10.8167,89.6,68,49.1,170,6,0,29.77,M,6.21,M,FEW,M,M,M,2000,M,M,M,M,M,M,M,M,M,M,93.47,VVTS 061030Z 17006KT 130V190 9999 FEW020 32/20 Q1008 NOSIG,M
VVTS,4/6/2021 11:00,106.6667,10.8167,87.8,68,51.98,140,9,0,29.77,M,6.21,M,FEW,M,M,M,2000,M,M,M,M,M,M,M,M,M,M,91.43,VVTS 061100Z 14009KT 110V180 9999 FEW020 31/20 Q1008 NOSIG,M
VVTS,4/6/2021 11:30,106.6667,10.8167,87.8,64.4,45.88,140,10,0,29.8,M,6.21,M,FEW,M,M,M,2000,M,M,M,M,M,M,M,M,M,M,89.33,VVTS 061130Z 14010KT 110V180 9999 FEW020 31/18 Q1009 NOSIG,M
VVTS,4/6/2021 12:00,106.6667,10.8167,87.8,66.2,48.84,140,10,0,29.8,M,6.21,M,FEW,M,M,M,2000,M,M,M,M,M,M,M,M,M,M,90.31,VVTS 061200Z 14010KT 120V180 9999 FEW020 31/19 Q1009 NOSIG,M
VVTS,4/6/2021 12:30,106.6667,10.8167,86,66.2,51.72,150,9,0,29.83,M,6.21,M,FEW,M,M,M,2000,M,M,M,M,M,M,M,M,M,M,88.39,VVTS 061230Z 15009KT 130V190 9999 FEW020 30/19 Q1010 NOSIG,M
VVTS,4/6/2021 13:00,106.6667,10.8167,86,68,55.04,140,10,0,29.83,M,6.21,M,FEW,M,M,M,2000,M,M,M,M,M,M,M,M,M,M,89.41,VVTS 061300Z 14010KT 110V170 9999 FEW020 30/20 Q1010 NOSIG,M
VVTS,4/6/2021 13:30,106.6667,10.8167,86,68,55.04,140,8,0,29.85,M,6.21,M,FEW,M,M,M,2000,M,M,M,M,M,M,M,M,M,M,89.41,VVTS 061330Z 14008KT 110V170 9999 FEW020 30/20 Q1011 NOSIG,M
VVTS,4/6/2021 14:00,106.6667,10.8167,86,68,55.04,140,7,0,29.85,M,6.21,M,FEW,M,M,M,2000,M,M,M,M,M,M,M,M,M,M,89.41,VVTS 061400Z 14007KT 120V180 9999 FEW020 30/20 Q1011 NOSIG,M
VVTS,4/6/2021 14:30,106.6667,10.8167,84.2,69.8,62.03,140,9,0,29.85,M,6.21,M,FEW,M,M,M,2000,M,M,M,M,M,M,M,M,M,M,88.43,VVTS 061430Z 14009KT 9999 FEW020 29/21 Q1011 NOSIG,M
VVTS,4/6/2021 15:30,106.6667,10.8167,84.2,71.6,65.95,140,7,0,29.88,M,6.21,M,FEW,M,M,M,1700,M,M,M,M,M,M,M,M,M,M,89.6,VVTS 061530Z 14007KT 110V170 9999 FEW017 29/22 Q1012 NOSIG,M
VVTS,4/6/2021 16:00,106.6667,10.8167,84.2,71.6,65.95,130,7,0,29.88,M,6.21,M,FEW,M,M,M,1700,M,M,M,M,M,M,M,M,M,M,89.6,VVTS 061600Z 13007KT 9999 FEW017 29/22 Q1012 NOSIG,M
VVTS,4/6/2021 16:30,106.6667,10.8167,84.2,71.6,65.95,140,8,0,29.85,M,6.21,M,FEW,M,M,M,1700,M,M,M,M,M,M,M,M,M,M,89.6,VVTS 061630Z 14008KT 9999 FEW017 29/22 Q1011 NOSIG,M
VVTS,4/6/2021 17:00,106.6667,10.8167,82.4,71.6,69.9,130,9,0,29.85,M,6.21,M,FEW,M,M,M,1700,M,M,M,M,M,M,M,M,M,M,87.18,VVTS 061700Z 13009KT 110V170 9999 FEW017 28/22 Q1011 NOSIG,M
VVTS,4/6/2021 17:30,106.6667,10.8167,82.4,71.6,69.9,120,8,0,29.85,M,6.21,M,FEW,M,M,M,1700,M,M,M,M,M,M,M,M,M,M,87.18,VVTS 061730Z 12008KT 9999 FEW017 28/22 Q1011 NOSIG,M
VVTS,4/6/2021 18:00,106.6667,10.8167,82.4,73.4,74.28,110,7,0,29.85,M,6.21,M,FEW,M,M,M,1700,M,M,M,M,M,M,M,M,M,M,88.26,VVTS 061800Z 11007KT 9999 FEW017 28/23 Q1011 NOSIG,M
VVTS,4/6/2021 18:30,106.6667,10.8167,82.4,73.4,74.28,120,7,0,29.83,M,6.21,M,SCT,M,M,M,1700,M,M,M,M,M,M,M,M,M,M,88.26,VVTS 061830Z 12007KT 9999 SCT017 28/23 Q1010 NOSIG,M
VVTS,4/6/2021 19:00,106.6667,10.8167,80.6,73.4,78.76,150,6,0,29.83,M,6.21,M,SCT,M,M,M,1700,M,M,M,M,M,M,M,M,M,M,85.32,VVTS 061900Z 15006KT 9999 SCT017 27/23 Q1010 NOSIG,M
VVTS,4/6/2021 19:30,106.6667,10.8167,80.6,73.4,78.76,140,6,0,29.83,M,6.21,M,SCT,M,M,M,1700,M,M,M,M,M,M,M,M,M,M,85.32,VVTS 061930Z 14006KT 110V190 9999 SCT017 27/23 Q1010 NOSIG,M
VVTS,4/6/2021 20:00,106.6667,10.8167,80.6,73.4,78.76,M,3,0,29.83,M,6.21,M,SCT,M,M,M,1700,M,M,M,M,M,M,M,M,M,M,85.32,VVTS 062000Z VRB03KT 9999 SCT017 27/23 Q1010 NOSIG,M
VVTS,4/6/2021 20:30,106.6667,10.8167,80.6,73.4,78.76,140,2,0,29.83,M,6.21,M,SCT,M,M,M,1700,M,M,M,M,M,M,M,M,M,M,85.32,VVTS 062030Z 14002KT 9999 SCT017 27/23 Q1010 NOSIG,M
VVTS,4/6/2021 21:00,106.6667,10.8167,80.6,73.4,78.76,130,4,0,29.85,M,6.21,M,SCT,M,M,M,1700,M,M,M,M,M,M,M,M,M,M,85.32,VVTS 062100Z 13004KT 9999 SCT017 27/23 Q1011 NOSIG,M
VVTS,4/6/2021 21:30,106.6667,10.8167,80.6,73.4,78.76,140,4,0,29.85,M,6.21,M,SCT,M,M,M,1700,M,M,M,M,M,M,M,M,M,M,85.32,VVTS 062130Z 14004KT 9999 SCT017 27/23 Q1011 NOSIG,M
VVTS,4/6/2021 22:00,106.6667,10.8167,80.6,73.4,78.76,110,3,0,29.85,M,6.21,M,SCT,M,M,M,1700,M,M,M,M,M,M,M,M,M,M,85.32,VVTS 062200Z 11003KT 9999 SCT017 27/23 Q1011 NOSIG,M
VVTS,4/6/2021 22:30,106.6667,10.8167,78.8,73.4,83.55,110,4,0,29.85,M,6.21,M,SCT,M,M,M,1700,M,M,M,M,M,M,M,M,M,M,78.8,VVTS 062230Z 11004KT 9999 SCT017 26/23 Q1011 NOSIG,M
VVTS,4/6/2021 23:00,106.6667,10.8167,78.8,73.4,83.55,80,4,0,29.85,M,6.21,M,SCT,M,M,M,1700,M,M,M,M,M,M,M,M,M,M,78.8,VVTS 062300Z 08004KT 9999 SCT017 26/23 Q1011 NOSIG,M
VVTS,4/6/2021 23:30,106.6667,10.8167,80.6,73.4,78.76,M,3,0,29.88,M,6.21,M,SCT,M,M,M,1700,M,M,M,M,M,M,M,M,M,M,85.32,VVTS 062330Z VRB03KT 9999 SCT017 27/23 Q1012 NOSIG,M
VVTS,4/7/2021 0:00,106.6667,10.8167,80.6,73.4,78.76,80,4,0,29.88,M,6.21,M,SCT,M,M,M,1700,M,M,M,M,M,M,M,M,M,M,85.32,VVTS 070000Z 08004KT 9999 SCT017 27/23 Q1012 NOSIG,M
VVTS,4/7/2021 0:30,106.6667,10.8167,82.4,73.4,74.28,50,4,0,29.88,M,6.21,M,SCT,M,M,M,1700,M,M,M,M,M,M,M,M,M,M,88.26,VVTS 070030Z 05004KT 020V080 9999 SCT017 28/23 Q1012 NOSIG,M
VVTS,4/7/2021 1:00,106.6667,10.8167,84.2,73.4,70.08,50,7,0,29.91,M,6.21,M,FEW,M,M,M,1700,M,M,M,M,M,M,M,M,M,M,90.94,VVTS 070100Z 05007KT 9999 FEW017 29/23 Q1013 NOSIG,M
VVTS,4/7/2021 1:30,106.6667,10.8167,86,71.6,62.25,50,5,0,29.91,M,6.21,M,FEW,M,M,M,1700,M,M,M,M,M,M,M,M,M,M,91.92,VVTS 070130Z 05005KT 010V090 9999 FEW017 30/22 Q1013 NOSIG,M
VVTS,4/7/2021 2:00,106.6667,10.8167,87.8,69.8,55.29,40,6,0,29.91,M,6.21,M,FEW,M,M,M,1700,M,M,M,M,M,M,M,M,M,M,92.71,VVTS 070200Z 04006KT 010V070 9999 FEW017 31/21 Q1013 NOSIG,M
VVTS,4/7/2021 2:30,106.6667,10.8167,89.6,69.8,52.23,50,6,0,29.91,M,6.21,M,FEW,M,M,M,1700,M,M,M,M,M,M,M,M,M,M,94.85,VVTS 070230Z 05006KT 9999 FEW017 32/21 Q1013 NOSIG,M
VVTS,4/7/2021 3:00,106.6667,10.8167,89.6,69.8,52.23,M,2,0,29.91,M,6.21,M,FEW,M,M,M,2000,M,M,M,M,M,M,M,M,M,M,94.85,VVTS 070300Z VRB02KT 9999 FEW020 32/21 Q1013 NOSIG,M
VVTS,4/7/2021 3:30,106.6667,10.8167,91.4,68,46.41,M,2,0,29.91,M,6.21,M,FEW,M,M,M,2000,M,M,M,M,M,M,M,M,M,M,95.55,VVTS 070330Z VRB02KT 9999 FEW020 33/20 Q1013 NOSIG,M
VVTS,4/7/2021 4:00,106.6667,10.8167,91.4,68,46.41,70,5,0,29.88,M,6.21,M,FEW,M,M,M,2000,M,M,M,M,M,M,M,M,M,M,95.55,VVTS 070400Z 07005KT 330V110 9999 FEW020 33/20 Q1012 NOSIG,M
VVTS,4/7/2021 4:30,106.6667,10.8167,93.2,66.2,41.23,60,6,0,29.85,M,6.21,M,FEW,M,M,M,2000,M,M,M,M,M,M,M,M,M,M,96.35,VVTS 070430Z 06006KT 320V120 9999 FEW020 34/19 Q1011 NOSIG,M
VVTS,4/7/2021 5:00,106.6667,10.8167,95,66.2,39,60,5,0,29.85,M,6.21,M,SCT,M,M,M,2000,M,M,M,M,M,M,M,M,M,M,98.46,VVTS 070500Z 06005KT 350V100 9999 SCT020 35/19 Q1011 NOSIG,M
VVTS,4/7/2021 5:30,106.6667,10.8167,95,68,41.5,M,4,0,29.83,M,6.21,M,SCT,M,M,M,2000,M,M,M,M,M,M,M,M,M,M,99.82,VVTS 070530Z VRB04KT 9999 SCT020 35/20 Q1010 NOSIG,M
VVTS,4/7/2021 6:00,106.6667,10.8167,95,64.4,36.63,80,4,0,29.8,M,4.97,M,SCT,M,M,M,2000,M,M,M,M,M,M,M,M,M,M,97.26,VVTS 070600Z 08004KT 030V170 8000 SCT020 35/18 Q1009 NOSIG,M
VVTS,4/7/2021 6:30,106.6667,10.8167,95,64.4,36.63,M,3,0,29.8,M,6.21,M,SCT,M,M,M,2000,M,M,M,M,M,M,M,M,M,M,97.26,VVTS 070630Z VRB03KT 9999 SCT020 35/18 Q1009 NOSIG,M
VVTS,4/7/2021 7:00,106.6667,10.8167,96.8,64.4,34.66,M,2,0,29.77,M,6.21,M,BKN,M,M,M,2000,M,M,M,M,M,M,M,M,M,M,99.37,VVTS 070700Z VRB02KT 9999 BKN020 36/18 Q1008 NOSIG,M
VVTS,4/7/2021 7:30,106.6667,10.8167,96.8,64.4,34.66,M,3,0,29.77,M,6.21,M,BKN,M,M,M,2000,M,M,M,M,M,M,M,M,M,M,99.37,VVTS 070730Z VRB03KT 9999 BKN020 36/18 Q1008 NOSIG,M
VVTS,4/7/2021 8:00,106.6667,10.8167,93.2,66.2,41.23,M,2,0,29.74,M,6.21,13,BKN,M,M,M,2000,M,M,M,M,M,M,M,M,M,M,96.35,VVTS 070800Z VRB02G13KT 9999 BKN020 34/19 Q1007 NOSIG,M
VVTS,4/7/2021 8:30,106.6667,10.8167,93.2,68,43.88,190,9,0,29.74,M,6.21,M,SCT,FEW,M,M,1700,2000,M,M,M,M,M,M,M,M,M,97.67,VVTS 070830Z 19009KT 140V230 9999 SCT017 FEW020TCU 34/20 Q1007 NOSIG RMK TCU/N,M
VVTS,4/7/2021 9:00,106.6667,10.8167,93.2,66.2,41.23,190,10,0,29.74,M,6.21,M,SCT,FEW,M,M,1700,2000,M,M,M,M,M,M,M,M,M,96.35,VVTS 070900Z 19010KT 150V220 9999 SCT017 FEW020TCU 34/19 Q1007 NOSIG RMK TCU/N,M
VVTS,4/7/2021 9:30,106.6667,10.8167,91.4,66.2,43.61,160,10,0,29.74,M,6.21,M,SCT,FEW,M,M,1700,2000,M,M,M,M,M,M,M,M,M,94.29,VVTS 070930Z 16010KT 130V200 9999 SCT017 FEW020TCU 33/19 Q1007 NOSIG RMK TCU/W,M
VVTS,4/7/2021 10:00,106.6667,10.8167,91.4,66.2,43.61,160,8,0,29.74,M,6.21,M,SCT,FEW,M,M,1700,2000,M,M,M,M,M,M,M,M,M,94.29,VVTS 071000Z 16008KT 140V210 9999 SCT017 FEW020TCU 33/19 Q1007 NOSIG RMK TCU OVER RWY,M
VVTS,4/7/2021 10:30,106.6667,10.8167,89.6,68,49.1,170,8,0,29.77,M,6.21,M,SCT,FEW,M,M,1700,2000,M,M,M,M,M,M,M,M,M,93.47,VVTS 071030Z 17008KT 140V200 9999 SCT017 FEW020CB 32/20 Q1008 NOSIG RMK CB/NW,M
VVTS,4/7/2021 11:00,106.6667,10.8167,87.8,69.8,55.29,160,7,0,29.77,M,6.21,M,SCT,M,M,M,1700,M,M,M,M,M,M,M,M,M,M,92.71,VVTS 071100Z 16007KT 130V200 9999 SCT017 31/21 Q1008 NOSIG,M
VVTS,4/7/2021 11:30,106.6667,10.8167,87.8,73.4,62.47,170,8,0,29.77,M,6.21,M,SCT,M,M,M,1700,M,M,M,M,M,M,M,M,M,M,95.86,VVTS 071130Z 17008KT 140V200 9999 SCT017 31/23 Q1008 NOSIG,M
VVTS,4/7/2021 12:00,106.6667,10.8167,86,73.4,66.15,160,9,0,29.8,M,6.21,M,SCT,M,M,M,1700,M,M,M,M,M,M,M,M,M,M,93.45,VVTS 071200Z 16009KT 130V200 9999 SCT017 30/23 Q1009 NOSIG,M
VVTS,4/7/2021 12:30,106.6667,10.8167,86,75.2,70.27,150,10,0,29.8,M,6.21,M,FEW,M,M,M,1700,M,M,M,M,M,M,M,M,M,M,95.19,VVTS 071230Z 15010KT 100V180 9999 FEW017 30/24 Q1009 NOSIG,M
VVTS,4/7/2021 13:00,106.6667,10.8167,84.2,73.4,70.08,140,8,0,29.8,M,6.21,M,FEW,M,M,M,1700,M,M,M,M,M,M,M,M,M,M,90.94,VVTS 071300Z 14008KT 110V180 9999 FEW017 29/23 Q1009 NOSIG,M
VVTS,4/7/2021 13:30,106.6667,10.8167,84.2,73.4,70.08,140,9,0,29.8,M,6.21,M,FEW,M,M,M,1700,M,M,M,M,M,M,M,M,M,M,90.94,VVTS 071330Z 14009KT 110V180 9999 FEW017 29/23 Q1009 NOSIG,M
VVTS,4/7/2021 14:00,106.6667,10.8167,84.2,75.2,74.44,150,8,0,29.83,M,6.21,M,FEW,M,M,M,1700,M,M,M,M,M,M,M,M,M,M,92.45,VVTS 071400Z 15008KT 120V180 9999 FEW017 29/24 Q1010 NOSIG,M
VVTS,4/7/2021 14:30,106.6667,10.8167,84.2,75.2,74.44,160,7,0,29.83,M,6.21,M,FEW,M,M,M,1700,M,M,M,M,M,M,M,M,M,M,92.45,VVTS 071430Z 16007KT 110V190 9999 FEW017 29/24 Q1010 NOSIG,M
VVTS,4/7/2021 15:00,106.6667,10.8167,84.2,75.2,74.44,170,7,0,29.85,M,6.21,M,FEW,M,M,M,1700,M,M,M,M,M,M,M,M,M,M,92.45,VVTS 071500Z 17007KT 130V200 9999 FEW017 29/24 Q1011 NOSIG,M
VVTS,4/7/2021 15:30,106.6667,10.8167,84.2,75.2,74.44,170,6,0,29.85,M,6.21,M,FEW,M,M,M,2000,M,M,M,M,M,M,M,M,M,M,92.45,VVTS 071530Z 17006KT 140V200 9999 FEW020 29/24 Q1011 NOSIG,M
VVTS,4/7/2021 16:00,106.6667,10.8167,82.4,75.2,78.9,150,5,0,29.85,M,6.21,M,FEW,M,M,M,1700,M,M,M,M,M,M,M,M,M,M,89.48,VVTS 071600Z 15005KT 120V190 9999 FEW017 28/24 Q1011 NOSIG,M
VVTS,4/7/2021 16:30,106.6667,10.8167,82.4,75.2,78.9,140,7,0,29.83,M,6.21,M,FEW,M,M,M,1700,M,M,M,M,M,M,M,M,M,M,89.48,VVTS 071630Z 14007KT 110V180 9999 FEW017 28/24 Q1010 NOSIG,M
VVTS,4/7/2021 17:00,106.6667,10.8167,82.4,75.2,78.9,160,7,0,29.83,M,6.21,M,FEW,M,M,M,1700,M,M,M,M,M,M,M,M,M,M,89.48,VVTS 071700Z 16007KT 120V190 9999 FEW017 28/24 Q1010 NOSIG,M
VVTS,4/7/2021 17:30,106.6667,10.8167,82.4,75.2,78.9,140,6,0,29.83,M,6.21,M,FEW,M,M,M,1700,M,M,M,M,M,M,M,M,M,M,89.48,VVTS 071730Z 14006KT 120V180 9999 FEW017 28/24 Q1010 NOSIG,M
VVTS,4/7/2021 18:00,106.6667,10.8167,82.4,75.2,78.9,130,6,0,29.8,M,6.21,M,FEW,M,M,M,1700,M,M,M,M,M,M,M,M,M,M,89.48,VVTS 071800Z 13006KT 110V180 9999 FEW017 28/24 Q1009 NOSIG,M
VVTS,4/7/2021 18:30,106.6667,10.8167,82.4,75.2,78.9,130,7,0,29.8,M,6.21,M,FEW,SCT,M,M,1700,5000,M,M,M,M,M,M,M,M,M,89.48,VVTS 071830Z 13007KT 090V170 9999 FEW017 SCT050 28/24 Q1009 NOSIG,M
VVTS,4/7/2021 19:00,106.6667,10.8167,82.4,75.2,78.9,120,6,0,29.8,M,6.21,M,FEW,SCT,M,M,1700,5000,M,M,M,M,M,M,M,M,M,89.48,VVTS 071900Z 12006KT 9999 FEW017 SCT050 28/24 Q1009 NOSIG,M
VVTS,4/7/2021 19:30,106.6667,10.8167,82.4,75.2,78.9,140,4,0,29.8,M,6.21,M,FEW,SCT,M,M,1700,5000,M,M,M,M,M,M,M,M,M,89.48,VVTS 071930Z 14004KT 110V180 9999 FEW017 SCT050 28/24 Q1009 NOSIG,M
VVTS,4/7/2021 20:00,106.6667,10.8167,80.6,75.2,83.66,140,5,0,29.8,M,5.59,M,FEW,SCT,M,M,2000,5000,M,M,M,M,M,M,M,M,M,86.17,VVTS 072000Z 14005KT 110V170 9000 FEW020 SCT050 27/24 Q1009 NOSIG,M
VVTS,4/7/2021 20:30,106.6667,10.8167,80.6,75.2,83.66,150,7,0,29.77,M,5.59,M,FEW,SCT,M,M,2000,5000,M,M,M,M,M,M,M,M,M,86.17,VVTS 072030Z 15007KT 9000 FEW020 SCT050 27/24 Q1008 NOSIG,M
VVTS,4/7/2021 21:00,106.6667,10.8167,80.6,75.2,83.66,160,4,0,29.8,M,5.59,M,FEW,SCT,M,M,2000,5000,M,M,M,M,M,M,M,M,M,86.17,VVTS 072100Z 16004KT 120V200 9000 FEW020 SCT050 27/24 Q1009 NOSIG,M
VVTS,4/7/2021 21:30,106.6667,10.8167,80.6,75.2,83.66,170,2,0,29.8,M,5.59,M,FEW,SCT,M,M,2000,5000,M,M,M,M,M,M,M,M,M,86.17,VVTS 072130Z 17002KT 9000 FEW020 SCT050 27/24 Q1009 NOSIG,M
VVTS,4/7/2021 22:00,106.6667,10.8167,80.6,75.2,83.66,M,2,0,29.83,M,5.59,M,FEW,SCT,M,M,2000,5000,M,M,M,M,M,M,M,M,M,86.17,VVTS 072200Z VRB02KT 9000 FEW020 SCT050 27/24 Q1010 NOSIG,M
VVTS,4/7/2021 22:30,106.6667,10.8167,80.6,75.2,83.66,150,6,0,29.83,M,5.59,M,FEW,SCT,M,M,2000,5000,M,M,M,M,M,M,M,M,M,86.17,VVTS 072230Z 15006KT 9000 FEW020 SCT050 27/24 Q1010 NOSIG,M
VVTS,4/7/2021 23:00,106.6667,10.8167,80.6,75.2,83.66,M,3,0,29.83,M,4.97,M,FEW,SCT,M,M,1700,5000,M,M,M,M,M,M,M,M,M,86.17,VVTS 072300Z VRB03KT 8000 FEW017 SCT050 27/24 Q1010 NOSIG,M
VVTS,4/7/2021 23:30,106.6667,10.8167,80.6,75.2,83.66,M,3,0,29.85,M,4.97,M,SCT,SCT,M,M,1700,5000,M,M,M,M,M,M,M,M,M,86.17,VVTS 072330Z VRB03KT 8000 SCT017 SCT050 27/24 Q1011 NOSIG,M
VVTS,4/8/2021 0:00,106.6667,10.8167,82.4,75.2,78.9,140,5,0,29.85,M,6.21,M,SCT,M,M,M,1700,M,M,M,M,M,M,M,M,M,M,89.48,VVTS 080000Z 14005KT 100V170 9999 SCT017 28/24 Q1011 NOSIG,M
VVTS,4/8/2021 0:30,106.6667,10.8167,84.2,77,79.04,130,7,0,29.85,M,6.21,M,SCT,M,M,M,1700,M,M,M,M,M,M,M,M,M,M,94.16,VVTS 080030Z 13007KT 090V170 9999 SCT017 29/25 Q1011 NOSIG,M
VVTS,4/8/2021 1:00,106.6667,10.8167,84.2,75.2,74.44,140,6,0,29.88,M,6.21,M,SCT,M,M,M,1700,M,M,M,M,M,M,M,M,M,M,92.45,VVTS 080100Z 14006KT 090V180 9999 SCT017 29/24 Q1012 NOSIG,M
VVTS,4/8/2021 1:30,106.6667,10.8167,84.2,75.2,74.44,M,4,0,29.88,M,6.21,M,SCT,M,M,M,1700,M,M,M,M,M,M,M,M,M,M,92.45,VVTS 080130Z VRB04KT 9999 SCT017 29/24 Q1012 NOSIG,M
VVTS,4/8/2021 2:00,106.6667,10.8167,86,75.2,70.27,120,6,0,29.88,M,6.21,M,BKN,M,M,M,1700,M,M,M,M,M,M,M,M,M,M,95.19,VVTS 080200Z 12006KT 070V170 9999 BKN017 30/24 Q1012 NOSIG,M
VVTS,4/8/2021 2:30,106.6667,10.8167,86,73.4,66.15,120,4,0,29.88,M,6.21,M,BKN,M,M,M,1700,M,M,M,M,M,M,M,M,M,M,93.45,VVTS 080230Z 12004KT 070V240 9999 BKN017 30/23 Q1012 NOSIG,M
VVTS,4/8/2021 3:00,106.6667,10.8167,87.8,75.2,66.35,M,5,0,29.88,M,6.21,M,BKN,M,M,M,1700,M,M,M,M,M,M,M,M,M,M,97.76,VVTS 080300Z VRB05KT 9999 BKN017 31/24 Q1012 NOSIG,M
VVTS,4/8/2021 3:30,106.6667,10.8167,89.6,73.4,59.01,80,6,0,29.88,M,6.21,M,SCT,M,M,M,1700,M,M,M,M,M,M,M,M,M,M,98.2,VVTS 080330Z 08006KT 020V150 9999 SCT017 32/23 Q1012 NOSIG,M
VVTS,4/8/2021 4:00,106.6667,10.8167,91.4,73.4,55.77,M,3,0,29.88,M,6.21,M,SCT,M,M,M,1700,M,M,M,M,M,M,M,M,M,M,100.52,VVTS 080400Z VRB03KT 9999 SCT017 33/23 Q1012 NOSIG,M
VVTS,4/8/2021 4:30,106.6667,10.8167,89.6,71.6,55.53,50,4,0,29.85,M,6.21,M,SCT,FEW,M,M,1700,2000,M,M,M,M,M,M,M,M,M,96.41,VVTS 080430Z 05004KT 340V090 9999 SCT017 FEW020TCU 32/22 Q1011 NOSIG RMK TCU OVER RWY,M
VVTS,4/8/2021 5:00,106.6667,10.8167,86,75.2,70.27,40,6,0,29.83,M,4.97,M,SCT,FEW,M,M,1700,2000,M,M,M,M,M,M,M,M,M,95.19,VVTS 080500Z 04006KT 350V070 8000 SCT017 FEW020TCU 30/24 Q1010 NOSIG RMK TCU OVER RWY,M
VVTS,4/8/2021 5:30,106.6667,10.8167,86,75.2,70.27,30,5,0,29.83,M,4.97,M,SCT,FEW,M,M,1700,2000,M,M,M,M,M,M,M,M,M,95.19,VVTS 080530Z 03005KT 350V050 8000 SCT017 FEW020TCU 30/24 Q1010 NOSIG RMK TCU/N,M
VVTS,4/8/2021 6:00,106.6667,10.8167,89.6,73.4,59.01,M,2,0,29.8,M,4.97,M,SCT,FEW,M,M,1700,2000,M,M,M,M,M,M,M,M,M,98.2,VVTS 080600Z VRB02KT 8000 SCT017 FEW020TCU 32/23 Q1009 NOSIG RMK TCU/N/SE/W,M
VVTS,4/8/2021 6:30,106.6667,10.8167,89.6,71.6,55.53,M,3,0,29.77,M,4.97,M,SCT,FEW,M,M,1500,1700,M,M,VCTS,M,M,M,M,M,M,96.41,VVTS 080630Z VRB03KT 8000 VCTS SCT015 FEW017CB 32/22 Q1008 NOSIG,M
VVTS,4/8/2021 7:00,106.6667,10.8167,84.2,75.2,74.44,10,11,0,29.77,M,4.35,M,SCT,FEW,SCT,M,1500,1700,5000,M,VCTS,M,M,M,M,M,M,92.45,VVTS 080700Z 01011KT 7000 VCTS SCT015 FEW017CB SCT050 29/24 Q1008 NOSIG RMK CB/E/NW,M
VVTS,4/8/2021 7:30,106.6667,10.8167,84.2,71.6,65.95,40,5,0,29.74,M,4.97,M,SCT,FEW,SCT,M,1500,1700,5000,M,M,M,M,M,M,M,M,89.6,VVTS 080730Z 04005KT 340V090 8000 SCT015 FEW017CB SCT050 29/22 Q1007 NOSIG RMK CB/E/SW,M
VVTS,4/8/2021 8:00,106.6667,10.8167,84.2,73.4,70.08,100,6,0,29.74,M,4.97,M,SCT,FEW,BKN,M,1500,1700,5000,M,M,M,M,M,M,M,M,90.94,VVTS 080800Z 10006KT 8000 SCT015 FEW017CB BKN050 29/23 Q1007 NOSIG RMK CB/SW,M
VVTS,4/8/2021 8:30,106.6667,10.8167,86,73.4,66.15,M,1,0,29.74,M,5.59,M,SCT,BKN,M,M,1700,5000,M,M,M,M,M,M,M,M,M,93.45,VVTS 080830Z VRB01KT 9000 SCT017 BKN050 30/23 Q1007 NOSIG,M
VVTS,4/8/2021 9:00,106.6667,10.8167,86,75.2,70.27,90,4,0,29.74,M,4.35,M,SCT,BKN,M,M,1700,5000,M,M,M,M,M,M,M,M,M,95.19,VVTS 080900Z 09004KT 060V120 7000 SCT017 BKN050 30/24 Q1007 NOSIG,M
VVTS,4/8/2021 9:30,106.6667,10.8167,86,75.2,70.27,100,5,0,29.74,M,4.97,M,FEW,BKN,M,M,1700,5000,M,M,M,M,M,M,M,M,M,95.19,VVTS 080930Z 10005KT 060V140 8000 FEW017 BKN050 30/24 Q1007 NOSIG,M
VVTS,4/8/2021 10:00,106.6667,10.8167,86,75.2,70.27,140,8,0,29.74,M,4.97,M,FEW,SCT,M,M,1700,5000,M,M,M,M,M,M,M,M,M,95.19,VVTS 081000Z 14008KT 110V170 8000 FEW017 SCT050 30/24 Q1007 NOSIG,M
VVTS,4/8/2021 10:30,106.6667,10.8167,84.2,75.2,74.44,140,8,0,29.74,M,4.97,M,FEW,SCT,M,M,1700,5000,M,M,M,M,M,M,M,M,M,92.45,VVTS 081030Z 14008KT 8000 FEW017 SCT050 29/24 Q1007 NOSIG,M
VVTS,4/8/2021 11:00,106.6667,10.8167,84.2,75.2,74.44,140,7,0,29.74,M,4.97,M,FEW,SCT,M,M,1700,5000,M,M,M,M,M,M,M,M,M,92.45,VVTS 081100Z 14007KT 8000 FEW017 SCT050 29/24 Q1007 NOSIG,M
VVTS,4/8/2021 11:30,106.6667,10.8167,84.2,75.2,74.44,150,5,0,29.77,M,4.35,M,FEW,SCT,M,M,1700,5000,M,M,M,M,M,M,M,M,M,92.45,VVTS 081130Z 15005KT 130V190 7000 FEW017 SCT050 29/24 Q1008 NOSIG,M
VVTS,4/8/2021 12:00,106.6667,10.8167,82.4,75.2,78.9,130,6,0,29.77,M,4.35,M,FEW,SCT,M,M,1700,5000,M,M,M,M,M,M,M,M,M,89.48,VVTS 081200Z 13006KT 7000 FEW017 SCT050 28/24 Q1008 NOSIG,M
VVTS,4/8/2021 12:30,106.6667,10.8167,82.4,75.2,78.9,140,7,0,29.77,M,4.97,M,FEW,M,M,M,1700,M,M,M,M,M,M,M,M,M,M,89.48,VVTS 081230Z 14007KT 8000 FEW017 28/24 Q1008 NOSIG,M
VVTS,4/8/2021 13:00,106.6667,10.8167,82.4,75.2,78.9,140,7,0,29.77,M,4.97,M,FEW,M,M,M,1700,M,M,M,M,M,M,M,M,M,M,89.48,VVTS 081300Z 14007KT 120V190 8000 FEW017 28/24 Q1008 NOSIG,M
VVTS,4/8/2021 13:30,106.6667,10.8167,82.4,73.4,74.28,140,7,0,29.77,M,4.97,M,FEW,M,M,M,1700,M,M,M,M,M,M,M,M,M,M,88.26,VVTS 081330Z 14007KT 8000 FEW017 28/23 Q1008 NOSIG,M
VVTS,4/8/2021 14:00,106.6667,10.8167,82.4,73.4,74.28,130,7,0,29.8,M,4.97,M,FEW,M,M,M,1700,M,M,M,M,M,M,M,M,M,M,88.26,VVTS 081400Z 13007KT 8000 FEW017 28/23 Q1009 NOSIG,M
VVTS,4/8/2021 14:30,106.6667,10.8167,82.4,75.2,78.9,130,7,0,29.83,M,4.97,M,FEW,M,M,M,1700,M,M,M,M,M,M,M,M,M,M,89.48,VVTS 081430Z 13007KT 8000 FEW017 28/24 Q1010 NOSIG,M
VVTS,4/8/2021 15:00,106.6667,10.8167,80.6,75.2,83.66,130,7,0,29.83,M,4.97,M,FEW,M,M,M,1700,M,M,M,M,M,M,M,M,M,M,86.17,VVTS 081500Z 13007KT 8000 FEW017 27/24 Q1010 NOSIG,M
VVTS,4/8/2021 15:30,106.6667,10.8167,80.6,77,88.83,130,8,0,29.83,M,4.97,M,FEW,M,M,M,1700,M,M,M,M,M,M,M,M,M,M,87.59,VVTS 081530Z 13008KT 8000 FEW017 27/25 Q1010 NOSIG,M
VVTS,4/8/2021 16:00,106.6667,10.8167,80.6,77,88.83,130,7,0,29.83,M,4.97,M,FEW,M,M,M,1700,M,M,M,M,M,M,M,M,M,M,87.59,VVTS 081600Z 13007KT 8000 FEW017 27/25 Q1010 NOSIG,M
VVTS,4/8/2021 16:30,106.6667,10.8167,80.6,77,88.83,140,7,0,29.83,M,4.97,M,FEW,M,M,M,1700,M,M,M,M,M,M,M,M,M,M,87.59,VVTS 081630Z 14007KT 110V180 8000 FEW017 27/25 Q1010 NOSIG,M
VVTS,4/8/2021 17:00,106.6667,10.8167,80.6,77,88.83,130,8,0,29.83,M,4.97,M,FEW,M,M,M,1700,M,M,M,M,M,M,M,M,M,M,87.59,VVTS 081700Z 13008KT 8000 FEW017 27/25 Q1010 NOSIG,M
VVTS,4/8/2021 17:30,106.6667,10.8167,80.6,77,88.83,130,8,0,29.83,M,4.97,M,FEW,M,M,M,1700,M,M,M,M,M,M,M,M,M,M,87.59,VVTS 081730Z 13008KT 110V170 8000 FEW017 27/25 Q1010 NOSIG,M
VVTS,4/8/2021 18:00,106.6667,10.8167,80.6,77,88.83,130,7,0,29.8,M,4.97,M,FEW,M,M,M,1700,M,M,M,M,M,M,M,M,M,M,87.59,VVTS 081800Z 13007KT 110V170 8000 FEW017 27/25 Q1009 NOSIG,M
VVTS,4/8/2021 18:30,106.6667,10.8167,80.6,77,88.83,130,6,0,29.8,M,4.97,M,FEW,M,M,M,1700,M,M,M,M,M,M,M,M,M,M,87.59,VVTS 081830Z 13006KT 8000 FEW017 27/25 Q1009 NOSIG,M
VVTS,4/8/2021 19:00,106.6667,10.8167,80.6,77,88.83,130,7,0,29.8,M,4.97,M,FEW,M,M,M,1700,M,M,M,M,M,M,M,M,M,M,87.59,VVTS 081900Z 13007KT 8000 FEW017 27/25 Q1009 NOSIG,M
VVTS,4/8/2021 19:30,106.6667,10.8167,80.6,77,88.83,130,7,0,29.77,M,4.97,M,FEW,M,M,M,1700,M,M,M,M,M,M,M,M,M,M,87.59,VVTS 081930Z 13007KT 8000 FEW017 27/25 Q1008 NOSIG,M
VVTS,4/8/2021 20:00,106.6667,10.8167,80.6,77,88.83,140,4,0,29.77,M,4.97,M,FEW,M,M,M,1700,M,M,M,M,M,M,M,M,M,M,87.59,VVTS 082000Z 14004KT 120V180 8000 FEW017 27/25 Q1008 NOSIG,M
VVTS,4/8/2021 20:30,106.6667,10.8167,80.6,77,88.83,M,3,0,29.77,M,4.97,M,FEW,M,M,M,1700,M,M,M,M,M,M,M,M,M,M,87.59,VVTS 082030Z VRB03KT 8000 FEW017 27/25 Q1008 NOSIG,M
VVTS,4/8/2021 21:00,106.6667,10.8167,80.6,77,88.83,M,3,0,29.77,M,4.97,M,FEW,SCT,M,M,1700,5000,M,M,M,M,M,M,M,M,M,87.59,VVTS 082100Z VRB03KT 8000 FEW017 SCT050 27/25 Q1008 NOSIG,M
VVTS,4/8/2021 21:30,106.6667,10.8167,80.6,77,88.83,130,4,0,29.8,M,4.97,M,FEW,SCT,M,M,1700,5000,M,M,M,M,M,M,M,M,M,87.59,VVTS 082130Z 13004KT 100V160 8000 FEW017 SCT050 27/25 Q1009 NOSIG,M
VVTS,4/8/2021 22:00,106.6667,10.8167,80.6,77,88.83,130,4,0,29.8,M,4.97,M,FEW,SCT,M,M,1700,5000,M,M,M,M,M,M,M,M,M,87.59,VVTS 082200Z 13004KT 100V180 8000 FEW017 SCT050 27/25 Q1009 NOSIG,M
VVTS,4/8/2021 22:30,106.6667,10.8167,80.6,77,88.83,130,5,0,29.8,M,4.97,M,FEW,SCT,M,M,1700,5000,M,M,M,M,M,M,M,M,M,87.59,VVTS 082230Z 13005KT 8000 FEW017 SCT050 27/25 Q1009 NOSIG,M
VVTS,4/8/2021 23:00,106.6667,10.8167,80.6,77,88.83,130,5,0,29.8,M,4.35,M,FEW,M,M,M,1700,M,M,M,M,M,M,M,M,M,M,87.59,VVTS 082300Z 13005KT 100V160 7000 FEW017 27/25 Q1009 NOSIG,M
VVTS,4/8/2021 23:30,106.6667,10.8167,80.6,77,88.83,130,3,0,29.83,M,4.97,M,FEW,SCT,M,M,1700,5000,M,M,M,M,M,M,M,M,M,87.59,VVTS 082330Z 13003KT 8000 FEW017 SCT050 27/25 Q1010 NOSIG,M
VVTS,4/9/2021 0:00,106.6667,10.8167,82.4,77,83.77,140,4,0,29.83,M,4.97,M,FEW,SCT,M,M,1700,5000,M,M,M,M,M,M,M,M,M,90.85,VVTS 090000Z 14004KT 8000 FEW017 SCT050 28/25 Q1010 NOSIG,M
VVTS,4/9/2021 0:30,106.6667,10.8167,82.4,77,83.77,M,2,0,29.85,M,4.97,M,FEW,SCT,M,M,1700,5000,M,M,M,M,M,M,M,M,M,90.85,VVTS 090030Z VRB02KT 8000 FEW017 SCT050 28/25 Q1011 NOSIG,M
VVTS,4/9/2021 1:00,106.6667,10.8167,84.2,77,79.04,M,3,0,29.85,M,4.97,M,FEW,SCT,M,M,1700,5000,M,M,M,M,M,M,M,M,M,94.16,VVTS 090100Z VRB03KT 8000 FEW017 SCT050 29/25 Q1011 NOSIG,M
VVTS,4/9/2021 1:30,106.6667,10.8167,84.2,77,79.04,M,1,0,29.85,M,4.35,M,SCT,SCT,M,M,1700,5000,M,M,M,M,M,M,M,M,M,94.16,VVTS 090130Z VRB01KT 7000 SCT017 SCT050 29/25 Q1011 NOSIG,M
VVTS,4/9/2021 2:00,106.6667,10.8167,86,75.2,70.27,120,4,0,29.88,M,4.35,M,SCT,SCT,M,M,1700,5000,M,M,M,M,M,M,M,M,M,95.19,VVTS 090200Z 12004KT 070V200 7000 SCT017 SCT050 30/24 Q1012 NOSIG,M
VVTS,4/9/2021 2:30,106.6667,10.8167,87.8,75.2,66.35,150,4,0,29.88,M,4.35,M,SCT,SCT,M,M,1700,5000,M,M,M,M,M,M,M,M,M,97.76,VVTS 090230Z 15004KT 090V200 7000 SCT017 SCT050 31/24 Q1012 NOSIG,M
VVTS,4/9/2021 3:00,106.6667,10.8167,87.8,75.2,66.35,M,2,0,29.88,M,4.35,M,BKN,M,M,M,1700,M,M,M,M,M,M,M,M,M,M,97.76,VVTS 090300Z VRB02KT 7000 BKN017 31/24 Q1012 NOSIG,M
VVTS,4/9/2021 3:30,106.6667,10.8167,87.8,75.2,66.35,M,3,0,29.85,M,4.97,M,BKN,M,M,M,1700,M,M,M,M,M,M,M,M,M,M,97.76,VVTS 090330Z VRB03KT 8000 BKN017 31/24 Q1011 NOSIG,M
VVTS,4/9/2021 4:00,106.6667,10.8167,87.8,75.2,66.35,M,1,0,29.85,M,4.97,M,BKN,FEW,M,M,1500,1700,M,M,M,M,M,M,M,M,M,97.76,VVTS 090400Z VRB01KT 8000 BKN015 FEW017TCU 31/24 Q1011 NOSIG RMK TCU/W,M
VVTS,4/9/2021 4:30,106.6667,10.8167,87.8,77,70.45,280,4,0,29.83,M,4.35,M,BKN,FEW,M,M,1500,1700,M,M,#NAME?,M,M,M,M,M,M,99.92,VVTS 090430Z 28004KT 7000 -SHRA BKN015 FEW017CB 31/25 Q1010 TEMPO FM0435 TL0515 27015G28KT 3000 TSRA RMK CB OVER RWY,M
VVTS,4/9/2021 5:00,106.6667,10.8167,87.8,77,70.45,250,7,0,29.83,M,4.97,M,BKN,FEW,M,M,1500,1700,M,M,M,M,M,M,M,M,M,99.92,VVTS 090500Z 25007KT 220V310 8000 BKN015 FEW017CB 31/25 Q1010 NOSIG RMK CB/SW,M
VVTS,4/9/2021 5:30,106.6667,10.8167,87.8,73.4,62.47,250,7,0,29.83,M,4.97,M,BKN,FEW,M,M,1500,1700,M,M,M,M,M,M,M,M,M,95.86,VVTS 090530Z 25007KT 8000 BKN015 FEW017CB 31/23 Q1010 NOSIG RMK CB/NE/SW/NW,M
VVTS,4/9/2021 6:00,106.6667,10.8167,86,75.2,70.27,220,8,0,29.8,M,4.35,M,BKN,FEW,M,M,1500,1700,M,M,#NAME?,M,M,M,M,M,M,95.19,VVTS 090600Z 22008KT 7000 -SHRA BKN015 FEW017CB 30/24 Q1009 TEMPO TL0635 5000 TSRA RMK CB OVER RWY,M
VVTS,4/9/2021 6:30,106.6667,10.8167,89.6,75.2,62.68,170,5,0,29.77,M,3.73,M,SCT,SCT,M,M,1500,1700,M,M,#NAME?,M,M,M,M,M,M,100.23,VVTS 090630Z 17005KT 130V220 6000 -SHRA SCT015 SCT017CB 32/24 Q1008 TEMPO TL0635 5000 TSRA RMK CB OVER RWY,M
VVTS,4/9/2021 7:00,106.6667,10.8167,86,73.4,66.15,180,7,0,29.77,M,3.73,M,BKN,FEW,M,M,1500,1700,M,M,#NAME?,M,M,M,M,M,M,93.45,VVTS 090700Z 18007KT 150V210 6000 -SHRA BKN015 FEW017CB 30/23 Q1008 NOSIG RMK CB OVER RWY,M
VVTS,4/9/2021 7:30,106.6667,10.8167,86,71.6,62.25,200,6,0,29.77,M,3.73,M,BKN,FEW,M,M,1500,1700,M,M,#NAME?,M,M,M,M,M,M,91.92,VVTS 090730Z 20006KT 170V230 6000 -SHRA BKN015 FEW017CB 30/22 Q1008 NOSIG RMK CB OVER RWY,M
VVTS,4/9/2021 8:00,106.6667,10.8167,82.4,73.4,74.28,190,10,0,29.74,M,4.97,M,SCT,FEW,BKN,M,1500,1700,5000,M,M,M,M,M,M,M,M,88.26,VVTS 090800Z 19010KT 8000 SCT015 FEW017CB BKN050 28/23 Q1007 NOSIG RMK CB/N/S,M
VVTS,4/9/2021 8:30,106.6667,10.8167,86,75.2,70.27,190,8,0,29.74,M,6.21,M,SCT,FEW,BKN,M,1500,1700,5000,M,M,M,M,M,M,M,M,95.19,VVTS 090830Z 19008KT 9999 SCT015 FEW017CB BKN050 30/24 Q1007 NOSIG RMK CB/NW,M
VVTS,4/9/2021 9:00,106.6667,10.8167,86,75.2,70.27,200,9,0,29.74,M,6.21,M,SCT,BKN,M,M,1500,5000,M,M,M,M,M,M,M,M,M,95.19,VVTS 090900Z 20009KT 160V230 9999 SCT015 BKN050 30/24 Q1007 NOSIG,M
VVTS,4/9/2021 9:30,106.6667,10.8167,86,75.2,70.27,190,8,0,29.74,M,4.97,M,SCT,FEW,BKN,M,1500,1700,5000,M,M,M,M,M,M,M,M,95.19,VVTS 090930Z 19008KT 170V230 8000 SCT015 FEW017TCU BKN050 30/24 Q1007 NOSIG RMK TCU/NE,M
VVTS,4/9/2021 10:00,106.6667,10.8167,86,75.2,70.27,190,7,0,29.74,M,4.97,M,SCT,FEW,BKN,M,1500,1700,5000,M,M,M,M,M,M,M,M,95.19,VVTS 091000Z 19007KT 160V220 8000 SCT015 FEW017CB BKN050 30/24 Q1007 NOSIG RMK CB/NE,M
VVTS,4/9/2021 10:30,106.6667,10.8167,84.2,77,79.04,190,7,0,29.74,M,4.35,M,SCT,FEW,BKN,M,1500,1700,5000,M,#NAME?,M,M,M,M,M,M,94.16,VVTS 091030Z 19007KT 160V220 7000 -SHRA SCT015 FEW017CB BKN050 29/25 Q1007 NOSIG RMK CB OVER RWY,M
VVTS,4/9/2021 11:00,106.6667,10.8167,84.2,75.2,74.44,150,6,0,29.77,M,4.35,M,SCT,FEW,BKN,M,1500,1700,5000,M,#NAME?,M,M,M,M,M,M,92.45,VVTS 091100Z 15006KT 120V190 7000 -SHRA SCT015 FEW017CB BKN050 29/24 Q1008 TEMPO TL1130 5000 TSRA RMK CB OVER RWY,M
VVTS,4/9/2021 11:30,106.6667,10.8167,77,73.4,88.67,190,9,0,29.8,M,3.73,M,SCT,SCT,M,M,1500,1700,M,M,#NAME?,M,M,M,M,M,M,77,VVTS 091130Z 19009KT 130V210 6000 -SHRA SCT015 SCT017CB 25/23 Q1009 RESHRA NOSIG RMK CB OVER RWY,M
VVTS,4/9/2021 12:00,106.6667,10.8167,78.8,75.2,88.75,210,7,0,29.8,M,4.97,M,SCT,SCT,M,M,1500,1700,M,M,M,M,M,M,M,M,M,78.8,VVTS 091200Z 21007KT 8000 SCT015 SCT017CB 26/24 Q1009 NOSIG RMK CB OVER RWY,M
VVTS,4/9/2021 12:30,106.6667,10.8167,80.6,77,88.83,M,3,0,29.8,M,6.21,M,SCT,FEW,M,M,1500,1700,M,M,M,M,M,M,M,M,M,87.59,VVTS 091230Z VRB03KT 9999 SCT015 FEW017CB 27/25 Q1009 NOSIG RMK CB/N/SW/W,M
VVTS,4/9/2021 13:00,106.6667,10.8167,80.6,77,88.83,190,5,0,29.8,M,6.21,M,SCT,FEW,BKN,M,1500,1700,5000,M,M,M,M,M,M,M,M,87.59,VVTS 091300Z 19005KT 9999 SCT015 FEW017CB BKN050 27/25 Q1009 NOSIG,M
VVTS,4/9/2021 13:30,106.6667,10.8167,80.6,77,88.83,150,5,0,29.83,M,6.21,M,SCT,BKN,M,M,1700,5000,M,M,M,M,M,M,M,M,M,87.59,VVTS 091330Z 15005KT 120V180 9999 SCT017 BKN050 27/25 Q1010 NOSIG,M
VVTS,4/9/2021 14:00,106.6667,10.8167,82.4,77,83.77,160,4,0,29.83,M,6.21,M,FEW,BKN,M,M,1700,5000,M,M,M,M,M,M,M,M,M,90.85,VVTS 091400Z 16004KT 120V210 9999 FEW017 BKN050 28/25 Q1010 NOSIG,M
VVTS,4/9/2021 14:30,106.6667,10.8167,82.4,77,83.77,140,5,0,29.85,M,6.21,M,FEW,BKN,M,M,1700,5000,M,M,M,M,M,M,M,M,M,90.85,VVTS 091430Z 14005KT 110V170 9999 FEW017 BKN050 28/25 Q1011 NOSIG,M
VVTS,4/9/2021 15:00,106.6667,10.8167,82.4,75.2,78.9,130,5,0,29.85,M,6.21,M,FEW,BKN,M,M,1700,5000,M,M,M,M,M,M,M,M,M,89.48,VVTS 091500Z 13005KT 9999 FEW017 BKN050 28/24 Q1011 NOSIG,M
VVTS,4/9/2021 15:30,106.6667,10.8167,82.4,75.2,78.9,140,5,0,29.85,M,6.21,M,FEW,BKN,M,M,1700,5000,M,M,M,M,M,M,M,M,M,89.48,VVTS 091530Z 14005KT 120V190 9999 FEW017 BKN050 28/24 Q1011 NOSIG,M
VVTS,4/9/2021 16:00,106.6667,10.8167,82.4,75.2,78.9,M,3,0,29.85,M,6.21,M,FEW,BKN,M,M,1700,5000,M,M,M,M,M,M,M,M,M,89.48,VVTS 091600Z VRB03KT 9999 FEW017 BKN050 28/24 Q1011 NOSIG,M
VVTS,4/9/2021 16:30,106.6667,10.8167,82.4,75.2,78.9,140,4,0,29.85,M,6.21,M,FEW,BKN,M,M,1700,5000,M,M,M,M,M,M,M,M,M,89.48,VVTS 091630Z 14004KT 9999 FEW017 BKN050 28/24 Q1011 NOSIG,M
VVTS,4/9/2021 17:00,106.6667,10.8167,82.4,77,83.77,M,3,0,29.85,M,6.21,M,FEW,BKN,M,M,1700,5000,M,M,M,M,M,M,M,M,M,90.85,VVTS 091700Z VRB03KT 9999 FEW017 BKN050 28/25 Q1011 NOSIG,M
VVTS,4/9/2021 17:30,106.6667,10.8167,82.4,77,83.77,140,4,0,29.85,M,6.21,M,FEW,BKN,M,M,1700,5000,M,M,M,M,M,M,M,M,M,90.85,VVTS 091730Z 14004KT 100V210 9999 FEW017 BKN050 28/25 Q1011 NOSIG,M
VVTS,4/9/2021 18:00,106.6667,10.8167,82.4,77,83.77,140,4,0,29.83,M,6.21,M,FEW,BKN,M,M,1700,5000,M,M,M,M,M,M,M,M,M,90.85,VVTS 091800Z 14004KT 100V180 9999 FEW017 BKN050 28/25 Q1010 NOSIG,M
VVTS,4/9/2021 18:30,106.6667,10.8167,80.6,77,88.83,M,3,0,29.83,M,6.21,M,FEW,SCT,M,M,1700,5000,M,M,M,M,M,M,M,M,M,87.59,VVTS 091830Z VRB03KT 9999 FEW017 SCT050 27/25 Q1010 NOSIG,M
VVTS,4/9/2021 19:00,106.6667,10.8167,80.6,77,88.83,M,2,0,29.83,M,6.21,M,FEW,SCT,M,M,1700,5000,M,M,M,M,M,M,M,M,M,87.59,VVTS 091900Z VRB02KT 9999 FEW017 SCT050 27/25 Q1010 NOSIG,M
VVTS,4/9/2021 19:30,106.6667,10.8167,80.6,77,88.83,M,1,0,29.83,M,6.21,M,FEW,SCT,M,M,1700,5000,M,M,M,M,M,M,M,M,M,87.59,VVTS 091930Z VRB01KT 9999 FEW017 SCT050 27/25 Q1010 NOSIG,M
VVTS,4/9/2021 20:00,106.6667,10.8167,80.6,77,88.83,M,2,0,29.83,M,6.21,M,FEW,SCT,M,M,1700,5000,M,M,M,M,M,M,M,M,M,87.59,VVTS 092000Z VRB02KT 9999 FEW017 SCT050 27/25 Q1010 NOSIG,M
VVTS,4/9/2021 20:30,106.6667,10.8167,80.6,77,88.83,M,2,0,29.8,M,6.21,M,FEW,SCT,M,M,1700,5000,M,M,M,M,M,M,M,M,M,87.59,VVTS 092030Z VRB02KT 9999 FEW017 SCT050 27/25 Q1009 NOSIG,M
VVTS,4/9/2021 21:00,106.6667,10.8167,78.8,77,94.23,140,3,0,29.8,M,6.21,M,FEW,SCT,M,M,1700,5000,M,M,M,M,M,M,M,M,M,78.8,VVTS 092100Z 14003KT 9999 FEW017 SCT050 26/25 Q1009 NOSIG,M
VVTS,4/9/2021 21:30,106.6667,10.8167,80.6,77,88.83,130,5,0,29.83,M,6.21,M,SCT,SCT,M,M,1700,5000,M,M,M,M,M,M,M,M,M,87.59,VVTS 092130Z 13005KT 9999 SCT017 SCT050 27/25 Q1010 NOSIG,M
VVTS,4/9/2021 22:00,106.6667,10.8167,80.6,75.2,83.66,120,4,0,29.83,M,6.21,M,SCT,SCT,M,M,1700,5000,M,M,M,M,M,M,M,M,M,86.17,VVTS 092200Z 12004KT 9999 SCT017 SCT050 27/24 Q1010 NOSIG,M
VVTS,4/9/2021 22:30,106.6667,10.8167,78.8,75.2,88.75,M,3,0,29.85,M,6.21,M,SCT,M,M,M,1700,M,M,M,M,M,M,M,M,M,M,78.8,VVTS 092230Z VRB03KT 9999 SCT017 26/24 Q1011 NOSIG,M
VVTS,4/9/2021 23:00,106.6667,10.8167,78.8,77,94.23,360,3,0,29.85,M,0.93,M,SCT,M,M,M,1500,M,M,M,BR,M,M,M,M,M,M,78.8,VVTS 092300Z 36003KT 1500 R25R/800V1200D BR SCT015 26/25 Q1011 BECMG TL2310 1500 BR,M
VVTS,4/9/2021 23:30,106.6667,10.8167,78.8,77,94.23,350,1,0,29.85,M,1.86,M,SCT,M,M,M,1500,M,M,M,BR,M,M,M,M,M,M,78.8,VVTS 092330Z 35001KT 3000 BR SCT015 26/25 Q1011 BECMG TL2330 2500 BR,M
VVTS,4/10/2021 0:00,106.6667,10.8167,80.6,77,88.83,M,3,0,29.88,M,3.11,M,FEW,M,M,M,1700,M,M,M,BR,M,M,M,M,M,M,87.59,VVTS 100000Z VRB03KT 5000 BR FEW017 27/25 Q1012 NOSIG,M
VVTS,4/10/2021 0:30,106.6667,10.8167,80.6,77,88.83,40,4,0,29.88,M,3.73,M,FEW,M,M,M,1700,M,M,M,M,M,M,M,M,M,M,87.59,VVTS 100030Z 04004KT 010V070 6000 FEW017 27/25 Q1012 NOSIG,M
VVTS,4/10/2021 1:00,106.6667,10.8167,82.4,77,83.77,40,4,0,29.91,M,3.73,M,SCT,M,M,M,1500,M,M,M,M,M,M,M,M,M,M,90.85,VVTS 100100Z 04004KT 360V090 6000 SCT015 28/25 Q1013 NOSIG,M
VVTS,4/10/2021 1:30,106.6667,10.8167,84.2,77,79.04,80,5,0,29.91,M,3.73,M,BKN,M,M,M,1500,M,M,M,M,M,M,M,M,M,M,94.16,VVTS 100130Z 08005KT 060V120 6000 BKN015 29/25 Q1013 NOSIG,M
VVTS,4/10/2021 2:00,106.6667,10.8167,86,77,74.61,90,7,0,29.91,M,3.73,M,BKN,M,M,M,1500,M,M,M,M,M,M,M,M,M,M,97.15,VVTS 100200Z 09007KT 040V110 6000 BKN015 30/25 Q1013 NOSIG,M
VVTS,4/10/2021 2:30,106.6667,10.8167,86,75.2,70.27,90,6,0,29.91,M,4.35,M,SCT,M,M,M,1500,M,M,M,M,M,M,M,M,M,M,95.19,VVTS 100230Z 09006KT 050V130 7000 SCT015 30/24 Q1013 NOSIG,M
VVTS,4/10/2021 3:00,106.6667,10.8167,86,75.2,70.27,60,6,0,29.91,M,4.97,M,SCT,M,M,M,1500,M,M,M,M,M,M,M,M,M,M,95.19,VVTS 100300Z 06006KT 340V120 8000 SCT015 30/24 Q1013 NOSIG,M
VVTS,4/10/2021 3:30,106.6667,10.8167,87.8,75.2,66.35,30,5,0,29.91,M,4.97,M,SCT,M,M,M,1500,M,M,M,M,M,M,M,M,M,M,97.76,VVTS 100330Z 03005KT 340V080 8000 SCT015 31/24 Q1013 NOSIG,M
VVTS,4/10/2021 4:00,106.6667,10.8167,87.8,75.2,66.35,30,4,0,29.88,M,4.97,M,SCT,M,M,M,1500,M,M,M,M,M,M,M,M,M,M,97.76,VVTS 100400Z 03004KT 320V130 8000 SCT015 31/24 Q1012 NOSIG,M
VVTS,4/10/2021 4:30,106.6667,10.8167,89.6,73.4,59.01,40,6,0,29.88,M,4.97,M,BKN,M,M,M,1500,M,M,M,M,M,M,M,M,M,M,98.2,VVTS 100430Z 04006KT 360V070 8000 BKN015 32/23 Q1012 NOSIG,M
VVTS,4/10/2021 5:00,106.6667,10.8167,91.4,73.4,55.77,40,6,0,29.85,M,4.97,M,BKN,M,M,M,1500,M,M,M,M,M,M,M,M,M,M,100.52,VVTS 100500Z 04006KT 340V070 8000 BKN015 33/23 Q1011 NOSIG,M
VVTS,4/10/2021 5:30,106.6667,10.8167,93.2,71.6,49.62,M,3,0,29.85,M,4.97,M,BKN,M,M,M,1500,M,M,M,M,M,M,M,M,M,M,100.88,VVTS 100530Z VRB03KT 8000 BKN015 34/22 Q1011 NOSIG,M
VVTS,4/10/2021 6:00,106.6667,10.8167,91.4,71.6,52.48,40,5,0,29.83,M,6.21,M,BKN,M,M,M,1500,M,M,M,M,M,M,M,M,M,M,98.64,VVTS 100600Z 04005KT 340V070 9999 BKN015 33/22 Q1010 NOSIG,M
VVTS,4/10/2021 6:30,106.6667,10.8167,93.2,71.6,49.62,30,1,0,29.83,M,6.21,M,BKN,M,M,M,1700,M,M,M,M,M,M,M,M,M,M,100.88,VVTS 100630Z 03001KT 9999 BKN017 34/22 Q1010 NOSIG,M
VVTS,4/10/2021 7:00,106.6667,10.8167,93.2,71.6,49.62,M,2,0,29.8,M,6.21,M,BKN,M,M,M,1700,M,M,M,M,M,M,M,M,M,M,100.88,VVTS 100700Z VRB02KT 9999 BKN017 34/22 Q1009 NOSIG,M
VVTS,4/10/2021 7:30,106.6667,10.8167,95,68,41.5,M,1,0,29.8,M,6.21,M,SCT,FEW,M,M,1700,2000,M,M,M,M,M,M,M,M,M,99.82,VVTS 100730Z VRB01KT 9999 SCT017 FEW020TCU 35/20 Q1009 NOSIG RMK TCU/S,M
VVTS,4/10/2021 8:00,106.6667,10.8167,91.4,71.6,52.48,170,4,0,29.77,M,6.21,M,SCT,FEW,M,M,1700,2000,M,M,M,M,M,M,M,M,M,98.64,VVTS 100800Z 17004KT 080V230 9999 SCT017 FEW020TCU 33/22 Q1008 NOSIG RMK TCU/SE/SW,M
VVTS,4/10/2021 8:30,106.6667,10.8167,91.4,73.4,55.77,190,9,0,29.77,M,6.21,M,SCT,M,M,M,1700,M,M,M,M,M,M,M,M,M,M,100.52,VVTS 100830Z 19009KT 150V220 9999 SCT017 33/23 Q1008 NOSIG,M
VVTS,4/10/2021 9:00,106.6667,10.8167,91.4,71.6,52.48,170,9,0,29.77,M,6.21,M,SCT,FEW,M,M,1700,2000,M,M,M,M,M,M,M,M,M,98.64,VVTS 100900Z 17009KT 150V220 9999 SCT017 FEW020TCU 33/22 Q1008 NOSIG RMK TCU/NE/E,M
VVTS,4/10/2021 9:30,106.6667,10.8167,91.4,71.6,52.48,160,10,0,29.77,M,6.21,M,SCT,FEW,M,M,1700,2000,M,M,M,M,M,M,M,M,M,98.64,VVTS 100930Z 16010KT 120V210 9999 SCT017 FEW020TCU 33/22 Q1008 NOSIG RMK TCU/N/SE/NW,M
VVTS,4/10/2021 10:00,106.6667,10.8167,86,75.2,70.27,150,9,0,29.77,M,6.21,M,SCT,FEW,M,M,1500,1700,M,M,M,M,M,M,M,M,M,95.19,VVTS 101000Z 15009KT 110V180 9999 SCT015 FEW017CB 30/24 Q1008 NOSIG RMK CB/N,M
VVTS,4/10/2021 10:30,106.6667,10.8167,86,75.2,70.27,160,9,0,29.8,M,4.97,M,SCT,SCT,M,M,1500,1700,M,M,VCTS,M,M,M,M,M,M,95.19,VVTS 101030Z 16009KT 130V190 8000 VCTS SCT015 SCT017CB 30/24 Q1009 NOSIG RMK CB/N/NE/NW,M
VVTS,4/10/2021 11:00,106.6667,10.8167,87.8,75.2,66.35,150,7,0,29.8,M,4.97,M,SCT,SCT,M,M,1500,1700,M,M,TS,M,M,M,M,M,M,97.76,VVTS 101100Z 15007KT 100V190 8000 TS SCT015 SCT017CB 31/24 Q1009 NOSIG RMK CB OVER RWY,M
VVTS,4/10/2021 11:30,106.6667,10.8167,86,77,74.61,60,8,0,29.83,M,4.97,M,SCT,SCT,M,M,1500,1700,M,M,VCTS,M,M,M,M,M,M,97.15,VVTS 101130Z 06008KT 320V130 8000 VCTS SCT015 SCT017CB 30/25 Q1010 RETS NOSIG RMK CB/NW,M
VVTS,4/10/2021 12:00,106.6667,10.8167,82.4,77,83.77,M,3,0,29.85,M,4.97,M,SCT,FEW,SCT,M,1500,1700,5000,M,M,M,M,M,M,M,M,90.85,VVTS 101200Z VRB03KT 8000 SCT015 FEW017CB SCT050 28/25 Q1011 NOSIG RMK CB/W/NW,M
VVTS,4/10/2021 12:30,106.6667,10.8167,80.6,77,88.83,340,4,0,29.85,M,4.97,M,SCT,SCT,M,M,1700,5000,M,M,M,M,M,M,M,M,M,87.59,VVTS 101230Z 34004KT 300V010 8000 SCT017 SCT050 27/25 Q1011 NOSIG,M
VVTS,4/10/2021 13:00,106.6667,10.8167,80.6,77,88.83,360,7,0,29.85,M,4.97,M,SCT,SCT,M,M,1700,5000,M,M,M,M,M,M,M,M,M,87.59,VVTS 101300Z 36007KT 270V020 8000 SCT017 SCT050 27/25 Q1011 NOSIG,M
VVTS,4/10/2021 13:30,106.6667,10.8167,80.6,77,88.83,M,3,0,29.88,M,4.97,M,SCT,SCT,M,M,1700,5000,M,M,M,M,M,M,M,M,M,87.59,VVTS 101330Z VRB03KT 8000 SCT017 SCT050 27/25 Q1012 NOSIG,M
VVTS,4/10/2021 14:00,106.6667,10.8167,80.6,77,88.83,M,1,0,29.88,M,4.97,M,SCT,SCT,M,M,1700,5000,M,M,M,M,M,M,M,M,M,87.59,VVTS 101400Z VRB01KT 8000 SCT017 SCT050 27/25 Q1012 NOSIG,M
VVTS,4/10/2021 14:30,106.6667,10.8167,80.6,75.2,83.66,M,1,0,29.88,M,4.97,M,SCT,SCT,M,M,1700,5000,M,M,M,M,M,M,M,M,M,86.17,VVTS 101430Z VRB01KT 8000 SCT017 SCT050 27/24 Q1012 NOSIG,M
VVTS,4/10/2021 15:00,106.6667,10.8167,80.6,75.2,83.66,M,1,0,29.88,M,4.97,M,FEW,SCT,M,M,1700,5000,M,M,M,M,M,M,M,M,M,86.17,VVTS 101500Z VRB01KT 8000 FEW017 SCT050 27/24 Q1012 NOSIG,M
VVTS,4/10/2021 15:30,106.6667,10.8167,82.4,75.2,78.9,140,5,0,29.88,M,6.21,M,FEW,SCT,M,M,1700,5000,M,M,M,M,M,M,M,M,M,89.48,VVTS 101530Z 14005KT 060V200 9999 FEW017 SCT050 28/24 Q1012 NOSIG,M
VVTS,4/10/2021 16:00,106.6667,10.8167,82.4,75.2,78.9,140,8,0,29.88,M,6.21,M,FEW,SCT,M,M,1700,5000,M,M,M,M,M,M,M,M,M,89.48,VVTS 101600Z 14008KT 110V200 9999 FEW017 SCT050 28/24 Q1012 NOSIG,M
VVTS,4/10/2021 16:30,106.6667,10.8167,82.4,75.2,78.9,140,5,0,29.88,M,6.21,M,FEW,SCT,M,M,1700,5000,M,M,M,M,M,M,M,M,M,89.48,VVTS 101630Z 14005KT 110V180 9999 FEW017 SCT050 28/24 Q1012 NOSIG,M
VVTS,4/10/2021 17:00,106.6667,10.8167,82.4,75.2,78.9,130,6,0,29.88,M,6.21,M,FEW,SCT,M,M,1700,5000,M,M,M,M,M,M,M,M,M,89.48,VVTS 101700Z 13006KT 100V160 9999 FEW017 SCT050 28/24 Q1012 NOSIG,M
VVTS,4/10/2021 17:30,106.6667,10.8167,82.4,75.2,78.9,130,5,0,29.88,M,6.21,M,FEW,SCT,M,M,2000,5000,M,M,M,M,M,M,M,M,M,89.48,VVTS 101730Z 13005KT 9999 FEW020 SCT050 28/24 Q1012 NOSIG,M
VVTS,4/10/2021 18:00,106.6667,10.8167,82.4,75.2,78.9,140,4,0,29.88,M,6.21,M,FEW,SCT,M,M,2000,5000,M,M,M,M,M,M,M,M,M,89.48,VVTS 101800Z 14004KT 110V190 9999 FEW020 SCT050 28/24 Q1012 NOSIG,M
VVTS,4/10/2021 18:30,106.6667,10.8167,82.4,75.2,78.9,120,5,0,29.85,M,4.97,M,FEW,SCT,M,M,2000,5000,M,M,M,M,M,M,M,M,M,89.48,VVTS 101830Z 12005KT 070V140 8000 FEW020 SCT050 28/24 Q1011 NOSIG,M
VVTS,4/10/2021 19:00,106.6667,10.8167,82.4,73.4,74.28,120,6,0,29.85,M,4.97,M,FEW,SCT,M,M,2000,5000,M,M,M,M,M,M,M,M,M,88.26,VVTS 101900Z 12006KT 8000 FEW020 SCT050 28/23 Q1011 NOSIG,M
VVTS,4/10/2021 19:30,106.6667,10.8167,82.4,73.4,74.28,110,7,0,29.85,M,4.97,M,FEW,SCT,M,M,2000,5000,M,M,M,M,M,M,M,M,M,88.26,VVTS 101930Z 11007KT 8000 FEW020 SCT050 28/23 Q1011 NOSIG,M
VVTS,4/10/2021 20:00,106.6667,10.8167,82.4,73.4,74.28,120,7,0,29.85,M,4.97,M,FEW,SCT,M,M,2000,5000,M,M,M,M,M,M,M,M,M,88.26,VVTS 102000Z 12007KT 080V170 8000 FEW020 SCT050 28/23 Q1011 NOSIG,M
VVTS,4/10/2021 20:30,106.6667,10.8167,82.4,73.4,74.28,120,7,0,29.85,M,4.97,M,FEW,SCT,M,M,2000,5000,M,M,M,M,M,M,M,M,M,88.26,VVTS 102030Z 12007KT 070V150 8000 FEW020 SCT050 28/23 Q1011 NOSIG,M
VVTS,4/10/2021 21:00,106.6667,10.8167,80.6,73.4,78.76,120,8,0,29.85,M,4.97,M,SCT,SCT,M,M,1700,5000,M,M,M,M,M,M,M,M,M,85.32,VVTS 102100Z 12008KT 8000 SCT017 SCT050 27/23 Q1011 NOSIG,M
VVTS,4/10/2021 21:30,106.6667,10.8167,80.6,73.4,78.76,110,8,0,29.85,M,4.97,M,SCT,SCT,M,M,1700,5000,M,M,M,M,M,M,M,M,M,85.32,VVTS 102130Z 11008KT 8000 SCT017 SCT050 27/23 Q1011 NOSIG,M
VVTS,4/10/2021 22:00,106.6667,10.8167,80.6,73.4,78.76,110,5,0,29.85,M,4.97,M,SCT,SCT,M,M,1700,5000,M,M,M,M,M,M,M,M,M,85.32,VVTS 102200Z 11005KT 8000 SCT017 SCT050 27/23 Q1011 NOSIG,M
VVTS,4/10/2021 22:30,106.6667,10.8167,80.6,73.4,78.76,110,6,0,29.85,M,4.97,M,FEW,SCT,M,M,1700,5000,M,M,M,M,M,M,M,M,M,85.32,VVTS 102230Z 11006KT 8000 FEW017 SCT050 27/23 Q1011 NOSIG,M
VVTS,4/10/2021 23:00,106.6667,10.8167,80.6,73.4,78.76,100,6,0,29.85,M,4.97,M,FEW,SCT,M,M,1700,5000,M,M,M,M,M,M,M,M,M,85.32,VVTS 102300Z 10006KT 8000 FEW017 SCT050 27/23 Q1011 NOSIG,M
VVTS,4/10/2021 23:30,106.6667,10.8167,82.4,73.4,74.28,90,5,0,29.88,M,6.21,M,FEW,SCT,M,M,1700,5000,M,M,M,M,M,M,M,M,M,88.26,VVTS 102330Z 09005KT 060V130 9999 FEW017 SCT050 28/23 Q1012 NOSIG,M
VVTS,4/11/2021 0:00,106.6667,10.8167,82.4,73.4,74.28,70,5,0,29.91,M,6.21,M,FEW,M,M,M,1700,M,M,M,M,M,M,M,M,M,M,88.26,VVTS 110000Z 07005KT 9999 FEW017 28/23 Q1013 NOSIG,M
VVTS,4/11/2021 0:30,106.6667,10.8167,84.2,75.2,74.44,90,5,0,29.91,M,6.21,M,FEW,M,M,M,1700,M,M,M,M,M,M,M,M,M,M,92.45,VVTS 110030Z 09005KT 050V120 9999 FEW017 29/24 Q1013 NOSIG,M
VVTS,4/11/2021 1:00,106.6667,10.8167,86,73.4,66.15,100,5,0,29.91,M,6.21,M,FEW,M,M,M,1700,M,M,M,M,M,M,M,M,M,M,93.45,VVTS 110100Z 10005KT 060V140 9999 FEW017 30/23 Q1013 NOSIG,M
VVTS,4/11/2021 1:30,106.6667,10.8167,86,73.4,66.15,80,7,0,29.94,M,6.21,M,M,M,M,M,M,M,M,M,M,M,M,M,M,M,M,93.45,VVTS 110130Z 08007KT 050V120 CAVOK 30/23 Q1014 NOSIG,M
VVTS,4/11/2021 2:00,106.6667,10.8167,87.8,73.4,62.47,60,6,0,29.94,M,6.21,M,M,M,M,M,M,M,M,M,M,M,M,M,M,M,M,95.86,VVTS 110200Z 06006KT 010V100 CAVOK 31/23 Q1014 NOSIG,M
VVTS,4/11/2021 2:30,106.6667,10.8167,89.6,71.6,55.53,100,6,0,29.91,M,6.21,M,FEW,M,M,M,2000,M,M,M,M,M,M,M,M,M,M,96.41,VVTS 110230Z 10006KT 050V130 9999 FEW020 32/22 Q1013 NOSIG,M
VVTS,4/11/2021 3:00,106.6667,10.8167,89.6,69.8,52.23,110,7,0,29.91,M,6.21,M,FEW,M,M,M,2000,M,M,M,M,M,M,M,M,M,M,94.85,VVTS 110300Z 11007KT 060V160 9999 FEW020 32/21 Q1013 NOSIG,M
VVTS,4/11/2021 3:30,106.6667,10.8167,91.4,69.8,49.36,100,10,0,29.91,M,6.21,M,FEW,M,M,M,2000,M,M,M,M,M,M,M,M,M,M,96.99,VVTS 110330Z 10010KT 060V140 9999 FEW020 33/21 Q1013 NOSIG,M
VVTS,4/11/2021 4:00,106.6667,10.8167,93.2,69.8,46.67,90,9,0,29.91,M,6.21,M,SCT,M,M,M,2000,M,M,M,M,M,M,M,M,M,M,99.17,VVTS 110400Z 09009KT 060V140 9999 SCT020 34/21 Q1013 NOSIG,M
VVTS,4/11/2021 4:30,106.6667,10.8167,95,69.8,44.14,90,10,0,29.91,M,6.21,M,SCT,M,M,M,2000,M,M,M,M,M,M,M,M,M,M,101.37,VVTS 110430Z 09010KT 040V180 9999 SCT020 35/21 Q1013 NOSIG,M
VVTS,4/11/2021 5:00,106.6667,10.8167,95,68,41.5,120,9,0,29.88,M,6.21,21,SCT,M,M,M,2000,M,M,M,M,M,M,M,M,M,M,99.82,VVTS 110500Z 12009G21KT 050V180 9999 SCT020 35/20 Q1012 NOSIG,M
VVTS,4/11/2021 5:30,106.6667,10.8167,93.2,68,43.88,120,8,0,29.88,M,6.21,M,SCT,M,M,M,2000,M,M,M,M,M,M,M,M,M,M,97.67,VVTS 110530Z 12008KT 070V200 9999 SCT020 34/20 Q1012 NOSIG,M
VVTS,4/11/2021 6:00,106.6667,10.8167,93.2,69.8,46.67,130,7,0,29.85,M,6.21,M,BKN,M,M,M,2000,M,M,M,M,M,M,M,M,M,M,99.17,VVTS 110600Z 13007KT 050V190 9999 BKN020 34/21 Q1011 NOSIG,M
VVTS,4/11/2021 6:30,106.6667,10.8167,89.6,71.6,55.53,180,7,0,29.85,M,6.21,M,BKN,FEW,M,M,1700,2000,M,M,M,M,M,M,M,M,M,96.41,VVTS 110630Z 18007KT 9999 BKN017 FEW020TCU 32/22 Q1011 TEMPO TL1635 4000 SHRA RMK TCU OVER RWY,M
VVTS,4/11/2021 7:00,106.6667,10.8167,87.8,75.2,66.35,190,5,0,29.83,M,4.97,M,BKN,FEW,M,M,1500,1700,M,M,#NAME?,M,M,M,M,M,M,97.76,VVTS 110700Z 19005KT 150V220 8000 -SHRA BKN015 FEW017CB 31/24 Q1010 TEMPO TL0735 19015G28KT 3000 TSRA RMK CB OVER RWY,M
VVTS,4/11/2021 7:30,106.6667,10.8167,84.2,75.2,74.44,150,8,0,29.83,M,2.49,M,SCT,FEW,BKN,M,1500,1700,4000,M,SHRA,M,M,M,M,M,M,92.45,VVTS 110730Z 15008KT 120V210 4000 SHRA SCT015 FEW017CB BKN040 29/24 Q1010 TEMPO TL0755 19015G28KT 3000 TSRA RMK CB OVER RWY,M
VVTS,4/11/2021 8:00,106.6667,10.8167,82.4,77,83.77,160,10,0,29.83,M,3.73,M,SCT,FEW,BKN,M,1500,1700,4000,M,#NAME?,M,M,M,M,M,M,90.85,VVTS 110800Z 16010KT 130V210 6000 -TSRA SCT015 FEW017CB BKN040 28/25 Q1010 NOSIG RMK CB OVER RWY,M
VVTS,4/11/2021 8:30,106.6667,10.8167,84.2,78.8,83.88,190,4,0,29.83,M,6.21,M,SCT,FEW,SCT,M,1500,1700,5000,M,M,M,M,M,M,M,M,96.1,VVTS 110830Z 19004KT 150V220 9999 SCT015 FEW017CB SCT050 29/26 Q1010 NOSIG RMK CB/N/NE/W,M
VVTS,4/11/2021 9:00,106.6667,10.8167,89.6,75.2,62.68,190,7,0,29.8,M,6.21,M,SCT,FEW,M,M,1700,2000,M,M,M,M,M,M,M,M,M,100.23,VVTS 110900Z 19007KT 150V240 9999 SCT017 FEW020CB 32/24 Q1009 NOSIG,M
VVTS,4/11/2021 9:30,106.6667,10.8167,89.6,71.6,55.53,180,8,0,29.8,M,6.21,M,SCT,FEW,M,M,1700,2000,M,M,M,M,M,M,M,M,M,96.41,VVTS 110930Z 18008KT 150V210 9999 SCT017 FEW020CB 32/22 Q1009 NOSIG RMK CB/NE,M
VVTS,4/11/2021 10:00,106.6667,10.8167,89.6,71.6,55.53,170,8,0,29.8,M,6.21,M,SCT,FEW,M,M,1700,2000,M,M,M,M,M,M,M,M,M,96.41,VVTS 111000Z 17008KT 140V200 9999 SCT017 FEW020CB 32/22 Q1009 NOSIG RMK CB/NE,M
VVTS,4/11/2021 10:30,106.6667,10.8167,87.8,71.6,58.78,160,8,0,29.83,M,6.21,M,SCT,M,M,M,1700,M,M,M,M,M,M,M,M,M,M,94.18,VVTS 111030Z 16008KT 130V190 9999 SCT017 31/22 Q1010 NOSIG,M
VVTS,4/11/2021 11:00,106.6667,10.8167,87.8,71.6,58.78,150,5,0,29.83,M,6.21,M,FEW,M,M,M,1700,M,M,M,M,M,M,M,M,M,M,94.18,VVTS 111100Z 15005KT 130V190 9999 FEW017 31/22 Q1010 NOSIG,M
VVTS,4/11/2021 11:30,106.6667,10.8167,86,73.4,66.15,150,6,0,29.83,M,6.21,M,FEW,M,M,M,1700,M,M,M,M,M,M,M,M,M,M,93.45,VVTS 111130Z 15006KT 130V190 9999 FEW017 30/23 Q1010 NOSIG,M
VVTS,4/11/2021 12:00,106.6667,10.8167,86,73.4,66.15,150,6,0,29.85,M,6.21,M,FEW,SCT,M,M,1700,5000,M,M,M,M,M,M,M,M,M,93.45,VVTS 111200Z 15006KT 120V190 9999 FEW017 SCT050 30/23 Q1011 NOSIG,M
VVTS,4/11/2021 12:30,106.6667,10.8167,86,71.6,62.25,130,7,0,29.85,M,6.21,M,FEW,SCT,M,M,1700,5000,M,M,M,M,M,M,M,M,M,91.92,VVTS 111230Z 13007KT 9999 FEW017 SCT050 30/22 Q1011 NOSIG,M
VVTS,4/11/2021 13:00,106.6667,10.8167,84.2,71.6,65.95,130,8,0,29.85,M,6.21,M,FEW,SCT,M,M,1700,5000,M,M,M,M,M,M,M,M,M,89.6,VVTS 111300Z 13008KT 9999 FEW017 SCT050 29/22 Q1011 NOSIG,M
VVTS,4/11/2021 13:30,106.6667,10.8167,84.2,71.6,65.95,130,9,0,29.85,M,6.21,M,FEW,SCT,M,M,1700,5000,M,M,M,M,M,M,M,M,M,89.6,VVTS 111330Z 13009KT 9999 FEW017 SCT050 29/22 Q1011 NOSIG,M
VVTS,4/11/2021 14:00,106.6667,10.8167,84.2,73.4,70.08,110,7,0,29.88,M,6.21,M,FEW,SCT,M,M,1700,5000,M,M,M,M,M,M,M,M,M,90.94,VVTS 111400Z 11007KT 9999 FEW017 SCT050 29/23 Q1012 NOSIG,M
VVTS,4/11/2021 14:30,106.6667,10.8167,84.2,73.4,70.08,130,6,0,29.91,M,6.21,M,FEW,SCT,M,M,2000,5000,M,M,M,M,M,M,M,M,M,90.94,VVTS 111430Z 13006KT 9999 FEW020 SCT050 29/23 Q1013 NOSIG,M
VVTS,4/11/2021 15:00,106.6667,10.8167,82.4,75.2,78.9,140,7,0,29.91,M,6.21,M,FEW,SCT,M,M,2000,5000,M,M,M,M,M,M,M,M,M,89.48,VVTS 111500Z 14007KT 9999 FEW020 SCT050 28/24 Q1013 NOSIG,M
VVTS,4/11/2021 15:30,106.6667,10.8167,82.4,75.2,78.9,140,6,0,29.91,M,6.21,M,FEW,SCT,M,M,2000,5000,M,M,M,M,M,M,M,M,M,89.48,VVTS 111530Z 14006KT 110V170 9999 FEW020 SCT050 28/24 Q1013 NOSIG,M
VVTS,4/11/2021 16:00,106.6667,10.8167,82.4,75.2,78.9,140,6,0,29.91,M,6.21,M,FEW,SCT,M,M,2000,5000,M,M,M,M,M,M,M,M,M,89.48,VVTS 111600Z 14006KT 110V180 9999 FEW020 SCT050 28/24 Q1013 NOSIG,M
VVTS,4/11/2021 16:30,106.6667,10.8167,82.4,75.2,78.9,140,5,0,29.91,M,6.21,M,FEW,SCT,M,M,2000,5000,M,M,M,M,M,M,M,M,M,89.48,VVTS 111630Z 14005KT 110V190 9999 FEW020 SCT050 28/24 Q1013 NOSIG,M
VVTS,4/11/2021 17:00,106.6667,10.8167,82.4,73.4,74.28,140,5,0,29.88,M,6.21,M,FEW,SCT,M,M,2000,5000,M,M,M,M,M,M,M,M,M,88.26,VVTS 111700Z 14005KT 9999 FEW020 SCT050 28/23 Q1012 NOSIG,M
VVTS,4/11/2021 17:30,106.6667,10.8167,82.4,73.4,74.28,120,6,0,29.88,M,6.21,M,FEW,SCT,M,M,2000,5000,M,M,M,M,M,M,M,M,M,88.26,VVTS 111730Z 12006KT 9999 FEW020 SCT050 28/23 Q1012 NOSIG,M
VVTS,4/11/2021 18:00,106.6667,10.8167,80.6,73.4,78.76,130,6,0,29.88,M,6.21,M,FEW,SCT,M,M,2000,5000,M,M,M,M,M,M,M,M,M,85.32,VVTS 111800Z 13006KT 9999 FEW020 SCT050 27/23 Q1012 NOSIG,M
VVTS,4/11/2021 18:30,106.6667,10.8167,82.4,73.4,74.28,140,4,0,29.88,M,6.21,M,FEW,SCT,M,M,1700,5000,M,M,M,M,M,M,M,M,M,88.26,VVTS 111830Z 14004KT 100V160 9999 FEW017 SCT050 28/23 Q1012 NOSIG,M
VVTS,4/11/2021 19:00,106.6667,10.8167,80.6,73.4,78.76,130,4,0,29.85,M,6.21,M,FEW,SCT,M,M,1700,5000,M,M,M,M,M,M,M,M,M,85.32,VVTS 111900Z 13004KT 9999 FEW017 SCT050 27/23 Q1011 NOSIG,M
VVTS,4/11/2021 19:30,106.6667,10.8167,80.6,73.4,78.76,100,4,0,29.85,M,6.21,M,FEW,SCT,M,M,1700,5000,M,M,M,M,M,M,M,M,M,85.32,VVTS 111930Z 10004KT 9999 FEW017 SCT050 27/23 Q1011 NOSIG,M
VVTS,4/11/2021 20:00,106.6667,10.8167,80.6,73.4,78.76,110,5,0,29.85,M,6.21,M,FEW,SCT,M,M,1700,5000,M,M,M,M,M,M,M,M,M,85.32,VVTS 112000Z 11005KT 9999 FEW017 SCT050 27/23 Q1011 NOSIG,M
VVTS,4/11/2021 20:30,106.6667,10.8167,80.6,73.4,78.76,M,3,0,29.85,M,6.21,M,FEW,SCT,M,M,1700,5000,M,M,M,M,M,M,M,M,M,85.32,VVTS 112030Z VRB03KT 9999 FEW017 SCT050 27/23 Q1011 NOSIG,M
VVTS,4/11/2021 21:00,106.6667,10.8167,78.8,73.4,83.55,90,5,0,29.85,M,6.21,M,FEW,SCT,M,M,1700,5000,M,M,M,M,M,M,M,M,M,78.8,VVTS 112100Z 09005KT 9999 FEW017 SCT050 26/23 Q1011 NOSIG,M
VVTS,4/11/2021 21:30,106.6667,10.8167,78.8,73.4,83.55,90,4,0,29.88,M,6.21,M,FEW,SCT,M,M,1700,5000,M,M,M,M,M,M,M,M,M,78.8,VVTS 112130Z 09004KT 9999 FEW017 SCT050 26/23 Q1012 NOSIG,M
VVTS,4/11/2021 22:00,106.6667,10.8167,78.8,75.2,88.75,90,4,0,29.88,M,6.21,M,FEW,SCT,M,M,1700,5000,M,M,M,M,M,M,M,M,M,78.8,VVTS 112200Z 09004KT 9999 FEW017 SCT050 26/24 Q1012 NOSIG,M
VVTS,4/11/2021 22:30,106.6667,10.8167,78.8,73.4,83.55,80,4,0,29.88,M,6.21,M,FEW,SCT,M,M,1700,5000,M,M,M,M,M,M,M,M,M,78.8,VVTS 112230Z 08004KT 9999 FEW017 SCT050 26/23 Q1012 NOSIG,M
VVTS,4/11/2021 23:00,106.6667,10.8167,78.8,75.2,88.75,80,3,0,29.88,M,6.21,M,FEW,SCT,M,M,1700,5000,M,M,M,M,M,M,M,M,M,78.8,VVTS 112300Z 08003KT 9999 FEW017 SCT050 26/24 Q1012 NOSIG,M
VVTS,4/11/2021 23:30,106.6667,10.8167,80.6,73.4,78.76,90,5,0,29.91,M,6.21,M,FEW,SCT,M,M,1700,5000,M,M,M,M,M,M,M,M,M,85.32,VVTS 112330Z 09005KT 9999 FEW017 SCT050 27/23 Q1013 NOSIG,M
VVTS,4/12/2021 0:00,106.6667,10.8167,82.4,73.4,74.28,100,4,0,29.91,M,6.21,M,FEW,SCT,M,M,1700,5000,M,M,M,M,M,M,M,M,M,88.26,VVTS 120000Z 10004KT 070V130 9999 FEW017 SCT050 28/23 Q1013 NOSIG,M
VVTS,4/12/2021 0:30,106.6667,10.8167,84.2,73.4,70.08,90,6,0,29.91,M,6.21,M,FEW,SCT,M,M,1700,5000,M,M,M,M,M,M,M,M,M,90.94,VVTS 120030Z 09006KT 070V130 9999 FEW017 SCT050 29/23 Q1013 NOSIG,M
VVTS,4/12/2021 1:00,106.6667,10.8167,86,73.4,66.15,110,6,0,29.94,M,6.21,M,FEW,SCT,M,M,1700,5000,M,M,M,M,M,M,M,M,M,93.45,VVTS 120100Z 11006KT 080V140 9999 FEW017 SCT050 30/23 Q1014 NOSIG,M
VVTS,4/12/2021 1:30,106.6667,10.8167,86,73.4,66.15,110,6,0,29.94,M,6.21,M,FEW,SCT,M,M,1700,5000,M,M,M,M,M,M,M,M,M,93.45,VVTS 120130Z 11006KT 060V180 9999 FEW017 SCT050 30/23 Q1014,M
VVTS,4/12/2021 2:00,106.6667,10.8167,86,73.4,66.15,110,4,0,29.94,M,6.21,M,FEW,SCT,M,M,1700,5000,M,M,M,M,M,M,M,M,M,93.45,VVTS 120200Z 11004KT 060V190 9999 FEW017 SCT050 30/23 Q1014 NOSIG,M
VVTS,4/12/2021 2:30,106.6667,10.8167,89.6,71.6,55.53,M,3,0,29.94,M,6.21,M,FEW,SCT,M,M,1700,5000,M,M,M,M,M,M,M,M,M,96.41,VVTS 120230Z VRB03KT 9999 FEW017 SCT050 32/22 Q1014 NOSIG,M
VVTS,4/12/2021 3:00,106.6667,10.8167,91.4,73.4,55.77,M,3,0,29.94,M,6.21,M,FEW,SCT,M,M,1700,5000,M,M,M,M,M,M,M,M,M,100.52,VVTS 120300Z VRB03KT 9999 FEW017 SCT050 33/23 Q1014 NOSIG,M
VVTS,4/12/2021 3:30,106.6667,10.8167,89.6,69.8,52.23,80,9,0,29.94,M,6.21,M,SCT,M,M,M,1700,M,M,M,M,M,M,M,M,M,M,94.85,VVTS 120330Z 08009KT 030V120 9999 SCT017 32/21 Q1014 NOSIG,M
VVTS,4/12/2021 4:00,106.6667,10.8167,93.2,69.8,46.67,80,8,0,29.91,M,6.21,M,SCT,M,M,M,1700,M,M,M,M,M,M,M,M,M,M,99.17,VVTS 120400Z 08008KT 040V120 9999 SCT017 34/21 Q1013 NOSIG,M
VVTS,4/12/2021 4:30,106.6667,10.8167,91.4,69.8,49.36,100,7,0,29.91,M,6.21,M,SCT,M,M,M,1700,M,M,M,M,M,M,M,M,M,M,96.99,VVTS 120430Z 10007KT 050V200 9999 SCT017 33/21 Q1013 NOSIG,M
VVTS,4/12/2021 5:00,106.6667,10.8167,95,69.8,44.14,70,8,0,29.88,M,6.21,M,BKN,M,M,M,1700,M,M,M,M,M,M,M,M,M,M,101.37,VVTS 120500Z 07008KT 040V110 9999 BKN017 35/21 Q1012 NOSIG,M
VVTS,4/12/2021 5:30,106.6667,10.8167,95,69.8,44.14,110,7,0,29.88,M,6.21,M,BKN,M,M,M,1700,M,M,M,M,M,M,M,M,M,M,101.37,VVTS 120530Z 11007KT 070V150 9999 BKN017 35/21 Q1012 NOSIG,M
VVTS,4/12/2021 6:00,106.6667,10.8167,93.2,71.6,49.62,140,7,0,29.85,M,6.21,M,SCT,FEW,M,M,1500,1700,M,M,M,M,M,M,M,M,M,100.88,VVTS 120600Z 14007KT 030V200 9999 SCT015 FEW017TCU 34/22 Q1011 NOSIG RMK TCU OVER RWY,M
VVTS,4/12/2021 6:30,106.6667,10.8167,89.6,73.4,59.01,M,10,0,29.83,M,6.21,22,SCT,FEW,M,M,1500,1700,M,M,TS,M,M,M,M,M,M,98.2,VVTS 120630Z VRB10G22KT 9999 TS SCT015 FEW017CB 32/23 Q1010 TEMPO FM0640 TL0730 09015G28KT 3000 TSRA RMK CB OVER RW Y,M
VVTS,4/12/2021 7:00,106.6667,10.8167,84.2,73.4,70.08,170,12,0,29.83,M,6.21,M,SCT,FEW,M,M,1500,1700,M,M,TS,M,M,M,M,M,M,90.94,VVTS 120700Z 17012KT 140V200 9999 TS SCT015 FEW017CB 29/23 Q1010 NOSIG RMK CB OVER RWY,M
VVTS,4/12/2021 7:30,106.6667,10.8167,82.4,73.4,74.28,170,11,0,29.83,M,5.59,M,SCT,FEW,M,M,1500,1700,M,M,M,M,M,M,M,M,M,88.26,VVTS 120730Z 17011KT 140V200 9000 SCT015 FEW017CB 28/23 Q1010 NOSIG RMK CB OVER RWY,M
VVTS,4/12/2021 8:00,106.6667,10.8167,84.2,73.4,70.08,180,7,0,29.8,M,6.21,M,BKN,M,M,M,1700,M,M,M,M,M,M,M,M,M,M,90.94,VVTS 120800Z 18007KT 9999 BKN017 29/23 Q1009 NOSIG,M
VVTS,4/12/2021 8:30,106.6667,10.8167,86,75.2,70.27,190,6,0,29.8,M,6.21,M,FEW,FEW,M,M,1500,1700,M,M,M,M,M,M,M,M,M,95.19,VVTS 120830Z 19006KT 150V220 9999 FEW015 FEW017CB 30/24 Q1009 NOSIG RMK CB/NE,M
VVTS,4/12/2021 9:00,106.6667,10.8167,87.8,75.2,66.35,190,5,0,29.8,M,6.21,M,SCT,FEW,M,M,1500,1700,M,M,M,M,M,M,M,M,M,97.76,VVTS 120900Z 19005KT 160V240 9999 SCT015 FEW017CB 31/24 Q1009 NOSIG,M
VVTS,4/12/2021 9:30,106.6667,10.8167,87.8,73.4,62.47,160,6,0,29.8,M,5.59,M,FEW,SCT,M,M,1700,5000,M,M,M,M,M,M,M,M,M,95.86,VVTS 120930Z 16006KT 120V200 9000 FEW017 SCT050 31/23 Q1009 NOSIG,M
VVTS,4/12/2021 10:00,106.6667,10.8167,87.8,69.8,55.29,160,8,0,29.8,M,5.59,M,FEW,SCT,M,M,1700,5000,M,M,M,M,M,M,M,M,M,92.71,VVTS 121000Z 16008KT 9000 FEW017 SCT050 31/21 Q1009 NOSIG,M
VVTS,4/12/2021 10:30,106.6667,10.8167,87.8,71.6,58.78,160,8,0,29.8,M,6.21,M,FEW,SCT,M,M,1700,5000,M,M,M,M,M,M,M,M,M,94.18,VVTS 121030Z 16008KT 130V200 9999 FEW017 SCT050 31/22 Q1009 NOSIG,M
VVTS,4/12/2021 11:00,106.6667,10.8167,86,73.4,66.15,160,7,0,29.83,M,6.21,M,FEW,SCT,M,M,1700,5000,M,M,M,M,M,M,M,M,M,93.45,VVTS 121100Z 16007KT //// R25R/P2000N FEW017 SCT050 30/23 Q1010 NOSIG,M
VVTS,4/12/2021 11:30,106.6667,10.8167,86,73.4,66.15,160,8,0,29.83,M,6.21,M,FEW,SCT,M,M,1700,5000,M,M,M,M,M,M,M,M,M,93.45,VVTS 121130Z 16008KT 130V190 9999 FEW017 SCT050 30/23 Q1010 NOSIG,M
VVTS,4/12/2021 12:00,106.6667,10.8167,84.2,75.2,74.44,150,7,0,29.85,M,6.21,M,FEW,SCT,M,M,1700,5000,M,M,M,M,M,M,M,M,M,92.45,VVTS 121200Z 15007KT 120V180 9999 FEW017 SCT050 29/24 Q1011 NOSIG,M
VVTS,4/12/2021 12:30,106.6667,10.8167,84.2,75.2,74.44,140,9,0,29.85,M,5.59,M,SCT,SCT,M,M,1700,5000,M,M,M,M,M,M,M,M,M,92.45,VVTS 121230Z 14009KT 120V180 9000 SCT017 SCT050 29/24 Q1011 NOSIG,M
VVTS,4/12/2021 13:00,106.6667,10.8167,84.2,75.2,74.44,140,9,0,29.85,M,5.59,M,SCT,SCT,M,M,1700,5000,M,M,M,M,M,M,M,M,M,92.45,VVTS 121300Z 14009KT 110V170 9000 SCT017 SCT050 29/24 Q1011 NOSIG,M
VVTS,4/12/2021 13:30,106.6667,10.8167,84.2,75.2,74.44,140,8,0,29.88,M,5.59,M,FEW,SCT,M,M,1700,5000,M,M,M,M,M,M,M,M,M,92.45,VVTS 121330Z 14008KT 110V170 9000 FEW017 SCT050 29/24 Q1012 NOSIG,M
VVTS,4/12/2021 14:00,106.6667,10.8167,82.4,75.2,78.9,120,7,0,29.88,M,5.59,M,FEW,SCT,M,M,1700,5000,M,M,M,M,M,M,M,M,M,89.48,VVTS 121400Z 12007KT 9000 FEW017 SCT050 28/24 Q1012 NOSIG,M
VVTS,4/12/2021 14:30,106.6667,10.8167,82.4,75.2,78.9,130,7,0,29.88,M,5.59,M,FEW,SCT,M,M,1700,5000,M,M,M,M,M,M,M,M,M,89.48,VVTS 121430Z 13007KT 110V170 9000 FEW017 SCT050 28/24 Q1012 NOSIG,M
VVTS,4/12/2021 15:00,106.6667,10.8167,82.4,75.2,78.9,130,6,0,29.91,M,5.59,M,FEW,SCT,M,M,1700,5000,M,M,M,M,M,M,M,M,M,89.48,VVTS 121500Z 13006KT 9000 FEW017 SCT050 28/24 Q1013 NOSIG,M
VVTS,4/12/2021 15:30,106.6667,10.8167,82.4,75.2,78.9,130,5,0,29.91,M,6.21,M,FEW,M,M,M,2000,M,M,M,M,M,M,M,M,M,M,89.48,VVTS 121530Z 13005KT 100V170 9999 FEW020 28/24 Q1013 NOSIG,M
VVTS,4/12/2021 16:00,106.6667,10.8167,82.4,75.2,78.9,130,7,0,29.91,M,6.21,M,FEW,M,M,M,2000,M,M,M,M,M,M,M,M,M,M,89.48,VVTS 121600Z 13007KT 100V170 9999 FEW020 28/24 Q1013 NOSIG,M
VVTS,4/12/2021 16:30,106.6667,10.8167,82.4,75.2,78.9,130,7,0,29.88,M,6.21,M,FEW,M,M,M,2000,M,M,M,M,M,M,M,M,M,M,89.48,VVTS 121630Z 13007KT 9999 FEW020 28/24 Q1012 NOSIG,M
VVTS,4/12/2021 17:00,106.6667,10.8167,82.4,77,83.77,120,8,0,29.88,M,6.21,M,FEW,M,M,M,2000,M,M,M,M,M,M,M,M,M,M,90.85,VVTS 121700Z 12008KT 9999 FEW020 28/25 Q1012 NOSIG,M
VVTS,4/12/2021 17:30,106.6667,10.8167,82.4,75.2,78.9,130,8,0,29.88,M,6.21,M,FEW,M,M,M,2000,M,M,M,M,M,M,M,M,M,M,89.48,VVTS 121730Z 13008KT 9999 FEW020 28/24 Q1012 NOSIG,M
VVTS,4/12/2021 18:00,106.6667,10.8167,82.4,75.2,78.9,130,7,0,29.85,M,6.21,M,FEW,M,M,M,2000,M,M,M,M,M,M,M,M,M,M,89.48,VVTS 121800Z 13007KT 9999 FEW020 28/24 Q1011 NOSIG,M
VVTS,4/12/2021 18:30,106.6667,10.8167,80.6,75.2,83.66,110,7,0,29.85,M,6.21,M,FEW,SCT,M,M,2000,5000,M,M,M,M,M,M,M,M,M,86.17,VVTS 121830Z 11007KT 9999 FEW020 SCT050 27/24 Q1011 NOSIG,M
VVTS,4/12/2021 19:00,106.6667,10.8167,80.6,75.2,83.66,140,7,0,29.85,M,6.21,M,FEW,SCT,M,M,2000,5000,M,M,M,M,M,M,M,M,M,86.17,VVTS 121900Z 14007KT 9999 FEW020 SCT050 27/24 Q1011 NOSIG,M
VVTS,4/12/2021 19:30,106.6667,10.8167,80.6,75.2,83.66,150,5,0,29.85,M,6.21,M,FEW,SCT,M,M,2000,5000,M,M,M,M,M,M,M,M,M,86.17,VVTS 121930Z 15005KT 120V180 9999 FEW020 SCT050 27/24 Q1011 NOSIG,M
VVTS,4/12/2021 20:00,106.6667,10.8167,80.6,75.2,83.66,130,7,0,29.85,M,6.21,M,FEW,SCT,M,M,2000,5000,M,M,M,M,M,M,M,M,M,86.17,VVTS 122000Z 13007KT 110V170 9999 FEW020 SCT050 27/24 Q1011 NOSIG,M
VVTS,4/12/2021 20:30,106.6667,10.8167,80.6,77,88.83,140,6,0,29.85,M,6.21,M,FEW,SCT,M,M,2000,5000,M,M,M,M,M,M,M,M,M,87.59,VVTS 122030Z 14006KT 120V180 9999 FEW020 SCT050 27/25 Q1011 NOSIG,M
VVTS,4/12/2021 21:00,106.6667,10.8167,80.6,77,88.83,M,3,0,29.85,M,6.21,M,FEW,SCT,M,M,2000,5000,M,M,M,M,M,M,M,M,M,87.59,VVTS 122100Z VRB03KT 9999 FEW020 SCT050 27/25 Q1011 NOSIG,M
VVTS,4/12/2021 21:30,106.6667,10.8167,80.6,77,88.83,170,4,0,29.88,M,6.21,M,FEW,SCT,M,M,2000,5000,M,M,M,M,M,M,M,M,M,87.59,VVTS 122130Z 17004KT 140V200 9999 FEW020 SCT050 27/25 Q1012 NOSIG,M
VVTS,4/12/2021 22:00,106.6667,10.8167,80.6,77,88.83,M,2,0,29.88,M,6.21,M,FEW,SCT,M,M,2000,5000,M,M,M,M,M,M,M,M,M,87.59,VVTS 122200Z VRB02KT 9999 FEW020 SCT050 27/25 Q1012 NOSIG,M
VVTS,4/12/2021 22:30,106.6667,10.8167,80.6,77,88.83,130,4,0,29.88,M,6.21,M,FEW,SCT,M,M,2000,5000,M,M,M,M,M,M,M,M,M,87.59,VVTS 122230Z 13004KT 110V170 9999 FEW020 SCT050 27/25 Q1012 NOSIG,M
VVTS,4/12/2021 23:00,106.6667,10.8167,80.6,77,88.83,M,3,0,29.88,M,6.21,M,FEW,SCT,M,M,2000,5000,M,M,M,M,M,M,M,M,M,87.59,VVTS 122300Z VRB03KT 9999 FEW020 SCT050 27/25 Q1012 NOSIG,M
VVTS,4/12/2021 23:30,106.6667,10.8167,82.4,77,83.77,M,3,0,29.88,M,6.21,M,FEW,M,M,M,2000,M,M,M,M,M,M,M,M,M,M,90.85,VVTS 122330Z VRB03KT 9999 FEW020 28/25 Q1012 NOSIG,M
VVTS,4/13/2021 0:00,106.6667,10.8167,82.4,75.2,78.9,130,5,0,29.88,M,6.21,M,FEW,M,M,M,2000,M,M,M,M,M,M,M,M,M,M,89.48,VVTS 130000Z 13005KT 090V170 9999 FEW020 28/24 Q1012 NOSIG,M
VVTS,4/13/2021 0:30,106.6667,10.8167,84.2,77,79.04,130,7,0,29.91,M,6.21,M,FEW,M,M,M,2000,M,M,M,M,M,M,M,M,M,M,94.16,VVTS 130030Z 13007KT 090V160 9999 FEW020 29/25 Q1013 NOSIG,M
VVTS,4/13/2021 1:00,106.6667,10.8167,86,75.2,70.27,120,8,0,29.91,M,6.21,M,FEW,M,M,M,2000,M,M,M,M,M,M,M,M,M,M,95.19,VVTS 130100Z 12008KT 090V170 9999 FEW020 30/24 Q1013 NOSIG,M
VVTS,4/13/2021 1:30,106.6667,10.8167,87.8,75.2,66.35,130,7,0,29.91,M,6.21,M,SCT,M,M,M,1700,M,M,M,M,M,M,M,M,M,M,97.76,VVTS 130130Z 13007KT 090V160 9999 SCT017 31/24 Q1013 NOSIG,M
VVTS,4/13/2021 2:00,106.6667,10.8167,87.8,75.2,66.35,120,8,0,29.91,M,6.21,M,SCT,M,M,M,1700,M,M,M,M,M,M,M,M,M,M,97.76,VVTS 130200Z 12008KT 080V150 9999 SCT017 31/24 Q1013 NOSIG,M
VVTS,4/13/2021 2:30,106.6667,10.8167,87.8,75.2,66.35,100,7,0,29.91,M,6.21,M,BKN,M,M,M,1700,M,M,M,M,M,M,M,M,M,M,97.76,VVTS 130230Z 10007KT 070V130 9999 BKN017 31/24 Q1013 NOSIG,M
VVTS,4/13/2021 3:00,106.6667,10.8167,89.6,77,66.55,150,5,0,29.91,M,6.21,M,BKN,M,M,M,1700,M,M,M,M,M,M,M,M,M,M,102.54,VVTS 130300Z 15005KT 110V200 9999 BKN017 32/25 Q1013 NOSIG,M
VVTS,4/13/2021 3:30,106.6667,10.8167,89.6,75.2,62.68,140,5,0,29.91,M,6.21,M,BKN,M,M,M,1700,M,M,M,M,M,M,M,M,M,M,100.23,VVTS 130330Z 14005KT 100V190 9999 BKN017 32/24 Q1013 NOSIG,M
VVTS,4/13/2021 4:00,106.6667,10.8167,91.4,75.2,59.24,130,4,0,29.91,M,6.21,M,BKN,M,M,M,1700,M,M,M,M,M,M,M,M,M,M,102.65,VVTS 130400Z 13004KT 090V200 9999 BKN017 33/24 Q1013 NOSIG,M
VVTS,4/13/2021 4:30,106.6667,10.8167,91.4,75.2,59.24,M,3,0,29.88,M,6.21,M,BKN,M,M,M,1700,M,M,M,M,M,M,M,M,M,M,102.65,VVTS 130430Z VRB03KT 9999 BKN017 33/24 Q1012 NOSIG,M
VVTS,4/13/2021 5:00,106.6667,10.8167,91.4,73.4,55.77,M,3,0,29.85,M,6.21,M,BKN,M,M,M,1700,M,M,M,M,M,M,M,M,M,M,100.52,VVTS 130500Z VRB03KT 9999 BKN017 33/23 Q1011 NOSIG,M
VVTS,4/13/2021 5:30,106.6667,10.8167,91.4,75.2,59.24,150,6,0,29.85,M,6.21,M,BKN,M,M,M,1700,M,M,M,M,M,M,M,M,M,M,102.65,VVTS 130530Z 15006KT 100V200 9999 BKN017 33/24 Q1011 NOSIG,M
VVTS,4/13/2021 6:00,106.6667,10.8167,91.4,75.2,59.24,220,8,0,29.83,M,6.21,M,BKN,M,M,M,1700,M,M,M,M,M,M,M,M,M,M,102.65,VVTS 130600Z 22008KT 160V260 9999 BKN017 33/24 Q1010 NOSIG,M
VVTS,4/13/2021 6:30,106.6667,10.8167,93.2,75.2,56.01,180,8,0,29.83,M,6.21,M,BKN,FEW,M,M,1700,2000,M,M,M,M,M,M,M,M,M,105.02,VVTS 130630Z 18008KT 150V220 9999 BKN017 FEW020TCU 34/24 Q1010 NOSIG RMK TCU/E,M
VVTS,4/13/2021 7:00,106.6667,10.8167,93.2,75.2,56.01,170,8,0,29.8,M,6.21,M,BKN,M,M,M,1700,M,M,M,M,M,M,M,M,M,M,105.02,VVTS 130700Z 17008KT 130V220 9999 BKN017 34/24 Q1009 NOSIG,M
VVTS,4/13/2021 7:30,106.6667,10.8167,89.6,75.2,62.68,180,8,0,29.8,M,6.21,M,BKN,M,M,M,1700,M,M,M,M,M,M,M,M,M,M,100.23,VVTS 130730Z 18008KT 140V220 9999 BKN017 32/24 Q1009 NOSIG,M
VVTS,4/13/2021 8:00,106.6667,10.8167,93.2,75.2,56.01,180,10,0,29.8,M,6.21,M,BKN,M,M,M,1700,M,M,M,M,M,M,M,M,M,M,105.02,VVTS 130800Z 18010KT 140V210 9999 BKN017 34/24 Q1009 NOSIG,M
VVTS,4/13/2021 8:30,106.6667,10.8167,91.4,73.4,55.77,190,10,0,29.77,M,6.21,M,SCT,M,M,M,1700,M,M,M,M,M,M,M,M,M,M,100.52,VVTS 130830Z 19010KT 150V220 9999 SCT017 33/23 Q1008 NOSIG,M
VVTS,4/13/2021 9:00,106.6667,10.8167,89.6,73.4,59.01,170,9,0,29.77,M,6.21,M,SCT,M,M,M,1700,M,M,M,M,M,M,M,M,M,M,98.2,VVTS 130900Z 17009KT 150V210 9999 SCT017 32/23 Q1008 NOSIG,M
VVTS,4/13/2021 9:30,106.6667,10.8167,89.6,73.4,59.01,190,10,0,29.77,M,6.21,M,FEW,M,M,M,1700,M,M,M,M,M,M,M,M,M,M,98.2,VVTS 130930Z 19010KT 160V220 9999 FEW017 32/23 Q1008 NOSIG,M
VVTS,4/13/2021 10:00,106.6667,10.8167,87.8,73.4,62.47,180,9,0,29.77,M,6.21,M,FEW,M,M,M,1700,M,M,M,M,M,M,M,M,M,M,95.86,VVTS 131000Z 18009KT 140V220 9999 FEW017 31/23 Q1008 NOSIG,M
VVTS,4/13/2021 10:30,106.6667,10.8167,86,73.4,66.15,180,10,0,29.77,M,6.21,M,FEW,M,M,M,1700,M,M,M,M,M,M,M,M,M,M,93.45,VVTS 131030Z 18010KT 9999 FEW017 30/23 Q1008 NOSIG,M
VVTS,4/13/2021 11:00,106.6667,10.8167,86,77,74.61,160,8,0,29.77,M,6.21,M,FEW,M,M,M,1700,M,M,M,M,M,M,M,M,M,M,97.15,VVTS 131100Z 16008KT 9999 FEW017 30/25 Q1008 NOSIG,M
VVTS,4/13/2021 11:30,106.6667,10.8167,84.2,77,79.04,180,8,0,29.8,M,6.21,M,FEW,M,M,M,1700,M,M,M,M,M,M,M,M,M,M,94.16,VVTS 131130Z 18008KT 140V210 9999 FEW017 29/25 Q1009 NOSIG,M
VVTS,4/13/2021 12:00,106.6667,10.8167,84.2,77,79.04,140,11,0,29.8,M,6.21,M,SCT,M,M,M,1700,M,M,M,M,M,M,M,M,M,M,94.16,VVTS 131200Z 14011KT 9999 SCT017 29/25 Q1009 NOSIG,M
VVTS,4/13/2021 12:30,106.6667,10.8167,84.2,77,79.04,130,10,0,29.83,M,6.21,M,SCT,M,M,M,1700,M,M,M,M,M,M,M,M,M,M,94.16,VVTS 131230Z 13010KT 9999 SCT017 29/25 Q1010 NOSIG,M
VVTS,4/13/2021 13:00,106.6667,10.8167,84.2,77,79.04,140,9,0,29.83,M,6.21,M,SCT,M,M,M,1700,M,M,M,M,M,M,M,M,M,M,94.16,VVTS 131300Z 14009KT 110V170 9999 SCT017 29/25 Q1010 NOSIG,M
VVTS,4/13/2021 13:30,106.6667,10.8167,84.2,77,79.04,140,10,0,29.83,M,6.21,M,SCT,M,M,M,1700,M,M,M,M,M,M,M,M,M,M,94.16,VVTS 131330Z 14010KT 9999 SCT017 29/25 Q1010 NOSIG,M
VVTS,4/13/2021 14:00,106.6667,10.8167,84.2,77,79.04,140,7,0,29.85,M,6.21,M,SCT,M,M,M,1700,M,M,M,M,M,M,M,M,M,M,94.16,VVTS 131400Z 14007KT 120V190 9999 SCT017 29/25 Q1011 NOSIG,M
VVTS,4/13/2021 14:30,106.6667,10.8167,84.2,77,79.04,130,11,0,29.85,M,6.21,M,SCT,M,M,M,1700,M,M,M,M,M,M,M,M,M,M,94.16,VVTS 131430Z 13011KT 9999 SCT017 29/25 Q1011 NOSIG,M
VVTS,4/13/2021 15:00,106.6667,10.8167,82.4,77,83.77,140,8,0,29.88,M,6.21,M,SCT,M,M,M,1700,M,M,M,M,M,M,M,M,M,M,90.85,VVTS 131500Z 14008KT 120V180 9999 SCT017 28/25 Q1012 NOSIG,M
VVTS,4/13/2021 15:30,106.6667,10.8167,82.4,77,83.77,140,8,0,29.85,M,6.21,M,SCT,SCT,M,M,1700,5000,M,M,M,M,M,M,M,M,M,90.85,VVTS 131530Z 14008KT 120V180 9999 SCT017 SCT050 28/25 Q1011 NOSIG,M
VVTS,4/13/2021 16:00,106.6667,10.8167,82.4,77,83.77,130,8,0,29.85,M,6.21,M,SCT,SCT,M,M,1700,5000,M,M,M,M,M,M,M,M,M,90.85,VVTS 131600Z 13008KT 110V170 9999 SCT017 SCT050 28/25 Q1011 NOSIG,M
VVTS,4/13/2021 16:30,106.6667,10.8167,82.4,77,83.77,130,8,0,29.85,M,6.21,M,SCT,SCT,M,M,1700,5000,M,M,M,M,M,M,M,M,M,90.85,VVTS 131630Z 13008KT 9999 SCT017 SCT050 28/25 Q1011 NOSIG,M
VVTS,4/13/2021 17:00,106.6667,10.8167,82.4,77,83.77,140,9,0,29.85,M,6.21,M,SCT,SCT,M,M,1700,5000,M,M,M,M,M,M,M,M,M,90.85,VVTS 131700Z 14009KT 9999 SCT017 SCT050 28/25 Q1011 NOSIG,M
VVTS,4/13/2021 17:30,106.6667,10.8167,82.4,77,83.77,150,7,0,29.85,M,6.21,M,SCT,SCT,M,M,1700,5000,M,M,M,M,M,M,M,M,M,90.85,VVTS 131730Z 15007KT 110V190 9999 SCT017 SCT050 28/25 Q1011 NOSIG,M
VVTS,4/13/2021 18:00,106.6667,10.8167,82.4,77,83.77,150,6,0,29.85,M,6.21,M,SCT,SCT,M,M,1700,5000,M,M,M,M,M,M,M,M,M,90.85,VVTS 131800Z 15006KT 120V190 9999 SCT017 SCT050 28/25 Q1011 NOSIG,M
VVTS,4/13/2021 18:30,106.6667,10.8167,82.4,77,83.77,160,7,0,29.85,M,6.21,M,M,M,M,M,M,M,M,M,M,M,M,M,M,M,M,90.85,VVTS 131830Z 16007KT 120V190 CAVOK 28/25 Q1011 NOSIG,M
VVTS,4/13/2021 19:00,106.6667,10.8167,82.4,77,83.77,130,5,0,29.85,M,6.21,M,M,M,M,M,M,M,M,M,M,M,M,M,M,M,M,90.85,VVTS 131900Z 13005KT CAVOK 28/25 Q1011 NOSIG,M
VVTS,4/13/2021 19:30,106.6667,10.8167,82.4,77,83.77,140,5,0,29.85,M,6.21,M,M,M,M,M,M,M,M,M,M,M,M,M,M,M,M,90.85,VVTS 131930Z 14005KT CAVOK 28/25 Q1011 NOSIG,M
VVTS,4/13/2021 20:00,106.6667,10.8167,82.4,77,83.77,M,3,0,29.85,M,6.21,M,M,M,M,M,M,M,M,M,M,M,M,M,M,M,M,90.85,VVTS 132000Z VRB03KT CAVOK 28/25 Q1011 NOSIG,M
VVTS,4/13/2021 20:30,106.6667,10.8167,82.4,77,83.77,120,6,0,29.83,M,6.21,M,M,M,M,M,M,M,M,M,M,M,M,M,M,M,M,90.85,VVTS 132030Z 12006KT CAVOK 28/25 Q1010 NOSIG,M
VVTS,4/13/2021 21:00,106.6667,10.8167,82.4,78.8,88.9,130,6,0,29.83,M,6.21,M,M,M,M,M,M,M,M,M,M,M,M,M,M,M,M,92.76,VVTS 132100Z 13006KT CAVOK 28/26 Q1010 NOSIG,M
VVTS,4/13/2021 21:30,106.6667,10.8167,82.4,77,83.77,160,5,0,29.85,M,6.21,M,SCT,M,M,M,1700,M,M,M,M,M,M,M,M,M,M,90.85,VVTS 132130Z 16005KT 130V220 9999 SCT017 28/25 Q1011 NOSIG,M
VVTS,4/13/2021 22:00,106.6667,10.8167,82.4,77,83.77,150,4,0,29.85,M,6.21,M,SCT,M,M,M,1700,M,M,M,M,M,M,M,M,M,M,90.85,VVTS 132200Z 15004KT 120V190 9999 SCT017 28/25 Q1011 NOSIG,M
VVTS,4/13/2021 22:30,106.6667,10.8167,82.4,77,83.77,140,4,0,29.85,M,6.21,M,SCT,M,M,M,1700,M,M,M,M,M,M,M,M,M,M,90.85,VVTS 132230Z 14004KT 120V180 9999 SCT017 28/25 Q1011 NOSIG,M
VVTS,4/13/2021 23:00,106.6667,10.8167,82.4,77,83.77,150,5,0,29.85,M,6.21,M,SCT,FEW,M,M,1500,1700,M,M,M,M,M,M,M,M,M,90.85,VVTS 132300Z 15005KT 120V180 9999 SCT015 FEW017TCU 28/25 Q1011 NOSIG RMK TCU/NE,M
VVTS,4/13/2021 23:30,106.6667,10.8167,82.4,77,83.77,180,4,0,29.88,M,6.21,M,SCT,FEW,M,M,1500,1700,M,M,M,M,M,M,M,M,M,90.85,VVTS 132330Z 18004KT 140V210 9999 SCT015 FEW017TCU 28/25 Q1012 NOSIG RMK TCU/N,M
VVTS,4/14/2021 0:00,106.6667,10.8167,82.4,77,83.77,180,4,0,29.88,M,4.97,M,SCT,FEW,M,M,1500,1700,M,M,#NAME?,M,M,M,M,M,M,90.85,VVTS 140000Z 18004KT 140V220 8000 -SHRA SCT015 FEW017CB 28/25 Q1012 NOSIG RMK CB OVER RWY,M
VVTS,4/14/2021 0:30,106.6667,10.8167,82.4,77,83.77,M,2,0,29.91,M,4.97,M,SCT,FEW,M,M,1500,1700,M,M,#NAME?,M,M,M,M,M,M,90.85,VVTS 140030Z VRB02KT 8000 -SHRA SCT015 FEW017CB 28/25 Q1013 TEMPO TL0055 5000 TSRA RMK CB OVER RWY,M
VVTS,4/14/2021 1:00,106.6667,10.8167,82.4,77,83.77,130,6,0,29.91,M,4.97,M,SCT,FEW,M,M,1500,1700,M,M,#NAME?,M,M,M,M,M,M,90.85,VVTS 140100Z 13006KT 8000 -SHRA SCT015 FEW017CB 28/25 Q1013 NOSIG RMK CB OVER RWY,M
VVTS,4/14/2021 1:30,106.6667,10.8167,84.2,77,79.04,130,5,0,29.91,M,6.21,M,SCT,FEW,M,M,1500,1700,M,M,M,M,M,M,M,M,M,94.16,VVTS 140130Z 13005KT 100V160 9999 SCT015 FEW017CB 29/25 Q1013 NOSIG RMK CB/NE/SE,M
VVTS,4/14/2021 2:00,106.6667,10.8167,86,75.2,70.27,130,6,0,29.91,M,6.21,M,SCT,FEW,M,M,1500,1700,M,M,M,M,M,M,M,M,M,95.19,VVTS 140200Z 13006KT 100V190 9999 SCT015 FEW017TCU 30/24 Q1013 NOSIG RMK TCU/N,M
VVTS,4/14/2021 2:30,106.6667,10.8167,87.8,75.2,66.35,M,4,0,29.91,M,6.21,M,BKN,M,M,M,1700,M,M,M,M,M,M,M,M,M,M,97.76,VVTS 140230Z VRB04KT 9999 BKN017 31/24 Q1013 NOSIG,M
VVTS,4/14/2021 3:00,106.6667,10.8167,87.8,73.4,62.47,M,4,0,29.91,M,6.21,M,BKN,M,M,M,1700,M,M,M,M,M,M,M,M,M,M,95.86,VVTS 140300Z VRB04KT 9999 BKN017 31/23 Q1013 NOSIG,M
VVTS,4/14/2021 3:30,106.6667,10.8167,89.6,75.2,62.68,170,4,0,29.91,M,6.21,M,BKN,M,M,M,1700,M,M,M,M,M,M,M,M,M,M,100.23,VVTS 140330Z 17004KT 120V230 9999 BKN017 32/24 Q1013 NOSIG,M
VVTS,4/14/2021 4:00,106.6667,10.8167,91.4,69.8,49.36,170,5,0,29.91,M,6.21,M,BKN,M,M,M,1700,M,M,M,M,M,M,M,M,M,M,96.99,VVTS 140400Z 17005KT 130V230 9999 BKN017 33/21 Q1013 NOSIG,M
VVTS,4/14/2021 4:30,106.6667,10.8167,93.2,71.6,49.62,M,3,0,29.88,M,6.21,M,BKN,M,M,M,1700,M,M,M,M,M,M,M,M,M,M,100.88,VVTS 140430Z VRB03KT 9999 BKN017 34/22 Q1012 NOSIG,M
VVTS,4/14/2021 5:00,106.6667,10.8167,91.4,71.6,52.48,M,3,0,29.88,M,6.21,M,BKN,M,M,M,1700,M,M,M,M,M,M,M,M,M,M,98.64,VVTS 140500Z VRB03KT 9999 BKN017 33/22 Q1012 NOSIG,M
VVTS,4/14/2021 5:30,106.6667,10.8167,89.6,71.6,55.53,M,3,0,29.85,M,6.21,M,BKN,M,M,M,1700,M,M,M,M,M,M,M,M,M,M,96.41,VVTS 140530Z VRB03KT 9999 BKN017 32/22 Q1011 NOSIG,M
VVTS,4/14/2021 6:00,106.6667,10.8167,93.2,71.6,49.62,240,3,0,29.83,M,6.21,M,BKN,M,M,M,1700,M,M,M,M,M,M,M,M,M,M,100.88,VVTS 140600Z 24003KT 9999 BKN017 34/22 Q1010 NOSIG,M
VVTS,4/14/2021 6:30,106.6667,10.8167,93.2,71.6,49.62,280,5,0,29.8,M,6.21,M,BKN,M,M,M,1700,M,M,M,M,M,M,M,M,M,M,100.88,VVTS 140630Z 28005KT 250V350 9999 BKN017 34/22 Q1009 NOSIG,M
VVTS,4/14/2021 7:00,106.6667,10.8167,95,71.6,46.93,M,4,0,29.77,M,6.21,M,BKN,M,M,M,1700,M,M,M,M,M,M,M,M,M,M,103.13,VVTS 140700Z VRB04KT 9999 BKN017 35/22 Q1008 NOSIG,M
VVTS,4/14/2021 7:30,106.6667,10.8167,91.4,71.6,52.48,220,4,0,29.77,M,6.21,M,BKN,M,M,M,1700,M,M,M,M,M,M,M,M,M,M,98.64,VVTS 140730Z 22004KT 160V250 9999 BKN017 33/22 Q1008 NOSIG,M
VVTS,4/14/2021 8:00,106.6667,10.8167,93.2,71.6,49.62,M,3,0,29.77,M,6.21,M,BKN,M,M,M,1700,M,M,M,M,M,M,M,M,M,M,100.88,VVTS 140800Z VRB03KT 9999 BKN017 34/22 Q1008 NOSIG,M
VVTS,4/14/2021 8:30,106.6667,10.8167,91.4,71.6,52.48,230,5,0,29.74,M,6.21,M,BKN,M,M,M,1700,M,M,M,M,M,M,M,M,M,M,98.64,VVTS 140830Z 23005KT 9999 BKN017 33/22 Q1007 NOSIG,M
VVTS,4/14/2021 9:00,106.6667,10.8167,93.2,71.6,49.62,240,5,0,29.74,M,6.21,M,BKN,M,M,M,1700,M,M,M,M,M,M,M,M,M,M,100.88,VVTS 140900Z 24005KT 210V280 9999 BKN017 34/22 Q1007 NOSIG,M
VVTS,4/14/2021 9:30,106.6667,10.8167,91.4,71.6,52.48,230,6,0,29.74,M,6.21,M,BKN,M,M,M,2000,M,M,M,M,M,M,M,M,M,M,98.64,VVTS 140930Z 23006KT 9999 R25R/1900VP2000N BKN020 33/22 Q1007 NOSIG,M
VVTS,4/14/2021 10:00,106.6667,10.8167,91.4,71.6,52.48,210,5,0,29.71,M,6.21,M,SCT,M,M,M,2000,M,M,M,M,M,M,M,M,M,M,98.64,VVTS 141000Z 21005KT 170V250 9999 SCT020 33/22 Q1006 NOSIG,M
VVTS,4/14/2021 10:30,106.6667,10.8167,89.6,71.6,55.53,190,8,0,29.74,M,6.21,M,SCT,M,M,M,2000,M,M,M,M,M,M,M,M,M,M,96.41,VVTS 141030Z 19008KT 170V230 9999 SCT020 32/22 Q1007 NOSIG,M
VVTS,4/14/2021 11:00,106.6667,10.8167,87.8,71.6,58.78,180,7,0,29.74,M,6.21,M,SCT,M,M,M,2000,M,M,M,M,M,M,M,M,M,M,94.18,VVTS 141100Z 18007KT 140V210 9999 SCT020 31/22 Q1007 NOSIG,M
VVTS,4/14/2021 11:30,106.6667,10.8167,86,73.4,66.15,180,9,0,29.74,M,6.21,M,SCT,M,M,M,2000,M,M,M,M,M,M,M,M,M,M,93.45,VVTS 141130Z 18009KT 150V210 9999 SCT020 30/23 Q1007 NOSIG,M
VVTS,4/14/2021 12:00,106.6667,10.8167,86,75.2,70.27,170,8,0,29.77,M,6.21,M,SCT,M,M,M,2000,M,M,M,M,M,M,M,M,M,M,95.19,VVTS 141200Z 17008KT 140V200 9999 SCT020 30/24 Q1008 NOSIG,M
VVTS,4/14/2021 12:30,106.6667,10.8167,84.2,77,79.04,170,9,0,29.8,M,6.21,M,SCT,M,M,M,2000,M,M,M,M,M,M,M,M,M,M,94.16,VVTS 141230Z 17009KT 140V200 9999 SCT020 29/25 Q1009 NOSIG,M
VVTS,4/14/2021 13:00,106.6667,10.8167,84.2,77,79.04,180,8,0,29.8,M,6.21,M,SCT,M,M,M,1700,M,M,M,M,M,M,M,M,M,M,94.16,VVTS 141300Z 18008KT 150V210 9999 SCT017 29/25 Q1009 NOSIG,M
VVTS,4/14/2021 13:30,106.6667,10.8167,84.2,77,79.04,190,7,0,29.8,M,6.21,M,SCT,M,M,M,1700,M,M,M,M,M,M,M,M,M,M,94.16,VVTS 141330Z 19007KT 140V210 9999 SCT017 29/25 Q1009 NOSIG,M
VVTS,4/14/2021 14:00,106.6667,10.8167,84.2,77,79.04,170,7,0,29.83,M,6.21,M,SCT,M,M,M,1700,M,M,M,M,M,M,M,M,M,M,94.16,VVTS 141400Z 17007KT 140V210 9999 SCT017 29/25 Q1010 NOSIG,M
VVTS,4/14/2021 14:30,106.6667,10.8167,84.2,77,79.04,170,7,0,29.85,M,6.21,M,SCT,M,M,M,1700,M,M,M,M,M,M,M,M,M,M,94.16,VVTS 141430Z 17007KT 140V210 9999 SCT017 29/25 Q1011 NOSIG,M
VVTS,4/14/2021 15:00,106.6667,10.8167,84.2,77,79.04,170,7,0,29.85,M,6.21,M,SCT,M,M,M,1700,M,M,M,M,M,M,M,M,M,M,94.16,VVTS 141500Z 17007KT 140V200 9999 SCT017 29/25 Q1011 NOSIG,M
VVTS,4/14/2021 15:30,106.6667,10.8167,84.2,77,79.04,160,7,0,29.85,M,6.21,M,SCT,FEW,M,M,1500,1700,M,M,M,M,M,M,M,M,M,94.16,VVTS 141530Z 16007KT 9999 SCT015 FEW017CB 29/25 Q1011 NOSIG RMK CB/N/NE/NW,M
VVTS,4/14/2021 16:00,106.6667,10.8167,84.2,77,79.04,180,6,0,29.85,M,6.21,M,SCT,FEW,M,M,1500,1700,M,M,M,M,M,M,M,M,M,94.16,VVTS 141600Z 18006KT 130V210 9999 SCT015 FEW017CB 29/25 Q1011 TEMPO FM1615 TL1700 5000 TSRA RMK CB/N/NE/NW,M
VVTS,4/14/2021 16:30,106.6667,10.8167,82.4,77,83.77,210,6,0,29.85,M,3.11,M,SCT,FEW,M,M,1500,1700,M,M,TSRA,M,M,M,M,M,M,90.85,VVTS 141630Z 21006KT 160V300 5000 TSRA SCT015 FEW017CB 28/25 Q1011 TEMPO TL1710 36015G26KT 3000 TSRA RMK CB OVER RWY,M
VVTS,4/14/2021 17:00,106.6667,10.8167,75.2,75.2,100,300,7,0,29.88,M,0.37,M,SCT,FEW,SCT,M,1300,1500,5000,M,#NAME?,M,M,M,M,M,M,75.2,VVTS 141700Z 30007KT 0600 R25R/0600 +TSRA SCT013 FEW015CB SCT050 24/24 Q1012 BECMG TL1720 1500 +TSRA RMK CB OVER RWY,M
VVTS,4/14/2021 17:30,106.6667,10.8167,75.2,75.2,100,220,5,0,29.85,M,2.49,M,SCT,FEW,BKN,M,1300,1500,5000,M,TSRA,M,M,M,M,M,M,75.2,VVTS 141730Z 22005KT 190V270 4000 TSRA SCT013 FEW015CB BKN050 24/24 Q1011 BECMG TL1745 5000 TSRA RMK CB OVER RWY,M
VVTS,4/14/2021 18:00,106.6667,10.8167,75.2,75.2,100,M,3,0,29.85,M,4.35,M,SCT,SCT,BKN,M,1500,1700,5000,M,#NAME?,M,M,M,M,M,M,75.2,VVTS 141800Z VRB03KT 7000 -RA SCT015 SCT017CB BKN050 24/24 Q1011 NOSIG RMK CB/E/S/SW,M
VVTS,4/14/2021 18:30,106.6667,10.8167,75.2,75.2,100,M,3,0,29.83,M,4.97,M,SCT,SCT,BKN,M,1500,1700,5000,M,M,M,M,M,M,M,M,75.2,VVTS 141830Z VRB03KT 8000 SCT015 SCT017CB BKN050 24/24 Q1010 NOSIG,M
VVTS,4/14/2021 19:00,106.6667,10.8167,77,77,100,210,6,0,29.83,M,4.97,M,SCT,FEW,BKN,M,1500,1700,5000,M,M,M,M,M,M,M,M,77,VVTS 141900Z 21006KT 180V240 8000 SCT015 FEW017CB BKN050 25/25 Q1010 NOSIG RMK CB/SE/S,M
VVTS,4/14/2021 19:30,106.6667,10.8167,77,73.4,88.67,M,3,0,29.83,M,4.97,M,SCT,BKN,M,M,1500,5000,M,M,M,M,M,M,M,M,M,77,VVTS 141930Z VRB03KT 8000 SCT015 BKN050 25/23 Q1010 NOSIG RMK CB/E/SE,M
VVTS,4/14/2021 20:00,106.6667,10.8167,77,75.2,94.19,M,2,0,29.83,M,4.97,M,SCT,BKN,M,M,1500,5000,M,M,M,M,M,M,M,M,M,77,VVTS 142000Z VRB02KT 8000 SCT015 BKN050 25/24 Q1010 NOSIG,M
VVTS,4/14/2021 20:30,106.6667,10.8167,77,75.2,94.19,M,1,0,29.83,M,4.97,M,SCT,BKN,M,M,1500,5000,M,M,M,M,M,M,M,M,M,77,VVTS 142030Z VRB01KT 8000 SCT015 BKN050 25/24 Q1010 NOSIG,M
VVTS,4/14/2021 21:00,106.6667,10.8167,77,75.2,94.19,M,2,0,29.83,M,4.97,M,SCT,BKN,M,M,1500,5000,M,M,M,M,M,M,M,M,M,77,VVTS 142100Z VRB02KT 8000 SCT015 BKN050 25/24 Q1010 NOSIG,M
VVTS,4/14/2021 21:30,106.6667,10.8167,77,75.2,94.19,M,2,0,29.83,M,4.97,M,SCT,BKN,M,M,1500,5000,M,M,M,M,M,M,M,M,M,77,VVTS 142130Z VRB02KT 8000 SCT015 BKN050 25/24 Q1010 NOSIG,M
VVTS,4/14/2021 22:00,106.6667,10.8167,77,75.2,94.19,100,3,0,29.83,M,4.97,M,SCT,BKN,M,M,1500,5000,M,M,M,M,M,M,M,M,M,77,VVTS 142200Z 10003KT 8000 SCT015 BKN050 25/24 Q1010 NOSIG,M
VVTS,4/14/2021 22:30,106.6667,10.8167,77,75.2,94.19,100,6,0,29.85,M,4.97,M,SCT,FEW,SCT,M,1500,1700,5000,M,M,M,M,M,M,M,M,77,VVTS 142230Z 10006KT 8000 SCT015 FEW017CB SCT050 25/24 Q1011 NOSIG,M
VVTS,4/14/2021 23:00,106.6667,10.8167,78.8,75.2,88.75,M,2,0,29.83,M,4.97,M,SCT,FEW,SCT,M,1500,1700,5000,M,M,M,M,M,M,M,M,78.8,VVTS 142300Z VRB02KT 8000 SCT015 FEW017CB SCT050 26/24 Q1010 NOSIG RMK CB/E,M
VVTS,4/14/2021 23:30,106.6667,10.8167,78.8,77,94.23,M,2,0,29.85,M,4.97,M,FEW,SCT,M,M,1700,5000,M,M,M,M,M,M,M,M,M,78.8,VVTS 142330Z VRB02KT 8000 FEW017 SCT050 26/25 Q1011 NOSIG,M
VVTS,4/15/2021 0:00,106.6667,10.8167,80.6,77,88.83,M,3,0,29.85,M,4.97,M,FEW,M,M,M,1700,M,M,M,M,M,M,M,M,M,M,87.59,VVTS 150000Z VRB03KT 8000 FEW017 27/25 Q1011 NOSIG,M
VVTS,4/15/2021 0:30,106.6667,10.8167,82.4,77,83.77,M,2,0,29.85,M,6.21,M,FEW,M,M,M,1700,M,M,M,M,M,M,M,M,M,M,90.85,VVTS 150030Z VRB02KT 9999 FEW017 28/25 Q1011 NOSIG,M
VVTS,4/15/2021 1:00,106.6667,10.8167,84.2,77,79.04,M,1,0,29.85,M,6.21,M,FEW,M,M,M,1700,M,M,M,M,M,M,M,M,M,M,94.16,VVTS 150100Z VRB01KT 9999 FEW017 29/25 Q1011 NOSIG,M
VVTS,4/15/2021 1:30,106.6667,10.8167,86,78.8,79.18,0,0,0,29.85,M,6.21,M,FEW,M,M,M,1700,M,M,M,M,M,M,M,M,M,M,99.38,VVTS 150130Z 00000KT 9999 FEW017 30/26 Q1011 NOSIG,M
VVTS,4/15/2021 2:00,106.6667,10.8167,87.8,78.8,74.77,M,2,0,29.88,M,6.21,M,SCT,M,M,M,1700,M,M,M,M,M,M,M,M,M,M,102.37,VVTS 150200Z VRB02KT 9999 SCT017 31/26 Q1012 NOSIG,M
VVTS,4/15/2021 2:30,106.6667,10.8167,86,77,74.61,M,2,0,29.88,M,6.21,M,BKN,M,M,M,1700,M,M,M,M,M,M,M,M,M,M,97.15,VVTS 150230Z VRB02KT 9999 BKN017 30/25 Q1012 NOSIG,M
VVTS,4/15/2021 3:00,106.6667,10.8167,87.8,78.8,74.77,M,3,0,29.85,M,6.21,M,BKN,M,M,M,1700,M,M,M,M,M,M,M,M,M,M,102.37,VVTS 150300Z VRB03KT 9999 BKN017 31/26 Q1011 NOSIG,M
VVTS,4/15/2021 3:30,106.6667,10.8167,87.8,77,70.45,M,3,0,29.85,M,6.21,M,BKN,M,M,M,1700,M,M,M,M,M,M,M,M,M,M,99.92,VVTS 150330Z VRB03KT 9999 BKN017 31/25 Q1011 NOSIG,M
VVTS,4/15/2021 4:00,106.6667,10.8167,89.6,77,66.55,300,4,0,29.85,M,6.21,M,BKN,FEW,M,M,1500,1700,M,M,M,M,M,M,M,M,M,102.54,VVTS 150400Z 30004KT 9999 BKN015 FEW017TCU 32/25 Q1011 NOSIG RMK TCU/S,M
VVTS,4/15/2021 4:30,106.6667,10.8167,89.6,77,66.55,M,3,0,29.83,M,6.21,M,BKN,FEW,M,M,1500,1700,M,M,M,M,M,M,M,M,M,102.54,VVTS 150430Z VRB03KT 9999 BKN015 FEW017TCU 32/25 Q1010 NOSIG RMK TCU/S,M
VVTS,4/15/2021 5:00,106.6667,10.8167,91.4,75.2,59.24,280,4,0,29.83,M,6.21,M,BKN,FEW,M,M,1500,1700,M,M,M,M,M,M,M,M,M,102.65,VVTS 150500Z 28004KT 9999 BKN015 FEW017TCU 33/24 Q1010 NOSIG RMK TCU/S,M
VVTS,4/15/2021 5:30,106.6667,10.8167,91.4,73.4,55.77,M,1,0,29.8,M,6.21,M,SCT,FEW,M,M,1500,1700,M,M,M,M,M,M,M,M,M,100.52,VVTS 150530Z VRB01KT 9999 SCT015 FEW017TCU 33/23 Q1009 NOSIG RMK TCU/S,M
VVTS,4/15/2021 6:00,106.6667,10.8167,93.2,71.6,49.62,240,4,0,29.77,M,6.21,M,SCT,FEW,M,M,1500,1700,M,M,M,M,M,M,M,M,M,100.88,VVTS 150600Z 24004KT 200V290 9999 SCT015 FEW017TCU 34/22 Q1008 NOSIG RMK TCU/SW,M
VVTS,4/15/2021 6:30,106.6667,10.8167,93.2,71.6,49.62,310,4,0,29.77,M,6.21,M,SCT,M,M,M,1700,M,M,M,M,M,M,M,M,M,M,100.88,VVTS 150630Z 31004KT 270V340 9999 SCT017 34/22 Q1008 NOSIG,M
VVTS,4/15/2021 7:00,106.6667,10.8167,93.2,71.6,49.62,M,4,0,29.74,M,6.21,M,SCT,FEW,M,M,1700,2000,M,M,M,M,M,M,M,M,M,100.88,VVTS 150700Z VRB04KT 9999 SCT017 FEW020TCU 34/22 Q1007 NOSIG RMK TCU/N,M
VVTS,4/15/2021 7:30,106.6667,10.8167,95,71.6,46.93,260,4,0,29.71,M,6.21,M,SCT,M,M,M,1700,M,M,M,M,M,M,M,M,M,M,103.13,VVTS 150730Z 26004KT 220V320 9999 SCT017 35/22 Q1006 NOSIG,M
VVTS,4/15/2021 8:00,106.6667,10.8167,95,71.6,46.93,M,3,0,29.71,M,6.21,M,SCT,FEW,M,M,1700,2000,M,M,M,M,M,M,M,M,M,103.13,VVTS 150800Z VRB03KT 9999 SCT017 FEW020TCU 35/22 Q1006 NOSIG RMK TCU/N/NE,M
VVTS,4/15/2021 8:30,106.6667,10.8167,93.2,71.6,49.62,M,3,0,29.71,M,6.21,M,SCT,FEW,M,M,1700,2000,M,M,M,M,M,M,M,M,M,100.88,VVTS 150830Z VRB03KT 9999 SCT017 FEW020CB 34/22 Q1006 NOSIG RMK CB OVER RWY,M
VVTS,4/15/2021 9:00,106.6667,10.8167,91.4,73.4,55.77,330,5,0,29.71,M,3.11,M,SCT,FEW,M,M,1500,1700,M,M,SHRA,M,M,M,M,M,M,100.52,VVTS 150900Z 33005KT 270V350 5000 SHRA SCT015 FEW017CB 33/23 Q1006 TEMPO TL0915 3000 TSRA RMK CB OVER RWY,M
VVTS,4/15/2021 9:30,106.6667,10.8167,82.4,77,83.77,190,10,0,29.71,M,4.97,M,SCT,SCT,M,M,1500,1700,M,M,#NAME?,M,M,M,M,M,M,90.85,VVTS 150930Z 19010KT 160V220 8000 -TSRA SCT015 SCT017CB 28/25 Q1006 NOSIG RMK CB OVER RWY,M
VVTS,4/15/2021 10:00,106.6667,10.8167,84.2,77,79.04,170,5,0,29.74,M,4.35,M,SCT,SCT,M,M,1500,1700,M,M,#NAME?,M,M,M,M,M,M,94.16,VVTS 151000Z 17005KT 150V210 7000 -TSRA SCT015 SCT017CB 29/25 Q1007 NOSIG RMK CB OVER RWY,M
VVTS,4/15/2021 10:30,106.6667,10.8167,84.2,78.8,83.88,120,9,0,29.74,M,4.35,M,SCT,FEW,SCT,M,1500,1700,5000,M,#NAME?,M,M,M,M,M,M,96.1,VVTS 151030Z 12009KT 7000 -SHRA SCT015 FEW017CB SCT050 29/26 Q1007 NOSIG RMK CB OVER RWY,M
VVTS,4/15/2021 11:00,106.6667,10.8167,82.4,77,83.77,140,7,0,29.74,M,4.97,M,SCT,FEW,BKN,M,1500,1700,5000,M,M,M,M,M,M,M,M,90.85,VVTS 151100Z 14007KT 110V170 8000 SCT015 FEW017CB BKN050 28/25 Q1007 NOSIG RMK CB/SE,M
VVTS,4/15/2021 11:30,106.6667,10.8167,84.2,78.8,83.88,170,6,0,29.74,M,4.97,M,SCT,BKN,M,M,1500,5000,M,M,M,M,M,M,M,M,M,96.1,VVTS 151130Z 17006KT 140V210 8000 SCT015 BKN050 29/26 Q1007 NOSIG,M
VVTS,4/15/2021 12:00,106.6667,10.8167,84.2,78.8,83.88,170,5,0,29.74,M,4.97,M,SCT,BKN,M,M,1500,5000,M,M,M,M,M,M,M,M,M,96.1,VVTS 151200Z 17005KT 140V200 8000 SCT015 BKN050 29/26 Q1007 NOSIG,M
VVTS,4/15/2021 12:30,106.6667,10.8167,84.2,80.6,88.98,190,6,0,29.77,M,6.21,M,SCT,SCT,M,M,1500,5000,M,M,M,M,M,M,M,M,M,98.5,VVTS 151230Z 19006KT 170V230 9999 SCT015 SCT050 29/27 Q1008 NOSIG,M
VVTS,4/15/2021 13:00,106.6667,10.8167,84.2,77,79.04,190,6,0,29.8,M,6.21,M,SCT,SCT,M,M,1500,5000,M,M,M,M,M,M,M,M,M,94.16,VVTS 151300Z 19006KT 150V230 9999 SCT015 SCT050 29/25 Q1009 NOSIG,M
VVTS,4/15/2021 13:30,106.6667,10.8167,84.2,77,79.04,180,5,0,29.8,M,6.21,M,FEW,SCT,M,M,1500,5000,M,M,M,M,M,M,M,M,M,94.16,VVTS 151330Z 18005KT 150V220 9999 FEW015 SCT050 29/25 Q1009 NOSIG,M
VVTS,4/15/2021 14:00,106.6667,10.8167,84.2,77,79.04,180,6,0,29.83,M,6.21,M,FEW,SCT,M,M,1500,5000,M,M,M,M,M,M,M,M,M,94.16,VVTS 151400Z 18006KT 140V210 9999 FEW015 SCT050 29/25 Q1010 NOSIG,M
VVTS,4/15/2021 14:30,106.6667,10.8167,84.2,77,79.04,180,4,0,29.83,M,6.21,M,FEW,SCT,M,M,1500,5000,M,M,M,M,M,M,M,M,M,94.16,VVTS 151430Z 18004KT 140V210 9999 FEW015 SCT050 29/25 Q1010 NOSIG,M
VVTS,4/15/2021 15:00,106.6667,10.8167,84.2,77,79.04,190,7,0,29.85,M,6.21,M,FEW,SCT,M,M,1500,5000,M,M,M,M,M,M,M,M,M,94.16,VVTS 151500Z 19007KT 160V220 9999 FEW015 SCT050 29/25 Q1011 NOSIG,M
VVTS,4/15/2021 15:30,106.6667,10.8167,84.2,77,79.04,190,8,0,29.85,M,6.21,M,FEW,SCT,M,M,1700,5000,M,M,M,M,M,M,M,M,M,94.16,VVTS 151530Z 19008KT 150V220 9999 FEW017 SCT050 29/25 Q1011 NOSIG,M
VVTS,4/15/2021 16:00,106.6667,10.8167,82.4,77,83.77,190,7,0,29.85,M,6.21,M,FEW,SCT,M,M,1700,5000,M,M,M,M,M,M,M,M,M,90.85,VVTS 151600Z 19007KT 9999 FEW017 SCT050 28/25 Q1011 NOSIG,M
VVTS,4/15/2021 16:30,106.6667,10.8167,82.4,78.8,88.9,190,7,0,29.83,M,6.21,M,FEW,SCT,M,M,1700,5000,M,M,M,M,M,M,M,M,M,92.76,VVTS 151630Z 19007KT 9999 FEW017 SCT050 28/26 Q1010 NOSIG,M
VVTS,4/15/2021 17:00,106.6667,10.8167,82.4,77,83.77,180,5,0,29.83,M,6.21,M,FEW,SCT,M,M,1700,5000,M,M,M,M,M,M,M,M,M,90.85,VVTS 151700Z 18005KT 9999 FEW017 SCT050 28/25 Q1010 NOSIG,M
VVTS,4/15/2021 17:30,106.6667,10.8167,82.4,77,83.77,180,6,0,29.8,M,6.21,M,FEW,SCT,M,M,1700,5000,M,M,M,M,M,M,M,M,M,90.85,VVTS 151730Z 18006KT 140V220 9999 FEW017 SCT050 28/25 Q1009 NOSIG,M
VVTS,4/15/2021 18:00,106.6667,10.8167,82.4,77,83.77,170,6,0,29.8,M,6.21,M,FEW,SCT,M,M,1700,5000,M,M,M,M,M,M,M,M,M,90.85,VVTS 151800Z 17006KT 150V210 9999 FEW017 SCT050 28/25 Q1009 NOSIG,M
VVTS,4/15/2021 18:30,106.6667,10.8167,82.4,77,83.77,170,5,0,29.8,M,6.21,M,FEW,SCT,M,M,2000,5000,M,M,M,M,M,M,M,M,M,90.85,VVTS 151830Z 17005KT 140V200 9999 FEW020 SCT050 28/25 Q1009 NOSIG,M
VVTS,4/15/2021 19:00,106.6667,10.8167,82.4,77,83.77,160,4,0,29.8,M,6.21,M,FEW,SCT,M,M,2000,5000,M,M,M,M,M,M,M,M,M,90.85,VVTS 151900Z 16004KT 130V210 9999 FEW020 SCT050 28/25 Q1009 NOSIG,M
VVTS,4/15/2021 19:30,106.6667,10.8167,82.4,78.8,88.9,200,4,0,29.8,M,6.21,M,FEW,SCT,M,M,2000,5000,M,M,M,M,M,M,M,M,M,92.76,VVTS 151930Z 20004KT 160V240 9999 FEW020 SCT050 28/26 Q1009 NOSIG,M
VVTS,4/15/2021 20:00,106.6667,10.8167,82.4,78.8,88.9,190,4,0,29.8,M,6.21,M,FEW,SCT,M,M,2000,5000,M,M,M,M,M,M,M,M,M,92.76,VVTS 152000Z 19004KT 160V220 9999 FEW020 SCT050 28/26 Q1009 NOSIG,M
VVTS,4/15/2021 20:30,106.6667,10.8167,82.4,77,83.77,200,5,0,29.77,M,6.21,M,SCT,FEW,M,M,1500,1700,M,M,M,M,M,M,M,M,M,90.85,VVTS 152030Z 20005KT 160V230 9999 SCT015 FEW017CB 28/25 Q1008 NOSIG RMK CB/N/NW,M
VVTS,4/15/2021 21:00,106.6667,10.8167,82.4,77,83.77,190,5,0,29.8,M,6.21,M,SCT,FEW,M,M,1500,1700,M,M,VCTS,M,M,M,M,M,M,90.85,VVTS 152100Z 19005KT 9999 VCTS SCT015 FEW017CB 28/25 Q1009 NOSIG RMK CB/NE/E/NW,M
VVTS,4/15/2021 21:30,106.6667,10.8167,82.4,77,83.77,210,4,0,29.8,M,4.97,M,SCT,SCT,M,M,1500,1700,M,M,#NAME?,M,M,M,M,M,M,90.85,VVTS 152130Z 21004KT 180V240 8000 -TSRA SCT015 SCT017CB 28/25 Q1009 TEMPO FM2150 TL2220 09015G30KT 1500 +TSRA RMK CB OVER RWY,M
VVTS,4/15/2021 22:00,106.6667,10.8167,71.6,71.6,100,40,27,0,29.85,M,0.93,M,BKN,SCT,M,M,1300,1500,M,M,#NAME?,M,M,M,M,M,M,71.6,VVTS 152200Z 04027KT 1500 +TSRA BKN013 SCT015CB 22/22 Q1011 WS ALL RWY BECMG TL2230 02015G30KT 3000 TSRA RMK CB OVER RWY,M
VVTS,4/15/2021 22:30,106.6667,10.8167,71.6,71.6,100,M,3,0,29.83,M,4.97,M,SCT,FEW,BKN,M,1500,1700,5000,M,#NAME?,M,M,M,M,M,M,71.6,VVTS 152230Z VRB03KT 8000 -TSRA SCT015 FEW017CB BKN050 22/22 Q1010 NOSIG RMK CB OVER RWY,M
VVTS,4/15/2021 23:00,106.6667,10.8167,73.4,73.4,100,M,1,0,29.83,M,6.21,M,SCT,FEW,BKN,M,1500,1700,5000,M,M,M,M,M,M,M,M,73.4,VVTS 152300Z VRB01KT 9999 SCT015 FEW017CB BKN050 23/23 Q1010 NOSIG,M
VVTS,4/15/2021 23:30,106.6667,10.8167,73.4,73.4,100,M,3,0,29.85,M,6.21,M,SCT,FEW,BKN,M,1500,1700,5000,M,M,M,M,M,M,M,M,73.4,VVTS 152330Z VRB03KT 9999 SCT015 FEW017CB BKN050 23/23 Q1011 NOSIG RMK CB/W,M
VVTS,4/16/2021 0:00,106.6667,10.8167,73.4,71.6,94.1,160,4,0,29.85,M,6.21,M,SCT,BKN,M,M,1500,5000,M,M,M,M,M,M,M,M,M,73.4,VVTS 160000Z 16004KT 120V200 9999 SCT015 BKN050 23/22 Q1011 NOSIG,M
VVTS,4/16/2021 0:30,106.6667,10.8167,73.4,71.6,94.1,210,6,0,29.85,M,6.21,M,SCT,BKN,M,M,1500,5000,M,M,M,M,M,M,M,M,M,73.4,VVTS 160030Z 21006KT 160V240 9999 SCT015 BKN050 23/22 Q1011 NOSIG,M
VVTS,4/16/2021 1:00,106.6667,10.8167,73.4,71.6,94.1,M,2,0,29.88,M,6.21,M,SCT,SCT,M,M,1500,5000,M,M,M,M,M,M,M,M,M,73.4,VVTS 160100Z VRB02KT 9999 SCT015 SCT050 23/22 Q1012 NOSIG,M
VVTS,4/16/2021 1:30,106.6667,10.8167,73.4,71.6,94.1,180,5,0,29.88,M,6.21,M,SCT,SCT,M,M,1500,5000,M,M,M,M,M,M,M,M,M,73.4,VVTS 160130Z 18005KT 150V230 9999 SCT015 SCT050 23/22 Q1012 NOSIG,M
VVTS,4/16/2021 2:00,106.6667,10.8167,73.4,71.6,94.1,M,2,0,29.88,M,6.21,M,FEW,BKN,M,M,1500,5000,M,M,M,M,M,M,M,M,M,73.4,VVTS 160200Z VRB02KT 9999 FEW015 BKN050 23/22 Q1012 NOSIG,M
VVTS,4/16/2021 2:30,106.6667,10.8167,73.4,71.6,94.1,M,2,0,29.91,M,6.21,M,FEW,BKN,M,M,1500,5000,M,M,M,M,M,M,M,M,M,73.4,VVTS 160230Z VRB02KT 9999 FEW015 BKN050 23/22 Q1013 NOSIG,M
VVTS,4/16/2021 3:00,106.6667,10.8167,82.4,75.2,78.9,0,0,0,29.88,M,6.21,M,FEW,SCT,M,M,1500,5000,M,M,M,M,M,M,M,M,M,89.48,VVTS 160300Z 00000KT 9999 FEW015 SCT050 28/24 Q1012 NOSIG,M
VVTS,4/16/2021 3:30,106.6667,10.8167,84.2,75.2,74.44,M,1,0,29.88,M,6.21,M,FEW,SCT,M,M,1700,5000,M,M,M,M,M,M,M,M,M,92.45,VVTS 160330Z VRB01KT 9999 FEW017 SCT050 29/24 Q1012 NOSIG,M
VVTS,4/16/2021 4:00,106.6667,10.8167,86,75.2,70.27,M,1,0,29.88,M,6.21,M,FEW,SCT,M,M,1700,5000,M,M,M,M,M,M,M,M,M,95.19,VVTS 160400Z VRB01KT 9999 FEW017 SCT050 30/24 Q1012 NOSIG,M
VVTS,4/16/2021 4:30,106.6667,10.8167,87.8,73.4,62.47,290,5,0,29.85,M,6.21,M,SCT,M,M,M,1700,M,M,M,M,M,M,M,M,M,M,95.86,VVTS 160430Z 29005KT 250V320 9999 SCT017 31/23 Q1011 NOSIG,M
VVTS,4/16/2021 5:00,106.6667,10.8167,89.6,75.2,62.68,290,4,0,29.85,M,6.21,M,BKN,M,M,M,1700,M,M,M,M,M,M,M,M,M,M,100.23,VVTS 160500Z 29004KT 200V360 9999 BKN017 32/24 Q1011 NOSIG,M
VVTS,4/16/2021 5:30,106.6667,10.8167,89.6,75.2,62.68,M,3,0,29.83,M,6.21,M,BKN,M,M,M,1700,M,M,M,M,M,M,M,M,M,M,100.23,VVTS 160530Z VRB03KT 9999 BKN017 32/24 Q1010 NOSIG,M
VVTS,4/16/2021 6:00,106.6667,10.8167,89.6,71.6,55.53,270,5,0,29.83,M,6.21,M,BKN,M,M,M,1700,M,M,M,M,M,M,M,M,M,M,96.41,VVTS 160600Z 27005KT 210V320 9999 BKN017 32/22 Q1010 NOSIG,M
VVTS,4/16/2021 6:30,106.6667,10.8167,91.4,75.2,59.24,270,4,0,29.8,M,6.21,M,BKN,M,M,M,1700,M,M,M,M,M,M,M,M,M,M,102.65,VVTS 160630Z 27004KT 210V330 9999 BKN017 33/24 Q1009,M
VVTS,4/16/2021 7:00,106.6667,10.8167,91.4,71.6,52.48,180,5,0,29.77,M,6.21,M,BKN,M,M,M,1700,M,M,M,M,M,M,M,M,M,M,98.64,VVTS 160700Z 18005KT 100V250 9999 BKN017 33/22 Q1008 NOSIG,M
VVTS,4/16/2021 7:30,106.6667,10.8167,91.4,69.8,49.36,190,4,0,29.74,M,6.21,M,BKN,M,M,M,1700,M,M,M,M,M,M,M,M,M,M,96.99,VVTS 160730Z 19004KT 090V260 9999 BKN017 33/21 Q1007 NOSIG,M
VVTS,4/16/2021 8:00,106.6667,10.8167,93.2,69.8,46.67,M,6,0,29.74,M,6.21,M,BKN,M,M,M,1700,M,M,M,M,M,M,M,M,M,M,99.17,VVTS 160800Z VRB06KT 9999 BKN017 34/21 Q1007 NOSIG,M
VVTS,4/16/2021 8:30,106.6667,10.8167,93.2,69.8,46.67,190,7,0,29.71,M,6.21,M,BKN,M,M,M,1700,M,M,M,M,M,M,M,M,M,M,99.17,VVTS 160830Z 19007KT 140V230 9999 BKN017 34/21 Q1006 NOSIG,M
VVTS,4/16/2021 9:00,106.6667,10.8167,91.4,68,46.41,200,6,0,29.71,M,6.21,M,BKN,M,M,M,1700,M,M,M,M,M,M,M,M,M,M,95.55,VVTS 160900Z 20006KT 150V250 9999 BKN017 33/20 Q1006 NOSIG,M
VVTS,4/16/2021 9:30,106.6667,10.8167,91.4,68,46.41,210,9,0,29.71,M,6.21,M,SCT,M,M,M,1700,M,M,M,M,M,M,M,M,M,M,95.55,VVTS 160930Z 21009KT 160V230 9999 SCT017 33/20 Q1006 NOSIG,M
VVTS,4/16/2021 10:00,106.6667,10.8167,89.6,73.4,59.01,190,9,0,29.74,M,6.21,M,SCT,M,M,M,1700,M,M,M,M,M,M,M,M,M,M,98.2,VVTS 161000Z 19009KT 140V230 9999 SCT017 32/23 Q1007 NOSIG,M
VVTS,4/16/2021 10:30,106.6667,10.8167,87.8,77,70.45,170,8,0,29.74,M,6.21,M,SCT,M,M,M,1700,M,M,M,M,M,M,M,M,M,M,99.92,VVTS 161030Z 17008KT 9999 SCT017 31/25 Q1007 NOSIG,M
VVTS,4/16/2021 11:00,106.6667,10.8167,86,77,74.61,180,9,0,29.77,M,6.21,M,SCT,M,M,M,1700,M,M,M,M,M,M,M,M,M,M,97.15,VVTS 161100Z 18009KT 9999 SCT017 30/25 Q1008 NOSIG,M
VVTS,4/16/2021 11:30,106.6667,10.8167,86,75.2,70.27,170,8,0,29.77,M,4.97,M,SCT,FEW,M,M,1700,2000,M,M,M,M,M,M,M,M,M,95.19,VVTS 161130Z 17008KT 8000 SCT017 FEW020CB 30/24 Q1008 NOSIG RMK CB/W,M
VVTS,4/16/2021 12:00,106.6667,10.8167,86,75.2,70.27,160,8,0,29.8,M,6.21,M,SCT,FEW,SCT,M,1700,2000,5000,M,M,M,M,M,M,M,M,95.19,VVTS 161200Z 16008KT 130V200 9999 SCT017 FEW020CB SCT050 30/24 Q1009 NOSIG RMK CB/W,M
VVTS,4/16/2021 12:30,106.6667,10.8167,84.2,75.2,74.44,230,10,0,29.8,M,6.21,M,SCT,FEW,SCT,M,1700,2000,5000,M,M,M,M,M,M,M,M,92.45,VVTS 161230Z 23010KT 180V270 9999 SCT017 FEW020CB SCT050 29/24 Q1009 NOSIG RMK CB/NW,M
VVTS,4/16/2021 13:00,106.6667,10.8167,84.2,75.2,74.44,200,9,0,29.83,M,6.21,M,SCT,BKN,M,M,1700,5000,M,M,M,M,M,M,M,M,M,92.45,VVTS 161300Z 20009KT 160V230 9999 SCT017 BKN050 29/24 Q1010 NOSIG,M
VVTS,4/16/2021 13:30,106.6667,10.8167,82.4,75.2,78.9,220,6,0,29.83,M,6.21,M,SCT,BKN,M,M,1700,5000,M,M,M,M,M,M,M,M,M,89.48,VVTS 161330Z 22006KT 200V260 9999 SCT017 BKN050 28/24 Q1010 NOSIG,M
VVTS,4/16/2021 14:00,106.6667,10.8167,82.4,75.2,78.9,230,7,0,29.85,M,6.21,M,SCT,FEW,BKN,M,1500,1700,5000,M,M,M,M,M,M,M,M,89.48,VVTS 161400Z 23007KT 9999 SCT015 FEW017CB BKN050 28/24 Q1011 NOSIG RMK CB/NE/SE,M
VVTS,4/16/2021 14:30,106.6667,10.8167,84.2,75.2,74.44,210,7,0,29.85,M,6.21,M,SCT,FEW,BKN,M,1500,1700,5000,M,M,M,M,M,M,M,M,92.45,VVTS 161430Z 21007KT 9999 SCT015 FEW017CB BKN050 29/24 Q1011 NOSIG RMK CB/NE/SE,M
VVTS,4/16/2021 15:00,106.6667,10.8167,82.4,75.2,78.9,210,9,0,29.85,M,6.21,M,SCT,FEW,SCT,M,1500,1700,5000,M,M,M,M,M,M,M,M,89.48,VVTS 161500Z 21009KT 170V230 9999 SCT015 FEW017CB SCT050 28/24 Q1011 NOSIG RMK CB/NE,M
VVTS,4/16/2021 15:30,106.6667,10.8167,82.4,75.2,78.9,220,8,0,29.85,M,6.21,M,SCT,FEW,SCT,M,1500,1700,5000,M,M,M,M,M,M,M,M,89.48,VVTS 161530Z 22008KT 9999 SCT015 FEW017CB SCT050 28/24 Q1011 NOSIG RMK CB/NE,M
VVTS,4/16/2021 16:00,106.6667,10.8167,82.4,75.2,78.9,200,6,0,29.85,M,6.21,M,SCT,FEW,SCT,M,1500,1700,5000,M,M,M,M,M,M,M,M,89.48,VVTS 161600Z 20006KT 160V220 9999 SCT015 FEW017CB SCT050 28/24 Q1011 NOSIG RMK CB/NE/E,M
VVTS,4/16/2021 16:30,106.6667,10.8167,82.4,77,83.77,210,9,0,29.85,M,6.21,M,SCT,FEW,SCT,M,1500,1700,5000,M,#NAME?,M,M,M,M,M,M,90.85,VVTS 161630Z 21009KT 180V240 9999 -RA SCT015 FEW017CB SCT050 28/25 Q1011 NOSIG RMK CB/N/NE,M
VVTS,4/16/2021 17:00,106.6667,10.8167,82.4,77,83.77,210,5,0,29.85,M,6.21,M,SCT,SCT,BKN,M,1500,1700,5000,M,#NAME?,M,M,M,M,M,M,90.85,VVTS 161700Z 21005KT 180V250 9999 -TSRA SCT015 SCT017CB BKN050 28/25 Q1011 TEMPO FM1720 TL1800 06016G28KT 2000 +TSRA RMK CB OVER RWY,M
VVTS,4/16/2021 17:30,106.6667,10.8167,78.8,75.2,88.75,50,8,0,29.88,M,6.21,M,SCT,SCT,BKN,M,1500,1700,5000,M,#NAME?,M,M,M,M,M,M,78.8,VVTS 161730Z 05008KT 020V100 9999 -TSRA SCT015 SCT017CB BKN050 26/24 Q1012 TEMPO TL1800 06016G28KT 2000 +TSRA RMK CB OVER RWY,M
VVTS,4/16/2021 18:00,106.6667,10.8167,77,75.2,94.19,330,6,0,29.85,M,4.97,M,SCT,FEW,BKN,M,1500,1700,5000,M,#NAME?,M,M,M,M,M,M,77,VVTS 161800Z 33006KT 300V360 8000 -TSRA SCT015 FEW017CB BKN050 25/24 Q1011 NOSIG RMK CB OVER RWY,M
VVTS,4/16/2021 18:30,106.6667,10.8167,77,77,100,90,4,0,29.85,M,4.97,M,SCT,FEW,BKN,M,1500,1700,5000,M,M,M,M,M,M,M,M,77,VVTS 161830Z 09004KT 050V130 8000 SCT015 FEW017CB BKN050 25/25 Q1011 NOSIG RMK CB/E,M
VVTS,4/16/2021 19:00,106.6667,10.8167,77,77,100,M,3,0,29.85,M,6.21,M,SCT,BKN,M,M,1700,5000,M,M,M,M,M,M,M,M,M,77,VVTS 161900Z VRB03KT 9999 SCT017 BKN050 25/25 Q1011 NOSIG,M
VVTS,4/16/2021 19:30,106.6667,10.8167,77,75.2,94.19,90,3,0,29.85,M,6.21,M,SCT,BKN,M,M,1700,5000,M,M,M,M,M,M,M,M,M,77,VVTS 161930Z 09003KT 9999 SCT017 BKN050 25/24 Q1011 NOSIG,M
VVTS,4/16/2021 20:00,106.6667,10.8167,77,75.2,94.19,70,3,0,29.85,M,6.21,M,SCT,BKN,M,M,1700,5000,M,M,M,M,M,M,M,M,M,77,VVTS 162000Z 07003KT 9999 SCT017 BKN050 25/24 Q1011 NOSIG,M
VVTS,4/16/2021 20:30,106.6667,10.8167,77,77,100,50,2,0,29.85,M,6.21,M,SCT,SCT,M,M,1700,5000,M,M,M,M,M,M,M,M,M,77,VVTS 162030Z 05002KT 9999 SCT017 SCT050 25/25 Q1011 NOSIG,M
VVTS,4/16/2021 21:00,106.6667,10.8167,77,77,100,60,3,0,29.85,M,6.21,M,SCT,SCT,M,M,1700,5000,M,M,M,M,M,M,M,M,M,77,VVTS 162100Z 06003KT 9999 SCT017 SCT050 25/25 Q1011 NOSIG,M
VVTS,4/16/2021 21:30,106.6667,10.8167,77,77,100,80,4,0,29.85,M,6.21,M,SCT,SCT,M,M,1700,5000,M,M,M,M,M,M,M,M,M,77,VVTS 162130Z 08004KT 9999 SCT017 SCT050 25/25 Q1011 NOSIG,M
VVTS,4/16/2021 22:00,106.6667,10.8167,77,77,100,70,4,0,29.85,M,6.21,M,SCT,SCT,M,M,1700,5000,M,M,M,M,M,M,M,M,M,77,VVTS 162200Z 07004KT 9999 SCT017 SCT050 25/25 Q1011 NOSIG,M
VVTS,4/16/2021 22:30,106.6667,10.8167,77,75.2,94.19,90,2,0,29.85,M,6.21,M,SCT,SCT,M,M,1700,5000,M,M,M,M,M,M,M,M,M,77,VVTS 162230Z 09002KT 9999 SCT017 SCT050 25/24 Q1011 NOSIG,M
VVTS,4/16/2021 23:00,106.6667,10.8167,77,75.2,94.19,60,3,0,29.88,M,4.97,M,FEW,SCT,M,M,1700,5000,M,M,M,M,M,M,M,M,M,77,VVTS 162300Z 06003KT 8000 FEW017 SCT050 25/24 Q1012 NOSIG,M
VVTS,4/16/2021 23:30,106.6667,10.8167,78.8,77,94.23,60,2,0,29.88,M,4.97,M,FEW,SCT,M,M,1700,5000,M,M,M,M,M,M,M,M,M,78.8,VVTS 162330Z 06002KT 8000 FEW017 SCT050 26/25 Q1012 NOSIG,M
VVTS,4/17/2021 0:00,106.6667,10.8167,80.6,77,88.83,M,2,0,29.88,M,4.97,M,FEW,SCT,M,M,1700,5000,M,M,M,M,M,M,M,M,M,87.59,VVTS 170000Z VRB02KT 8000 FEW017 SCT050 27/25 Q1012 NOSIG,M
VVTS,4/17/2021 0:30,106.6667,10.8167,82.4,77,83.77,M,2,0,29.91,M,4.97,M,FEW,SCT,M,M,2000,5000,M,M,M,M,M,M,M,M,M,90.85,VVTS 170030Z VRB02KT 8000 FEW020 SCT050 28/25 Q1013 NOSIG,M
VVTS,4/17/2021 1:00,106.6667,10.8167,84.2,77,79.04,M,2,0,29.91,M,4.97,M,FEW,SCT,M,M,2000,5000,M,M,M,M,M,M,M,M,M,94.16,VVTS 170100Z VRB02KT 8000 FEW020 SCT050 29/25 Q1013 NOSIG,M
VVTS,4/17/2021 1:30,106.6667,10.8167,84.2,77,79.04,M,2,0,29.91,M,6.21,M,FEW,SCT,M,M,2000,5000,M,M,M,M,M,M,M,M,M,94.16,VVTS 170130Z VRB02KT 9999 FEW020 SCT050 29/25 Q1013 NOSIG,M
VVTS,4/17/2021 2:00,106.6667,10.8167,86,75.2,70.27,M,1,0,29.91,M,6.21,M,FEW,M,M,M,2000,M,M,M,M,M,M,M,M,M,M,95.19,VVTS 170200Z VRB01KT 9999 FEW020 30/24 Q1013 NOSIG,M
VVTS,4/17/2021 2:30,106.6667,10.8167,87.8,77,70.45,M,2,0,29.91,M,6.21,M,FEW,M,M,M,2000,M,M,M,M,M,M,M,M,M,M,99.92,VVTS 170230Z VRB02KT 9999 FEW020 31/25 Q1013 NOSIG,M
VVTS,4/17/2021 3:00,106.6667,10.8167,89.6,75.2,62.68,M,2,0,29.88,M,6.21,M,FEW,M,M,M,2000,M,M,M,M,M,M,M,M,M,M,100.23,VVTS 170300Z VRB02KT 9999 FEW020 32/24 Q1012 NOSIG,M
VVTS,4/17/2021 3:30,106.6667,10.8167,89.6,73.4,59.01,M,2,0,29.88,M,6.21,M,SCT,M,M,M,2000,M,M,M,M,M,M,M,M,M,M,98.2,VVTS 170330Z VRB02KT 9999 SCT020 32/23 Q1012 NOSIG,M
VVTS,4/17/2021 4:00,106.6667,10.8167,89.6,73.4,59.01,300,4,0,29.88,M,6.21,M,BKN,M,M,M,1700,M,M,M,M,M,M,M,M,M,M,98.2,VVTS 170400Z 30004KT 270V350 9999 BKN017 32/23 Q1012 NOSIG,M
VVTS,4/17/2021 4:30,106.6667,10.8167,87.8,73.4,62.47,M,2,0,29.88,M,6.21,M,SCT,FEW,M,M,1700,1700,M,M,M,M,M,M,M,M,M,95.86,VVTS 170430Z VRB02KT 9999 SCT017 FEW017TCU 31/23 Q1012 NOSIG RMK TCU OVER RWY,M
VVTS,4/17/2021 5:00,106.6667,10.8167,89.6,75.2,62.68,M,1,0,29.85,M,6.21,M,SCT,FEW,M,M,1700,1700,M,M,M,M,M,M,M,M,M,100.23,VVTS 170500Z VRB01KT 9999 SCT017 FEW017TCU 32/24 Q1011 NOSIG,M
VVTS,4/17/2021 5:30,106.6667,10.8167,91.4,75.2,59.24,M,2,0,29.85,M,6.21,M,SCT,FEW,M,M,1500,1700,M,M,M,M,M,M,M,M,M,102.65,VVTS 170530Z VRB02KT 9999 SCT015 FEW017TCU 33/24 Q1011 NOSIG RMK TCU OVER RWY,M
VVTS,4/17/2021 6:00,106.6667,10.8167,91.4,75.2,59.24,320,4,0,29.83,M,6.21,M,SCT,FEW,M,M,1500,1700,M,M,M,M,M,M,M,M,M,102.65,VVTS 170600Z 32004KT 280V020 9999 SCT015 FEW017TCU 33/24 Q1010 NOSIG RMK TCU/S,M
VVTS,4/17/2021 6:30,106.6667,10.8167,89.6,73.4,59.01,M,3,0,29.83,M,6.21,M,SCT,FEW,M,M,1500,1700,M,M,M,M,M,M,M,M,M,98.2,VVTS 170630Z VRB03KT 9999 SCT015 FEW017CB 32/23 Q1010 NOSIG RMK CB OVER RWY,M
VVTS,4/17/2021 7:00,106.6667,10.8167,87.8,73.4,62.47,210,9,0,29.8,M,4.97,M,SCT,FEW,M,M,1500,1700,M,M,#NAME?,M,M,M,M,M,M,95.86,VVTS 170700Z 21009KT 160V230 8000 -SHRA SCT015 FEW017CB 31/23 Q1009 TEMPO TL0730 5000 TSRA RMK CB OVER RWY,M
VVTS,4/17/2021 7:30,106.6667,10.8167,87.8,75.2,66.35,200,5,0,29.8,M,6.21,M,SCT,FEW,M,M,1700,2000,M,M,M,M,M,M,M,M,M,97.76,VVTS 170730Z 20005KT 9999 SCT017 FEW020TCU 31/24 Q1009 NOSIG RMK TCU/W,M
VVTS,4/17/2021 8:00,106.6667,10.8167,91.4,73.4,55.77,M,3,0,29.77,M,6.21,M,SCT,FEW,M,M,1700,2000,M,M,M,M,M,M,M,M,M,100.52,VVTS 170800Z VRB03KT 9999 SCT017 FEW020TCU 33/23 Q1008 NOSIG RMK TCU/SW,M
VVTS,4/17/2021 8:30,106.6667,10.8167,91.4,73.4,55.77,M,2,0,29.77,M,6.21,M,SCT,M,M,M,1700,M,M,M,M,M,M,M,M,M,M,100.52,VVTS 170830Z VRB02KT 9999 SCT017 33/23 Q1008 NOSIG,M
VVTS,4/17/2021 9:00,106.6667,10.8167,91.4,73.4,55.77,M,2,0,29.77,M,4.97,M,SCT,M,M,M,1700,M,M,M,M,M,M,M,M,M,M,100.52,VVTS 170900Z VRB02KT 8000 SCT017 33/23 Q1008 NOSIG,M
VVTS,4/17/2021 9:30,106.6667,10.8167,84.2,75.2,74.44,260,11,0,29.77,M,4.97,M,SCT,M,M,M,1700,M,M,M,M,M,M,M,M,M,M,92.45,VVTS 170930Z 26011KT 8000 SCT017 29/24 Q1008 NOSIG,M
VVTS,4/17/2021 10:00,106.6667,10.8167,84.2,75.2,74.44,240,7,0,29.77,M,6.21,M,SCT,FEW,M,M,1700,2000,M,M,M,M,M,M,M,M,M,92.45,VVTS 171000Z 24007KT 9999 SCT017 FEW020TCU 29/24 Q1008 NOSIG RMK TCU/SE,M
VVTS,4/17/2021 10:30,106.6667,10.8167,86,73.4,66.15,190,4,0,29.77,M,6.21,M,SCT,FEW,M,M,1700,2000,M,M,M,M,M,M,M,M,M,93.45,VVTS 171030Z 19004KT 160V220 9999 SCT017 FEW020CB 30/23 Q1008 NOSIG RMK CB OVER RWY,M
VVTS,4/17/2021 11:00,106.6667,10.8167,86,73.4,66.15,160,4,0,29.8,M,4.35,M,SCT,FEW,M,M,1700,2000,M,M,#NAME?,M,M,M,M,M,M,93.45,VVTS 171100Z 16004KT 120V220 7000 -SHRA SCT017 FEW020CB 30/23 Q1009 NOSIG RMK CB OVER RWY,M
VVTS,4/17/2021 11:30,106.6667,10.8167,84.2,75.2,74.44,150,6,0,29.83,M,4.35,M,SCT,FEW,M,M,1500,1700,M,M,#NAME?,M,M,M,M,M,M,92.45,VVTS 171130Z 15006KT 110V210 7000 -SHRA SCT015 FEW017CB 29/24 Q1010 TEMPO TL1150 5000 TSRA RMK CB OVER RWY,M
VVTS,4/17/2021 12:00,106.6667,10.8167,77,75.2,94.19,80,12,0,29.85,M,1.86,M,BKN,SCT,M,M,1300,1500,M,M,TSRA,M,M,M,M,M,M,77,VVTS 171200Z 08012KT 060V130 3000 TSRA BKN013 SCT015CB 25/24 Q1011 TEMPO TL1225 08015G28KT 3000 TSRA RMK CB OVER RWY,M
VVTS,4/17/2021 12:30,106.6667,10.8167,71.6,71.6,100,220,16,0,29.85,M,3.73,M,SCT,SCT,M,M,1500,1700,M,M,#NAME?,M,M,M,M,M,M,71.6,VVTS 171230Z 22016KT 160V250 6000 -TSRA SCT015 SCT017CB 22/22 Q1011 NOSIG RMK CB OVER RWY,M
VVTS,4/17/2021 13:00,106.6667,10.8167,78.8,77,94.23,200,5,0,29.85,M,6.21,M,SCT,FEW,BKN,M,1500,1700,4000,M,#NAME?,M,M,M,M,M,M,78.8,VVTS 171300Z 20005KT 150V240 9999 -TSRA SCT015 FEW017CB BKN040 26/25 Q1011 NOSIG RMK CB OVER RWY,M
VVTS,4/17/2021 13:30,106.6667,10.8167,80.6,77,88.83,M,1,0,29.85,M,6.21,M,SCT,FEW,BKN,M,1500,1700,4000,M,M,M,M,M,M,M,M,87.59,VVTS 171330Z VRB01KT 9999 SCT015 FEW017CB BKN040 27/25 Q1011 NOSIG RMK CB/SW,M
VVTS,4/17/2021 14:00,106.6667,10.8167,80.6,77,88.83,170,3,0,29.88,M,6.21,M,SCT,BKN,M,M,1500,4000,M,M,M,M,M,M,M,M,M,87.59,VVTS 171400Z 17003KT 9999 SCT015 BKN040 27/25 Q1012 NOSIG,M
VVTS,4/17/2021 14:30,106.6667,10.8167,82.4,77,83.77,210,4,0,29.88,M,6.21,M,SCT,SCT,M,M,1500,5000,M,M,M,M,M,M,M,M,M,90.85,VVTS 171430Z 21004KT 160V240 9999 SCT015 SCT050 28/25 Q1012 NOSIG,M
VVTS,4/17/2021 15:00,106.6667,10.8167,80.6,77,88.83,220,3,0,29.88,M,6.21,M,SCT,SCT,M,M,1500,5000,M,M,M,M,M,M,M,M,M,87.59,VVTS 171500Z 22003KT 9999 SCT015 SCT050 27/25 Q1012 NOSIG,M
VVTS,4/17/2021 15:30,106.6667,10.8167,80.6,77,88.83,M,2,0,29.88,M,6.21,M,SCT,SCT,M,M,1700,5000,M,M,M,M,M,M,M,M,M,87.59,VVTS 171530Z VRB02KT 9999 SCT017 SCT050 27/25 Q1012 NOSIG,M
VVTS,4/17/2021 16:00,106.6667,10.8167,80.6,77,88.83,M,2,0,29.88,M,6.21,M,SCT,SCT,M,M,1700,5000,M,M,M,M,M,M,M,M,M,87.59,VVTS 171600Z VRB02KT 9999 SCT017 SCT050 27/25 Q1012 NOSIG,M
VVTS,4/17/2021 16:30,106.6667,10.8167,82.4,75.2,78.9,M,3,0,29.88,M,6.21,M,SCT,SCT,M,M,1700,5000,M,M,M,M,M,M,M,M,M,89.48,VVTS 171630Z VRB03KT 9999 SCT017 SCT050 28/24 Q1012 NOSIG,M
VVTS,4/17/2021 17:00,106.6667,10.8167,82.4,77,83.77,M,2,0,29.88,M,6.21,M,SCT,SCT,M,M,1700,5000,M,M,M,M,M,M,M,M,M,90.85,VVTS 171700Z VRB02KT 9999 SCT017 SCT050 28/25 Q1012 NOSIG,M
VVTS,4/17/2021 17:30,106.6667,10.8167,82.4,77,83.77,170,4,0,29.85,M,6.21,M,SCT,SCT,M,M,1700,5000,M,M,M,M,M,M,M,M,M,90.85,VVTS 171730Z 17004KT 110V220 9999 SCT017 SCT050 28/25 Q1011 NOSIG,M
VVTS,4/17/2021 18:00,106.6667,10.8167,82.4,77,83.77,130,4,0,29.85,M,6.21,M,SCT,SCT,M,M,1700,5000,M,M,M,M,M,M,M,M,M,90.85,VVTS 171800Z 13004KT 110V200 9999 SCT017 SCT050 28/25 Q1011 NOSIG,M
VVTS,4/17/2021 18:30,106.6667,10.8167,80.6,77,88.83,M,1,0,29.85,M,6.21,M,SCT,SCT,M,M,1500,5000,M,M,M,M,M,M,M,M,M,87.59,VVTS 171830Z VRB01KT 9999 SCT015 SCT050 27/25 Q1011 NOSIG,M
VVTS,4/17/2021 19:00,106.6667,10.8167,80.6,77,88.83,M,3,0,29.85,M,6.21,M,SCT,SCT,M,M,1500,5000,M,M,M,M,M,M,M,M,M,87.59,VVTS 171900Z VRB03KT 9999 SCT015 SCT050 27/25 Q1011 NOSIG,M
VVTS,4/17/2021 19:30,106.6667,10.8167,80.6,77,88.83,M,1,0,29.85,M,6.21,M,SCT,SCT,M,M,1500,5000,M,M,M,M,M,M,M,M,M,87.59,VVTS 171930Z VRB01KT 9999 SCT015 SCT050 27/25 Q1011 NOSIG,M
VVTS,4/17/2021 20:00,106.6667,10.8167,80.6,78.8,94.27,170,3,0,29.85,M,6.21,M,SCT,SCT,M,M,1500,5000,M,M,M,M,M,M,M,M,M,89.33,VVTS 172000Z 17003KT 9999 SCT015 SCT050 27/26 Q1011 NOSIG,M
VVTS,4/17/2021 20:30,106.6667,10.8167,80.6,77,88.83,M,1,0,29.85,M,6.21,M,SCT,SCT,M,M,1500,5000,M,M,M,M,M,M,M,M,M,87.59,VVTS 172030Z VRB01KT 9999 SCT015 SCT050 27/25 Q1011 NOSIG,M
VVTS,4/17/2021 21:00,106.6667,10.8167,78.8,78.8,100,350,2,0,29.85,M,4.97,M,SCT,FEW,SCT,M,1500,1700,5000,M,M,M,M,M,M,M,M,78.8,VVTS 172100Z 35002KT 8000 SCT015 FEW017CB SCT050 26/26 Q1011 TEMPO FM2120 TL2150 3000 TSRA RMK CB OVER RWY,M
VVTS,4/17/2021 21:30,106.6667,10.8167,78.8,78.8,100,280,5,0,29.85,M,4.35,M,SCT,FEW,BKN,M,1500,1700,5000,M,#NAME?,M,M,M,M,M,M,78.8,VVTS 172130Z 28005KT 7000 -SHRA SCT015 FEW017CB BKN050 26/26 Q1011 TEMPO TL2150 3000 TSRA RMK CB OVER RWY,M
VVTS,4/17/2021 22:00,106.6667,10.8167,78.8,78.8,100,M,3,0,29.85,M,3.73,M,SCT,SCT,BKN,M,1500,1700,5000,M,#NAME?,M,M,M,M,M,M,78.8,VVTS 172200Z VRB03KT 6000 -SHRA SCT015 SCT017CB BKN050 26/26 Q1011 TEMPO TL2230 3000 TSRA RMK CB OVER RWY,M
VVTS,4/17/2021 22:30,106.6667,10.8167,78.8,78.8,100,320,4,0,29.85,M,3.73,M,SCT,SCT,BKN,M,1500,1700,5000,M,TS,M,M,M,M,M,M,78.8,VVTS 172230Z 32004KT 6000 TS SCT015 SCT017CB BKN050 26/26 Q1011 TEMPO TL2300 33015G28KT 3000 TSRA RMK CB OVER RWY,M
VVTS,4/17/2021 23:00,106.6667,10.8167,77,75.2,94.19,320,5,0,29.88,M,3.11,M,BKN,SCT,M,M,1300,1500,M,M,#NAME?,M,M,M,M,M,M,77,VVTS 172300Z 32005KT 5000 -TSRA BKN013 SCT015CB 25/24 Q1012 TEMPO TL2330 3000 TSRA RMK CB OVER RWY,M
VVTS,4/17/2021 23:30,106.6667,10.8167,77,75.2,94.19,260,7,0,29.88,M,4.35,M,BKN,SCT,M,M,1300,1500,M,M,#NAME?,M,M,M,M,M,M,77,VVTS 172330Z 26007KT 7000 -TSRA BKN013 SCT015CB 25/24 Q1012 NOSIG,M
VVTS,4/18/2021 0:00,106.6667,10.8167,77,77,100,190,6,0,29.88,M,3.11,M,BKN,SCT,M,M,1300,1500,M,M,TSRA,M,M,M,M,M,M,77,VVTS 180000Z 19006KT 5000 TSRA BKN013 SCT015CB 25/25 Q1012 NOSIG RMK CB OVER RWY,M
VVTS,4/18/2021 0:30,106.6667,10.8167,78.8,77,94.23,M,3,0,29.91,M,4.35,M,SCT,FEW,BKN,M,1300,1500,5000,M,#NAME?,M,M,M,M,M,M,78.8,VVTS 180030Z VRB03KT 7000 -TSRA SCT013 FEW015CB BKN050 26/25 Q1013 NOSIG RMK CB OVER RWY,M
VVTS,4/18/2021 1:00,106.6667,10.8167,78.8,77,94.23,200,6,0,29.91,M,3.11,M,SCT,FEW,BKN,M,1300,1500,5000,M,TSRA,M,M,M,M,M,M,78.8,VVTS 180100Z 20006KT 160V230 5000 TSRA SCT013 FEW015CB BKN050 26/25 Q1013 NOSIG RMK CB OVER RWY,M
VVTS,4/18/2021 1:30,106.6667,10.8167,80.6,78.8,94.27,230,4,0,29.91,M,3.73,M,SCT,FEW,BKN,M,1500,1700,5000,M,#NAME?,M,M,M,M,M,M,89.33,VVTS 180130Z 23004KT 150V260 6000 -RA SCT015 FEW017CB BKN050 27/26 Q1013 NOSIG RMK CB/SW,M
VVTS,4/18/2021 2:00,106.6667,10.8167,82.4,78.8,88.9,220,5,0,29.91,M,4.97,M,SCT,FEW,BKN,M,1500,1700,5000,M,M,M,M,M,M,M,M,92.76,VVTS 180200Z 22005KT 8000 SCT015 FEW017CB BKN050 28/26 Q1013 NOSIG RMK CB/SW,M
VVTS,4/18/2021 2:30,106.6667,10.8167,82.4,77,83.77,260,5,0,29.91,M,6.21,M,SCT,BKN,M,M,1500,5000,M,M,M,M,M,M,M,M,M,90.85,VVTS 180230Z 26005KT 9999 SCT015 BKN050 28/25 Q1013 NOSIG,M
VVTS,4/18/2021 3:00,106.6667,10.8167,84.2,78.8,83.88,M,3,0,29.91,M,6.21,M,SCT,FEW,BKN,M,1500,1700,5000,M,M,M,M,M,M,M,M,96.1,VVTS 180300Z VRB03KT 9999 SCT015 FEW017TCU BKN050 29/26 Q1013 NOSIG RMK TCU OVER RWY,M
VVTS,4/18/2021 3:30,106.6667,10.8167,84.2,77,79.04,190,4,0,29.91,M,6.21,M,SCT,FEW,BKN,M,1500,1700,5000,M,M,M,M,M,M,M,M,94.16,VVTS 180330Z 19004KT 140V270 9999 SCT015 FEW017TCU BKN050 29/25 Q1013 NOSIG RMK TCU/E,M
VVTS,4/18/2021 4:00,106.6667,10.8167,86,77,74.61,210,5,0,29.88,M,6.21,M,BKN,FEW,M,M,1500,1700,M,M,M,M,M,M,M,M,M,97.15,VVTS 180400Z 21005KT 180V240 9999 BKN015 FEW017TCU 30/25 Q1012 NOSIG,M
VVTS,4/18/2021 4:30,106.6667,10.8167,86,77,74.61,M,3,0,29.88,M,6.21,M,BKN,FEW,M,M,1500,1700,M,M,#NAME?,M,M,M,M,M,M,97.15,VVTS 180430Z VRB03KT 9999 -SHRA BKN015 FEW017CB 30/25 Q1012 TEMPO TL0505 5000 SHRA RMK CB OVER RWY,M
VVTS,4/18/2021 5:00,106.6667,10.8167,86,75.2,70.27,190,5,0,29.85,M,6.21,M,BKN,FEW,M,M,1500,1700,M,M,M,M,M,M,M,M,M,95.19,VVTS 180500Z 19005KT 150V230 9999 BKN015 FEW017CB 30/24 Q1011 NOSIG RMK CB OVER RWY,M
VVTS,4/18/2021 5:30,106.6667,10.8167,87.8,75.2,66.35,170,7,0,29.85,M,6.21,M,BKN,FEW,M,M,1500,1700,M,M,M,M,M,M,M,M,M,97.76,VVTS 180530Z 17007KT 130V220 9999 BKN015 FEW017CB 31/24 Q1011 NOSIG RMK CB/SW,M
VVTS,4/18/2021 6:00,106.6667,10.8167,87.8,77,70.45,160,7,0,29.83,M,6.21,M,BKN,FEW,M,M,1500,1700,M,M,M,M,M,M,M,M,M,99.92,VVTS 180600Z 16007KT 120V200 9999 BKN015 FEW017CB 31/25 Q1010 NOSIG RMK CB/SW,M
VVTS,4/18/2021 6:30,106.6667,10.8167,87.8,77,70.45,210,6,0,29.8,M,6.21,M,SCT,FEW,M,M,1500,1700,M,M,M,M,M,M,M,M,M,99.92,VVTS 180630Z 21006KT 160V240 9999 SCT015 FEW017CB 31/25 Q1009 NOSIG RMK CB/SW,M
VVTS,4/18/2021 7:00,106.6667,10.8167,87.8,73.4,62.47,170,5,0,29.77,M,6.21,M,SCT,M,M,M,1700,M,M,M,M,M,M,M,M,M,M,95.86,VVTS 180700Z 17005KT 140V240 9999 SCT017 31/23 Q1008 NOSIG,M
VVTS,4/18/2021 7:30,106.6667,10.8167,89.6,75.2,62.68,180,6,0,29.77,M,6.21,M,SCT,M,M,M,1700,M,M,M,M,M,M,M,M,M,M,100.23,VVTS 180730Z 18006KT 130V230 9999 SCT017 32/24 Q1008 NOSIG,M
VVTS,4/18/2021 8:00,106.6667,10.8167,89.6,73.4,59.01,200,7,0,29.77,M,6.21,M,SCT,SCT,M,M,1700,5000,M,M,M,M,M,M,M,M,M,98.2,VVTS 180800Z 20007KT 150V240 9999 SCT017 SCT050 32/23 Q1008 NOSIG,M
VVTS,4/18/2021 8:30,106.6667,10.8167,87.8,73.4,62.47,180,8,0,29.77,M,6.21,M,BKN,M,M,M,1700,M,M,M,M,M,M,M,M,M,M,95.86,VVTS 180830Z 18008KT 150V210 9999 BKN017 31/23 Q1008 NOSIG,M
VVTS,4/18/2021 9:00,106.6667,10.8167,87.8,75.2,66.35,190,10,0,29.77,M,6.21,M,SCT,M,M,M,1700,M,M,M,M,M,M,M,M,M,M,97.76,VVTS 180900Z 19010KT 160V220 9999 SCT017 31/24 Q1008 NOSIG,M
VVTS,4/18/2021 9:30,106.6667,10.8167,86,75.2,70.27,170,9,0,29.77,M,6.21,M,SCT,M,M,M,1700,M,M,M,M,M,M,M,M,M,M,95.19,VVTS 180930Z 17009KT 140V220 9999 SCT017 30/24 Q1008 NOSIG,M
VVTS,4/18/2021 10:00,106.6667,10.8167,86,75.2,70.27,160,9,0,29.77,M,6.21,M,FEW,M,M,M,1700,M,M,M,M,M,M,M,M,M,M,95.19,VVTS 181000Z 16009KT 130V200 9999 FEW017 30/24 Q1008 NOSIG,M
VVTS,4/18/2021 10:30,106.6667,10.8167,86,75.2,70.27,170,8,0,29.77,M,6.21,M,FEW,M,M,M,1700,M,M,M,M,M,M,M,M,M,M,95.19,VVTS 181030Z 17008KT 140V200 9999 FEW017 30/24 Q1008 NOSIG,M
VVTS,4/18/2021 11:00,106.6667,10.8167,84.2,75.2,74.44,160,7,0,29.8,M,6.21,M,FEW,M,M,M,1700,M,M,M,M,M,M,M,M,M,M,92.45,VVTS 181100Z 16007KT 130V200 9999 FEW017 29/24 Q1009 NOSIG,M
VVTS,4/18/2021 11:30,106.6667,10.8167,84.2,75.2,74.44,180,7,0,29.8,M,6.21,M,FEW,M,M,M,1700,M,M,M,M,M,M,M,M,M,M,92.45,VVTS 181130Z 18007KT 140V210 9999 FEW017 29/24 Q1009 NOSIG,M
VVTS,4/18/2021 12:00,106.6667,10.8167,84.2,75.2,74.44,170,6,0,29.83,M,6.21,M,FEW,M,M,M,1700,M,M,M,M,M,M,M,M,M,M,92.45,VVTS 181200Z 17006KT 140V210 9999 FEW017 29/24 Q1010 NOSIG,M
VVTS,4/18/2021 12:30,106.6667,10.8167,84.2,75.2,74.44,180,6,0,29.83,M,6.21,M,FEW,M,M,M,1700,M,M,M,M,M,M,M,M,M,M,92.45,VVTS 181230Z 18006KT 150V210 9999 FEW017 29/24 Q1010 NOSIG,M
VVTS,4/18/2021 13:00,106.6667,10.8167,84.2,75.2,74.44,150,5,0,29.83,M,6.21,M,FEW,M,M,M,1700,M,M,M,M,M,M,M,M,M,M,92.45,VVTS 181300Z 15005KT 120V190 9999 FEW017 29/24 Q1010 NOSIG,M
VVTS,4/18/2021 13:30,106.6667,10.8167,82.4,75.2,78.9,160,4,0,29.85,M,6.21,M,FEW,M,M,M,1700,M,M,M,M,M,M,M,M,M,M,89.48,VVTS 181330Z 16004KT 9999 FEW017 28/24 Q1011 NOSIG,M
VVTS,4/18/2021 14:00,106.6667,10.8167,82.4,75.2,78.9,M,3,0,29.85,M,6.21,M,FEW,M,M,M,1700,M,M,M,M,M,M,M,M,M,M,89.48,VVTS 181400Z VRB03KT 9999 FEW017 28/24 Q1011 NOSIG,M
VVTS,4/18/2021 14:30,106.6667,10.8167,82.4,75.2,78.9,M,3,0,29.85,M,6.21,M,FEW,M,M,M,1700,M,M,M,M,M,M,M,M,M,M,89.48,VVTS 181430Z VRB03KT 9999 FEW017 28/24 Q1011 NOSIG,M
VVTS,4/18/2021 15:00,106.6667,10.8167,82.4,75.2,78.9,190,5,0,29.88,M,6.21,M,FEW,M,M,M,1700,M,M,M,M,M,M,M,M,M,M,89.48,VVTS 181500Z 19005KT 160V220 9999 FEW017 28/24 Q1012 NOSIG,M
VVTS,4/18/2021 15:30,106.6667,10.8167,82.4,75.2,78.9,160,5,0,29.88,M,6.21,M,FEW,M,M,M,2000,M,M,M,M,M,M,M,M,M,M,89.48,VVTS 181530Z 16005KT 130V190 9999 FEW020 28/24 Q1012 NOSIG,M
VVTS,4/18/2021 16:00,106.6667,10.8167,82.4,75.2,78.9,180,4,0,29.88,M,6.21,M,FEW,M,M,M,2000,M,M,M,M,M,M,M,M,M,M,89.48,VVTS 181600Z 18004KT 9999 FEW020 28/24 Q1012 NOSIG,M
VVTS,4/18/2021 16:30,106.6667,10.8167,82.4,75.2,78.9,190,4,0,29.85,M,6.21,M,FEW,M,M,M,2000,M,M,M,M,M,M,M,M,M,M,89.48,VVTS 181630Z 19004KT 140V220 9999 FEW020 28/24 Q1011 NOSIG,M
VVTS,4/18/2021 17:00,106.6667,10.8167,82.4,75.2,78.9,M,3,0,29.85,M,6.21,M,FEW,M,M,M,2000,M,M,M,M,M,M,M,M,M,M,89.48,VVTS 181700Z VRB03KT 9999 FEW020 28/24 Q1011 NOSIG,M
VVTS,4/18/2021 17:30,106.6667,10.8167,80.6,75.2,83.66,190,4,0,29.83,M,6.21,M,FEW,M,M,M,1700,M,M,M,M,M,M,M,M,M,M,86.17,VVTS 181730Z 19004KT 9999 FEW017 27/24 Q1010 NOSIG,M
VVTS,4/18/2021 18:00,106.6667,10.8167,80.6,75.2,83.66,M,3,0,29.83,M,6.21,M,FEW,M,M,M,1700,M,M,M,M,M,M,M,M,M,M,86.17,VVTS 181800Z VRB03KT 9999 FEW017 27/24 Q1010 NOSIG,M
VVTS,4/18/2021 18:30,106.6667,10.8167,80.6,75.2,83.66,M,3,0,29.83,M,6.21,M,FEW,M,M,M,1700,M,M,M,M,M,M,M,M,M,M,86.17,VVTS 181830Z VRB03KT 9999 FEW017 27/24 Q1010 NOSIG,M
VVTS,4/18/2021 19:00,106.6667,10.8167,80.6,75.2,83.66,M,2,0,29.83,M,6.21,M,FEW,M,M,M,1700,M,M,M,M,M,M,M,M,M,M,86.17,VVTS 181900Z VRB02KT 9999 FEW017 27/24 Q1010 NOSIG,M
VVTS,4/18/2021 19:30,106.6667,10.8167,80.6,75.2,83.66,0,0,0,29.83,M,6.21,M,FEW,M,M,M,1700,M,M,M,M,M,M,M,M,M,M,86.17,VVTS 181930Z 00000KT 9999 FEW017 27/24 Q1010 NOSIG,M
VVTS,4/18/2021 20:00,106.6667,10.8167,78.8,75.2,88.75,M,1,0,29.83,M,6.21,M,FEW,M,M,M,1700,M,M,M,M,M,M,M,M,M,M,78.8,VVTS 182000Z VRB01KT 9999 FEW017 26/24 Q1010 NOSIG,M
VVTS,4/18/2021 20:30,106.6667,10.8167,80.6,75.2,83.66,M,2,0,29.8,M,6.21,M,FEW,M,M,M,1700,M,M,M,M,M,M,M,M,M,M,86.17,VVTS 182030Z VRB02KT 9999 FEW017 27/24 Q1009 NOSIG,M
VVTS,4/18/2021 21:00,106.6667,10.8167,80.6,75.2,83.66,M,2,0,29.8,M,6.21,M,FEW,M,M,M,1700,M,M,M,M,M,M,M,M,M,M,86.17,VVTS 182100Z VRB02KT 9999 FEW017 27/24 Q1009 NOSIG,M
VVTS,4/18/2021 21:30,106.6667,10.8167,78.8,75.2,88.75,190,4,0,29.8,M,6.21,M,FEW,M,M,M,1700,M,M,M,M,M,M,M,M,M,M,78.8,VVTS 182130Z 19004KT 9999 FEW017 26/24 Q1009 NOSIG,M
VVTS,4/18/2021 22:00,106.6667,10.8167,78.8,75.2,88.75,180,2,0,29.83,M,6.21,M,FEW,M,M,M,1700,M,M,M,M,M,M,M,M,M,M,78.8,VVTS 182200Z 18002KT 9999 FEW017 26/24 Q1010 NOSIG,M
VVTS,4/18/2021 22:30,106.6667,10.8167,78.8,77,94.23,M,2,0,29.83,M,6.21,M,FEW,M,M,M,2000,M,M,M,M,M,M,M,M,M,M,78.8,VVTS 182230Z VRB02KT 9999 FEW020 26/25 Q1010 NOSIG,M
VVTS,4/18/2021 23:00,106.6667,10.8167,80.6,77,88.83,M,2,0,29.83,M,6.21,M,FEW,M,M,M,2000,M,M,M,M,M,M,M,M,M,M,87.59,VVTS 182300Z VRB02KT 9999 FEW020 27/25 Q1010 NOSIG,M
VVTS,4/18/2021 23:30,106.6667,10.8167,80.6,77,88.83,M,2,0,29.83,M,4.97,M,FEW,M,M,M,2000,M,M,M,M,M,M,M,M,M,M,87.59,VVTS 182330Z VRB02KT 8000 FEW020 27/25 Q1010 NOSIG,M
VVTS,4/19/2021 0:00,106.6667,10.8167,82.4,77,83.77,M,2,0,29.85,M,6.21,M,M,M,M,M,M,M,M,M,M,M,M,M,M,M,M,90.85,VVTS 190000Z VRB02KT CAVOK 28/25 Q1011 NOSIG,M
VVTS,4/19/2021 0:30,106.6667,10.8167,84.2,77,79.04,M,1,0,29.85,M,6.21,M,M,M,M,M,M,M,M,M,M,M,M,M,M,M,M,94.16,VVTS 190030Z VRB01KT CAVOK 29/25 Q1011 NOSIG,M
VVTS,4/19/2021 1:00,106.6667,10.8167,84.2,77,79.04,M,2,0,29.85,M,6.21,M,FEW,M,M,M,2000,M,M,M,M,M,M,M,M,M,M,94.16,VVTS 190100Z VRB02KT 9999 FEW020 29/25 Q1011 NOSIG,M
VVTS,4/19/2021 1:30,106.6667,10.8167,84.2,75.2,74.44,M,2,0,29.88,M,6.21,M,SCT,M,M,M,2000,M,M,M,M,M,M,M,M,M,M,92.45,VVTS 190130Z VRB02KT 9999 SCT020 29/24 Q1012 NOSIG,M
VVTS,4/19/2021 2:00,106.6667,10.8167,86,75.2,70.27,M,3,0,29.88,M,6.21,M,BKN,M,M,M,2000,M,M,M,M,M,M,M,M,M,M,95.19,VVTS 190200Z VRB03KT 9999 BKN020 30/24 Q1012 NOSIG,M
VVTS,4/19/2021 2:30,106.6667,10.8167,87.8,77,70.45,M,3,0,29.85,M,6.21,M,SCT,FEW,M,M,1700,2000,M,M,M,M,M,M,M,M,M,99.92,VVTS 190230Z VRB03KT 9999 SCT017 FEW020TCU 31/25 Q1011 NOSIG RMK TCU/W,M
VVTS,4/19/2021 3:00,106.6667,10.8167,86,75.2,70.27,M,3,0,29.85,M,6.21,M,SCT,FEW,M,M,1700,2000,M,M,M,M,M,M,M,M,M,95.19,VVTS 190300Z VRB03KT 9999 SCT017 FEW020TCU 30/24 Q1011 NOSIG RMK TCU/W,M
VVTS,4/19/2021 3:30,106.6667,10.8167,87.8,75.2,66.35,M,2,0,29.85,M,6.21,M,BKN,M,M,M,1700,M,M,M,M,M,M,M,M,M,M,97.76,VVTS 190330Z VRB02KT 9999 BKN017 31/24 Q1011 NOSIG,M
VVTS,4/19/2021 4:00,106.6667,10.8167,87.8,77,70.45,300,4,0,29.85,M,6.21,M,BKN,M,M,M,1700,M,M,M,M,M,M,M,M,M,M,99.92,VVTS 190400Z 30004KT 270V330 9999 BKN017 31/25 Q1011 NOSIG,M
VVTS,4/19/2021 4:30,106.6667,10.8167,89.6,77,66.55,M,3,0,29.83,M,6.21,M,BKN,FEW,M,M,1500,1700,M,M,M,M,M,M,M,M,M,102.54,VVTS 190430Z VRB03KT 9999 BKN015 FEW017TCU 32/25 Q1010 NOSIG RMK TCU/NE,M
VVTS,4/19/2021 5:00,106.6667,10.8167,89.6,73.4,59.01,M,2,0,29.8,M,6.21,M,BKN,FEW,M,M,1500,1700,M,M,M,M,M,M,M,M,M,98.2,VVTS 190500Z VRB02KT 9999 BKN015 FEW017TCU 32/23 Q1009 NOSIG RMK TCU/NE,M
VVTS,4/19/2021 5:30,106.6667,10.8167,89.6,75.2,62.68,M,3,0,29.8,M,6.21,M,BKN,FEW,M,M,1500,1700,M,M,M,M,M,M,M,M,M,100.23,VVTS 190530Z VRB03KT 9999 BKN015 FEW017TCU 32/24 Q1009 NOSIG,M
VVTS,4/19/2021 6:00,106.6667,10.8167,89.6,73.4,59.01,220,4,0,29.77,M,6.21,M,BKN,FEW,M,M,1500,1700,M,M,#NAME?,M,M,M,M,M,M,98.2,VVTS 190600Z 22004KT 190V270 9999 -SHRA BKN015 FEW017TCU 32/23 Q1008 NOSIG RMK TCU OVER RWY,M
VVTS,4/19/2021 6:30,106.6667,10.8167,91.4,75.2,59.24,140,4,0,29.74,M,6.21,M,BKN,FEW,M,M,1500,1700,M,M,M,M,M,M,M,M,M,102.65,VVTS 190630Z 14004KT 080V180 9999 BKN015 FEW017TCU 33/24 Q1007 NOSIG RMK TCU OVER RWY,M
VVTS,4/19/2021 7:00,106.6667,10.8167,91.4,73.4,55.77,130,4,0,29.74,M,6.21,M,SCT,FEW,M,M,1700,2000,M,M,M,M,M,M,M,M,M,100.52,VVTS 190700Z 13004KT 070V170 9999 SCT017 FEW020TCU 33/23 Q1007 NOSIG RMK TCU/N,M
VVTS,4/19/2021 7:30,106.6667,10.8167,91.4,71.6,52.48,M,3,0,29.71,M,6.21,M,SCT,FEW,M,M,1700,2000,M,M,M,M,M,M,M,M,M,98.64,VVTS 190730Z VRB03KT 9999 SCT017 FEW020TCU 33/22 Q1006 NOSIG RMK TCU/S/W,M
VVTS,4/19/2021 8:00,106.6667,10.8167,87.8,75.2,66.35,180,10,0,29.74,M,6.21,M,SCT,FEW,M,M,1700,2000,M,M,#NAME?,M,M,M,M,M,M,97.76,VVTS 190800Z 18010KT 160V220 9999 -SHRA SCT017 FEW020CB 31/24 Q1007 NOSIG RMK CB OVER RWY,M
VVTS,4/19/2021 8:30,106.6667,10.8167,87.8,77,70.45,170,9,0,29.74,M,6.21,M,SCT,FEW,M,M,1700,2000,M,M,M,M,M,M,M,M,M,99.92,VVTS 190830Z 17009KT 140V210 9999 SCT017 FEW020TCU 31/25 Q1007 NOSIG RMK TCU OVER RWY,M
VVTS,4/19/2021 9:00,106.6667,10.8167,87.8,78.8,74.77,190,14,0,29.74,M,6.21,M,SCT,FEW,M,M,1700,2000,M,M,M,M,M,M,M,M,M,102.37,VVTS 190900Z 19014KT 150V210 9999 SCT017 FEW020CB 31/26 Q1007 NOSIG RMK CB/NE/NW,M
VVTS,4/19/2021 9:30,106.6667,10.8167,82.4,75.2,78.9,220,16,0,29.74,M,6.21,M,SCT,FEW,M,M,1700,2000,M,M,M,M,M,M,M,M,M,89.48,VVTS 190930Z 22016KT 9999 SCT017 FEW020CB 28/24 Q1007 NOSIG RMK CB/N/NW,M
VVTS,4/19/2021 10:00,106.6667,10.8167,82.4,75.2,78.9,240,12,0,29.77,M,6.21,M,SCT,FEW,SCT,M,1700,2000,2000,M,M,M,M,M,M,M,M,89.48,VVTS 191000Z 24012KT 200V260 9999 SCT017 FEW020CB SCT020 28/24 Q1008 NOSIG RMK CB/N/NW,M
VVTS,4/19/2021 10:30,106.6667,10.8167,80.6,75.2,83.66,230,10,0,29.77,M,6.21,M,FEW,BKN,M,M,1700,5000,M,M,M,M,M,M,M,M,M,86.17,VVTS 191030Z 23010KT 9999 FEW017 BKN050 27/24 Q1008 NOSIG,M
VVTS,4/19/2021 11:00,106.6667,10.8167,80.6,75.2,83.66,230,8,0,29.77,M,6.21,M,FEW,BKN,M,M,1700,5000,M,M,M,M,M,M,M,M,M,86.17,VVTS 191100Z 23008KT 9999 FEW017 BKN050 27/24 Q1008 NOSIG,M
VVTS,4/19/2021 11:30,106.6667,10.8167,80.6,75.2,83.66,250,3,0,29.8,M,6.21,M,FEW,BKN,M,M,1700,5000,M,M,M,M,M,M,M,M,M,86.17,VVTS 191130Z 25003KT 9999 FEW017 BKN050 27/24 Q1009 NOSIG,M
VVTS,4/19/2021 12:00,106.6667,10.8167,80.6,75.2,83.66,250,5,0,29.8,M,6.21,M,FEW,BKN,M,M,1700,5000,M,M,M,M,M,M,M,M,M,86.17,VVTS 191200Z 25005KT 9999 FEW017 BKN050 27/24 Q1009 NOSIG,M
VVTS,4/19/2021 12:30,106.6667,10.8167,80.6,75.2,83.66,M,3,0,29.8,M,6.21,M,FEW,BKN,M,M,1700,5000,M,M,M,M,M,M,M,M,M,86.17,VVTS 191230Z VRB03KT 9999 FEW017 BKN050 27/24 Q1009 NOSIG,M
VVTS,4/19/2021 13:00,106.6667,10.8167,80.6,75.2,83.66,260,6,0,29.83,M,6.21,M,FEW,BKN,M,M,1700,5000,M,M,M,M,M,M,M,M,M,86.17,VVTS 191300Z 26006KT 9999 FEW017 BKN050 27/24 Q1010 NOSIG,M
VVTS,4/19/2021 13:30,106.6667,10.8167,80.6,75.2,83.66,M,3,0,29.83,M,6.21,M,FEW,BKN,M,M,1700,5000,M,M,M,M,M,M,M,M,M,86.17,VVTS 191330Z VRB03KT 9999 FEW017 BKN050 27/24 Q1010 NOSIG,M
VVTS,4/19/2021 14:00,106.6667,10.8167,80.6,75.2,83.66,240,3,0,29.83,M,6.21,M,FEW,BKN,M,M,1700,5000,M,M,M,M,M,M,M,M,M,86.17,VVTS 191400Z 24003KT 9999 FEW017 BKN050 27/24 Q1010 NOSIG,M
VVTS,4/19/2021 14:30,106.6667,10.8167,80.6,75.2,83.66,230,4,0,29.83,M,6.21,M,FEW,BKN,M,M,1700,5000,M,M,M,M,M,M,M,M,M,86.17,VVTS 191430Z 23004KT 9999 FEW017 BKN050 27/24 Q1010 NOSIG,M
VVTS,4/19/2021 15:00,106.6667,10.8167,80.6,75.2,83.66,M,2,0,29.83,M,6.21,M,FEW,BKN,M,M,1700,5000,M,M,M,M,M,M,M,M,M,86.17,VVTS 191500Z VRB02KT 9999 FEW017 BKN050 27/24 Q1010 NOSIG,M
VVTS,4/19/2021 15:30,106.6667,10.8167,80.6,75.2,83.66,M,3,0,29.85,M,6.21,M,SCT,SCT,M,M,1700,5000,M,M,M,M,M,M,M,M,M,86.17,VVTS 191530Z VRB03KT 9999 SCT017 SCT050 27/24 Q1011 NOSIG,M
VVTS,4/19/2021 16:00,106.6667,10.8167,80.6,75.2,83.66,210,3,0,29.85,M,6.21,M,SCT,SCT,M,M,1700,5000,M,M,M,M,M,M,M,M,M,86.17,VVTS 191600Z 21003KT 9999 SCT017 SCT050 27/24 Q1011 NOSIG,M
VVTS,4/19/2021 16:30,106.6667,10.8167,80.6,75.2,83.66,270,4,0,29.85,M,6.21,M,SCT,SCT,M,M,1700,5000,M,M,M,M,M,M,M,M,M,86.17,VVTS 191630Z 27004KT 9999 SCT017 SCT050 27/24 Q1011 NOSIG,M
VVTS,4/19/2021 17:00,106.6667,10.8167,80.6,75.2,83.66,M,2,0,29.83,M,6.21,M,SCT,SCT,M,M,1700,5000,M,M,M,M,M,M,M,M,M,86.17,VVTS 191700Z VRB02KT 9999 SCT017 SCT050 27/24 Q1010 NOSIG,M
VVTS,4/19/2021 17:30,106.6667,10.8167,78.8,75.2,88.75,230,4,0,29.83,M,6.21,M,SCT,SCT,M,M,1700,5000,M,M,M,M,M,M,M,M,M,78.8,VVTS 191730Z 23004KT 9999 SCT017 SCT050 26/24 Q1010 NOSIG,M
VVTS,4/19/2021 18:00,106.6667,10.8167,80.6,75.2,83.66,M,1,0,29.83,M,6.21,M,SCT,SCT,M,M,1700,5000,M,M,M,M,M,M,M,M,M,86.17,VVTS 191800Z VRB01KT 9999 SCT017 SCT050 27/24 Q1010 NOSIG,M
VVTS,4/19/2021 18:30,106.6667,10.8167,78.8,75.2,88.75,M,1,0,29.8,M,6.21,M,FEW,SCT,M,M,1700,5000,M,M,M,M,M,M,M,M,M,78.8,VVTS 191830Z VRB01KT 9999 FEW017 SCT050 26/24 Q1009 NOSIG,M
VVTS,4/19/2021 19:00,106.6667,10.8167,78.8,77,94.23,0,0,0,29.8,M,6.21,M,FEW,SCT,M,M,1700,5000,M,M,M,M,M,M,M,M,M,78.8,VVTS 191900Z 00000KT 9999 FEW017 SCT050 26/25 Q1009 NOSIG,M
VVTS,4/19/2021 19:30,106.6667,10.8167,78.8,75.2,88.75,M,1,0,29.8,M,6.21,M,FEW,SCT,M,M,1700,5000,M,M,M,M,M,M,M,M,M,78.8,VVTS 191930Z VRB01KT 9999 FEW017 SCT050 26/24 Q1009 NOSIG,M
VVTS,4/19/2021 20:00,106.6667,10.8167,78.8,77,94.23,0,0,0,29.8,M,6.21,M,FEW,SCT,M,M,1700,5000,M,M,M,M,M,M,M,M,M,78.8,VVTS 192000Z 00000KT 9999 FEW017 SCT050 26/25 Q1009 NOSIG,M
VVTS,4/19/2021 20:30,106.6667,10.8167,80.6,77,88.83,M,1,0,29.8,M,6.21,M,FEW,SCT,M,M,1700,5000,M,M,M,M,M,M,M,M,M,87.59,VVTS 192030Z VRB01KT 9999 FEW017 SCT050 27/25 Q1009 NOSIG,M
VVTS,4/19/2021 21:00,106.6667,10.8167,78.8,77,94.23,310,1,0,29.8,M,6.21,M,FEW,SCT,M,M,1700,5000,M,M,M,M,M,M,M,M,M,78.8,VVTS 192100Z 31001KT 9999 FEW017 SCT050 26/25 Q1009 NOSIG,M
VVTS,4/19/2021 21:30,106.6667,10.8167,78.8,77,94.23,80,2,0,29.8,M,6.21,M,FEW,SCT,M,M,1700,5000,M,M,M,M,M,M,M,M,M,78.8,VVTS 192130Z 08002KT 9999 FEW017 SCT050 26/25 Q1009 NOSIG,M
VVTS,4/19/2021 22:00,106.6667,10.8167,80.6,77,88.83,M,1,0,29.8,M,6.21,M,FEW,SCT,M,M,1700,5000,M,M,M,M,M,M,M,M,M,87.59,VVTS 192200Z VRB01KT 9999 FEW017 SCT050 27/25 Q1009 NOSIG,M
VVTS,4/19/2021 22:30,106.6667,10.8167,78.8,77,94.23,M,1,0,29.8,M,6.21,M,SCT,SCT,M,M,1700,5000,M,M,M,M,M,M,M,M,M,78.8,VVTS 192230Z VRB01KT 9999 SCT017 SCT050 26/25 Q1009 NOSIG,M
VVTS,4/19/2021 23:00,106.6667,10.8167,80.6,75.2,83.66,220,4,0,29.8,M,6.21,M,FEW,SCT,M,M,1700,5000,M,M,M,M,M,M,M,M,M,86.17,VVTS 192300Z 22004KT 9999 FEW017 SCT050 27/24 Q1009 NOSIG,M
VVTS,4/19/2021 23:30,106.6667,10.8167,80.6,77,88.83,M,3,0,29.83,M,6.21,M,FEW,SCT,M,M,1700,5000,M,M,M,M,M,M,M,M,M,87.59,VVTS 192330Z VRB03KT 9999 FEW017 SCT050 27/25 Q1010 NOSIG,M
VVTS,4/20/2021 0:00,106.6667,10.8167,82.4,77,83.77,M,3,0,29.83,M,6.21,M,FEW,M,M,M,1700,M,M,M,M,M,M,M,M,M,M,90.85,VVTS 200000Z VRB03KT 9999 FEW017 28/25 Q1010 NOSIG,M
VVTS,4/20/2021 0:30,106.6667,10.8167,84.2,77,79.04,M,3,0,29.85,M,6.21,M,FEW,M,M,M,1700,M,M,M,M,M,M,M,M,M,M,94.16,VVTS 200030Z VRB03KT 9999 FEW017 29/25 Q1011 NOSIG,M
VVTS,4/20/2021 1:00,106.6667,10.8167,84.2,77,79.04,220,4,0,29.85,M,6.21,M,FEW,M,M,M,1700,M,M,M,M,M,M,M,M,M,M,94.16,VVTS 200100Z 22004KT 180V280 9999 FEW017 29/25 Q1011 NOSIG,M
VVTS,4/20/2021 1:30,106.6667,10.8167,86,77,74.61,230,6,0,29.85,M,6.21,M,SCT,M,M,M,1700,M,M,M,M,M,M,M,M,M,M,97.15,VVTS 200130Z 23006KT 190V250 9999 SCT017 30/25 Q1011 NOSIG,M
VVTS,4/20/2021 2:00,106.6667,10.8167,87.8,77,70.45,220,5,0,29.85,M,6.21,M,SCT,M,M,M,1700,M,M,M,M,M,M,M,M,M,M,99.92,VVTS 200200Z 22005KT 190V250 9999 SCT017 31/25 Q1011 NOSIG,M
VVTS,4/20/2021 2:30,106.6667,10.8167,87.8,77,70.45,260,4,0,29.85,M,6.21,M,BKN,M,M,M,1700,M,M,M,M,M,M,M,M,M,M,99.92,VVTS 200230Z 26004KT 230V290 9999 BKN017 31/25 Q1011 NOSIG,M
VVTS,4/20/2021 3:00,106.6667,10.8167,89.6,77,66.55,250,6,0,29.85,M,6.21,M,BKN,M,M,M,1700,M,M,M,M,M,M,M,M,M,M,102.54,VVTS 200300Z 25006KT 210V280 //// R25R/P2000N BKN017 32/25 Q1011 NOSIG,M
VVTS,4/20/2021 3:30,106.6667,10.8167,89.6,75.2,62.68,280,6,0,29.85,M,6.21,M,BKN,M,M,M,1700,M,M,M,M,M,M,M,M,M,M,100.23,VVTS 200330Z 28006KT 230V320 9999 BKN017 32/24 Q1011 NOSIG,M
VVTS,4/20/2021 4:00,106.6667,10.8167,89.6,75.2,62.68,240,6,0,29.83,M,6.21,M,BKN,M,M,M,1700,M,M,M,M,M,M,M,M,M,M,100.23,VVTS 200400Z 24006KT 9999 BKN017 32/24 Q1010 NOSIG,M
VVTS,4/20/2021 4:30,106.6667,10.8167,89.6,75.2,62.68,280,4,0,29.83,M,6.21,M,BKN,M,M,M,1700,M,M,M,M,M,M,M,M,M,M,100.23,VVTS 200430Z 28004KT 230V320 9999 BKN017 32/24 Q1010 NOSIG,M
VVTS,4/20/2021 5:00,106.6667,10.8167,91.4,75.2,59.24,240,6,0,29.83,M,6.21,M,BKN,M,M,M,1700,M,M,M,M,M,M,M,M,M,M,102.65,VVTS 200500Z 24006KT 9999 BKN017 33/24 Q1010 NOSIG,M
VVTS,4/20/2021 5:30,106.6667,10.8167,91.4,73.4,55.77,280,8,0,29.8,M,6.21,M,BKN,M,M,M,1700,M,M,M,M,M,M,M,M,M,M,100.52,VVTS 200530Z 28008KT 240V320 9999 BKN017 33/23 Q1009 NOSIG,M
VVTS,4/20/2021 6:00,106.6667,10.8167,91.4,73.4,55.77,260,6,0,29.77,M,6.21,M,BKN,M,M,M,1700,M,M,M,M,M,M,M,M,M,M,100.52,VVTS 200600Z 26006KT 220V320 9999 BKN017 33/23 Q1008 NOSIG,M
VVTS,4/20/2021 6:30,106.6667,10.8167,91.4,71.6,52.48,260,5,0,29.77,M,6.21,M,BKN,M,M,M,1700,M,M,M,M,M,M,M,M,M,M,98.64,VVTS 200630Z 26005KT 210V320 9999 BKN017 33/22 Q1008 NOSIG,M
VVTS,4/20/2021 7:00,106.6667,10.8167,93.2,73.4,52.73,250,5,0,29.74,M,6.21,M,BKN,M,M,M,1700,M,M,M,M,M,M,M,M,M,M,102.82,VVTS 200700Z 25005KT 200V340 9999 BKN017 34/23 Q1007 NOSIG,M
VVTS,4/20/2021 7:30,106.6667,10.8167,93.2,71.6,49.62,320,5,0,29.74,M,6.21,M,BKN,M,M,M,1700,M,M,M,M,M,M,M,M,M,M,100.88,VVTS 200730Z 32005KT 280V010 9999 BKN017 34/22 Q1007 NOSIG,M
VVTS,4/20/2021 8:00,106.6667,10.8167,93.2,71.6,49.62,310,6,0,29.71,M,6.21,M,BKN,M,M,M,1700,M,M,M,M,M,M,M,M,M,M,100.88,VVTS 200800Z 31006KT 260V340 9999 BKN017 34/22 Q1006 NOSIG,M
VVTS,4/20/2021 8:30,106.6667,10.8167,93.2,71.6,49.62,280,4,0,29.71,M,6.21,M,BKN,M,M,M,1700,M,M,M,M,M,M,M,M,M,M,100.88,VVTS 200830Z 28004KT 230V340 9999 BKN017 34/22 Q1006 NOSIG,M
VVTS,4/20/2021 9:00,106.6667,10.8167,89.6,77,66.55,300,5,0,29.71,M,6.21,M,SCT,FEW,M,M,1500,1700,M,M,M,M,M,M,M,M,M,102.54,VVTS 200900Z 30005KT 270V330 9999 SCT015 FEW017CB 32/25 Q1006 NOSIG RMK CB/SW,M
VVTS,4/20/2021 9:30,106.6667,10.8167,86,75.2,70.27,270,12,0,29.74,M,6.21,M,FEW,FEW,M,M,1500,1700,M,M,M,M,M,M,M,M,M,95.19,VVTS 200930Z 27012KT 9999 FEW015 FEW017CB 30/24 Q1007 NOSIG RMK CB OVER RWY,M
VVTS,4/20/2021 10:00,106.6667,10.8167,87.8,77,70.45,280,8,0,29.74,M,6.21,M,FEW,FEW,M,M,1500,1700,M,M,M,M,M,M,M,M,M,99.92,VVTS 201000Z 28008KT 250V310 9999 FEW015 FEW017CB 31/25 Q1007 NOSIG RMK CB/E/S,M
VVTS,4/20/2021 10:30,106.6667,10.8167,87.8,77,70.45,270,6,0,29.74,M,6.21,M,FEW,FEW,M,M,1500,1700,M,M,M,M,M,M,M,M,M,99.92,VVTS 201030Z 27006KT 9999 FEW015 FEW017CB 31/25 Q1007 NOSIG RMK CB/SE/S,M
VVTS,4/20/2021 11:00,106.6667,10.8167,87.8,75.2,66.35,230,4,0,29.74,M,6.21,M,FEW,FEW,SCT,M,1500,1700,5000,M,M,M,M,M,M,M,M,97.76,VVTS 201100Z 23004KT 180V260 9999 FEW015 FEW017CB SCT050 31/24 Q1007 NOSIG RMK CB/E,M
VVTS,4/20/2021 11:30,106.6667,10.8167,86,77,74.61,200,5,0,29.77,M,6.21,M,FEW,SCT,M,M,1700,5000,M,M,M,M,M,M,M,M,M,97.15,VVTS 201130Z 20005KT 160V240 9999 FEW017 SCT050 30/25 Q1008 NOSIG,M
VVTS,4/20/2021 12:00,106.6667,10.8167,86,77,74.61,190,4,0,29.77,M,6.21,M,FEW,M,M,M,1700,M,M,M,M,M,M,M,M,M,M,97.15,VVTS 201200Z 19004KT 160V220 9999 FEW017 30/25 Q1008 NOSIG,M
VVTS,4/20/2021 12:30,106.6667,10.8167,86,77,74.61,M,3,0,29.77,M,6.21,M,FEW,M,M,M,1700,M,M,M,M,M,M,M,M,M,M,97.15,VVTS 201230Z VRB03KT 9999 FEW017 30/25 Q1008 NOSIG,M
VVTS,4/20/2021 13:00,106.6667,10.8167,86,77,74.61,M,2,0,29.8,M,6.21,M,FEW,M,M,M,1700,M,M,M,M,M,M,M,M,M,M,97.15,VVTS 201300Z VRB02KT 9999 FEW017 30/25 Q1009 NOSIG,M
VVTS,4/20/2021 13:30,106.6667,10.8167,86,78.8,79.18,160,4,0,29.8,M,6.21,M,FEW,M,M,M,1700,M,M,M,M,M,M,M,M,M,M,99.38,VVTS 201330Z 16004KT 130V190 9999 FEW017 30/26 Q1009 NOSIG,M
VVTS,4/20/2021 14:00,106.6667,10.8167,86,78.8,79.18,170,4,0,29.8,M,6.21,M,FEW,M,M,M,1700,M,M,M,M,M,M,M,M,M,M,99.38,VVTS 201400Z 17004KT 140V200 9999 FEW017 30/26 Q1009 NOSIG,M
VVTS,4/20/2021 14:30,106.6667,10.8167,84.2,78.8,83.88,190,7,0,29.8,M,6.21,M,FEW,M,M,M,1700,M,M,M,M,M,M,M,M,M,M,96.1,VVTS 201430Z 19007KT 9999 FEW017 29/26 Q1009 NOSIG,M
VVTS,4/20/2021 15:00,106.6667,10.8167,84.2,78.8,83.88,180,7,0,29.83,M,6.21,M,FEW,M,M,M,1700,M,M,M,M,M,M,M,M,M,M,96.1,VVTS 201500Z 18007KT 150V210 9999 FEW017 29/26 Q1010 NOSIG,M
VVTS,4/20/2021 15:30,106.6667,10.8167,84.2,78.8,83.88,190,7,0,29.83,M,6.21,M,FEW,M,M,M,1700,M,M,M,M,M,M,M,M,M,M,96.1,VVTS 201530Z 19007KT 150V210 9999 FEW017 29/26 Q1010 NOSIG,M
VVTS,4/20/2021 16:00,106.6667,10.8167,84.2,78.8,83.88,180,6,0,29.83,M,6.21,M,FEW,M,M,M,2000,M,M,M,M,M,M,M,M,M,M,96.1,VVTS 201600Z 18006KT 9999 FEW020 29/26 Q1010 NOSIG,M
VVTS,4/20/2021 16:30,106.6667,10.8167,84.2,78.8,83.88,190,8,0,29.83,M,6.21,M,FEW,M,M,M,2000,M,M,M,M,M,M,M,M,M,M,96.1,VVTS 201630Z 19008KT 150V220 9999 FEW020 29/26 Q1010 NOSIG,M
VVTS,4/20/2021 17:00,106.6667,10.8167,82.4,78.8,88.9,200,7,0,29.83,M,6.21,M,FEW,M,M,M,2000,M,M,M,M,M,M,M,M,M,M,92.76,VVTS 201700Z 20007KT 9999 FEW020 28/26 Q1010 NOSIG,M
VVTS,4/20/2021 17:30,106.6667,10.8167,82.4,78.8,88.9,200,8,0,29.8,M,6.21,M,SCT,M,M,M,2000,M,M,M,M,M,M,M,M,M,M,92.76,VVTS 201730Z 20008KT 9999 SCT020 28/26 Q1009 NOSIG,M
VVTS,4/20/2021 18:00,106.6667,10.8167,82.4,78.8,88.9,210,6,0,29.8,M,6.21,M,SCT,M,M,M,2000,M,M,M,M,M,M,M,M,M,M,92.76,VVTS 201800Z 21006KT 180V240 9999 SCT020 28/26 Q1009 NOSIG,M
VVTS,4/20/2021 18:30,106.6667,10.8167,82.4,78.8,88.9,220,7,0,29.8,M,6.21,M,SCT,M,M,M,2000,M,M,M,M,M,M,M,M,M,M,92.76,VVTS 201830Z 22007KT 9999 SCT020 28/26 Q1009 NOSIG,M
VVTS,4/20/2021 19:00,106.6667,10.8167,82.4,78.8,88.9,210,7,0,29.77,M,6.21,M,SCT,M,M,M,2000,M,M,M,M,M,M,M,M,M,M,92.76,VVTS 201900Z 21007KT 9999 SCT020 28/26 Q1008 NOSIG,M
VVTS,4/20/2021 19:30,106.6667,10.8167,82.4,78.8,88.9,220,5,0,29.77,M,6.21,M,SCT,M,M,M,2000,M,M,M,M,M,M,M,M,M,M,92.76,VVTS 201930Z 22005KT 180V240 9999 SCT020 28/26 Q1008 NOSIG,M
VVTS,4/20/2021 20:00,106.6667,10.8167,82.4,78.8,88.9,200,7,0,29.77,M,6.21,M,SCT,M,M,M,2000,M,M,M,M,M,M,M,M,M,M,92.76,VVTS 202000Z 20007KT 9999 SCT020 28/26 Q1008 NOSIG,M
VVTS,4/20/2021 20:30,106.6667,10.8167,82.4,78.8,88.9,210,6,0,29.77,M,6.21,M,SCT,M,M,M,2000,M,M,M,M,M,M,M,M,M,M,92.76,VVTS 202030Z 21006KT 9999 SCT020 28/26 Q1008 NOSIG,M
VVTS,4/20/2021 21:00,106.6667,10.8167,82.4,78.8,88.9,220,6,0,29.77,M,6.21,M,SCT,M,M,M,2000,M,M,M,M,M,M,M,M,M,M,92.76,VVTS 202100Z 22006KT 190V250 9999 SCT020 28/26 Q1008 NOSIG,M
VVTS,4/20/2021 21:30,106.6667,10.8167,82.4,78.8,88.9,220,6,0,29.77,M,6.21,M,SCT,M,M,M,2000,M,M,M,M,M,M,M,M,M,M,92.76,VVTS 202130Z 22006KT 9999 SCT020 28/26 Q1008 NOSIG,M
VVTS,4/20/2021 22:00,106.6667,10.8167,80.6,78.8,94.27,240,5,0,29.77,M,6.21,M,SCT,M,M,M,2000,M,M,M,M,M,M,M,M,M,M,89.33,VVTS 202200Z 24005KT 9999 SCT020 27/26 Q1008 NOSIG,M
VVTS,4/20/2021 22:30,106.6667,10.8167,80.6,78.8,94.27,240,5,0,29.77,M,6.21,M,FEW,SCT,M,M,2000,5000,M,M,M,M,M,M,M,M,M,89.33,VVTS 202230Z 24005KT 210V270 9999 FEW020 SCT050 27/26 Q1008 NOSIG,M
VVTS,4/20/2021 23:00,106.6667,10.8167,80.6,78.8,94.27,240,4,0,29.8,M,6.21,M,FEW,SCT,M,M,2000,5000,M,M,M,M,M,M,M,M,M,89.33,VVTS 202300Z 24004KT 9999 FEW020 SCT050 27/26 Q1009 NOSIG,M
VVTS,4/20/2021 23:30,106.6667,10.8167,82.4,78.8,88.9,270,3,0,29.8,M,6.21,M,FEW,SCT,M,M,2000,5000,M,M,M,M,M,M,M,M,M,92.76,VVTS 202330Z 27003KT 9999 FEW020 SCT050 28/26 Q1009 NOSIG,M
VVTS,4/21/2021 0:00,106.6667,10.8167,82.4,78.8,88.9,M,3,0,29.83,M,6.21,M,FEW,SCT,M,M,1700,5000,M,M,M,M,M,M,M,M,M,92.76,VVTS 210000Z VRB03KT 9999 FEW017 SCT050 28/26 Q1010 NOSIG,M
VVTS,4/21/2021 0:30,106.6667,10.8167,82.4,78.8,88.9,250,4,0,29.83,M,6.21,M,FEW,SCT,M,M,1700,5000,M,M,M,M,M,M,M,M,M,92.76,VVTS 210030Z 25004KT 9999 FEW017 SCT050 28/26 Q1010 NOSIG,M
VVTS,4/21/2021 1:00,106.6667,10.8167,84.2,78.8,83.88,250,4,0,29.85,M,6.21,M,FEW,SCT,M,M,1700,5000,M,M,M,M,M,M,M,M,M,96.1,VVTS 210100Z 25004KT 220V280 9999 FEW017 SCT050 29/26 Q1011 NOSIG,M
VVTS,4/21/2021 1:30,106.6667,10.8167,84.2,78.8,83.88,260,6,0,29.85,M,6.21,M,FEW,SCT,M,M,1700,5000,M,M,M,M,M,M,M,M,M,96.1,VVTS 210130Z 26006KT 9999 FEW017 SCT050 29/26 Q1011 NOSIG,M
VVTS,4/21/2021 2:00,106.6667,10.8167,86,78.8,79.18,250,5,0,29.85,M,6.21,M,FEW,SCT,M,M,1700,5000,M,M,M,M,M,M,M,M,M,99.38,VVTS 210200Z 25005KT 9999 FEW017 SCT050 30/26 Q1011 NOSIG,M
VVTS,4/21/2021 2:30,106.6667,10.8167,86,78.8,79.18,240,4,0,29.85,M,6.21,M,FEW,SCT,M,M,1700,5000,M,M,M,M,M,M,M,M,M,99.38,VVTS 210230Z 24004KT 210V280 9999 FEW017 SCT050 30/26 Q1011 NOSIG,M
VVTS,4/21/2021 3:00,106.6667,10.8167,86,78.8,79.18,270,4,0,29.85,M,6.21,M,SCT,SCT,M,M,1700,5000,M,M,M,M,M,M,M,M,M,99.38,VVTS 210300Z 27004KT 230V320 9999 SCT017 SCT050 30/26 Q1011 NOSIG,M
VVTS,4/21/2021 3:30,106.6667,10.8167,87.8,78.8,74.77,260,4,0,29.85,M,6.21,M,BKN,M,M,M,1700,M,M,M,M,M,M,M,M,M,M,102.37,VVTS 210330Z 26004KT 230V310 9999 BKN017 31/26 Q1011 NOSIG,M
VVTS,4/21/2021 4:00,106.6667,10.8167,89.6,78.8,70.63,250,6,0,29.83,M,6.21,M,BKN,M,M,M,1700,M,M,M,M,M,M,M,M,M,M,105.15,VVTS 210400Z 25006KT 220V300 9999 BKN017 32/26 Q1010 NOSIG,M
VVTS,4/21/2021 4:30,106.6667,10.8167,87.8,78.8,74.77,260,6,0,29.83,M,6.21,M,BKN,FEW,M,M,1700,2000,M,M,M,M,M,M,M,M,M,102.37,VVTS 210430Z 26006KT 230V290 9999 BKN017 FEW020TCU 31/26 Q1010 NOSIG RMK TCU/E,M
VVTS,4/21/2021 5:00,106.6667,10.8167,87.8,78.8,74.77,280,7,0,29.83,M,6.21,M,SCT,FEW,M,M,1700,2000,M,M,M,M,M,M,M,M,M,102.37,VVTS 210500Z 28007KT 9999 SCT017 FEW020TCU 31/26 Q1010 NOSIG,M
VVTS,4/21/2021 5:30,106.6667,10.8167,89.6,77,66.55,260,5,0,29.8,M,6.21,M,BKN,M,M,M,1700,M,M,M,M,M,M,M,M,M,M,102.54,VVTS 210530Z 26005KT 220V320 9999 BKN017 32/25 Q1009 NOSIG,M
VVTS,4/21/2021 6:00,106.6667,10.8167,91.4,77,62.9,270,5,0,29.77,M,6.21,M,SCT,FEW,M,M,1700,2000,M,M,M,M,M,M,M,M,M,105.06,VVTS 210600Z 27005KT 210V320 9999 SCT017 FEW020TCU 33/25 Q1008 NOSIG RMK TCU/E,M
VVTS,4/21/2021 6:30,106.6667,10.8167,91.4,77,62.9,250,5,0,29.74,M,6.21,M,BKN,M,M,M,1700,M,M,M,M,M,M,M,M,M,M,105.06,VVTS 210630Z 25005KT 220V300 9999 R25R/450VP2000 BKN017 33/25 Q1007 NOSIG,M
VVTS,4/21/2021 7:00,106.6667,10.8167,91.4,73.4,55.77,260,5,0,29.74,M,6.21,M,BKN,M,M,M,1700,M,M,M,M,M,M,M,M,M,M,100.52,VVTS 210700Z 26005KT 220V340 9999 BKN017 33/23 Q1007 NOSIG,M
VVTS,4/21/2021 7:30,106.6667,10.8167,89.6,75.2,62.68,230,6,0,29.74,M,6.21,M,BKN,M,M,M,1700,M,M,M,M,M,M,M,M,M,M,100.23,VVTS 210730Z 23006KT 9999 BKN017 32/24 Q1007 NOSIG,M
VVTS,4/21/2021 8:00,106.6667,10.8167,89.6,77,66.55,230,7,0,29.71,M,6.21,M,BKN,M,M,M,1700,M,M,M,M,M,M,M,M,M,M,102.54,VVTS 210800Z 23007KT 9999 BKN017 32/25 Q1006 NOSIG,M
VVTS,4/21/2021 8:30,106.6667,10.8167,89.6,77,66.55,240,8,0,29.71,M,6.21,M,BKN,M,M,M,1700,M,M,M,M,M,M,M,M,M,M,102.54,VVTS 210830Z 24008KT 9999 BKN017 32/25 Q1006 NOSIG,M
VVTS,4/21/2021 9:00,106.6667,10.8167,89.6,77,66.55,240,6,0,29.71,M,6.21,M,FEW,BKN,M,M,1700,5000,M,M,M,M,M,M,M,M,M,102.54,VVTS 210900Z 24006KT 200V270 9999 R25R/1600VP2000N FEW017 BKN050 32/25 Q1006 NOSIG,M
VVTS,4/21/2021 9:30,106.6667,10.8167,89.6,75.2,62.68,220,5,0,29.74,M,6.21,M,FEW,BKN,M,M,1700,5000,M,M,M,M,M,M,M,M,M,100.23,VVTS 210930Z 22005KT 9999 FEW017 BKN050 32/24 Q1007 NOSIG,M
VVTS,4/21/2021 10:00,106.6667,10.8167,89.6,75.2,62.68,200,4,0,29.74,M,6.21,M,FEW,BKN,M,M,1700,5000,M,M,M,M,M,M,M,M,M,100.23,VVTS 211000Z 20004KT 160V230 9999 FEW017 BKN050 32/24 Q1007 NOSIG,M
VVTS,4/21/2021 10:30,106.6667,10.8167,86,78.8,79.18,170,8,0,29.74,M,6.21,M,FEW,BKN,M,M,1700,5000,M,M,M,M,M,M,M,M,M,99.38,VVTS 211030Z 17008KT 9999 FEW017 BKN050 30/26 Q1007 NOSIG,M
VVTS,4/21/2021 11:00,106.6667,10.8167,86,78.8,79.18,180,9,0,29.74,M,6.21,M,SCT,BKN,M,M,1700,5000,M,M,M,M,M,M,M,M,M,99.38,VVTS 211100Z 18009KT 150V210 9999 SCT017 BKN050 30/26 Q1007 NOSIG,M
VVTS,4/21/2021 11:30,106.6667,10.8167,86,78.8,79.18,180,5,0,29.77,M,6.21,M,SCT,BKN,M,M,1700,5000,M,M,M,M,M,M,M,M,M,99.38,VVTS 211130Z 18005KT 150V210 9999 SCT017 BKN050 30/26 Q1008 NOSIG,M
VVTS,4/21/2021 12:00,106.6667,10.8167,86,77,74.61,170,4,0,29.77,M,6.21,M,SCT,BKN,M,M,1700,5000,M,M,M,M,M,M,M,M,M,97.15,VVTS 211200Z 17004KT 120V220 9999 SCT017 BKN050 30/25 Q1008 NOSIG,M
VVTS,4/21/2021 12:30,106.6667,10.8167,86,77,74.61,170,6,0,29.77,M,6.21,M,SCT,FEW,SCT,M,1500,1700,5000,M,M,M,M,M,M,M,M,97.15,VVTS 211230Z 17006KT 150V210 9999 SCT015 FEW017TCU SCT050 30/25 Q1008 NOSIG RMK TCU/N,M
VVTS,4/21/2021 13:00,106.6667,10.8167,84.2,77,79.04,200,6,0,29.8,M,6.21,M,SCT,SCT,M,M,1700,5000,M,M,M,M,M,M,M,M,M,94.16,VVTS 211300Z 20006KT 140V230 9999 SCT017 SCT050 29/25 Q1009 NOSIG,M
VVTS,4/21/2021 13:30,106.6667,10.8167,84.2,77,79.04,200,8,0,29.8,M,6.21,M,SCT,SCT,M,M,1700,5000,M,M,M,M,M,M,M,M,M,94.16,VVTS 211330Z 20008KT 9999 SCT017 SCT050 29/25 Q1009 NOSIG,M
VVTS,4/21/2021 14:00,106.6667,10.8167,84.2,78.8,83.88,220,5,0,29.83,M,6.21,M,SCT,SCT,M,M,1700,5000,M,M,M,M,M,M,M,M,M,96.1,VVTS 211400Z 22005KT 9999 SCT017 SCT050 29/26 Q1010 NOSIG,M
VVTS,4/21/2021 14:30,106.6667,10.8167,84.2,77,79.04,210,6,0,29.83,M,6.21,M,SCT,SCT,M,M,1700,5000,M,M,M,M,M,M,M,M,M,94.16,VVTS 211430Z 21006KT 170V230 9999 SCT017 SCT050 29/25 Q1010 NOSIG,M
VVTS,4/21/2021 15:00,106.6667,10.8167,84.2,78.8,83.88,200,7,0,29.83,M,6.21,M,SCT,SCT,M,M,1700,5000,M,M,M,M,M,M,M,M,M,96.1,VVTS 211500Z 20007KT 160V230 9999 SCT017 SCT050 29/26 Q1010 NOSIG,M
VVTS,4/21/2021 15:30,106.6667,10.8167,84.2,78.8,83.88,190,7,0,29.83,M,6.21,M,SCT,SCT,M,M,1700,5000,M,M,M,M,M,M,M,M,M,96.1,VVTS 211530Z 19007KT 150V220 9999 SCT017 SCT050 29/26 Q1010 NOSIG,M
VVTS,4/21/2021 16:00,106.6667,10.8167,82.4,78.8,88.9,170,6,0,29.83,M,6.21,M,SCT,SCT,M,M,1700,5000,M,M,M,M,M,M,M,M,M,92.76,VVTS 211600Z 17006KT 150V220 9999 SCT017 SCT050 28/26 Q1010 NOSIG,M
VVTS,4/21/2021 16:30,106.6667,10.8167,82.4,78.8,88.9,200,5,0,29.83,M,6.21,M,SCT,SCT,M,M,1700,5000,M,M,M,M,M,M,M,M,M,92.76,VVTS 211630Z 20005KT 160V240 9999 SCT017 SCT050 28/26 Q1010 NOSIG,M
VVTS,4/21/2021 17:00,106.6667,10.8167,82.4,77,83.77,220,5,0,29.83,M,6.21,M,SCT,SCT,M,M,1700,5000,M,M,M,M,M,M,M,M,M,90.85,VVTS 211700Z 22005KT 190V250 9999 SCT017 SCT050 28/25 Q1010 NOSIG,M
VVTS,4/21/2021 17:30,106.6667,10.8167,82.4,77,83.77,220,5,0,29.83,M,6.21,M,SCT,SCT,M,M,1700,5000,M,M,M,M,M,M,M,M,M,90.85,VVTS 211730Z 22005KT 9999 SCT017 SCT050 28/25 Q1010 NOSIG,M
VVTS,4/21/2021 18:00,106.6667,10.8167,82.4,77,83.77,220,7,0,29.8,M,6.21,M,SCT,SCT,M,M,1700,5000,M,M,M,M,M,M,M,M,M,90.85,VVTS 211800Z 22007KT 9999 SCT017 SCT050 28/25 Q1009 NOSIG,M
VVTS,4/21/2021 18:30,106.6667,10.8167,82.4,77,83.77,230,5,0,29.8,M,6.21,M,SCT,SCT,M,M,1500,5000,M,M,M,M,M,M,M,M,M,90.85,VVTS 211830Z 23005KT 9999 SCT015 SCT050 28/25 Q1009 NOSIG,M
VVTS,4/21/2021 19:00,106.6667,10.8167,82.4,78.8,88.9,230,4,0,29.77,M,6.21,M,SCT,SCT,M,M,1500,5000,M,M,M,M,M,M,M,M,M,92.76,VVTS 211900Z 23004KT 9999 SCT015 SCT050 28/26 Q1008 NOSIG,M
VVTS,4/21/2021 19:30,106.6667,10.8167,80.6,78.8,94.27,M,2,0,29.8,M,6.21,M,SCT,SCT,M,M,1500,5000,M,M,M,M,M,M,M,M,M,89.33,VVTS 211930Z VRB02KT 9999 SCT015 SCT050 27/26 Q1009 NOSIG,M
VVTS,4/21/2021 20:00,106.6667,10.8167,82.4,78.8,88.9,330,1,0,29.8,M,6.21,M,SCT,FEW,SCT,M,1500,1700,5000,M,M,M,M,M,M,M,M,92.76,VVTS 212000Z 33001KT 9999 SCT015 FEW017CB SCT050 28/26 Q1009 NOSIG RMK CB/N/NE,M
VVTS,4/21/2021 20:30,106.6667,10.8167,80.6,75.2,83.66,360,7,0,29.8,M,4.97,M,BKN,SCT,M,M,1500,1700,M,M,M,M,M,M,M,M,M,86.17,VVTS 212030Z 36007KT 8000 BKN015 SCT017CB 27/24 Q1009 TEMPO FM2040 TL2120 06015G28KT 2000 +TSRA RMK CB OVER RW Y,M
VVTS,4/21/2021 21:00,106.6667,10.8167,75.2,75.2,100,60,10,0,29.8,M,3.11,M,BKN,SCT,M,M,1300,1500,M,M,TSRA,M,M,M,M,M,M,75.2,VVTS 212100Z 06010KT 030V090 5000 TSRA BKN013 SCT015CB 24/24 Q1009 TEMPO TL2120 06015G28KT 2000 +TSRA RMK CB OVER RWY,M
VVTS,4/21/2021 21:30,106.6667,10.8167,75.2,75.2,100,70,6,0,29.8,M,6.21,M,SCT,FEW,BKN,M,1500,1700,5000,M,#NAME?,M,M,M,M,M,M,75.2,VVTS 212130Z 07006KT 9999 -RA SCT015 FEW017CB BKN050 24/24 Q1009 NOSIG,M
VVTS,4/21/2021 22:00,106.6667,10.8167,75.2,75.2,100,70,4,0,29.8,M,6.21,M,SCT,BKN,M,M,1500,5000,M,M,M,M,M,M,M,M,M,75.2,VVTS 212200Z 07004KT 030V090 9999 SCT015 BKN050 24/24 Q1009 NOSIG,M
VVTS,4/21/2021 22:30,106.6667,10.8167,75.2,75.2,100,100,4,0,29.8,M,6.21,M,SCT,BKN,M,M,1500,5000,M,M,M,M,M,M,M,M,M,75.2,VVTS 212230Z 10004KT 9999 SCT015 BKN050 24/24 Q1009 NOSIG,M
VVTS,4/21/2021 23:00,106.6667,10.8167,77,75.2,94.19,110,4,0,29.8,M,6.21,M,SCT,BKN,M,M,1500,5000,M,M,M,M,M,M,M,M,M,77,VVTS 212300Z 11004KT 070V150 9999 SCT015 BKN050 25/24 Q1009 NOSIG,M
VVTS,4/21/2021 23:30,106.6667,10.8167,77,75.2,94.19,140,4,0,29.8,M,6.21,M,SCT,BKN,M,M,1500,5000,M,M,M,M,M,M,M,M,M,77,VVTS 212330Z 14004KT 9999 SCT015 BKN050 25/24 Q1009 NOSIG,M
VVTS,4/22/2021 0:00,106.6667,10.8167,77,75.2,94.19,140,4,0,29.83,M,6.21,M,FEW,BKN,M,M,1500,5000,M,M,M,M,M,M,M,M,M,77,VVTS 220000Z 14004KT 100V180 9999 FEW015 BKN050 25/24 Q1010 NOSIG,M
VVTS,4/22/2021 0:30,106.6667,10.8167,77,75.2,94.19,M,2,0,29.83,M,4.97,M,FEW,BKN,M,M,1500,5000,M,M,M,M,M,M,M,M,M,77,VVTS 220030Z VRB02KT 8000 FEW015 BKN050 25/24 Q1010 NOSIG,M
VVTS,4/22/2021 1:00,106.6667,10.8167,78.8,75.2,88.75,M,1,0,29.83,M,4.97,M,FEW,OVC,M,M,1500,5000,M,M,M,M,M,M,M,M,M,78.8,VVTS 220100Z VRB01KT 8000 FEW015 OVC050 26/24 Q1010 NOSIG,M
VVTS,4/22/2021 1:30,106.6667,10.8167,78.8,77,94.23,M,2,0,29.85,M,4.97,M,FEW,OVC,M,M,1500,5000,M,M,M,M,M,M,M,M,M,78.8,VVTS 220130Z VRB02KT 8000 FEW015 OVC050 26/25 Q1011 NOSIG,M
VVTS,4/22/2021 2:00,106.6667,10.8167,80.6,75.2,83.66,M,2,0,29.85,M,4.97,M,FEW,OVC,M,M,1500,5000,M,M,M,M,M,M,M,M,M,86.17,VVTS 220200Z VRB02KT 8000 FEW015 OVC050 27/24 Q1011 NOSIG,M
VVTS,4/22/2021 2:30,106.6667,10.8167,82.4,77,83.77,M,3,0,29.83,M,4.97,M,FEW,OVC,M,M,1500,5000,M,M,M,M,M,M,M,M,M,90.85,VVTS 220230Z VRB03KT 8000 FEW015 OVC050 28/25 Q1010 NOSIG,M
VVTS,4/22/2021 3:00,106.6667,10.8167,84.2,77,79.04,M,2,0,29.85,M,4.97,M,SCT,OVC,M,M,1500,5000,M,M,M,M,M,M,M,M,M,94.16,VVTS 220300Z VRB02KT 8000 SCT015 OVC050 29/25 Q1011 NOSIG,M
VVTS,4/22/2021 3:30,106.6667,10.8167,82.4,77,83.77,70,7,0,29.85,M,4.97,M,SCT,OVC,M,M,1500,5000,M,M,M,M,M,M,M,M,M,90.85,VVTS 220330Z 07007KT 030V090 8000 SCT015 OVC050 28/25 Q1011 NOSIG,M
VVTS,4/22/2021 4:00,106.6667,10.8167,84.2,77,79.04,90,6,0,29.85,M,4.97,M,SCT,OVC,M,M,1500,5000,M,M,M,M,M,M,M,M,M,94.16,VVTS 220400Z 09006KT 050V120 8000 SCT015 OVC050 29/25 Q1011 NOSIG,M
VVTS,4/22/2021 4:30,106.6667,10.8167,82.4,77,83.77,80,4,0,29.83,M,4.97,M,SCT,FEW,BKN,M,1500,1700,5000,M,M,M,M,M,M,M,M,90.85,VVTS 220430Z 08004KT 050V120 8000 SCT015 FEW017CB BKN050 28/25 Q1010 TEMPO FM0435 TL0505 5000 TSRA RMK CB OVER RWY,M
VVTS,4/22/2021 5:00,106.6667,10.8167,84.2,77,79.04,M,2,0,29.83,M,4.97,M,SCT,FEW,BKN,M,1500,1700,5000,M,M,M,M,M,M,M,M,94.16,VVTS 220500Z VRB02KT 8000 SCT015 FEW017CB BKN050 29/25 Q1010 NOSIG RMK CB OVER RWY,M
VVTS,4/22/2021 5:30,106.6667,10.8167,86,78.8,79.18,M,1,0,29.8,M,6.21,M,SCT,FEW,BKN,M,1500,1700,5000,M,M,M,M,M,M,M,M,99.38,VVTS 220530Z VRB01KT 9999 SCT015 FEW017CB BKN050 30/26 Q1009 NOSIG RMK CB/W,M
VVTS,4/22/2021 6:00,106.6667,10.8167,86,77,74.61,M,1,0,29.77,M,6.21,M,SCT,BKN,M,M,1700,5000,M,M,M,M,M,M,M,M,M,97.15,VVTS 220600Z VRB01KT 9999 SCT017 BKN050 30/25 Q1008 NOSIG,M
VVTS,4/22/2021 6:30,106.6667,10.8167,89.6,78.8,70.63,M,2,0,29.74,M,6.21,M,SCT,BKN,M,M,1700,5000,M,M,M,M,M,M,M,M,M,105.15,VVTS 220630Z VRB02KT 9999 SCT017 BKN050 32/26 Q1007 NOSIG,M
VVTS,4/22/2021 7:00,106.6667,10.8167,87.8,78.8,74.77,270,4,0,29.74,M,6.21,M,SCT,BKN,M,M,1700,5000,M,M,M,M,M,M,M,M,M,102.37,VVTS 220700Z 27004KT 220V330 9999 SCT017 BKN050 31/26 Q1007 NOSIG,M
VVTS,4/22/2021 7:30,106.6667,10.8167,89.6,77,66.55,270,5,0,29.71,M,6.21,M,SCT,BKN,M,M,1700,5000,M,M,M,M,M,M,M,M,M,102.54,VVTS 220730Z 27005KT 170V300 9999 SCT017 BKN050 32/25 Q1006 NOSIG,M
VVTS,4/22/2021 8:00,106.6667,10.8167,89.6,78.8,70.63,270,5,0,29.71,M,6.21,M,SCT,SCT,M,M,1700,5000,M,M,M,M,M,M,M,M,M,105.15,VVTS 220800Z 27005KT 210V340 9999 SCT017 SCT050 32/26 Q1006 NOSIG,M
VVTS,4/22/2021 8:30,106.6667,10.8167,89.6,77,66.55,270,6,0,29.71,M,6.21,M,BKN,M,M,M,1700,M,M,M,M,M,M,M,M,M,M,102.54,VVTS 220830Z 27006KT 210V330 9999 BKN017 32/25 Q1006 NOSIG,M
VVTS,4/22/2021 9:00,106.6667,10.8167,89.6,77,66.55,290,5,0,29.68,M,6.21,M,SCT,M,M,M,1700,M,M,M,M,M,M,M,M,M,M,102.54,VVTS 220900Z 29005KT 250V310 9999 SCT017 32/25 Q1005 NOSIG,M
VVTS,4/22/2021 9:30,106.6667,10.8167,86,77,74.61,280,7,0,29.71,M,6.21,M,SCT,M,M,M,1700,M,M,M,M,M,M,M,M,M,M,97.15,VVTS 220930Z 28007KT 230V320 9999 SCT017 30/25 Q1006 NOSIG,M
VVTS,4/22/2021 10:00,106.6667,10.8167,87.8,75.2,66.35,250,7,0,29.71,M,6.21,M,SCT,M,M,M,1700,M,M,M,M,M,M,M,M,M,M,97.76,VVTS 221000Z 25007KT 9999 SCT017 31/24 Q1006 NOSIG,M
VVTS,4/22/2021 10:30,106.6667,10.8167,86,77,74.61,250,6,0,29.74,M,4.97,M,SCT,FEW,SCT,M,1500,1700,5000,M,M,M,M,M,M,M,M,97.15,VVTS 221030Z 25006KT 8000 SCT015 FEW017CB SCT050 30/25 Q1007 NOSIG RMK CB/E,M
VVTS,4/22/2021 11:00,106.6667,10.8167,84.2,77,79.04,250,8,0,29.77,M,4.97,M,SCT,FEW,SCT,M,1500,1700,5000,M,VCSH,M,M,M,M,M,M,94.16,VVTS 221100Z 25008KT 8000 VCSH SCT015 FEW017CB SCT050 29/25 Q1008 NOSIG RMK CB/E,M
VVTS,4/22/2021 11:30,106.6667,10.8167,82.4,77,83.77,220,11,0,29.77,M,4.97,M,SCT,FEW,BKN,M,1500,1700,5000,M,#NAME?,M,M,M,M,M,M,90.85,VVTS 221130Z 22011KT 8000 -RA SCT015 FEW017CB BKN050 28/25 Q1008 NOSIG RMK CB/E,M
VVTS,4/22/2021 12:00,106.6667,10.8167,82.4,77,83.77,210,6,0,29.77,M,4.97,M,SCT,FEW,BKN,M,1500,1700,5000,M,#NAME?,M,M,M,M,M,M,90.85,VVTS 221200Z 21006KT 8000 -RA SCT015 FEW017CB BKN050 28/25 Q1008 NOSIG RMK CB/E,M
VVTS,4/22/2021 12:30,106.6667,10.8167,82.4,77,83.77,220,5,0,29.8,M,6.21,M,SCT,BKN,M,M,1500,5000,M,M,M,M,M,M,M,M,M,90.85,VVTS 221230Z 22005KT 9999 SCT015 BKN050 28/25 Q1009 NOSIG,M
VVTS,4/22/2021 13:00,106.6667,10.8167,80.6,77,88.83,240,5,0,29.8,M,6.21,M,SCT,BKN,M,M,1500,5000,M,M,M,M,M,M,M,M,M,87.59,VVTS 221300Z 24005KT 9999 SCT015 BKN050 27/25 Q1009 NOSIG,M
VVTS,4/22/2021 13:30,106.6667,10.8167,82.4,77,83.77,M,3,0,29.83,M,6.21,M,FEW,BKN,M,M,1500,5000,M,M,M,M,M,M,M,M,M,90.85,VVTS 221330Z VRB03KT 9999 FEW015 BKN050 28/25 Q1010 NOSIG,M
VVTS,4/22/2021 14:00,106.6667,10.8167,80.6,77,88.83,300,6,0,29.83,M,4.97,M,FEW,BKN,M,M,1500,5000,M,M,M,M,M,M,M,M,M,87.59,VVTS 221400Z 30006KT 270V330 8000 FEW015 BKN050 27/25 Q1010 NOSIG,M
VVTS,4/22/2021 14:30,106.6667,10.8167,80.6,77,88.83,270,5,0,29.83,M,4.97,M,FEW,FEW,BKN,M,1500,1700,5000,M,M,M,M,M,M,M,M,87.59,VVTS 221430Z 27005KT 240V330 8000 FEW015 FEW017CB BKN050 27/25 Q1010 NOSIG RMK CB/SW,M
VVTS,4/22/2021 15:00,106.6667,10.8167,80.6,77,88.83,290,4,0,29.85,M,4.97,M,FEW,FEW,BKN,M,1500,1700,5000,M,M,M,M,M,M,M,M,87.59,VVTS 221500Z 29004KT 260V330 8000 FEW015 FEW017CB BKN050 27/25 Q1011 NOSIG RMK CB/SW,M
VVTS,4/22/2021 15:30,106.6667,10.8167,80.6,75.2,83.66,M,3,0,29.83,M,6.21,M,SCT,SCT,M,M,1700,5000,M,M,M,M,M,M,M,M,M,86.17,VVTS 221530Z VRB03KT 9999 SCT017 SCT050 27/24 Q1010 NOSIG,M
VVTS,4/22/2021 16:00,106.6667,10.8167,78.8,77,94.23,M,1,0,29.83,M,6.21,M,SCT,SCT,M,M,1700,5000,M,M,M,M,M,M,M,M,M,78.8,VVTS 221600Z VRB01KT 9999 SCT017 SCT050 26/25 Q1010 NOSIG,M
VVTS,4/22/2021 16:30,106.6667,10.8167,80.6,75.2,83.66,240,2,0,29.83,M,6.21,M,SCT,SCT,M,M,1700,5000,M,M,M,M,M,M,M,M,M,86.17,VVTS 221630Z 24002KT 9999 SCT017 SCT050 27/24 Q1010 NOSIG,M
VVTS,4/22/2021 17:00,106.6667,10.8167,80.6,75.2,83.66,0,0,0,29.8,M,6.21,M,SCT,SCT,M,M,1700,5000,M,M,M,M,M,M,M,M,M,86.17,VVTS 221700Z 00000KT 9999 SCT017 SCT050 27/24 Q1009 NOSIG,M
VVTS,4/22/2021 17:30,106.6667,10.8167,78.8,77,94.23,M,1,0,29.8,M,6.21,M,SCT,SCT,M,M,1700,5000,M,M,M,M,M,M,M,M,M,78.8,VVTS 221730Z VRB01KT 9999 SCT017 SCT050 26/25 Q1009 NOSIG,M
VVTS,4/22/2021 18:00,106.6667,10.8167,78.8,77,94.23,330,1,0,29.77,M,6.21,M,SCT,SCT,M,M,1700,5000,M,M,M,M,M,M,M,M,M,78.8,VVTS 221800Z 33001KT 9999 SCT017 SCT050 26/25 Q1008 NOSIG,M
VVTS,4/22/2021 18:30,106.6667,10.8167,78.8,77,94.23,M,2,0,29.77,M,6.21,M,SCT,SCT,M,M,1700,5000,M,M,M,M,M,M,M,M,M,78.8,VVTS 221830Z VRB02KT 9999 SCT017 SCT050 26/25 Q1008 NOSIG,M
VVTS,4/22/2021 19:00,106.6667,10.8167,78.8,75.2,88.75,290,3,0,29.77,M,6.21,M,SCT,SCT,M,M,1700,5000,M,M,M,M,M,M,M,M,M,78.8,VVTS 221900Z 29003KT 9999 SCT017 SCT050 26/24 Q1008 NOSIG,M
VVTS,4/22/2021 19:30,106.6667,10.8167,78.8,75.2,88.75,M,1,0,29.77,M,4.35,M,FEW,SCT,M,M,1700,5000,M,M,M,M,M,M,M,M,M,78.8,VVTS 221930Z VRB01KT 7000 FEW017 SCT050 26/24 Q1008 NOSIG,M
VVTS,4/22/2021 20:00,106.6667,10.8167,78.8,75.2,88.75,300,2,0,29.74,M,4.35,M,FEW,SCT,M,M,1700,5000,M,M,M,M,M,M,M,M,M,78.8,VVTS 222000Z 30002KT 7000 FEW017 SCT050 26/24 Q1007 NOSIG,M
VVTS,4/22/2021 20:30,106.6667,10.8167,78.8,75.2,88.75,250,2,0,29.77,M,3.73,M,FEW,SCT,M,M,1700,5000,M,M,M,M,M,M,M,M,M,78.8,VVTS 222030Z 25002KT 6000 FEW017 SCT050 26/24 Q1008 NOSIG,M
VVTS,4/22/2021 21:00,106.6667,10.8167,77,75.2,94.19,260,3,0,29.74,M,3.73,M,FEW,SCT,M,M,1700,5000,M,M,M,M,M,M,M,M,M,77,VVTS 222100Z 26003KT 6000 FEW017 SCT050 25/24 Q1007 NOSIG,M
VVTS,4/22/2021 21:30,106.6667,10.8167,77,75.2,94.19,300,3,0,29.77,M,3.73,M,FEW,SCT,M,M,1700,5000,M,M,M,M,M,M,M,M,M,77,VVTS 222130Z 30003KT 6000 FEW017 SCT050 25/24 Q1008 NOSIG,M
VVTS,4/22/2021 22:00,106.6667,10.8167,77,75.2,94.19,M,2,0,29.77,M,3.73,M,FEW,SCT,M,M,1700,5000,M,M,M,M,M,M,M,M,M,77,VVTS 222200Z VRB02KT 6000 FEW017 SCT050 25/24 Q1008 NOSIG,M
VVTS,4/22/2021 22:30,106.6667,10.8167,77,75.2,94.19,350,1,0,29.77,M,4.35,M,FEW,M,M,M,1700,M,M,M,M,M,M,M,M,M,M,77,VVTS 222230Z 35001KT 7000 FEW017 25/24 Q1008 NOSIG,M
VVTS,4/22/2021 23:00,106.6667,10.8167,77,75.2,94.19,M,2,0,29.8,M,4.35,M,FEW,M,M,M,1700,M,M,M,M,M,M,M,M,M,M,77,VVTS 222300Z VRB02KT 7000 FEW017 25/24 Q1009 NOSIG,M
VVTS,4/22/2021 23:30,106.6667,10.8167,78.8,75.2,88.75,240,2,0,29.8,M,4.97,M,FEW,M,M,M,1700,M,M,M,M,M,M,M,M,M,M,78.8,VVTS 222330Z 24002KT 8000 FEW017 26/24 Q1009 NOSIG,M
VVTS,4/23/2021 0:00,106.6667,10.8167,82.4,75.2,78.9,M,1,0,29.8,M,4.97,M,FEW,M,M,M,1700,M,M,M,M,M,M,M,M,M,M,89.48,VVTS 230000Z VRB01KT 8000 FEW017 28/24 Q1009 NOSIG,M
VVTS,4/23/2021 0:30,106.6667,10.8167,82.4,75.2,78.9,M,3,0,29.83,M,6.21,M,FEW,M,M,M,1700,M,M,M,M,M,M,M,M,M,M,89.48,VVTS 230030Z VRB03KT 9999 FEW017 28/24 Q1010 NOSIG,M
VVTS,4/23/2021 1:00,106.6667,10.8167,82.4,75.2,78.9,M,3,0,29.83,M,6.21,M,FEW,SCT,M,M,1700,5000,M,M,M,M,M,M,M,M,M,89.48,VVTS 230100Z VRB03KT 9999 FEW017 SCT050 28/24 Q1010 NOSIG,M
VVTS,4/23/2021 1:30,106.6667,10.8167,84.2,77,79.04,M,3,0,29.83,M,6.21,M,FEW,SCT,M,M,1700,5000,M,M,M,M,M,M,M,M,M,94.16,VVTS 230130Z VRB03KT 9999 FEW017 SCT050 29/25 Q1010 NOSIG,M
VVTS,4/23/2021 2:00,106.6667,10.8167,84.2,77,79.04,270,6,0,29.83,M,6.21,M,FEW,SCT,M,M,1700,5000,M,M,M,M,M,M,M,M,M,94.16,VVTS 230200Z 27006KT 240V300 9999 FEW017 SCT050 29/25 Q1010 NOSIG,M
VVTS,4/23/2021 2:30,106.6667,10.8167,86,77,74.61,250,5,0,29.83,M,6.21,M,FEW,SCT,M,M,1700,5000,M,M,M,M,M,M,M,M,M,97.15,VVTS 230230Z 25005KT 200V320 9999 FEW017 SCT050 30/25 Q1010 NOSIG,M
VVTS,4/23/2021 3:00,106.6667,10.8167,87.8,75.2,66.35,260,6,0,29.83,M,6.21,M,FEW,SCT,M,M,1700,5000,M,M,M,M,M,M,M,M,M,97.76,VVTS 230300Z 26006KT 240V300 9999 FEW017 SCT050 31/24 Q1010 NOSIG,M
VVTS,4/23/2021 3:30,106.6667,10.8167,89.6,75.2,62.68,M,3,0,29.83,M,6.21,M,SCT,M,M,M,1700,M,M,M,M,M,M,M,M,M,M,100.23,VVTS 230330Z VRB03KT 9999 SCT017 32/24 Q1010 NOSIG,M
VVTS,4/23/2021 4:00,106.6667,10.8167,89.6,75.2,62.68,260,5,0,29.8,M,6.21,M,BKN,M,M,M,1700,M,M,M,M,M,M,M,M,M,M,100.23,VVTS 230400Z 26005KT 180V310 9999 BKN017 32/24 Q1009 NOSIG,M
VVTS,4/23/2021 4:30,106.6667,10.8167,89.6,77,66.55,260,6,0,29.8,M,6.21,M,BKN,M,M,M,1700,M,M,M,M,M,M,M,M,M,M,102.54,VVTS 230430Z 26006KT 220V300 9999 BKN017 32/25 Q1009 NOSIG,M
VVTS,4/23/2021 5:00,106.6667,10.8167,89.6,77,66.55,270,6,0,29.77,M,6.21,M,BKN,M,M,M,1700,M,M,M,M,M,M,M,M,M,M,102.54,VVTS 230500Z 27006KT 230V310 9999 BKN017 32/25 Q1008 NOSIG,M
VVTS,4/23/2021 5:30,106.6667,10.8167,91.4,75.2,59.24,270,6,0,29.77,M,6.21,M,BKN,M,M,M,1700,M,M,M,M,M,M,M,M,M,M,102.65,VVTS 230530Z 27006KT 220V310 9999 BKN017 33/24 Q1008 NOSIG,M
VVTS,4/23/2021 6:00,106.6667,10.8167,91.4,77,62.9,270,6,0,29.74,M,6.21,M,SCT,FEW,M,M,1700,2000,M,M,M,M,M,M,M,M,M,105.06,VVTS 230600Z 27006KT 220V320 9999 SCT017 FEW020TCU 33/25 Q1007 NOSIG RMK TCU/NE,M
VVTS,4/23/2021 6:30,106.6667,10.8167,89.6,75.2,62.68,270,6,0,29.71,M,6.21,M,SCT,FEW,M,M,1700,2000,M,M,M,M,M,M,M,M,M,100.23,VVTS 230630Z 27006KT 220V310 9999 SCT017 FEW020TCU 32/24 Q1006 NOSIG RMK TCU/NE,M
VVTS,4/23/2021 7:00,106.6667,10.8167,89.6,75.2,62.68,270,6,0,29.68,M,6.21,M,SCT,FEW,M,M,1500,1700,M,M,#NAME?,M,M,M,M,M,M,100.23,VVTS 230700Z 27006KT 230V310 9999 -SHRA SCT015 FEW017CB 32/24 Q1005 NOSIG RMK CB OVER RWY,M
VVTS,4/23/2021 7:30,106.6667,10.8167,86,75.2,70.27,200,7,0,29.68,M,3.11,M,SCT,FEW,M,M,1500,1700,M,M,TSRA,M,M,M,M,M,M,95.19,VVTS 230730Z 20007KT 5000 TSRA SCT015 FEW017CB 30/24 Q1005 NOSIG RMK CB OVER RWY,M
VVTS,4/23/2021 8:00,106.6667,10.8167,80.6,78.8,94.27,100,9,0,29.68,M,3.11,M,SCT,SCT,M,M,1500,1700,M,M,TSRA,M,M,M,M,M,M,89.33,VVTS 230800Z 10009KT 050V140 5000 TSRA SCT015 SCT017CB 27/26 Q1005 NOSIG RMK CB OVER RWY,M
VVTS,4/23/2021 8:30,106.6667,10.8167,80.6,78.8,94.27,130,6,0,29.68,M,4.35,M,SCT,SCT,BKN,M,1500,1700,5000,M,#NAME?,M,M,M,M,M,M,89.33,VVTS 230830Z 13006KT 100V160 7000 -TSRA SCT015 SCT017CB BKN050 27/26 Q1005 NOSIG RMK CB OVER RWY,M
VVTS,4/23/2021 9:00,106.6667,10.8167,80.6,78.8,94.27,10,6,0,29.68,M,6.21,M,SCT,FEW,BKN,M,1500,1700,5000,M,#NAME?,M,M,M,M,M,M,89.33,VVTS 230900Z 01006KT 340V070 9999 -RA SCT015 FEW017CB BKN050 27/26 Q1005 NOSIG RMK CB/N/S/W,M
VVTS,4/23/2021 9:30,106.6667,10.8167,82.4,78.8,88.9,M,1,0,29.71,M,6.21,M,SCT,FEW,BKN,M,1500,1700,5000,M,M,M,M,M,M,M,M,92.76,VVTS 230930Z VRB01KT 9999 SCT015 FEW017CB BKN050 28/26 Q1006 NOSIG RMK CB OVER RWY,M
VVTS,4/23/2021 10:00,106.6667,10.8167,78.8,77,94.23,220,8,0,29.68,M,6.21,M,SCT,FEW,BKN,M,1500,1700,5000,M,TS,M,M,M,M,M,M,78.8,VVTS 231000Z 22008KT 9999 TS SCT015 FEW017CB BKN050 26/25 Q1005 NOSIG RMK CB OVER RWY,M
VVTS,4/23/2021 10:30,106.6667,10.8167,80.6,77,88.83,230,7,0,29.71,M,6.21,M,SCT,FEW,BKN,M,1500,1700,5000,M,#NAME?,M,M,M,M,M,M,87.59,VVTS 231030Z 23007KT 9999 -RA SCT015 FEW017CB BKN050 27/25 Q1006 NOSIG RMK CB/SW/W,M
VVTS,4/23/2021 11:00,106.6667,10.8167,80.6,78.8,94.27,230,8,0,29.74,M,6.21,M,SCT,FEW,BKN,M,1500,1700,5000,M,#NAME?,M,M,M,M,M,M,89.33,VVTS 231100Z 23008KT 190V250 9999 -RA SCT015 FEW017CB BKN050 27/26 Q1007 NOSIG RMK CB/S/NW,M
VVTS,4/23/2021 11:30,106.6667,10.8167,82.4,78.8,88.9,230,9,0,29.77,M,4.97,M,SCT,FEW,BKN,M,1500,1700,5000,M,#NAME?,M,M,M,M,M,M,92.76,VVTS 231130Z 23009KT 8000 -RA SCT015 FEW017CB BKN050 28/26 Q1008 NOSIG RMK CB/N/NW,M
VVTS,4/23/2021 12:00,106.6667,10.8167,80.6,77,88.83,220,9,0,29.8,M,4.97,M,SCT,FEW,BKN,M,1500,1700,5000,M,#NAME?,M,M,M,M,M,M,87.59,VVTS 231200Z 22009KT 8000 -RA SCT015 FEW017CB BKN050 27/25 Q1009 NOSIG RMK CB/N/NW,M
VVTS,4/23/2021 12:30,106.6667,10.8167,80.6,77,88.83,250,6,0,29.8,M,4.97,M,SCT,FEW,BKN,M,1500,1700,5000,M,#NAME?,M,M,M,M,M,M,87.59,VVTS 231230Z 25006KT 8000 -RA SCT015 FEW017CB BKN050 27/25 Q1009 NOSIG RMK CB/N/NE,M
VVTS,4/23/2021 13:00,106.6667,10.8167,80.6,77,88.83,260,6,0,29.8,M,4.97,M,SCT,FEW,BKN,M,1500,1700,5000,M,#NAME?,M,M,M,M,M,M,87.59,VVTS 231300Z 26006KT 230V290 8000 -TSRA SCT015 FEW017CB BKN050 27/25 Q1009 RETS NOSIG,M
VVTS,4/23/2021 13:30,106.6667,10.8167,80.6,78.8,94.27,210,4,0,29.8,M,4.97,M,SCT,BKN,M,M,1700,5000,M,M,M,M,M,M,M,M,M,89.33,VVTS 231330Z 21004KT 8000 SCT017 BKN050 27/26 Q1009 NOSIG,M
VVTS,4/23/2021 14:00,106.6667,10.8167,80.6,78.8,94.27,230,4,0,29.8,M,4.97,M,SCT,BKN,M,M,1700,5000,M,M,M,M,M,M,M,M,M,89.33,VVTS 231400Z 23004KT 150V270 8000 SCT017 BKN050 27/26 Q1009 NOSIG,M
VVTS,4/23/2021 14:30,106.6667,10.8167,80.6,78.8,94.27,240,6,0,29.8,M,4.97,M,SCT,BKN,M,M,1700,5000,M,M,M,M,M,M,M,M,M,89.33,VVTS 231430Z 24006KT 8000 SCT017 BKN050 27/26 Q1009 NOSIG,M
VVTS,4/23/2021 15:00,106.6667,10.8167,80.6,78.8,94.27,240,5,0,29.8,M,4.97,M,SCT,BKN,M,M,1700,5000,M,M,M,M,M,M,M,M,M,89.33,VVTS 231500Z 24005KT 8000 SCT017 BKN050 27/26 Q1009 NOSIG,M
VVTS,4/23/2021 15:30,106.6667,10.8167,80.6,78.8,94.27,270,4,0,29.83,M,6.21,M,SCT,BKN,M,M,1700,5000,M,M,M,M,M,M,M,M,M,89.33,VVTS 231530Z 27004KT 240V320 9999 SCT017 BKN050 27/26 Q1010 NOSIG,M
VVTS,4/23/2021 16:00,106.6667,10.8167,80.6,78.8,94.27,M,1,0,29.8,M,6.21,M,SCT,BKN,M,M,1700,5000,M,M,M,M,M,M,M,M,M,89.33,VVTS 231600Z VRB01KT 9999 SCT017 BKN050 27/26 Q1009 NOSIG,M
VVTS,4/23/2021 16:30,106.6667,10.8167,80.6,78.8,94.27,M,1,0,29.8,M,6.21,M,SCT,BKN,M,M,1700,5000,M,M,M,M,M,M,M,M,M,89.33,VVTS 231630Z VRB01KT 9999 SCT017 BKN050 27/26 Q1009 NOSIG,M
VVTS,4/23/2021 17:00,106.6667,10.8167,78.8,78.8,100,M,1,0,29.8,M,6.21,M,SCT,BKN,M,M,1700,5000,M,M,M,M,M,M,M,M,M,78.8,VVTS 231700Z VRB01KT 9999 SCT017 BKN050 26/26 Q1009 NOSIG,M
VVTS,4/23/2021 17:30,106.6667,10.8167,80.6,78.8,94.27,0,0,0,29.77,M,6.21,M,SCT,BKN,M,M,1700,5000,M,M,M,M,M,M,M,M,M,89.33,VVTS 231730Z 00000KT 9999 SCT017 BKN050 27/26 Q1008 NOSIG,M
VVTS,4/23/2021 18:00,106.6667,10.8167,78.8,78.8,100,M,1,0,29.77,M,6.21,M,SCT,BKN,M,M,1700,5000,M,M,M,M,M,M,M,M,M,78.8,VVTS 231800Z VRB01KT 9999 SCT017 BKN050 26/26 Q1008 NOSIG,M
VVTS,4/23/2021 18:30,106.6667,10.8167,78.8,78.8,100,M,3,0,29.77,M,4.97,M,FEW,SCT,M,M,1700,5000,M,M,M,M,M,M,M,M,M,78.8,VVTS 231830Z VRB03KT 8000 FEW017 SCT050 26/26 Q1008 NOSIG,M
VVTS,4/23/2021 19:00,106.6667,10.8167,78.8,78.8,100,100,7,0,29.77,M,4.97,M,FEW,SCT,M,M,1700,5000,M,M,M,M,M,M,M,M,M,78.8,VVTS 231900Z 10007KT 8000 FEW017 SCT050 26/26 Q1008 NOSIG,M
VVTS,4/23/2021 19:30,106.6667,10.8167,78.8,78.8,100,M,3,0,29.74,M,4.97,M,FEW,SCT,M,M,1700,5000,M,M,M,M,M,M,M,M,M,78.8,VVTS 231930Z VRB03KT 8000 FEW017 SCT050 26/26 Q1007 NOSIG,M
VVTS,4/23/2021 20:00,106.6667,10.8167,80.6,78.8,94.27,190,5,0,29.74,M,4.97,M,FEW,SCT,M,M,1700,5000,M,M,M,M,M,M,M,M,M,89.33,VVTS 232000Z 19005KT 150V220 8000 FEW017 SCT050 27/26 Q1007 NOSIG,M
VVTS,4/23/2021 20:30,106.6667,10.8167,78.8,78.8,100,M,2,0,29.74,M,4.97,M,FEW,SCT,M,M,1700,5000,M,M,M,M,M,M,M,M,M,78.8,VVTS 232030Z VRB02KT 8000 FEW017 SCT050 26/26 Q1007 NOSIG,M
VVTS,4/23/2021 21:00,106.6667,10.8167,78.8,77,94.23,M,1,0,29.77,M,4.97,M,FEW,SCT,M,M,1700,5000,M,M,M,M,M,M,M,M,M,78.8,VVTS 232100Z VRB01KT 8000 FEW017 SCT050 26/25 Q1008 NOSIG,M
VVTS,4/23/2021 21:30,106.6667,10.8167,78.8,77,94.23,200,5,0,29.77,M,4.97,M,FEW,SCT,M,M,1700,5000,M,M,M,M,M,M,M,M,M,78.8,VVTS 232130Z 20005KT 8000 FEW017 SCT050 26/25 Q1008 NOSIG,M
VVTS,4/23/2021 22:00,106.6667,10.8167,78.8,77,94.23,190,4,0,29.77,M,4.97,M,FEW,SCT,M,M,1700,5000,M,M,M,M,M,M,M,M,M,78.8,VVTS 232200Z 19004KT 8000 FEW017 SCT050 26/25 Q1008 NOSIG,M
VVTS,4/23/2021 22:30,106.6667,10.8167,78.8,78.8,100,180,4,0,29.77,M,4.97,M,FEW,SCT,M,M,1700,5000,M,M,M,M,M,M,M,M,M,78.8,VVTS 232230Z 18004KT 150V210 8000 FEW017 SCT050 26/26 Q1008 NOSIG,M
VVTS,4/23/2021 23:00,106.6667,10.8167,78.8,77,94.23,200,4,0,29.8,M,6.21,M,FEW,M,M,M,1700,M,M,M,M,M,M,M,M,M,M,78.8,VVTS 232300Z 20004KT 140V240 9999 FEW017 26/25 Q1009 NOSIG,M
VVTS,4/23/2021 23:30,106.6667,10.8167,80.6,77,88.83,M,2,0,29.8,M,6.21,M,FEW,M,M,M,1700,M,M,M,M,M,M,M,M,M,M,87.59,VVTS 232330Z VRB02KT 9999 FEW017 27/25 Q1009 NOSIG,M
VVTS,4/24/2021 0:00,106.6667,10.8167,82.4,78.8,88.9,M,2,0,29.8,M,6.21,M,FEW,M,M,M,1700,M,M,M,M,M,M,M,M,M,M,92.76,VVTS 240000Z VRB02KT 9999 FEW017 28/26 Q1009 NOSIG,M
VVTS,4/24/2021 0:30,106.6667,10.8167,82.4,78.8,88.9,M,2,0,29.83,M,6.21,M,SCT,M,M,M,1700,M,M,M,M,M,M,M,M,M,M,92.76,VVTS 240030Z VRB02KT 9999 SCT017 28/26 Q1010 NOSIG,M
VVTS,4/24/2021 1:00,106.6667,10.8167,82.4,77,83.77,M,3,0,29.83,M,6.21,M,SCT,M,M,M,1700,M,M,M,M,M,M,M,M,M,M,90.85,VVTS 240100Z VRB03KT 9999 SCT017 28/25 Q1010 NOSIG,M
VVTS,4/24/2021 1:30,106.6667,10.8167,86,78.8,79.18,M,2,0,29.85,M,6.21,M,SCT,M,M,M,1700,M,M,M,M,M,M,M,M,M,M,99.38,VVTS 240130Z VRB02KT 9999 SCT017 30/26 Q1011 NOSIG,M
VVTS,4/24/2021 2:00,106.6667,10.8167,86,75.2,70.27,230,1,0,29.85,M,6.21,M,BKN,M,M,M,1700,M,M,M,M,M,M,M,M,M,M,95.19,VVTS 240200Z 23001KT 9999 BKN017 30/24 Q1011,M
VVTS,4/24/2021 2:30,106.6667,10.8167,87.8,78.8,74.77,230,4,0,29.83,M,6.21,M,BKN,M,M,M,1700,M,M,M,M,M,M,M,M,M,M,102.37,VVTS 240230Z 23004KT 190V290 9999 BKN017 31/26 Q1010 NOSIG,M
VVTS,4/24/2021 3:00,106.6667,10.8167,89.6,75.2,62.68,M,3,0,29.83,M,6.21,M,BKN,M,M,M,1700,M,M,M,M,M,M,M,M,M,M,100.23,VVTS 240300Z VRB03KT 9999 BKN017 32/24 Q1010 NOSIG,M
VVTS,4/24/2021 3:30,106.6667,10.8167,89.6,73.4,59.01,M,3,0,29.83,M,6.21,M,BKN,M,M,M,1700,M,M,M,M,M,M,M,M,M,M,98.2,VVTS 240330Z VRB03KT 9999 BKN017 32/23 Q1010 NOSIG,M
VVTS,4/24/2021 4:00,106.6667,10.8167,87.8,73.4,62.47,250,5,0,29.8,M,6.21,M,SCT,FEW,M,M,1700,2000,M,M,M,M,M,M,M,M,M,95.86,VVTS 240400Z 25005KT 200V270 9999 SCT017 FEW020TCU 31/23 Q1009 NOSIG RMK TCU OVER RWY,M
VVTS,4/24/2021 4:30,106.6667,10.8167,87.8,73.4,62.47,M,2,0,29.8,M,6.21,M,BKN,M,M,M,1700,M,M,M,M,M,M,M,M,M,M,95.86,VVTS 240430Z VRB02KT 9999 BKN017 31/23 Q1009 NOSIG,M
VVTS,4/24/2021 5:00,106.6667,10.8167,93.2,73.4,52.73,M,2,0,29.77,M,6.21,M,BKN,M,M,M,1700,M,M,M,M,M,M,M,M,M,M,102.82,VVTS 240500Z VRB02KT 9999 BKN017 34/23 Q1008 NOSIG,M
VVTS,4/24/2021 5:30,106.6667,10.8167,91.4,73.4,55.77,280,5,0,29.77,M,6.21,M,BKN,M,M,M,1700,M,M,M,M,M,M,M,M,M,M,100.52,VVTS 240530Z 28005KT 240V320 9999 BKN017 33/23 Q1008 NOSIG,M
VVTS,4/24/2021 6:00,106.6667,10.8167,93.2,77,59.47,280,5,0,29.74,M,6.21,M,BKN,M,M,M,1700,M,M,M,M,M,M,M,M,M,M,107.52,VVTS 240600Z 28005KT 240V320 9999 BKN017 34/25 Q1007 NOSIG,M
VVTS,4/24/2021 6:30,106.6667,10.8167,91.4,73.4,55.77,M,3,0,29.74,M,6.21,M,BKN,M,M,M,1700,M,M,M,M,M,M,M,M,M,M,100.52,VVTS 240630Z VRB03KT 9999 BKN017 33/23 Q1007 NOSIG,M
VVTS,4/24/2021 7:00,106.6667,10.8167,91.4,71.6,52.48,250,6,0,29.71,M,6.21,M,BKN,FEW,M,M,1700,2000,M,M,M,M,M,M,M,M,M,98.64,VVTS 240700Z 25006KT 200V310 9999 BKN017 FEW020TCU 33/22 Q1006 NOSIG RMK TCU/NE,M
VVTS,4/24/2021 7:30,106.6667,10.8167,93.2,71.6,49.62,M,2,0,29.71,M,6.21,M,BKN,FEW,M,M,1700,2000,M,M,M,M,M,M,M,M,M,100.88,VVTS 240730Z VRB02KT 9999 BKN017 FEW020TCU 34/22 Q1006 NOSIG RMK TCU/NE,M
VVTS,4/24/2021 8:00,106.6667,10.8167,91.4,71.6,52.48,M,2,0,29.71,M,6.21,M,BKN,M,M,M,1700,M,M,M,M,M,M,M,M,M,M,98.64,VVTS 240800Z VRB02KT 9999 BKN017 33/22 Q1006 NOSIG,M
VVTS,4/24/2021 8:30,106.6667,10.8167,91.4,75.2,59.24,210,6,0,29.68,M,6.21,M,SCT,FEW,M,M,1500,1700,M,M,M,M,M,M,M,M,M,102.65,VVTS 240830Z 21006KT 160V250 9999 SCT015 FEW017TCU 33/24 Q1005 NOSIG RMK TCU/SW,M
VVTS,4/24/2021 9:00,106.6667,10.8167,91.4,77,62.9,200,7,0,29.68,M,6.21,M,SCT,FEW,M,M,1500,1700,M,M,M,M,M,M,M,M,M,105.06,VVTS 240900Z 20007KT 9999 SCT015 FEW017TCU 33/25 Q1005 NOSIG RMK TCU OVER RWY,M
VVTS,4/24/2021 9:30,106.6667,10.8167,89.6,77,66.55,210,9,0,29.68,M,6.21,M,SCT,FEW,M,M,1500,1700,M,M,M,M,M,M,M,M,M,102.54,VVTS 240930Z 21009KT 9999 SCT015 FEW017CB 32/25 Q1005 NOSIG RMK CB/NE,M
VVTS,4/24/2021 10:00,106.6667,10.8167,87.8,78.8,74.77,190,9,0,29.71,M,6.21,M,SCT,FEW,M,M,1500,1700,M,M,M,M,M,M,M,M,M,102.37,VVTS 241000Z 19009KT 9999 SCT015 FEW017CB 31/26 Q1006 NOSIG RMK CB/NE,M
VVTS,4/24/2021 10:30,106.6667,10.8167,86,78.8,79.18,170,7,0,29.71,M,6.21,M,SCT,M,M,M,1700,M,M,M,M,M,M,M,M,M,M,99.38,VVTS 241030Z 17007KT 120V200 9999 SCT017 30/26 Q1006 NOSIG,M
VVTS,4/24/2021 11:00,106.6667,10.8167,86,78.8,79.18,140,6,0,29.74,M,6.21,M,SCT,FEW,M,M,1700,2000,M,M,M,M,M,M,M,M,M,99.38,VVTS 241100Z 14006KT 120V190 9999 SCT017 FEW020TCU 30/26 Q1007 NOSIG RMK TCU/N/NW,M
VVTS,4/24/2021 11:30,106.6667,10.8167,86,78.8,79.18,160,8,0,29.74,M,6.21,M,SCT,M,M,M,1700,M,M,M,M,M,M,M,M,M,M,99.38,VVTS 241130Z 16008KT 140V200 9999 SCT017 30/26 Q1007 NOSIG,M
VVTS,4/24/2021 12:00,106.6667,10.8167,84.2,77,79.04,170,11,0,29.77,M,6.21,M,SCT,FEW,M,M,1700,2000,M,M,M,M,M,M,M,M,M,94.16,VVTS 241200Z 17011KT 140V210 9999 SCT017 FEW020TCU 29/25 Q1008 NOSIG RMK TCU/NW,M
VVTS,4/24/2021 12:30,106.6667,10.8167,82.4,75.2,78.9,210,12,0,29.8,M,6.21,M,SCT,FEW,M,M,1700,2000,M,M,M,M,M,M,M,M,M,89.48,VVTS 241230Z 21012KT 9999 SCT017 FEW020TCU 28/24 Q1009 NOSIG RMK TCU/W,M
VVTS,4/24/2021 13:00,106.6667,10.8167,80.6,75.2,83.66,260,10,0,29.8,M,6.21,M,SCT,FEW,M,M,1700,2000,M,M,M,M,M,M,M,M,M,86.17,VVTS 241300Z 26010KT 230V300 9999 SCT017 FEW020TCU 27/24 Q1009 NOSIG RMK TCU/N,M
VVTS,4/24/2021 13:30,106.6667,10.8167,80.6,77,88.83,280,4,0,29.8,M,6.21,M,SCT,M,M,M,1700,M,M,M,M,M,M,M,M,M,M,87.59,VVTS 241330Z 28004KT 250V320 9999 SCT017 27/25 Q1009 NOSIG,M
VVTS,4/24/2021 14:00,106.6667,10.8167,80.6,77,88.83,M,2,0,29.8,M,6.21,M,SCT,M,M,M,1700,M,M,M,M,M,M,M,M,M,M,87.59,VVTS 241400Z VRB02KT 9999 SCT017 27/25 Q1009 NOSIG,M
VVTS,4/24/2021 14:30,106.6667,10.8167,80.6,77,88.83,M,3,0,29.8,M,6.21,M,SCT,M,M,M,1700,M,M,M,M,M,M,M,M,M,M,87.59,VVTS 241430Z VRB03KT 9999 SCT017 27/25 Q1009 NOSIG,M
VVTS,4/24/2021 15:00,106.6667,10.8167,80.6,77,88.83,240,3,0,29.83,M,6.21,M,SCT,M,M,M,1700,M,M,M,M,M,M,M,M,M,M,87.59,VVTS 241500Z 24003KT 9999 SCT017 27/25 Q1010 NOSIG,M
VVTS,4/24/2021 15:30,106.6667,10.8167,80.6,77,88.83,M,2,0,29.83,M,6.21,M,SCT,M,M,M,1700,M,M,M,M,M,M,M,M,M,M,87.59,VVTS 241530Z VRB02KT 9999 SCT017 27/25 Q1010 NOSIG,M
VVTS,4/24/2021 16:00,106.6667,10.8167,80.6,77,88.83,M,2,0,29.83,M,6.21,M,SCT,M,M,M,1700,M,M,M,M,M,M,M,M,M,M,87.59,VVTS 241600Z VRB02KT 9999 SCT017 27/25 Q1010 NOSIG,M
VVTS,4/24/2021 16:30,106.6667,10.8167,82.4,77,83.77,M,3,0,29.83,M,6.21,M,SCT,M,M,M,1700,M,M,M,M,M,M,M,M,M,M,90.85,VVTS 241630Z VRB03KT 9999 SCT017 28/25 Q1010 NOSIG,M
VVTS,4/24/2021 17:00,106.6667,10.8167,80.6,77,88.83,M,2,0,29.83,M,6.21,M,SCT,M,M,M,1700,M,M,M,M,M,M,M,M,M,M,87.59,VVTS 241700Z VRB02KT 9999 SCT017 27/25 Q1010 NOSIG,M
VVTS,4/24/2021 17:30,106.6667,10.8167,80.6,77,88.83,220,4,0,29.8,M,6.21,M,SCT,M,M,M,1700,M,M,M,M,M,M,M,M,M,M,87.59,VVTS 241730Z 22004KT 180V240 9999 SCT017 27/25 Q1009 NOSIG,M
VVTS,4/24/2021 18:00,106.6667,10.8167,80.6,77,88.83,M,3,0,29.8,M,6.21,M,SCT,M,M,M,1700,M,M,M,M,M,M,M,M,M,M,87.59,VVTS 241800Z VRB03KT 9999 SCT017 27/25 Q1009 NOSIG,M
VVTS,4/24/2021 18:30,106.6667,10.8167,80.6,77,88.83,M,3,0,29.8,M,6.21,M,FEW,SCT,M,M,1700,5000,M,M,M,M,M,M,M,M,M,87.59,VVTS 241830Z VRB03KT 9999 FEW017 SCT050 27/25 Q1009 NOSIG,M
VVTS,4/24/2021 19:00,106.6667,10.8167,80.6,77,88.83,M,3,0,29.77,M,6.21,M,FEW,SCT,M,M,1700,5000,M,M,M,M,M,M,M,M,M,87.59,VVTS 241900Z VRB03KT 9999 FEW017 SCT050 27/25 Q1008 NOSIG,M
VVTS,4/24/2021 19:30,106.6667,10.8167,78.8,77,94.23,M,3,0,29.77,M,6.21,M,FEW,SCT,M,M,1700,5000,M,M,M,M,M,M,M,M,M,78.8,VVTS 241930Z VRB03KT 9999 FEW017 SCT050 26/25 Q1008 NOSIG,M
VVTS,4/24/2021 20:00,106.6667,10.8167,78.8,77,94.23,M,2,0,29.77,M,6.21,M,FEW,SCT,M,M,1700,5000,M,M,M,M,M,M,M,M,M,78.8,VVTS 242000Z VRB02KT 9999 FEW017 SCT050 26/25 Q1008 NOSIG,M
VVTS,4/24/2021 20:30,106.6667,10.8167,78.8,77,94.23,M,1,0,29.77,M,6.21,M,FEW,SCT,M,M,1700,5000,M,M,M,M,M,M,M,M,M,78.8,VVTS 242030Z VRB01KT 9999 FEW017 SCT050 26/25 Q1008 NOSIG,M
VVTS,4/24/2021 21:00,106.6667,10.8167,78.8,77,94.23,0,0,0,29.77,M,6.21,M,FEW,SCT,M,M,1700,5000,M,M,M,M,M,M,M,M,M,78.8,VVTS 242100Z 00000KT 9999 FEW017 SCT050 26/25 Q1008 NOSIG,M
VVTS,4/24/2021 21:30,106.6667,10.8167,78.8,77,94.23,M,1,0,29.77,M,6.21,M,FEW,SCT,M,M,1700,5000,M,M,M,M,M,M,M,M,M,78.8,VVTS 242130Z VRB01KT 9999 FEW017 SCT050 26/25 Q1008 NOSIG,M
VVTS,4/24/2021 22:00,106.6667,10.8167,78.8,77,94.23,M,2,0,29.8,M,6.21,M,FEW,SCT,M,M,1700,5000,M,M,M,M,M,M,M,M,M,78.8,VVTS 242200Z VRB02KT 9999 FEW017 SCT050 26/25 Q1009 NOSIG,M
VVTS,4/24/2021 22:30,106.6667,10.8167,78.8,77,94.23,M,1,0,29.8,M,6.21,M,FEW,M,M,M,1700,M,M,M,M,M,M,M,M,M,M,78.8,VVTS 242230Z VRB01KT 9999 FEW017 26/25 Q1009 NOSIG,M
VVTS,4/24/2021 23:00,106.6667,10.8167,80.6,77,88.83,M,2,0,29.8,M,6.21,M,FEW,M,M,M,1700,M,M,M,M,M,M,M,M,M,M,87.59,VVTS 242300Z VRB02KT 9999 FEW017 27/25 Q1009 NOSIG,M
VVTS,4/24/2021 23:30,106.6667,10.8167,80.6,77,88.83,M,3,0,29.83,M,6.21,M,FEW,M,M,M,1700,M,M,M,M,M,M,M,M,M,M,87.59,VVTS 242330Z VRB03KT 9999 FEW017 27/25 Q1010 NOSIG,M
VVTS,4/25/2021 0:00,106.6667,10.8167,82.4,77,83.77,210,4,0,29.83,M,6.21,M,FEW,M,M,M,1700,M,M,M,M,M,M,M,M,M,M,90.85,VVTS 250000Z 21004KT 180V260 9999 FEW017 28/25 Q1010 NOSIG,M
VVTS,4/25/2021 0:30,106.6667,10.8167,82.4,77,83.77,220,4,0,29.85,M,6.21,M,FEW,M,M,M,1700,M,M,M,M,M,M,M,M,M,M,90.85,VVTS 250030Z 22004KT 180V260 9999 FEW017 28/25 Q1011 NOSIG,M
VVTS,4/25/2021 1:00,106.6667,10.8167,84.2,75.2,74.44,220,4,0,29.85,M,6.21,M,FEW,M,M,M,1700,M,M,M,M,M,M,M,M,M,M,92.45,VVTS 250100Z 22004KT 180V260 9999 FEW017 29/24 Q1011 NOSIG,M
VVTS,4/25/2021 1:30,106.6667,10.8167,86,77,74.61,230,5,0,29.85,M,6.21,M,FEW,M,M,M,2000,M,M,M,M,M,M,M,M,M,M,97.15,VVTS 250130Z 23005KT 190V300 9999 FEW020 30/25 Q1011 NOSIG,M
VVTS,4/25/2021 2:00,106.6667,10.8167,86,75.2,70.27,230,7,0,29.85,M,6.21,M,FEW,M,M,M,2000,M,M,M,M,M,M,M,M,M,M,95.19,VVTS 250200Z 23007KT 180V260 9999 FEW020 30/24 Q1011 NOSIG,M
VVTS,4/25/2021 2:30,106.6667,10.8167,87.8,77,70.45,240,6,0,29.85,M,6.21,M,FEW,M,M,M,2000,M,M,M,M,M,M,M,M,M,M,99.92,VVTS 250230Z 24006KT 200V290 9999 FEW020 31/25 Q1011 NOSIG,M
VVTS,4/25/2021 3:00,106.6667,10.8167,89.6,77,66.55,230,7,0,29.85,M,6.21,M,SCT,M,M,M,2000,M,M,M,M,M,M,M,M,M,M,102.54,VVTS 250300Z 23007KT 200V260 9999 SCT020 32/25 Q1011 NOSIG,M
VVTS,4/25/2021 3:30,106.6667,10.8167,89.6,77,66.55,230,7,0,29.85,M,6.21,M,BKN,M,M,M,2000,M,M,M,M,M,M,M,M,M,M,102.54,VVTS 250330Z 23007KT 190V280 9999 BKN020 32/25 Q1011 NOSIG,M
VVTS,4/25/2021 4:00,106.6667,10.8167,89.6,75.2,62.68,260,6,0,29.83,M,6.21,M,BKN,M,M,M,1700,M,M,M,M,M,M,M,M,M,M,100.23,VVTS 250400Z 26006KT 190V300 9999 BKN017 32/24 Q1010 NOSIG,M
VVTS,4/25/2021 4:30,106.6667,10.8167,91.4,75.2,59.24,240,6,0,29.83,M,6.21,M,BKN,M,M,M,1700,M,M,M,M,M,M,M,M,M,M,102.65,VVTS 250430Z 24006KT 200V310 9999 BKN017 33/24 Q1010 NOSIG,M
VVTS,4/25/2021 5:00,106.6667,10.8167,91.4,75.2,59.24,270,5,0,29.83,M,6.21,M,BKN,M,M,M,1700,M,M,M,M,M,M,M,M,M,M,102.65,VVTS 250500Z 27005KT 230V340 9999 BKN017 33/24 Q1010 NOSIG,M
VVTS,4/25/2021 5:30,106.6667,10.8167,91.4,75.2,59.24,220,6,0,29.8,M,6.21,M,BKN,M,M,M,1700,M,M,M,M,M,M,M,M,M,M,102.65,VVTS 250530Z 22006KT 190V260 9999 BKN017 33/24 Q1009 NOSIG,M
VVTS,4/25/2021 6:00,106.6667,10.8167,93.2,75.2,56.01,270,6,0,29.8,M,6.21,M,SCT,FEW,M,M,1700,2000,M,M,M,M,M,M,M,M,M,105.02,VVTS 250600Z 27006KT 9999 SCT017 FEW020TCU 34/24 Q1009 NOSIG RMK TCU OVER RWY,M
VVTS,4/25/2021 6:30,106.6667,10.8167,93.2,75.2,56.01,220,7,0,29.77,M,6.21,M,BKN,M,M,M,1700,M,M,M,M,M,M,M,M,M,M,105.02,VVTS 250630Z 22007KT 180V250 9999 BKN017 34/24 Q1008 NOSIG,M
VVTS,4/25/2021 7:00,106.6667,10.8167,93.2,71.6,49.62,270,7,0,29.77,M,6.21,M,BKN,M,M,M,1700,M,M,M,M,M,M,M,M,M,M,100.88,VVTS 250700Z 27007KT 220V300 9999 BKN017 34/22 Q1008 NOSIG,M
VVTS,4/25/2021 7:30,106.6667,10.8167,93.2,73.4,52.73,240,7,0,29.74,M,6.21,M,BKN,M,M,M,1700,M,M,M,M,M,M,M,M,M,M,102.82,VVTS 250730Z 24007KT 210V310 9999 BKN017 34/23 Q1007 NOSIG,M
VVTS,4/25/2021 8:00,106.6667,10.8167,93.2,69.8,46.67,260,6,0,29.74,M,6.21,M,BKN,M,M,M,1700,M,M,M,M,M,M,M,M,M,M,99.17,VVTS 250800Z 26006KT 210V310 9999 BKN017 34/21 Q1007 NOSIG,M
VVTS,4/25/2021 8:30,106.6667,10.8167,95,71.6,46.93,290,7,0,29.71,M,6.21,M,BKN,M,M,M,1700,M,M,M,M,M,M,M,M,M,M,103.13,VVTS 250830Z 29007KT 250V310 9999 BKN017 35/22 Q1006 NOSIG,M
VVTS,4/25/2021 9:00,106.6667,10.8167,93.2,71.6,49.62,270,8,0,29.71,M,6.21,M,BKN,M,M,M,1700,M,M,M,M,M,M,M,M,M,M,100.88,VVTS 250900Z 27008KT 240V300 9999 BKN017 34/22 Q1006 NOSIG,M
VVTS,4/25/2021 9:30,106.6667,10.8167,89.6,77,66.55,260,10,0,29.71,M,6.21,M,SCT,FEW,M,M,1700,2000,M,M,M,M,M,M,M,M,M,102.54,VVTS 250930Z 26010KT 9999 SCT017 FEW020TCU 32/25 Q1006 NOSIG RMK TCU/W,M
VVTS,4/25/2021 10:00,106.6667,10.8167,87.8,77,70.45,260,10,0,29.74,M,6.21,M,SCT,FEW,M,M,1700,2000,M,M,M,M,M,M,M,M,M,99.92,VVTS 251000Z 26010KT 9999 SCT017 FEW020TCU 31/25 Q1007 NOSIG RMK TCU/NE,M
VVTS,4/25/2021 10:30,106.6667,10.8167,87.8,73.4,62.47,220,7,0,29.77,M,6.21,M,SCT,FEW,M,M,1700,2000,M,M,M,M,M,M,M,M,M,95.86,VVTS 251030Z 22007KT 190V250 9999 SCT017 FEW020TCU 31/23 Q1008 NOSIG RMK TCU/E,M
VVTS,4/25/2021 11:00,106.6667,10.8167,86,71.6,62.25,230,12,0,29.77,M,6.21,M,SCT,FEW,M,M,1700,2000,M,M,M,M,M,M,M,M,M,91.92,VVTS 251100Z 23012KT 9999 SCT017 FEW020TCU 30/22 Q1008 NOSIG RMK TCU/NE/E,M
VVTS,4/25/2021 11:30,106.6667,10.8167,86,71.6,62.25,240,8,0,29.77,M,4.97,M,SCT,FEW,SCT,M,1700,2000,5000,M,TS,M,M,M,M,M,M,91.92,VVTS 251130Z 24008KT 8000 TS SCT017 FEW020CB SCT050 30/22 Q1008 NOSIG RMK CB OVER RWY,M
VVTS,4/25/2021 12:00,106.6667,10.8167,84.2,75.2,74.44,240,9,0,29.77,M,6.21,M,SCT,FEW,M,M,1700,2000,M,M,M,M,M,M,M,M,M,92.45,VVTS 251200Z 24009KT 9999 SCT017 FEW020CB 29/24 Q1008 RETS NOSIG RMK CB/NE,M
VVTS,4/25/2021 12:30,106.6667,10.8167,84.2,75.2,74.44,230,7,0,29.77,M,6.21,M,SCT,SCT,M,M,1700,5000,M,M,M,M,M,M,M,M,M,92.45,VVTS 251230Z 23007KT 200V260 9999 SCT017 SCT050 29/24 Q1008 NOSIG,M
VVTS,4/25/2021 13:00,106.6667,10.8167,84.2,75.2,74.44,230,6,0,29.8,M,6.21,M,SCT,SCT,M,M,1700,5000,M,M,M,M,M,M,M,M,M,92.45,VVTS 251300Z 23006KT 9999 SCT017 SCT050 29/24 Q1009 NOSIG,M
VVTS,4/25/2021 13:30,106.6667,10.8167,84.2,75.2,74.44,M,3,0,29.8,M,6.21,M,SCT,SCT,M,M,1700,5000,M,M,M,M,M,M,M,M,M,92.45,VVTS 251330Z VRB03KT 9999 SCT017 SCT050 29/24 Q1009 NOSIG,M
VVTS,4/25/2021 14:00,106.6667,10.8167,82.4,77,83.77,M,2,0,29.8,M,6.21,M,SCT,SCT,M,M,1700,5000,M,M,M,M,M,M,M,M,M,90.85,VVTS 251400Z VRB02KT 9999 SCT017 SCT050 28/25 Q1009 NOSIG,M
VVTS,4/25/2021 14:30,106.6667,10.8167,82.4,77,83.77,M,3,0,29.83,M,6.21,M,SCT,SCT,M,M,1700,5000,M,M,M,M,M,M,M,M,M,90.85,VVTS 251430Z VRB03KT 9999 SCT017 SCT050 28/25 Q1010 NOSIG,M
VVTS,4/25/2021 15:00,106.6667,10.8167,82.4,77,83.77,200,6,0,29.83,M,6.21,M,SCT,SCT,M,M,1700,5000,M,M,M,M,M,M,M,M,M,90.85,VVTS 251500Z 20006KT 150V220 9999 SCT017 SCT050 28/25 Q1010 NOSIG,M
VVTS,4/25/2021 15:30,106.6667,10.8167,82.4,77,83.77,210,7,0,29.83,M,6.21,M,SCT,SCT,M,M,1700,5000,M,M,M,M,M,M,M,M,M,90.85,VVTS 251530Z 21007KT 9999 SCT017 SCT050 28/25 Q1010 NOSIG,M
VVTS,4/25/2021 16:00,106.6667,10.8167,82.4,77,83.77,200,4,0,29.83,M,6.21,M,FEW,SCT,M,M,1700,5000,M,M,M,M,M,M,M,M,M,90.85,VVTS 251600Z 20004KT 160V240 9999 FEW017 SCT050 28/25 Q1010 NOSIG,M
VVTS,4/25/2021 16:30,106.6667,10.8167,82.4,75.2,78.9,M,3,0,29.83,M,6.21,M,FEW,SCT,M,M,1700,5000,M,M,M,M,M,M,M,M,M,89.48,VVTS 251630Z VRB03KT 9999 FEW017 SCT050 28/24 Q1010 NOSIG,M
VVTS,4/25/2021 17:00,106.6667,10.8167,82.4,75.2,78.9,210,5,0,29.8,M,6.21,M,FEW,SCT,M,M,1700,5000,M,M,M,M,M,M,M,M,M,89.48,VVTS 251700Z 21005KT 150V230 9999 FEW017 SCT050 28/24 Q1009 NOSIG,M
VVTS,4/25/2021 17:30,106.6667,10.8167,82.4,77,83.77,220,5,0,29.8,M,6.21,M,FEW,SCT,M,M,1700,5000,M,M,M,M,M,M,M,M,M,90.85,VVTS 251730Z 22005KT 9999 FEW017 SCT050 28/25 Q1009 NOSIG,M
VVTS,4/25/2021 18:00,106.6667,10.8167,80.6,77,88.83,210,5,0,29.83,M,6.21,M,FEW,SCT,M,M,1700,5000,M,M,M,M,M,M,M,M,M,87.59,VVTS 251800Z 21005KT 9999 FEW017 SCT050 27/25 Q1010 NOSIG,M
VVTS,4/25/2021 18:30,106.6667,10.8167,80.6,77,88.83,210,6,0,29.8,M,6.21,M,SCT,SCT,M,M,1700,5000,M,M,M,M,M,M,M,M,M,87.59,VVTS 251830Z 21006KT 9999 SCT017 SCT050 27/25 Q1009 NOSIG,M
VVTS,4/25/2021 19:00,106.6667,10.8167,80.6,77,88.83,230,6,0,29.8,M,6.21,M,SCT,SCT,M,M,1700,5000,M,M,M,M,M,M,M,M,M,87.59,VVTS 251900Z 23006KT 9999 SCT017 SCT050 27/25 Q1009 NOSIG,M
VVTS,4/25/2021 19:30,106.6667,10.8167,80.6,77,88.83,230,6,0,29.8,M,6.21,M,SCT,SCT,M,M,1700,5000,M,M,M,M,M,M,M,M,M,87.59,VVTS 251930Z 23006KT 9999 SCT017 SCT050 27/25 Q1009 NOSIG,M
VVTS,4/25/2021 20:00,106.6667,10.8167,80.6,77,88.83,220,5,0,29.8,M,6.21,M,SCT,SCT,M,M,1700,5000,M,M,M,M,M,M,M,M,M,87.59,VVTS 252000Z 22005KT 9999 SCT017 SCT050 27/25 Q1009 NOSIG,M
VVTS,4/25/2021 20:30,106.6667,10.8167,80.6,77,88.83,M,3,0,29.77,M,6.21,M,SCT,SCT,M,M,1700,5000,M,M,M,M,M,M,M,M,M,87.59,VVTS 252030Z VRB03KT 9999 SCT017 SCT050 27/25 Q1008 NOSIG,M
VVTS,4/25/2021 21:00,106.6667,10.8167,80.6,77,88.83,210,4,0,29.77,M,6.21,M,SCT,SCT,M,M,1700,5000,M,M,M,M,M,M,M,M,M,87.59,VVTS 252100Z 21004KT 9999 SCT017 SCT050 27/25 Q1008 NOSIG,M
VVTS,4/25/2021 21:30,106.6667,10.8167,80.6,77,88.83,M,1,0,29.8,M,6.21,M,SCT,M,M,M,1700,M,M,M,M,M,M,M,M,M,M,87.59,VVTS 252130Z VRB01KT 9999 SCT017 27/25 Q1009 NOSIG,M
VVTS,4/25/2021 22:00,106.6667,10.8167,80.6,77,88.83,M,1,0,29.8,M,6.21,M,SCT,M,M,M,1700,M,M,M,M,M,M,M,M,M,M,87.59,VVTS 252200Z VRB01KT 9999 SCT017 27/25 Q1009 NOSIG,M
VVTS,4/25/2021 22:30,106.6667,10.8167,78.8,77,94.23,220,3,0,29.8,M,6.21,M,FEW,SCT,M,M,1700,5000,M,M,M,M,M,M,M,M,M,78.8,VVTS 252230Z 22003KT 9999 FEW017 SCT050 26/25 Q1009 NOSIG,M
VVTS,4/25/2021 23:00,106.6667,10.8167,80.6,77,88.83,M,2,0,29.83,M,6.21,M,FEW,SCT,M,M,1700,5000,M,M,M,M,M,M,M,M,M,87.59,VVTS 252300Z VRB02KT 9999 FEW017 SCT050 27/25 Q1010 NOSIG,M
VVTS,4/25/2021 23:30,106.6667,10.8167,82.4,77,83.77,M,3,0,29.83,M,6.21,M,FEW,M,M,M,1700,M,M,M,M,M,M,M,M,M,M,90.85,VVTS 252330Z VRB03KT 9999 FEW017 28/25 Q1010 NOSIG,M
VVTS,4/26/2021 0:00,106.6667,10.8167,84.2,77,79.04,M,2,0,29.83,M,6.21,M,FEW,M,M,M,1700,M,M,M,M,M,M,M,M,M,M,94.16,VVTS 260000Z VRB02KT 9999 FEW017 29/25 Q1010 NOSIG,M
VVTS,4/26/2021 0:30,106.6667,10.8167,84.2,77,79.04,220,5,0,29.83,M,6.21,M,FEW,M,M,M,2000,M,M,M,M,M,M,M,M,M,M,94.16,VVTS 260030Z 22005KT 180V250 9999 FEW020 29/25 Q1010 NOSIG,M
VVTS,4/26/2021 1:00,106.6667,10.8167,86,78.8,79.18,220,5,0,29.83,M,6.21,M,SCT,M,M,M,2000,M,M,M,M,M,M,M,M,M,M,99.38,VVTS 260100Z 22005KT 190V250 9999 SCT020 30/26 Q1010 NOSIG,M
VVTS,4/26/2021 1:30,106.6667,10.8167,86,77,74.61,220,4,0,29.83,M,6.21,M,SCT,M,M,M,2000,M,M,M,M,M,M,M,M,M,M,97.15,VVTS 260130Z 22004KT 160V290 9999 SCT020 30/25 Q1010 NOSIG,M
VVTS,4/26/2021 2:00,106.6667,10.8167,87.8,78.8,74.77,M,3,0,29.83,M,6.21,M,SCT,M,M,M,2000,M,M,M,M,M,M,M,M,M,M,102.37,VVTS 260200Z VRB03KT 9999 SCT020 31/26 Q1010 NOSIG,M
VVTS,4/26/2021 2:30,106.6667,10.8167,87.8,77,70.45,M,3,0,29.85,M,6.21,M,SCT,M,M,M,2000,M,M,M,M,M,M,M,M,M,M,99.92,VVTS 260230Z VRB03KT 9999 SCT020 31/25 Q1011 NOSIG,M
VVTS,4/26/2021 3:00,106.6667,10.8167,89.6,77,66.55,M,3,0,29.83,M,6.21,M,BKN,M,M,M,2000,M,M,M,M,M,M,M,M,M,M,102.54,VVTS 260300Z VRB03KT 9999 BKN020 32/25 Q1010 NOSIG,M
VVTS,4/26/2021 3:30,106.6667,10.8167,89.6,75.2,62.68,M,2,0,29.83,M,6.21,M,BKN,M,M,M,2000,M,M,M,M,M,M,M,M,M,M,100.23,VVTS 260330Z VRB02KT 9999 BKN020 32/24 Q1010 NOSIG,M
VVTS,4/26/2021 4:00,106.6667,10.8167,91.4,75.2,59.24,M,2,0,29.8,M,6.21,M,BKN,M,M,M,2000,M,M,M,M,M,M,M,M,M,M,102.65,VVTS 260400Z VRB02KT 9999 BKN020 33/24 Q1009 NOSIG,M
VVTS,4/26/2021 4:30,106.6667,10.8167,91.4,73.4,55.77,240,6,0,29.8,M,6.21,M,BKN,M,M,M,1700,M,M,M,M,M,M,M,M,M,M,100.52,VVTS 260430Z 24006KT 200V310 9999 BKN017 33/23 Q1009 NOSIG,M
VVTS,4/26/2021 5:00,106.6667,10.8167,93.2,71.6,49.62,M,4,0,29.77,M,6.21,M,BKN,M,M,M,1700,M,M,M,M,M,M,M,M,M,M,100.88,VVTS 260500Z VRB04KT 9999 BKN017 34/22 Q1008 NOSIG,M
VVTS,4/26/2021 5:30,106.6667,10.8167,93.2,71.6,49.62,M,3,0,29.77,M,6.21,M,BKN,M,M,M,1700,M,M,M,M,M,M,M,M,M,M,100.88,VVTS 260530Z VRB03KT 9999 BKN017 34/22 Q1008 NOSIG,M
VVTS,4/26/2021 6:00,106.6667,10.8167,93.2,71.6,49.62,200,4,0,29.77,M,6.21,M,BKN,M,M,M,1700,M,M,M,M,M,M,M,M,M,M,100.88,VVTS 260600Z 20004KT 9999 BKN017 34/22 Q1008 NOSIG,M
VVTS,4/26/2021 6:30,106.6667,10.8167,95,73.4,49.87,200,5,0,29.74,M,6.21,M,BKN,M,M,M,1700,M,M,M,M,M,M,M,M,M,M,105.13,VVTS 260630Z 20005KT 140V270 9999 BKN017 35/23 Q1007 NOSIG,M
VVTS,4/26/2021 7:00,106.6667,10.8167,93.2,71.6,49.62,M,3,0,29.74,M,6.21,M,BKN,M,M,M,1700,M,M,M,M,M,M,M,M,M,M,100.88,VVTS 260700Z VRB03KT 9999 BKN017 34/22 Q1007 NOSIG,M
VVTS,4/26/2021 7:30,106.6667,10.8167,95,73.4,49.87,180,5,0,29.71,M,6.21,M,BKN,M,M,M,1700,M,M,M,M,M,M,M,M,M,M,105.13,VVTS 260730Z 18005KT 130V250 9999 BKN017 35/23 Q1006 NOSIG,M
VVTS,4/26/2021 8:00,106.6667,10.8167,95,75.2,52.98,240,5,0,29.71,M,6.21,M,BKN,M,M,M,1700,M,M,M,M,M,M,M,M,M,M,107.39,VVTS 260800Z 24005KT 210V280 9999 BKN017 35/24 Q1006 NOSIG,M
VVTS,4/26/2021 8:30,106.6667,10.8167,95,71.6,46.93,230,5,0,29.68,M,6.21,M,BKN,M,M,M,1700,M,M,M,M,M,M,M,M,M,M,103.13,VVTS 260830Z 23005KT 150V290 9999 BKN017 35/22 Q1005 NOSIG,M
VVTS,4/26/2021 9:00,106.6667,10.8167,93.2,77,59.47,190,8,0,29.68,M,6.21,M,SCT,M,M,M,1700,M,M,M,M,M,M,M,M,M,M,107.52,VVTS 260900Z 19008KT 140V230 9999 SCT017 34/25 Q1005 NOSIG,M
VVTS,4/26/2021 9:30,106.6667,10.8167,91.4,77,62.9,190,11,0,29.68,M,6.21,M,SCT,FEW,M,M,1700,2000,M,M,M,M,M,M,M,M,M,105.06,VVTS 260930Z 19011KT 150V210 9999 SCT017 FEW020TCU 33/25 Q1005 NOSIG,M
VVTS,4/26/2021 10:00,106.6667,10.8167,89.6,75.2,62.68,170,10,0,29.71,M,6.21,M,SCT,FEW,M,M,1700,2000,M,M,VCTS,M,M,M,M,M,M,100.23,VVTS 261000Z 17010KT 140V200 9999 VCTS SCT017 FEW020CB 32/24 Q1006 NOSIG RMK CB/N/SW/NW,M
VVTS,4/26/2021 10:30,106.6667,10.8167,89.6,75.2,62.68,180,10,0,29.71,M,6.21,M,SCT,FEW,M,M,1700,2000,M,M,M,M,M,M,M,M,M,100.23,VVTS 261030Z 18010KT 9999 SCT017 FEW020CB 32/24 Q1006 NOSIG RMK CB/N/NW,M
VVTS,4/26/2021 11:00,106.6667,10.8167,87.8,78.8,74.77,170,10,0,29.71,M,6.21,M,SCT,FEW,M,M,1700,2000,M,M,M,M,M,M,M,M,M,102.37,VVTS 261100Z 17010KT 9999 SCT017 FEW020CB 31/26 Q1006 NOSIG RMK CB/NE/NW,M
VVTS,4/26/2021 11:30,106.6667,10.8167,87.8,78.8,74.77,180,8,0,29.74,M,6.21,M,SCT,SCT,M,M,1700,5000,M,M,M,M,M,M,M,M,M,102.37,VVTS 261130Z 18008KT 150V210 9999 SCT017 SCT050 31/26 Q1007 NOSIG,M
VVTS,4/26/2021 12:00,106.6667,10.8167,86,78.8,79.18,160,9,0,29.74,M,6.21,M,FEW,SCT,M,M,1700,5000,M,M,M,M,M,M,M,M,M,99.38,VVTS 261200Z 16009KT 9999 FEW017 SCT050 30/26 Q1007 NOSIG,M
VVTS,4/26/2021 12:30,106.6667,10.8167,86,77,74.61,180,9,0,29.77,M,6.21,M,FEW,SCT,M,M,1700,5000,M,M,M,M,M,M,M,M,M,97.15,VVTS 261230Z 18009KT 9999 FEW017 SCT050 30/25 Q1008 NOSIG,M
VVTS,4/26/2021 13:00,106.6667,10.8167,86,77,74.61,160,9,0,29.8,M,6.21,M,FEW,SCT,M,M,1700,5000,M,M,M,M,M,M,M,M,M,97.15,VVTS 261300Z 16009KT 130V210 9999 FEW017 SCT050 30/25 Q1009 NOSIG,M
VVTS,4/26/2021 13:30,106.6667,10.8167,86,77,74.61,180,9,0,29.8,M,6.21,M,FEW,M,M,M,1700,M,M,M,M,M,M,M,M,M,M,97.15,VVTS 261330Z 18009KT 150V210 9999 FEW017 30/25 Q1009 NOSIG,M
VVTS,4/26/2021 14:00,106.6667,10.8167,84.2,78.8,83.88,170,9,0,29.8,M,6.21,M,FEW,M,M,M,1700,M,M,M,M,M,M,M,M,M,M,96.1,VVTS 261400Z 17009KT 140V200 9999 FEW017 29/26 Q1009 NOSIG,M
VVTS,4/26/2021 14:30,106.6667,10.8167,84.2,78.8,83.88,190,8,0,29.83,M,6.21,M,SCT,M,M,M,1700,M,M,M,M,M,M,M,M,M,M,96.1,VVTS 261430Z 19008KT 150V220 9999 SCT017 29/26 Q1010 NOSIG,M
VVTS,4/26/2021 15:00,106.6667,10.8167,84.2,78.8,83.88,190,8,0,29.83,M,6.21,M,SCT,M,M,M,1700,M,M,M,M,M,M,M,M,M,M,96.1,VVTS 261500Z 19008KT 150V220 9999 SCT017 29/26 Q1010 NOSIG,M
VVTS,4/26/2021 15:30,106.6667,10.8167,84.2,78.8,83.88,190,9,0,29.85,M,6.21,M,SCT,M,M,M,1700,M,M,M,M,M,M,M,M,M,M,96.1,VVTS 261530Z 19009KT 150V220 9999 SCT017 29/26 Q1011 NOSIG,M
VVTS,4/26/2021 16:00,106.6667,10.8167,84.2,78.8,83.88,200,9,0,29.83,M,6.21,M,SCT,M,M,M,1700,M,M,M,M,M,M,M,M,M,M,96.1,VVTS 261600Z 20009KT 150V230 9999 SCT017 29/26 Q1010 NOSIG,M
VVTS,4/26/2021 16:30,106.6667,10.8167,84.2,78.8,83.88,200,8,0,29.83,M,6.21,M,SCT,M,M,M,1700,M,M,M,M,M,M,M,M,M,M,96.1,VVTS 261630Z 20008KT 9999 SCT017 29/26 Q1010 NOSIG,M
VVTS,4/26/2021 17:00,106.6667,10.8167,84.2,78.8,83.88,190,6,0,29.83,M,6.21,M,SCT,M,M,M,1700,M,M,M,M,M,M,M,M,M,M,96.1,VVTS 261700Z 19006KT 160V220 9999 SCT017 29/26 Q1010 NOSIG,M
VVTS,4/26/2021 17:30,106.6667,10.8167,84.2,78.8,83.88,200,7,0,29.83,M,6.21,M,FEW,M,M,M,1700,M,M,M,M,M,M,M,M,M,M,96.1,VVTS 261730Z 20007KT 170V230 9999 FEW017 29/26 Q1010 NOSIG,M
VVTS,4/26/2021 18:00,106.6667,10.8167,82.4,78.8,88.9,210,6,0,29.83,M,6.21,M,FEW,M,M,M,1700,M,M,M,M,M,M,M,M,M,M,92.76,VVTS 261800Z 21006KT 180V250 9999 FEW017 28/26 Q1010 NOSIG,M
VVTS,4/26/2021 18:30,106.6667,10.8167,82.4,78.8,88.9,220,7,0,29.8,M,6.21,M,SCT,M,M,M,1700,M,M,M,M,M,M,M,M,M,M,92.76,VVTS 261830Z 22007KT 9999 SCT017 28/26 Q1009 NOSIG,M
VVTS,4/26/2021 19:00,106.6667,10.8167,82.4,78.8,88.9,200,6,0,29.8,M,6.21,M,SCT,M,M,M,1700,M,M,M,M,M,M,M,M,M,M,92.76,VVTS 261900Z 20006KT 170V230 9999 SCT017 28/26 Q1009 NOSIG,M
VVTS,4/26/2021 19:30,106.6667,10.8167,82.4,78.8,88.9,220,5,0,29.8,M,6.21,M,SCT,M,M,M,1700,M,M,M,M,M,M,M,M,M,M,92.76,VVTS 261930Z 22005KT 190V250 9999 SCT017 28/26 Q1009 NOSIG,M
VVTS,4/26/2021 20:00,106.6667,10.8167,82.4,78.8,88.9,220,6,0,29.8,M,6.21,M,SCT,M,M,M,1700,M,M,M,M,M,M,M,M,M,M,92.76,VVTS 262000Z 22006KT 9999 SCT017 28/26 Q1009 NOSIG,M
VVTS,4/26/2021 20:30,106.6667,10.8167,82.4,78.8,88.9,210,4,0,29.8,M,6.21,M,FEW,M,M,M,1700,M,M,M,M,M,M,M,M,M,M,92.76,VVTS 262030Z 21004KT 9999 FEW017 28/26 Q1009 NOSIG,M
VVTS,4/26/2021 21:00,106.6667,10.8167,82.4,78.8,88.9,220,6,0,29.8,M,6.21,M,SCT,M,M,M,1700,M,M,M,M,M,M,M,M,M,M,92.76,VVTS 262100Z 22006KT 9999 SCT017 28/26 Q1009 NOSIG,M
VVTS,4/26/2021 21:30,106.6667,10.8167,82.4,78.8,88.9,M,3,0,29.83,M,6.21,M,FEW,FEW,M,M,1500,1700,M,M,M,M,M,M,M,M,M,92.76,VVTS 262130Z VRB03KT 9999 FEW015 FEW017CB 28/26 Q1010 NOSIG RMK CB/NE,M
VVTS,4/26/2021 22:00,106.6667,10.8167,82.4,78.8,88.9,M,3,0,29.83,M,6.21,M,FEW,SCT,M,M,1700,5000,M,M,M,M,M,M,M,M,M,92.76,VVTS 262200Z VRB03KT 9999 FEW017 SCT050 28/26 Q1010 NOSIG,M
VVTS,4/26/2021 22:30,106.6667,10.8167,82.4,78.8,88.9,140,4,0,29.83,M,6.21,M,FEW,SCT,M,M,1700,5000,M,M,M,M,M,M,M,M,M,92.76,VVTS 262230Z 14004KT 120V180 9999 FEW017 SCT050 28/26 Q1010 NOSIG,M
VVTS,4/26/2021 23:00,106.6667,10.8167,82.4,78.8,88.9,100,7,0,29.83,M,4.97,M,SCT,FEW,BKN,M,1500,1700,5000,M,M,M,M,M,M,M,M,92.76,VVTS 262300Z 10007KT 8000 SCT015 FEW017TCU BKN050 28/26 Q1010 TEMPO FM2315 TL2355 5000 SHRA RMK TCU/N/SE,M
VVTS,4/26/2021 23:30,106.6667,10.8167,78.8,77,94.23,100,9,0,29.85,M,4.97,M,SCT,FEW,BKN,M,1500,1700,5000,M,M,M,M,M,M,M,M,78.8,VVTS 262330Z 10009KT 8000 SCT015 FEW017TCU BKN050 26/25 Q1011 TEMPO FM2340 TL0030 5000 SHRA RMK TCU/SE/NW,M
VVTS,4/27/2021 0:00,106.6667,10.8167,80.6,77,88.83,80,7,0,29.85,M,4.97,M,SCT,BKN,M,M,1500,5000,M,M,#NAME?,M,M,M,M,M,M,87.59,VVTS 270000Z 08007KT 8000 -SHRA SCT015 BKN050 27/25 Q1011 NOSIG,M
VVTS,4/27/2021 0:30,106.6667,10.8167,78.8,77,94.23,90,8,0,29.88,M,4.97,M,SCT,BKN,M,M,1500,5000,M,M,#NAME?,M,M,M,M,M,M,78.8,VVTS 270030Z 09008KT 8000 -RA SCT015 BKN050 26/25 Q1012 NOSIG,M
VVTS,4/27/2021 1:00,106.6667,10.8167,82.4,78.8,88.9,90,4,0,29.88,M,4.97,M,SCT,FEW,BKN,M,1500,1700,5000,M,M,M,M,M,M,M,M,92.76,VVTS 270100Z 09004KT 060V140 8000 SCT015 FEW017TCU BKN050 28/26 Q1012 NOSIG RMK TCU/S/SW,M
VVTS,4/27/2021 1:30,106.6667,10.8167,82.4,78.8,88.9,60,3,0,29.88,M,6.21,M,SCT,FEW,BKN,M,1500,1700,5000,M,M,M,M,M,M,M,M,92.76,VVTS 270130Z 06003KT 9999 SCT015 FEW017TCU BKN050 28/26 Q1012 NOSIG RMK TCU/SW/W,M
VVTS,4/27/2021 2:00,106.6667,10.8167,86,78.8,79.18,M,2,0,29.88,M,6.21,M,SCT,FEW,BKN,M,1500,1700,5000,M,M,M,M,M,M,M,M,99.38,VVTS 270200Z VRB02KT 9999 SCT015 FEW017CB BKN050 30/26 Q1012 NOSIG RMK CB/SW/W,M
VVTS,4/27/2021 2:30,106.6667,10.8167,86,77,74.61,M,1,0,29.88,M,6.21,M,SCT,BKN,M,M,1700,5000,M,M,M,M,M,M,M,M,M,97.15,VVTS 270230Z VRB01KT 9999 SCT017 BKN050 30/25 Q1012 NOSIG,M
VVTS,4/27/2021 3:00,106.6667,10.8167,87.8,78.8,74.77,M,3,0,29.88,M,4.97,M,SCT,BKN,M,M,1700,5000,M,M,M,M,M,M,M,M,M,102.37,VVTS 270300Z VRB03KT 8000 SCT017 BKN050 31/26 Q1012 NOSIG,M
VVTS,4/27/2021 3:30,106.6667,10.8167,87.8,78.8,74.77,M,2,0,29.88,M,4.97,M,SCT,BKN,M,M,1700,5000,M,M,M,M,M,M,M,M,M,102.37,VVTS 270330Z VRB02KT 8000 SCT017 BKN050 31/26 Q1012 NOSIG,M
VVTS,4/27/2021 4:00,106.6667,10.8167,89.6,78.8,70.63,M,2,0,29.85,M,4.97,M,SCT,BKN,M,M,1700,5000,M,M,M,M,M,M,M,M,M,105.15,VVTS 270400Z VRB02KT 8000 SCT017 BKN050 32/26 Q1011 NOSIG,M
VVTS,4/27/2021 4:30,106.6667,10.8167,86,77,74.61,210,7,0,29.85,M,4.97,M,SCT,FEW,M,M,1500,1700,M,M,#NAME?,M,M,M,M,M,M,97.15,VVTS 270430Z 21007KT 190V250 8000 -SHRA SCT015 FEW017TCU 30/25 Q1011 NOSIG RMK TCU OVER RWY,M
VVTS,4/27/2021 5:00,106.6667,10.8167,89.6,77,66.55,230,5,0,29.83,M,4.97,M,BKN,M,M,M,1700,M,M,M,M,M,M,M,M,M,M,102.54,VVTS 270500Z 23005KT 190V270 8000 BKN017 32/25 Q1010 NOSIG,M
VVTS,4/27/2021 5:30,106.6667,10.8167,89.6,77,66.55,250,5,0,29.83,M,6.21,M,BKN,M,M,M,1700,M,M,M,M,M,M,M,M,M,M,102.54,VVTS 270530Z 25005KT 210V290 9999 BKN017 32/25 Q1010 NOSIG,M
VVTS,4/27/2021 6:00,106.6667,10.8167,91.4,75.2,59.24,M,4,0,29.8,M,6.21,M,BKN,M,M,M,1700,M,M,M,M,M,M,M,M,M,M,102.65,VVTS 270600Z VRB04KT 9999 BKN017 33/24 Q1009 NOSIG,M
VVTS,4/27/2021 6:30,106.6667,10.8167,93.2,73.4,52.73,130,8,0,29.8,M,6.21,M,BKN,M,M,M,1700,M,M,M,M,M,M,M,M,M,M,102.82,VVTS 270630Z 13008KT 090V170 9999 BKN017 34/23 Q1009 NOSIG,M
VVTS,4/27/2021 7:00,106.6667,10.8167,93.2,71.6,49.62,130,5,0,29.77,M,6.21,M,BKN,M,M,M,1700,M,M,M,M,M,M,M,M,M,M,100.88,VVTS 270700Z 13005KT 090V210 9999 BKN017 34/22 Q1008 NOSIG,M
VVTS,4/27/2021 7:30,106.6667,10.8167,93.2,69.8,46.67,120,5,0,29.77,M,6.21,M,BKN,M,M,M,1700,M,M,M,M,M,M,M,M,M,M,99.17,VVTS 270730Z 12005KT 020V170 9999 BKN017 34/21 Q1008 NOSIG,M
VVTS,4/27/2021 8:00,106.6667,10.8167,91.4,69.8,49.36,150,5,0,29.74,M,6.21,M,SCT,M,M,M,1700,M,M,M,M,M,M,M,M,M,M,96.99,VVTS 270800Z 15005KT 070V230 9999 SCT017 33/21 Q1007 NOSIG,M
VVTS,4/27/2021 8:30,106.6667,10.8167,91.4,73.4,55.77,M,4,0,29.74,M,6.21,M,SCT,M,M,M,1700,M,M,M,M,M,M,M,M,M,M,100.52,VVTS 270830Z VRB04KT 9999 SCT017 33/23 Q1007 NOSIG,M
VVTS,4/27/2021 9:00,106.6667,10.8167,91.4,73.4,55.77,170,5,0,29.77,M,6.21,M,SCT,M,M,M,1700,M,M,M,M,M,M,M,M,M,M,100.52,VVTS 270900Z 17005KT 130V230 9999 SCT017 33/23 Q1008 NOSIG,M
VVTS,4/27/2021 9:30,106.6667,10.8167,91.4,69.8,49.36,150,6,0,29.77,M,6.21,M,SCT,FEW,M,M,1700,2000,M,M,M,M,M,M,M,M,M,96.99,VVTS 270930Z 15006KT 120V200 9999 SCT017 FEW020TCU 33/21 Q1008 NOSIG RMK TCU/SW,M
VVTS,4/27/2021 10:00,106.6667,10.8167,89.6,69.8,52.23,190,6,0,29.77,M,6.21,M,SCT,FEW,SCT,M,1700,2000,5000,M,M,M,M,M,M,M,M,94.85,VVTS 271000Z 19006KT 150V210 9999 SCT017 FEW020TCU SCT050 32/21 Q1008 NOSIG RMK TCU/SW/NW,M
VVTS,4/27/2021 10:30,106.6667,10.8167,89.6,73.4,59.01,180,5,0,29.8,M,6.21,M,SCT,FEW,SCT,M,1700,2000,5000,M,M,M,M,M,M,M,M,98.2,VVTS 271030Z 18005KT 140V210 9999 SCT017 FEW020TCU SCT050 32/23 Q1009 NOSIG RMK TCU/NW,M
VVTS,4/27/2021 11:00,106.6667,10.8167,87.8,75.2,66.35,160,8,0,29.8,M,6.21,M,SCT,SCT,M,M,1700,5000,M,M,M,M,M,M,M,M,M,97.76,VVTS 271100Z 16008KT 140V200 9999 SCT017 SCT050 31/24 Q1009 NOSIG,M
VVTS,4/27/2021 11:30,106.6667,10.8167,86,75.2,70.27,200,8,0,29.77,M,6.21,M,SCT,SCT,M,M,1700,5000,M,M,M,M,M,M,M,M,M,95.19,VVTS 271130Z 20008KT 9999 SCT017 SCT050 30/24 Q1008 NOSIG,M
VVTS,4/27/2021 12:00,106.6667,10.8167,86,77,74.61,190,7,0,29.8,M,6.21,M,SCT,SCT,M,M,1700,5000,M,M,M,M,M,M,M,M,M,97.15,VVTS 271200Z 19007KT 160V230 9999 SCT017 SCT050 30/25 Q1009 NOSIG,M
VVTS,4/27/2021 12:30,106.6667,10.8167,84.2,77,79.04,190,7,0,29.8,M,6.21,M,FEW,SCT,M,M,1700,5000,M,M,M,M,M,M,M,M,M,94.16,VVTS 271230Z 19007KT 150V220 9999 FEW017 SCT050 29/25 Q1009 NOSIG,M
VVTS,4/27/2021 13:00,106.6667,10.8167,86,77,74.61,180,4,0,29.83,M,6.21,M,FEW,SCT,M,M,1700,5000,M,M,M,M,M,M,M,M,M,97.15,VVTS 271300Z 18004KT 150V210 9999 FEW017 SCT050 30/25 Q1010 NOSIG,M
VVTS,4/27/2021 13:30,106.6667,10.8167,84.2,77,79.04,160,6,0,29.85,M,6.21,M,FEW,SCT,M,M,1700,5000,M,M,M,M,M,M,M,M,M,94.16,VVTS 271330Z 16006KT 120V190 9999 FEW017 SCT050 29/25 Q1011 NOSIG,M
VVTS,4/27/2021 14:00,106.6667,10.8167,84.2,78.8,83.88,170,4,0,29.85,M,6.21,M,FEW,SCT,M,M,1700,5000,M,M,M,M,M,M,M,M,M,96.1,VVTS 271400Z 17004KT 130V220 9999 FEW017 SCT050 29/26 Q1011 NOSIG,M
VVTS,4/27/2021 14:30,106.6667,10.8167,84.2,78.8,83.88,160,5,0,29.88,M,6.21,M,FEW,SCT,M,M,1700,5000,M,M,M,M,M,M,M,M,M,96.1,VVTS 271430Z 16005KT 130V190 9999 FEW017 SCT050 29/26 Q1012 NOSIG,M
VVTS,4/27/2021 15:00,106.6667,10.8167,84.2,78.8,83.88,160,5,0,29.88,M,6.21,M,FEW,SCT,M,M,1700,5000,M,M,M,M,M,M,M,M,M,96.1,VVTS 271500Z 16005KT 130V200 9999 FEW017 SCT050 29/26 Q1012 NOSIG,M
VVTS,4/27/2021 15:30,106.6667,10.8167,84.2,78.8,83.88,160,5,0,29.88,M,6.21,M,FEW,SCT,M,M,1700,5000,M,M,M,M,M,M,M,M,M,96.1,VVTS 271530Z 16005KT 130V200 9999 FEW017 SCT050 29/26 Q1012 NOSIG,M
VVTS,4/27/2021 16:00,106.6667,10.8167,84.2,78.8,83.88,160,5,0,29.88,M,6.21,M,FEW,SCT,M,M,1700,5000,M,M,M,M,M,M,M,M,M,96.1,VVTS 271600Z 16005KT 130V200 9999 FEW017 SCT050 29/26 Q1012 NOSIG,M
VVTS,4/27/2021 16:30,106.6667,10.8167,84.2,78.8,83.88,180,5,0,29.88,M,6.21,M,FEW,SCT,M,M,1700,5000,M,M,M,M,M,M,M,M,M,96.1,VVTS 271630Z 18005KT 130V200 9999 FEW017 SCT050 29/26 Q1012 NOSIG,M
VVTS,4/27/2021 17:00,106.6667,10.8167,84.2,78.8,83.88,180,5,0,29.88,M,6.21,M,FEW,SCT,M,M,1700,5000,M,M,M,M,M,M,M,M,M,96.1,VVTS 271700Z 18005KT 150V220 9999 FEW017 SCT050 29/26 Q1012 NOSIG,M
VVTS,4/27/2021 17:30,106.6667,10.8167,84.2,78.8,83.88,170,4,0,29.88,M,6.21,M,FEW,SCT,M,M,1700,5000,M,M,M,M,M,M,M,M,M,96.1,VVTS 271730Z 17004KT 150V210 9999 FEW017 SCT050 29/26 Q1012 NOSIG,M
VVTS,4/27/2021 18:00,106.6667,10.8167,82.4,78.8,88.9,M,2,0,29.85,M,6.21,M,FEW,SCT,M,M,1700,5000,M,M,M,M,M,M,M,M,M,92.76,VVTS 271800Z VRB02KT 9999 FEW017 SCT050 28/26 Q1011 NOSIG,M
VVTS,4/27/2021 18:30,106.6667,10.8167,82.4,78.8,88.9,M,2,0,29.85,M,4.97,M,FEW,M,M,M,1700,M,M,M,M,M,M,M,M,M,M,92.76,VVTS 271830Z VRB02KT 8000 FEW017 28/26 Q1011 NOSIG,M
VVTS,4/27/2021 19:00,106.6667,10.8167,82.4,78.8,88.9,M,3,0,29.85,M,4.97,M,FEW,M,M,M,1700,M,M,M,M,M,M,M,M,M,M,92.76,VVTS 271900Z VRB03KT 8000 FEW017 28/26 Q1011 NOSIG,M
VVTS,4/27/2021 19:30,106.6667,10.8167,82.4,78.8,88.9,M,3,0,29.85,M,4.97,M,SCT,FEW,M,M,1500,1700,M,M,M,M,M,M,M,M,M,92.76,VVTS 271930Z VRB03KT 8000 SCT015 FEW017TCU 28/26 Q1011 NOSIG RMK TCU/NW,M
VVTS,4/27/2021 20:00,106.6667,10.8167,82.4,78.8,88.9,M,1,0,29.85,M,4.97,M,SCT,M,M,M,1500,M,M,M,M,M,M,M,M,M,M,92.76,VVTS 272000Z VRB01KT 8000 SCT015 28/26 Q1011 NOSIG,M
VVTS,4/27/2021 20:30,106.6667,10.8167,82.4,78.8,88.9,M,2,0,29.85,M,4.97,M,SCT,M,M,M,1500,M,M,M,M,M,M,M,M,M,M,92.76,VVTS 272030Z VRB02KT 8000 SCT015 28/26 Q1011 NOSIG,M
VVTS,4/27/2021 21:00,106.6667,10.8167,82.4,78.8,88.9,350,1,0,29.85,M,4.97,M,SCT,M,M,M,1500,M,M,M,M,M,M,M,M,M,M,92.76,VVTS 272100Z 35001KT 8000 SCT015 28/26 Q1011 NOSIG,M
VVTS,4/27/2021 21:30,106.6667,10.8167,80.6,78.8,94.27,M,2,0,29.85,M,4.97,M,SCT,M,M,M,1500,M,M,M,M,M,M,M,M,M,M,89.33,VVTS 272130Z VRB02KT 8000 SCT015 27/26 Q1011 NOSIG,M
VVTS,4/27/2021 22:00,106.6667,10.8167,80.6,78.8,94.27,40,5,0,29.85,M,4.97,M,SCT,M,M,M,1500,M,M,M,M,M,M,M,M,M,M,89.33,VVTS 272200Z 04005KT 8000 SCT015 27/26 Q1011 NOSIG,M
VVTS,4/27/2021 22:30,106.6667,10.8167,80.6,78.8,94.27,50,4,0,29.85,M,3.11,M,SCT,M,M,M,1500,M,M,M,BR,M,M,M,M,M,M,89.33,VVTS 272230Z 05004KT 5000 BR SCT015 27/26 Q1011 NOSIG,M
VVTS,4/27/2021 23:00,106.6667,10.8167,80.6,78.8,94.27,60,5,0,29.85,M,2.49,M,SCT,M,M,M,1500,M,M,M,BR,M,M,M,M,M,M,89.33,VVTS 272300Z 06005KT 4000 BR SCT015 27/26 Q1011 NOSIG,M
VVTS,4/27/2021 23:30,106.6667,10.8167,82.4,78.8,88.9,70,5,0,29.88,M,4.35,M,FEW,SCT,M,M,1700,5000,M,M,M,M,M,M,M,M,M,92.76,VVTS 272330Z 07005KT 050V130 7000 FEW017 SCT050 28/26 Q1012 NOSIG,M
